{"type": "FeatureCollection", "metadata": {"source": "Survey of India (per src_agency attribute in the source data)", "hosted_via": "National Water Data Portal (NWDP), NWIC, Ministry of Jal Shakti -- https://nwdp.nwic.gov.in/", "access": "public, no login required", "crs_original": "EPSG:7755 (WGS 84 / India NSF LCC)", "fetch_date": "2026-08-02", "quality": "verified-official -- Survey of India source", "state": "Sikkim", "district": "Mangan", "processing": "reprojected to EPSG:4326, topology-preserving simplify (shared-arc, tolerance 0.0005 deg) so adjacent polygons never overlap/gap at shared borders, coords rounded 5dp, 0 feature(s) needed the per-feature fallback", "feature_count": 59}, "features": [{"id": "0", "type": "Feature", "properties": {"village_name": "R F", "vil_lgd": 999999, "district_name": "Mangan", "dist_lgd": 226, "subdistrict_name": "Mangan", "sdcode": 1548, "block_name": "", "block_lgd": null, "gp_name": "", "state_name": "SIKKIM", "state_lgd": 11, "population": 0, "households": 0}, "geometry": {"type": "Polygon", "coordinates": [[[88.65508000000001, 27.391710000000003], [88.65837, 27.3956], [88.65347000000001, 27.399030000000003], [88.64645, 27.405890000000003], [88.66132, 27.42376], [88.66402000000001, 27.427020000000002], [88.67718, 27.442960000000003], [88.68218, 27.45088], [88.68102, 27.45144], [88.67438000000001, 27.451130000000003], [88.66072000000001, 27.44536], [88.65008, 27.442300000000003], [88.64867000000001, 27.44573], [88.62588000000001, 27.464640000000003], [88.60957, 27.46357], [88.60532, 27.461730000000003], [88.59797, 27.45492], [88.58888, 27.446340000000003], [88.58526, 27.440970000000004], [88.57288000000001, 27.426270000000002], [88.56169000000001, 27.429570000000002], [88.55728, 27.430870000000002], [88.55087, 27.432840000000002], [88.54988, 27.43691], [88.54978000000001, 27.44667], [88.54966, 27.454250000000002], [88.55076000000001, 27.463960000000004], [88.55856000000001, 27.47021], [88.56844000000001, 27.468650000000004], [88.57297000000001, 27.469250000000002], [88.58026000000001, 27.48297], [88.57834000000001, 27.4856], [88.57503000000001, 27.488010000000003], [88.57179000000001, 27.496050000000004], [88.57185000000001, 27.499200000000002], [88.57323000000001, 27.50673], [88.58437, 27.51348], [88.59529, 27.52044], [88.60140000000001, 27.522080000000003], [88.60874000000001, 27.52203], [88.61398000000001, 27.523920000000004], [88.6174, 27.525830000000003], [88.62161, 27.526870000000002], [88.63062000000001, 27.52718], [88.63583000000001, 27.536530000000003], [88.63910000000001, 27.53674], [88.64068, 27.532510000000002], [88.64932, 27.525660000000002], [88.66196000000001, 27.521340000000002], [88.68553000000001, 27.519280000000002], [88.71897000000001, 27.511070000000004], [88.72759, 27.510530000000003], [88.75496000000001, 27.504780000000004], [88.76493, 27.511190000000003], [88.77466000000001, 27.51253], [88.78097000000001, 27.51574], [88.78680000000001, 27.530450000000002], [88.79095000000001, 27.531560000000002], [88.79193000000001, 27.530780000000004], [88.79278000000001, 27.529020000000003], [88.79221000000001, 27.526490000000003], [88.79279000000001, 27.52485], [88.79153000000001, 27.523470000000003], [88.78838, 27.522140000000004], [88.78903000000001, 27.51779], [88.79059000000001, 27.515800000000002], [88.78977, 27.513150000000003], [88.78752, 27.511480000000002], [88.78563000000001, 27.50654], [88.78693000000001, 27.503670000000003], [88.78332, 27.500400000000003], [88.78332, 27.495490000000004], [88.78657000000001, 27.488170000000004], [88.78290000000001, 27.482940000000003], [88.78062000000001, 27.4812], [88.78342, 27.477050000000002], [88.78372, 27.474750000000004], [88.77797000000001, 27.470360000000003], [88.77699000000001, 27.468460000000004], [88.77977000000001, 27.462030000000002], [88.78442000000001, 27.458650000000002], [88.78319, 27.456080000000004], [88.783, 27.453110000000002], [88.78363, 27.45202], [88.78254000000001, 27.44975], [88.78432000000001, 27.448420000000002], [88.78929000000001, 27.446810000000003], [88.79634, 27.447210000000002], [88.79450000000001, 27.44553], [88.79429, 27.44048], [88.79166000000001, 27.438430000000004], [88.79557000000001, 27.42826], [88.79641000000001, 27.42724], [88.79987000000001, 27.426440000000003], [88.80082, 27.422590000000003], [88.80904000000001, 27.4234], [88.80738000000001, 27.421350000000004], [88.80477, 27.41523], [88.79711, 27.416490000000003], [88.7873, 27.4217], [88.78242, 27.42284], [88.77308000000001, 27.416430000000002], [88.76700000000001, 27.413750000000004], [88.75351, 27.41476], [88.73127000000001, 27.41928], [88.71871, 27.416680000000003], [88.71219, 27.41214], [88.70018, 27.40173], [88.69487000000001, 27.39844], [88.68688, 27.398130000000002], [88.67927, 27.40002], [88.67514000000001, 27.400140000000004], [88.65910000000001, 27.39121], [88.65486000000001, 27.391420000000004], [88.65508000000001, 27.391710000000003]], [[88.63986000000001, 27.528380000000002], [88.64068, 27.527680000000004], [88.64162, 27.5285], [88.64067000000001, 27.52924], [88.63986000000001, 27.528380000000002]], [[88.59277, 27.492890000000003], [88.59364000000001, 27.493710000000004], [88.59302000000001, 27.49442], [88.59195000000001, 27.494010000000003], [88.59239000000001, 27.492960000000004], [88.59277, 27.492890000000003]], [[88.57798000000001, 27.445220000000003], [88.57876, 27.446040000000004], [88.57816000000001, 27.44675], [88.57703000000001, 27.446240000000003], [88.57757000000001, 27.44527], [88.57798000000001, 27.445220000000003]], [[88.66940000000001, 27.41064], [88.66885, 27.411440000000002], [88.66768, 27.410950000000003], [88.6684, 27.409940000000002], [88.66940000000001, 27.41064]]]}}, {"id": "1", "type": "Feature", "properties": {"village_name": "Tangyek", "vil_lgd": 260962, "district_name": "Mangan", "dist_lgd": 226, "subdistrict_name": "Mangan", "sdcode": 1548, "block_name": "Mangan", "block_lgd": 2.0, "gp_name": "Ramthang Tangyek", "state_name": "SIKKIM", "state_lgd": 11, "population": 686, "households": 146}, "geometry": {"type": "Polygon", "coordinates": [[[88.54335, 27.429820000000003], [88.55087, 27.432840000000002], [88.55728, 27.430870000000002], [88.52583000000001, 27.40313], [88.52488000000001, 27.39683], [88.52013000000001, 27.404380000000003], [88.51063, 27.420890000000004], [88.51155000000001, 27.438150000000004], [88.51416, 27.432260000000003], [88.52455, 27.431250000000002], [88.54335, 27.429820000000003]]]}}, {"id": "2", "type": "Feature", "properties": {"village_name": "Pakshep", "vil_lgd": 260937, "district_name": "Mangan", "dist_lgd": 226, "subdistrict_name": "Mangan", "sdcode": 1548, "block_name": "Mangan", "block_lgd": 2.0, "gp_name": "Singhik", "state_name": "SIKKIM", "state_lgd": 11, "population": 676, "households": 133}, "geometry": {"type": "Polygon", "coordinates": [[[88.57185000000001, 27.499200000000002], [88.56383000000001, 27.501630000000002], [88.55938, 27.504800000000003], [88.54767000000001, 27.509110000000003], [88.55332000000001, 27.51537], [88.55600000000001, 27.519460000000002], [88.56149, 27.517950000000003], [88.57323000000001, 27.50673], [88.57185000000001, 27.499200000000002]]]}}, {"id": "3", "type": "Feature", "properties": {"village_name": "Gnon Sangdong", "vil_lgd": 260949, "district_name": "Mangan", "dist_lgd": 226, "subdistrict_name": "Mangan", "sdcode": 1548, "block_name": "Mangan", "block_lgd": 2.0, "gp_name": "Hee Gyathang", "state_name": "SIKKIM", "state_lgd": 11, "population": 333, "households": 64}, "geometry": {"type": "Polygon", "coordinates": [[[88.51185000000001, 27.458930000000002], [88.51068000000001, 27.447530000000004], [88.50895000000001, 27.44433], [88.49989000000001, 27.444740000000003], [88.48828, 27.438650000000003], [88.49151, 27.448760000000004], [88.49162000000001, 27.466040000000003], [88.50286000000001, 27.46431], [88.51058, 27.46421], [88.51185000000001, 27.458930000000002]]]}}, {"id": "4", "type": "Feature", "properties": {"village_name": "Gor Taryang", "vil_lgd": 260948, "district_name": "Mangan", "dist_lgd": 226, "subdistrict_name": "Mangan", "sdcode": 1548, "block_name": "Mangan", "block_lgd": 2.0, "gp_name": "Lum Gor Sangtok", "state_name": "SIKKIM", "state_lgd": 11, "population": 861, "households": 165}, "geometry": {"type": "Polygon", "coordinates": [[[88.51063, 27.420890000000004], [88.50356000000001, 27.41953], [88.48468000000001, 27.41945], [88.48492, 27.42602], [88.48828, 27.438650000000003], [88.49989000000001, 27.444740000000003], [88.50895000000001, 27.44433], [88.51155000000001, 27.438150000000004], [88.51063, 27.420890000000004]]]}}, {"id": "5", "type": "Feature", "properties": {"village_name": "Sangtok Sagyong", "vil_lgd": 260947, "district_name": "Mangan", "dist_lgd": 226, "subdistrict_name": "Mangan", "sdcode": 1548, "block_name": "Mangan", "block_lgd": 2.0, "gp_name": "Lum Gor Sangtok", "state_name": "SIKKIM", "state_lgd": 11, "population": 639, "households": 128}, "geometry": {"type": "Polygon", "coordinates": [[[88.52488000000001, 27.39683], [88.52318000000001, 27.39712], [88.51968000000001, 27.39488], [88.48927, 27.406840000000003], [88.4843, 27.40764], [88.49159, 27.409760000000002], [88.49391000000001, 27.412270000000003], [88.48468000000001, 27.41945], [88.50356000000001, 27.41953], [88.51063, 27.420890000000004], [88.52013000000001, 27.404380000000003], [88.52488000000001, 27.39683]]]}}, {"id": "6", "type": "Feature", "properties": {"village_name": "U Mangshila", "vil_lgd": 260958, "district_name": "Mangan", "dist_lgd": 226, "subdistrict_name": "Mangan", "sdcode": 1548, "block_name": "Mangan", "block_lgd": 2.0, "gp_name": "Mangshila Tibuk", "state_name": "SIKKIM", "state_lgd": 11, "population": 1057, "households": 196}, "geometry": {"type": "Polygon", "coordinates": [[[88.52864000000001, 27.470070000000003], [88.54126000000001, 27.465840000000004], [88.55076000000001, 27.463960000000004], [88.54966, 27.454250000000002], [88.54151, 27.456940000000003], [88.52977000000001, 27.459010000000003], [88.51801, 27.459730000000004], [88.51185000000001, 27.458930000000002], [88.51058, 27.46421], [88.51808000000001, 27.47143], [88.5236, 27.470360000000003], [88.52864000000001, 27.470070000000003]]]}}, {"id": "7", "type": "Feature", "properties": {"village_name": "L Mangshila", "vil_lgd": 260959, "district_name": "Mangan", "dist_lgd": 226, "subdistrict_name": "Mangan", "sdcode": 1548, "block_name": "Mangan", "block_lgd": 2.0, "gp_name": "Mangshila Tibuk", "state_name": "SIKKIM", "state_lgd": 11, "population": 1172, "households": 216}, "geometry": {"type": "Polygon", "coordinates": [[[88.54978000000001, 27.44667], [88.54152, 27.44882], [88.53999, 27.450200000000002], [88.53369, 27.452980000000004], [88.53369, 27.44375], [88.51685, 27.44217], [88.51156, 27.442690000000002], [88.50895000000001, 27.44433], [88.51068000000001, 27.447530000000004], [88.51185000000001, 27.458930000000002], [88.51801, 27.459730000000004], [88.52977000000001, 27.459010000000003], [88.54151, 27.456940000000003], [88.54966, 27.454250000000002], [88.54978000000001, 27.44667]]]}}, {"id": "8", "type": "Feature", "properties": {"village_name": "Namok", "vil_lgd": 260960, "district_name": "Mangan", "dist_lgd": 226, "subdistrict_name": "Mangan", "sdcode": 1548, "block_name": "Mangan", "block_lgd": 2.0, "gp_name": "Namok Swayam", "state_name": "SIKKIM", "state_lgd": 11, "population": 588, "households": 132}, "geometry": {"type": "Polygon", "coordinates": [[[88.54152, 27.44882], [88.54978000000001, 27.44667], [88.54988, 27.43691], [88.54293000000001, 27.43878], [88.53664, 27.442020000000003], [88.53369, 27.44375], [88.53369, 27.452980000000004], [88.53999, 27.450200000000002], [88.54152, 27.44882]]]}}, {"id": "9", "type": "Feature", "properties": {"village_name": "Swayem", "vil_lgd": 260961, "district_name": "Mangan", "dist_lgd": 226, "subdistrict_name": "Mangan", "sdcode": 1548, "block_name": "Mangan", "block_lgd": 2.0, "gp_name": "Namok Swayam", "state_name": "SIKKIM", "state_lgd": 11, "population": 854, "households": 163}, "geometry": {"type": "Polygon", "coordinates": [[[88.54293000000001, 27.43878], [88.54988, 27.43691], [88.55087, 27.432840000000002], [88.54335, 27.429820000000003], [88.52455, 27.431250000000002], [88.51416, 27.432260000000003], [88.51155000000001, 27.438150000000004], [88.50895000000001, 27.44433], [88.51156, 27.442690000000002], [88.51685, 27.44217], [88.53369, 27.44375], [88.53664, 27.442020000000003], [88.54293000000001, 27.43878]]]}}, {"id": "10", "type": "Feature", "properties": {"village_name": "Ramthang", "vil_lgd": 260963, "district_name": "Mangan", "dist_lgd": 226, "subdistrict_name": "Mangan", "sdcode": 1548, "block_name": "Mangan", "block_lgd": 2.0, "gp_name": "Ramthang Tangyek", "state_name": "SIKKIM", "state_lgd": 11, "population": 438, "households": 99}, "geometry": {"type": "Polygon", "coordinates": [[[88.55271, 27.399990000000003], [88.55178000000001, 27.398880000000002], [88.55109, 27.392920000000004], [88.53375000000001, 27.396620000000002], [88.52893, 27.396130000000003], [88.52488000000001, 27.39683], [88.52583000000001, 27.40313], [88.55728, 27.430870000000002], [88.56169000000001, 27.429570000000002], [88.55271, 27.399990000000003]]]}}, {"id": "11", "type": "Feature", "properties": {"village_name": "Kazor", "vil_lgd": 260938, "district_name": "Mangan", "dist_lgd": 226, "subdistrict_name": "Mangan", "sdcode": 1548, "block_name": "Mangan", "block_lgd": 2.0, "gp_name": "Singhik", "state_name": "SIKKIM", "state_lgd": 11, "population": 642, "households": 145}, "geometry": {"type": "Polygon", "coordinates": [[[88.54767000000001, 27.509110000000003], [88.5416, 27.510690000000004], [88.53046, 27.516650000000002], [88.53190000000001, 27.520410000000002], [88.53602000000001, 27.526210000000003], [88.54651000000001, 27.527490000000004], [88.55600000000001, 27.519460000000002], [88.55332000000001, 27.51537], [88.54767000000001, 27.509110000000003]]]}}, {"id": "12", "type": "Feature", "properties": {"village_name": "Tumlong", "vil_lgd": 260965, "district_name": "Mangan", "dist_lgd": 226, "subdistrict_name": "Mangan", "sdcode": 1548, "block_name": "Mangan", "block_lgd": 2.0, "gp_name": "Rongong Tumlong", "state_name": "SIKKIM", "state_lgd": 11, "population": 425, "households": 79}, "geometry": {"type": "Polygon", "coordinates": [[[88.57464, 27.423250000000003], [88.57523, 27.419410000000003], [88.57681000000001, 27.4124], [88.57684, 27.40586], [88.57808000000001, 27.402240000000003], [88.57727000000001, 27.39966], [88.578, 27.394160000000003], [88.5548, 27.392360000000004], [88.55109, 27.392920000000004], [88.55178000000001, 27.398880000000002], [88.55271, 27.399990000000003], [88.56169000000001, 27.429570000000002], [88.57288000000001, 27.426270000000002], [88.57464, 27.423250000000003]]]}}, {"id": "13", "type": "Feature", "properties": {"village_name": "Rongong", "vil_lgd": 260964, "district_name": "Mangan", "dist_lgd": 226, "subdistrict_name": "Mangan", "sdcode": 1548, "block_name": "Mangan", "block_lgd": 2.0, "gp_name": "Rongong Tumlong", "state_name": "SIKKIM", "state_lgd": 11, "population": 646, "households": 137}, "geometry": {"type": "Polygon", "coordinates": [[[88.59999, 27.42301], [88.58210000000001, 27.4201], [88.57781000000001, 27.41869], [88.57523, 27.419410000000003], [88.57464, 27.423250000000003], [88.57288000000001, 27.426270000000002], [88.58526, 27.440970000000004], [88.58888, 27.446340000000003], [88.59323, 27.438200000000002], [88.59656000000001, 27.43579], [88.59997000000001, 27.430560000000003], [88.60082000000001, 27.426940000000002], [88.60313000000001, 27.42556], [88.59999, 27.42301]]]}}, {"id": "14", "type": "Feature", "properties": {"village_name": "Chawang", "vil_lgd": 260967, "district_name": "Mangan", "dist_lgd": 226, "subdistrict_name": "Mangan", "sdcode": 1548, "block_name": "Mangan", "block_lgd": 2.0, "gp_name": "Men Rongong", "state_name": "SIKKIM", "state_lgd": 11, "population": 579, "households": 130}, "geometry": {"type": "Polygon", "coordinates": [[[88.61281000000001, 27.44142], [88.61110000000001, 27.439760000000003], [88.60908, 27.434490000000004], [88.60313000000001, 27.42556], [88.60082000000001, 27.426940000000002], [88.59997000000001, 27.430560000000003], [88.59656000000001, 27.43579], [88.59323, 27.438200000000002], [88.58888, 27.446340000000003], [88.59797, 27.45492], [88.61232000000001, 27.44346], [88.61281000000001, 27.44142]]]}}, {"id": "15", "type": "Feature", "properties": {"village_name": "Phamtam", "vil_lgd": 260968, "district_name": "Mangan", "dist_lgd": 226, "subdistrict_name": "Mangan", "sdcode": 1548, "block_name": "Mangan", "block_lgd": 2.0, "gp_name": "Men Rongong", "state_name": "SIKKIM", "state_lgd": 11, "population": 248, "households": 49}, "geometry": {"type": "Polygon", "coordinates": [[[88.61414, 27.44422], [88.61232000000001, 27.44346], [88.59797, 27.45492], [88.60532, 27.461730000000003], [88.60957, 27.46357], [88.62588000000001, 27.464640000000003], [88.62335, 27.462570000000003], [88.62305, 27.459650000000003], [88.62133, 27.457530000000002], [88.62115000000001, 27.453930000000003], [88.61733000000001, 27.449250000000003], [88.61414, 27.44422]]]}}, {"id": "16", "type": "Feature", "properties": {"village_name": "Men Rongong", "vil_lgd": 260969, "district_name": "Mangan", "dist_lgd": 226, "subdistrict_name": "Mangan", "sdcode": 1548, "block_name": "Mangan", "block_lgd": 2.0, "gp_name": "Men Rongong", "state_name": "SIKKIM", "state_lgd": 11, "population": 412, "households": 106}, "geometry": {"type": "Polygon", "coordinates": [[[88.64533, 27.4368], [88.63215000000001, 27.437880000000003], [88.62297000000001, 27.437790000000003], [88.62066, 27.43906], [88.61733000000001, 27.449250000000003], [88.62115000000001, 27.453930000000003], [88.62133, 27.457530000000002], [88.62305, 27.459650000000003], [88.62335, 27.462570000000003], [88.62588000000001, 27.464640000000003], [88.64867000000001, 27.44573], [88.65008, 27.442300000000003], [88.64533, 27.4368]]]}}, {"id": "17", "type": "Feature", "properties": {"village_name": "Labi", "vil_lgd": 260971, "district_name": "Mangan", "dist_lgd": 226, "subdistrict_name": "Mangan", "sdcode": 1548, "block_name": "Mangan", "block_lgd": 2.0, "gp_name": "Phensong", "state_name": "SIKKIM", "state_lgd": 11, "population": 626, "households": 113}, "geometry": {"type": "Polygon", "coordinates": [[[88.64540000000001, 27.424740000000003], [88.63998000000001, 27.425490000000003], [88.64014, 27.427180000000003], [88.64533, 27.4368], [88.65008, 27.442300000000003], [88.66072000000001, 27.44536], [88.67438000000001, 27.451130000000003], [88.68102, 27.45144], [88.68218, 27.45088], [88.67718, 27.442960000000003], [88.66402000000001, 27.427020000000002], [88.64540000000001, 27.424740000000003]]]}}, {"id": "18", "type": "Feature", "properties": {"village_name": "Paney Phensang", "vil_lgd": 260970, "district_name": "Mangan", "dist_lgd": 226, "subdistrict_name": "Mangan", "sdcode": 1548, "block_name": "Mangan", "block_lgd": 2.0, "gp_name": "Phensong", "state_name": "SIKKIM", "state_lgd": 11, "population": 682, "households": 134}, "geometry": {"type": "Polygon", "coordinates": [[[88.62297000000001, 27.437790000000003], [88.63215000000001, 27.437880000000003], [88.64533, 27.4368], [88.64014, 27.427180000000003], [88.63998000000001, 27.425490000000003], [88.62229, 27.41842], [88.61892, 27.41824], [88.61217, 27.416190000000004], [88.60506000000001, 27.41674], [88.60458000000001, 27.419230000000002], [88.60313000000001, 27.42556], [88.60908, 27.434490000000004], [88.61110000000001, 27.439760000000003], [88.61281000000001, 27.44142], [88.61232000000001, 27.44346], [88.61414, 27.44422], [88.61733000000001, 27.449250000000003], [88.62066, 27.43906], [88.62297000000001, 27.437790000000003]]]}}, {"id": "19", "type": "Feature", "properties": {"village_name": "Phodong", "vil_lgd": 260966, "district_name": "Mangan", "dist_lgd": 226, "subdistrict_name": "Mangan", "sdcode": 1548, "block_name": "Mangan", "block_lgd": 2.0, "gp_name": "Rongong Tumlong", "state_name": "SIKKIM", "state_lgd": 11, "population": 821, "households": 142}, "geometry": {"type": "Polygon", "coordinates": [[[88.60506000000001, 27.41674], [88.60279000000001, 27.411700000000003], [88.59835000000001, 27.408610000000003], [88.59562000000001, 27.40808], [88.59234000000001, 27.40464], [88.5926, 27.393780000000003], [88.59069000000001, 27.396310000000003], [88.578, 27.394160000000003], [88.57727000000001, 27.39966], [88.57808000000001, 27.402240000000003], [88.57684, 27.40586], [88.57681000000001, 27.4124], [88.57523, 27.419410000000003], [88.57781000000001, 27.41869], [88.58210000000001, 27.4201], [88.59999, 27.42301], [88.60313000000001, 27.42556], [88.60458000000001, 27.419230000000002], [88.60506000000001, 27.41674]]]}}, {"id": "20", "type": "Feature", "properties": {"village_name": "Kabi", "vil_lgd": 260972, "district_name": "Mangan", "dist_lgd": 226, "subdistrict_name": "Mangan", "sdcode": 1548, "block_name": "Mangan", "block_lgd": 2.0, "gp_name": "Kabi Tingda", "state_name": "SIKKIM", "state_lgd": 11, "population": 1590, "households": 323}, "geometry": {"type": "Polygon", "coordinates": [[[88.64645, 27.405890000000003], [88.64575, 27.405130000000003], [88.62179, 27.402540000000002], [88.61983000000001, 27.401210000000003], [88.60777, 27.3989], [88.60387, 27.39749], [88.59519, 27.39196], [88.59367, 27.392370000000003], [88.5926, 27.393780000000003], [88.59234000000001, 27.40464], [88.59562000000001, 27.40808], [88.59835000000001, 27.408610000000003], [88.60279000000001, 27.411700000000003], [88.60506000000001, 27.41674], [88.61217, 27.416190000000004], [88.61892, 27.41824], [88.62229, 27.41842], [88.63998000000001, 27.425490000000003], [88.64540000000001, 27.424740000000003], [88.66402000000001, 27.427020000000002], [88.66132, 27.42376], [88.64645, 27.405890000000003]]]}}, {"id": "21", "type": "Feature", "properties": {"village_name": "Tingda", "vil_lgd": 260973, "district_name": "Mangan", "dist_lgd": 226, "subdistrict_name": "Mangan", "sdcode": 1548, "block_name": "Mangan", "block_lgd": 2.0, "gp_name": "Kabi Tingda", "state_name": "SIKKIM", "state_lgd": 11, "population": 487, "households": 78}, "geometry": {"type": "Polygon", "coordinates": [[[88.65486000000001, 27.391420000000004], [88.64898000000001, 27.391880000000004], [88.64081, 27.390900000000002], [88.63747000000001, 27.388540000000003], [88.62676, 27.387290000000004], [88.61575, 27.38775], [88.59519, 27.39196], [88.60387, 27.39749], [88.60777, 27.3989], [88.61983000000001, 27.401210000000003], [88.62179, 27.402540000000002], [88.64575, 27.405130000000003], [88.64645, 27.405890000000003], [88.65347000000001, 27.399030000000003], [88.65837, 27.3956], [88.65508000000001, 27.391710000000003], [88.65486000000001, 27.391420000000004]]]}}, {"id": "22", "type": "Feature", "properties": {"village_name": "Lum", "vil_lgd": 260946, "district_name": "Mangan", "dist_lgd": 226, "subdistrict_name": "Mangan", "sdcode": 1548, "block_name": "Mangan", "block_lgd": 2.0, "gp_name": "Lum Gor Sangtok", "state_name": "SIKKIM", "state_lgd": 11, "population": 331, "households": 53}, "geometry": {"type": "Polygon", "coordinates": [[[88.51375, 27.3895], [88.50124000000001, 27.38249], [88.49118000000001, 27.378660000000004], [88.48597000000001, 27.37835], [88.47848, 27.381040000000002], [88.47042, 27.385540000000002], [88.46390000000001, 27.38745], [88.45367, 27.388530000000003], [88.44346, 27.393500000000003], [88.43547000000001, 27.401020000000003], [88.45415000000001, 27.4018], [88.4843, 27.40764], [88.48927, 27.406840000000003], [88.51968000000001, 27.39488], [88.51375, 27.3895]]]}}, {"id": "23", "type": "Feature", "properties": {"village_name": "Lingdem", "vil_lgd": 260942, "district_name": "Mangan", "dist_lgd": 226, "subdistrict_name": "Mangan", "sdcode": 1548, "block_name": "Mangan", "block_lgd": 2.0, "gp_name": "Lingthem Lingdem", "state_name": "SIKKIM", "state_lgd": 11, "population": 392, "households": 98}, "geometry": {"type": "Polygon", "coordinates": [[[88.48019000000001, 27.54135], [88.47722, 27.531760000000002], [88.47679000000001, 27.525940000000002], [88.47136, 27.526750000000003], [88.46367000000001, 27.530330000000003], [88.44324, 27.54202], [88.43268, 27.550890000000003], [88.43203000000001, 27.565170000000002], [88.44446, 27.562050000000003], [88.46109000000001, 27.55468], [88.48019000000001, 27.54135]]]}}, {"id": "24", "type": "Feature", "properties": {"village_name": "Tingvong", "vil_lgd": 260943, "district_name": "Mangan", "dist_lgd": 226, "subdistrict_name": "Mangan", "sdcode": 1548, "block_name": "Mangan", "block_lgd": 2.0, "gp_name": "Tingvong", "state_name": "SIKKIM", "state_lgd": 11, "population": 992, "households": 182}, "geometry": {"type": "Polygon", "coordinates": [[[88.52804, 27.532750000000004], [88.50291000000001, 27.53865], [88.48019000000001, 27.54135], [88.46109000000001, 27.55468], [88.46812000000001, 27.57287], [88.49487, 27.565820000000002], [88.50329, 27.56436], [88.50952000000001, 27.561880000000002], [88.52367000000001, 27.55946], [88.54051000000001, 27.55544], [88.5399, 27.547380000000004], [88.52804, 27.532750000000004]]]}}, {"id": "25", "type": "Feature", "properties": {"village_name": "Lingthem", "vil_lgd": 260941, "district_name": "Mangan", "dist_lgd": 226, "subdistrict_name": "Mangan", "sdcode": 1548, "block_name": "Mangan", "block_lgd": 2.0, "gp_name": "Lingthem Lingdem", "state_name": "SIKKIM", "state_lgd": 11, "population": 1226, "households": 238}, "geometry": {"type": "Polygon", "coordinates": [[[88.53602000000001, 27.526210000000003], [88.53190000000001, 27.520410000000002], [88.51781000000001, 27.522350000000003], [88.50173000000001, 27.522060000000003], [88.48865, 27.52342], [88.47679000000001, 27.525940000000002], [88.47722, 27.531760000000002], [88.48019000000001, 27.54135], [88.50291000000001, 27.53865], [88.52804, 27.532750000000004], [88.53602000000001, 27.526210000000003]]]}}, {"id": "26", "type": "Feature", "properties": {"village_name": "Lingdong", "vil_lgd": 260952, "district_name": "Mangan", "dist_lgd": 226, "subdistrict_name": "Mangan", "sdcode": 1548, "block_name": "Mangan", "block_lgd": 2.0, "gp_name": "Barfok Lingdong", "state_name": "SIKKIM", "state_lgd": 11, "population": 667, "households": 119}, "geometry": {"type": "Polygon", "coordinates": [[[88.53046, 27.516650000000002], [88.52554, 27.50326], [88.52385000000001, 27.49828], [88.51150000000001, 27.504590000000004], [88.49786, 27.50655], [88.49952, 27.51648], [88.50173000000001, 27.522060000000003], [88.51781000000001, 27.522350000000003], [88.53190000000001, 27.520410000000002], [88.53046, 27.516650000000002]]]}}, {"id": "27", "type": "Feature", "properties": {"village_name": "Barfok", "vil_lgd": 260951, "district_name": "Mangan", "dist_lgd": 226, "subdistrict_name": "Mangan", "sdcode": 1548, "block_name": "Mangan", "block_lgd": 2.0, "gp_name": "Barfok Lingdong", "state_name": "SIKKIM", "state_lgd": 11, "population": 586, "households": 111}, "geometry": {"type": "Polygon", "coordinates": [[[88.52344000000001, 27.49331], [88.51167000000001, 27.493170000000003], [88.48508000000001, 27.49001], [88.45933000000001, 27.493240000000004], [88.45923, 27.49827], [88.483, 27.5025], [88.49786, 27.50655], [88.51150000000001, 27.504590000000004], [88.52385000000001, 27.49828], [88.52344000000001, 27.49331]]]}}, {"id": "28", "type": "Feature", "properties": {"village_name": "Sentam", "vil_lgd": 260939, "district_name": "Mangan", "dist_lgd": 226, "subdistrict_name": "Mangan", "sdcode": 1548, "block_name": "Mangan", "block_lgd": 2.0, "gp_name": "Singhik", "state_name": "SIKKIM", "state_lgd": 11, "population": 1317, "households": 282}, "geometry": {"type": "Polygon", "coordinates": [[[88.57323000000001, 27.50673], [88.56149, 27.517950000000003], [88.55600000000001, 27.519460000000002], [88.54651000000001, 27.527490000000004], [88.57681000000001, 27.52972], [88.57513, 27.528070000000003], [88.57941000000001, 27.519620000000003], [88.58437, 27.51348], [88.57323000000001, 27.50673]]]}}, {"id": "29", "type": "Feature", "properties": {"village_name": "Hee Gyathang", "vil_lgd": 260950, "district_name": "Mangan", "dist_lgd": 226, "subdistrict_name": "Mangan", "sdcode": 1548, "block_name": "Mangan", "block_lgd": 2.0, "gp_name": "Hee Gyathang", "state_name": "SIKKIM", "state_lgd": 11, "population": 1180, "households": 227}, "geometry": {"type": "Polygon", "coordinates": [[[88.52762000000001, 27.480670000000003], [88.52218, 27.476350000000004], [88.51808000000001, 27.47143], [88.51058, 27.46421], [88.50286000000001, 27.46431], [88.49162000000001, 27.466040000000003], [88.49354000000001, 27.471560000000004], [88.49376000000001, 27.4754], [88.48908, 27.47896], [88.47770000000001, 27.483210000000003], [88.46339, 27.48664], [88.45933000000001, 27.493240000000004], [88.48508000000001, 27.49001], [88.51167000000001, 27.493170000000003], [88.52344000000001, 27.49331], [88.52527, 27.48778], [88.52762000000001, 27.480670000000003]]]}}, {"id": "30", "type": "Feature", "properties": {"village_name": "Naga Namgor", "vil_lgd": 260934, "district_name": "Mangan", "dist_lgd": 226, "subdistrict_name": "Mangan", "sdcode": 1548, "block_name": "Mangan", "block_lgd": 2.0, "gp_name": "Toon Naga", "state_name": "SIKKIM", "state_lgd": 11, "population": 484, "households": 103}, "geometry": {"type": "Polygon", "coordinates": [[[88.63583000000001, 27.536530000000003], [88.63062000000001, 27.52718], [88.62161, 27.526870000000002], [88.6174, 27.525830000000003], [88.61398000000001, 27.523920000000004], [88.60796, 27.53217], [88.60393, 27.538940000000004], [88.60342000000001, 27.541580000000003], [88.61533, 27.545730000000002], [88.63076000000001, 27.54671], [88.63910000000001, 27.53674], [88.63583000000001, 27.536530000000003]]]}}, {"id": "31", "type": "Feature", "properties": {"village_name": "Meyong", "vil_lgd": 260935, "district_name": "Mangan", "dist_lgd": 226, "subdistrict_name": "Mangan", "sdcode": 1548, "block_name": "Mangan", "block_lgd": 2.0, "gp_name": "Toon Naga", "state_name": "SIKKIM", "state_lgd": 11, "population": 130, "households": 32}, "geometry": {"type": "Polygon", "coordinates": [[[88.60874000000001, 27.52203], [88.60140000000001, 27.522080000000003], [88.59529, 27.52044], [88.59331, 27.5283], [88.59286, 27.535500000000003], [88.59206, 27.536710000000003], [88.60342000000001, 27.541580000000003], [88.60393, 27.538940000000004], [88.60796, 27.53217], [88.61398000000001, 27.523920000000004], [88.60874000000001, 27.52203]]]}}, {"id": "32", "type": "Feature", "properties": {"village_name": "Singchit", "vil_lgd": 260936, "district_name": "Mangan", "dist_lgd": 226, "subdistrict_name": "Mangan", "sdcode": 1548, "block_name": "Mangan", "block_lgd": 2.0, "gp_name": "Toon Naga", "state_name": "SIKKIM", "state_lgd": 11, "population": 1134, "households": 256}, "geometry": {"type": "Polygon", "coordinates": [[[88.58437, 27.51348], [88.57941000000001, 27.519620000000003], [88.57513, 27.528070000000003], [88.57681000000001, 27.52972], [88.59206, 27.536710000000003], [88.59286, 27.535500000000003], [88.59331, 27.5283], [88.59529, 27.52044], [88.58437, 27.51348]]]}}, {"id": "33", "type": "Feature", "properties": {"village_name": "Salim Pakel", "vil_lgd": 260940, "district_name": "Mangan", "dist_lgd": 226, "subdistrict_name": "Mangan", "sdcode": 1548, "block_name": "Mangan", "block_lgd": 2.0, "gp_name": "Passingdang Safo", "state_name": "SIKKIM", "state_lgd": 11, "population": 873, "households": 212}, "geometry": {"type": "Polygon", "coordinates": [[[88.54651000000001, 27.527490000000004], [88.53602000000001, 27.526210000000003], [88.52804, 27.532750000000004], [88.5399, 27.547380000000004], [88.54887000000001, 27.5465], [88.57412000000001, 27.54999], [88.57681000000001, 27.52972], [88.54651000000001, 27.527490000000004]]]}}, {"id": "34", "type": "Feature", "properties": {"village_name": "Singhik Sentam", "vil_lgd": 260954, "district_name": "Mangan", "dist_lgd": 226, "subdistrict_name": "Mangan", "sdcode": 1548, "block_name": "Mangan", "block_lgd": 2.0, "gp_name": "Singhik", "state_name": "SIKKIM", "state_lgd": 11, "population": 1268, "households": 290}, "geometry": {"type": "Polygon", "coordinates": [[[88.55803, 27.498060000000002], [88.55601, 27.492910000000002], [88.55253, 27.493290000000002], [88.55005000000001, 27.492200000000004], [88.54499000000001, 27.491920000000004], [88.54319000000001, 27.491730000000004], [88.53778000000001, 27.49349], [88.53613000000001, 27.49565], [88.53531000000001, 27.50186], [88.53442000000001, 27.503000000000004], [88.52554, 27.50326], [88.53046, 27.516650000000002], [88.5416, 27.510690000000004], [88.54767000000001, 27.509110000000003], [88.55938, 27.504800000000003], [88.55835, 27.502110000000002], [88.55803, 27.498060000000002]]]}}, {"id": "35", "type": "Feature", "properties": {"village_name": "Zimchung", "vil_lgd": 260953, "district_name": "Mangan", "dist_lgd": 226, "subdistrict_name": "Mangan", "sdcode": 1548, "block_name": "Mangan", "block_lgd": 2.0, "gp_name": "Tingchim Chadey", "state_name": "SIKKIM", "state_lgd": 11, "population": 1145, "households": 242}, "geometry": {"type": "Polygon", "coordinates": [[[88.54319000000001, 27.491730000000004], [88.54499000000001, 27.491920000000004], [88.54717000000001, 27.48063], [88.53925000000001, 27.479160000000004], [88.53771, 27.48008], [88.52762000000001, 27.480670000000003], [88.52527, 27.48778], [88.53464000000001, 27.48926], [88.53778000000001, 27.49349], [88.54319000000001, 27.491730000000004]]]}}, {"id": "36", "type": "Feature", "properties": {"village_name": "Ringhim", "vil_lgd": 260955, "district_name": "Mangan", "dist_lgd": 226, "subdistrict_name": "Mangan", "sdcode": 1548, "block_name": "Mangan", "block_lgd": 2.0, "gp_name": "Singhik", "state_name": "SIKKIM", "state_lgd": 11, "population": 811, "households": 155}, "geometry": {"type": "Polygon", "coordinates": [[[88.57179000000001, 27.496050000000004], [88.57503000000001, 27.488010000000003], [88.57834000000001, 27.4856], [88.55714, 27.4814], [88.54717000000001, 27.48063], [88.54499000000001, 27.491920000000004], [88.55005000000001, 27.492200000000004], [88.55253, 27.493290000000002], [88.55601, 27.492910000000002], [88.55803, 27.498060000000002], [88.55835, 27.502110000000002], [88.55938, 27.504800000000003], [88.56383000000001, 27.501630000000002], [88.57185000000001, 27.499200000000002], [88.57179000000001, 27.496050000000004]]]}}, {"id": "37", "type": "Feature", "properties": {"village_name": "Nampatam", "vil_lgd": 260956, "district_name": "Mangan", "dist_lgd": 226, "subdistrict_name": "Mangan", "sdcode": 1548, "block_name": "Mangan", "block_lgd": 2.0, "gp_name": "Singhik", "state_name": "SIKKIM", "state_lgd": 11, "population": 381, "households": 76}, "geometry": {"type": "Polygon", "coordinates": [[[88.55856000000001, 27.47021], [88.55854000000001, 27.471460000000004], [88.55483000000001, 27.47388], [88.54824, 27.474870000000003], [88.54620000000001, 27.47659], [88.53925000000001, 27.479160000000004], [88.54717000000001, 27.48063], [88.55714, 27.4814], [88.57834000000001, 27.4856], [88.58026000000001, 27.48297], [88.57297000000001, 27.469250000000002], [88.56844000000001, 27.468650000000004], [88.55856000000001, 27.47021]]]}}, {"id": "38", "type": "Feature", "properties": {"village_name": "Tingchim", "vil_lgd": 260957, "district_name": "Mangan", "dist_lgd": 226, "subdistrict_name": "Mangan", "sdcode": 1548, "block_name": "Mangan", "block_lgd": 2.0, "gp_name": "Tingchim Chadey", "state_name": "SIKKIM", "state_lgd": 11, "population": 1021, "households": 184}, "geometry": {"type": "Polygon", "coordinates": [[[88.54620000000001, 27.47659], [88.54824, 27.474870000000003], [88.55483000000001, 27.47388], [88.55854000000001, 27.471460000000004], [88.55856000000001, 27.47021], [88.55076000000001, 27.463960000000004], [88.54126000000001, 27.465840000000004], [88.52864000000001, 27.470070000000003], [88.5236, 27.470360000000003], [88.51808000000001, 27.47143], [88.52218, 27.476350000000004], [88.52762000000001, 27.480670000000003], [88.53771, 27.48008], [88.53925000000001, 27.479160000000004], [88.54620000000001, 27.47659]]]}}, {"id": "39", "type": "Feature", "properties": {"village_name": "Shipgyer", "vil_lgd": 260928, "district_name": "Mangan", "dist_lgd": 226, "subdistrict_name": "Chungthang", "sdcode": 1547, "block_name": "Chungthang", "block_lgd": 1.0, "gp_name": "Shipgyer", "state_name": "SIKKIM", "state_lgd": 11, "population": 710, "households": 225}, "geometry": {"type": "Polygon", "coordinates": [[[88.6449, 27.55251], [88.63076000000001, 27.54671], [88.61533, 27.545730000000002], [88.60342000000001, 27.541580000000003], [88.59206, 27.536710000000003], [88.57681000000001, 27.52972], [88.57412000000001, 27.54999], [88.60052, 27.552210000000002], [88.61633, 27.55638], [88.62601000000001, 27.562520000000003], [88.63657, 27.574180000000002], [88.65580000000001, 27.56266], [88.6449, 27.55251]]]}}, {"id": "40", "type": "Feature", "properties": {"village_name": "Tung", "vil_lgd": 260929, "district_name": "Mangan", "dist_lgd": 226, "subdistrict_name": "Chungthang", "sdcode": 1547, "block_name": "Chungthang", "block_lgd": 1.0, "gp_name": "Toon-Naga", "state_name": "SIKKIM", "state_lgd": 11, "population": 237, "households": 57}, "geometry": {"type": "Polygon", "coordinates": [[[88.64772, 27.537280000000003], [88.63910000000001, 27.53674], [88.63076000000001, 27.54671], [88.6449, 27.55251], [88.65580000000001, 27.56266], [88.67093000000001, 27.54428], [88.64772, 27.537280000000003]]]}}, {"id": "41", "type": "Feature", "properties": {"village_name": "Lingja Tholung", "vil_lgd": 260944, "district_name": "Mangan", "dist_lgd": 226, "subdistrict_name": "Mangan", "sdcode": 1548, "block_name": "Mangan", "block_lgd": 2.0, "gp_name": "Sakyong Pentong", "state_name": "SIKKIM", "state_lgd": 11, "population": 422, "households": 91}, "geometry": {"type": "Polygon", "coordinates": [[[88.46109000000001, 27.55468], [88.44446, 27.562050000000003], [88.43203000000001, 27.565170000000002], [88.43267, 27.570840000000004], [88.43501, 27.576330000000002], [88.43825000000001, 27.587190000000003], [88.44199, 27.59521], [88.44498, 27.596280000000004], [88.4435, 27.577090000000002], [88.45724000000001, 27.57419], [88.46812000000001, 27.57287], [88.46109000000001, 27.55468]]]}}, {"id": "42", "type": "Feature", "properties": {"village_name": "Lachen", "vil_lgd": 260925, "district_name": "Mangan", "dist_lgd": 226, "subdistrict_name": "Chungthang", "sdcode": 1547, "block_name": "Chungthang", "block_lgd": 1.0, "gp_name": "Lachen Dzumsa", "state_name": "SIKKIM", "state_lgd": 11, "population": 1325, "households": 338}, "geometry": {"type": "Polygon", "coordinates": [[[88.56189, 27.688480000000002], [88.55452000000001, 27.703370000000003], [88.54238000000001, 27.70821], [88.54122000000001, 27.721590000000003], [88.54035, 27.75756], [88.54514, 27.756390000000003], [88.54652, 27.75055], [88.55161000000001, 27.742050000000003], [88.55529000000001, 27.73354], [88.56056000000001, 27.725260000000002], [88.56693000000001, 27.718560000000004], [88.56678000000001, 27.712190000000003], [88.57832, 27.697680000000002], [88.58957000000001, 27.68758], [88.59391000000001, 27.679090000000002], [88.58646, 27.677470000000003], [88.57981000000001, 27.674260000000004], [88.57489000000001, 27.673430000000003], [88.56189, 27.688480000000002]]]}}, {"id": "43", "type": "Feature", "properties": {"village_name": "Chungthang", "vil_lgd": 260927, "district_name": "Mangan", "dist_lgd": 226, "subdistrict_name": "Chungthang", "sdcode": 1547, "block_name": "Chungthang", "block_lgd": 1.0, "gp_name": "Chungthang", "state_name": "SIKKIM", "state_lgd": 11, "population": 3970, "households": 839}, "geometry": {"type": "Polygon", "coordinates": [[[88.64885000000001, 27.615090000000002], [88.65496, 27.61851], [88.66129000000001, 27.626230000000003], [88.67093000000001, 27.6336], [88.67304, 27.625690000000002], [88.66576, 27.618370000000002], [88.67555, 27.61437], [88.67601, 27.555470000000003], [88.67521, 27.549110000000002], [88.67093000000001, 27.54428], [88.65580000000001, 27.56266], [88.63657, 27.574180000000002], [88.64219000000001, 27.58507], [88.64403, 27.59504], [88.64327, 27.60115], [88.63945000000001, 27.60406], [88.62450000000001, 27.610840000000003], [88.61345, 27.61757], [88.60791, 27.62385], [88.60436000000001, 27.63183], [88.60093, 27.643970000000003], [88.59083000000001, 27.65603], [88.60266, 27.65594], [88.61116000000001, 27.660760000000003], [88.62112, 27.651930000000004], [88.62468000000001, 27.644790000000004], [88.62790000000001, 27.633100000000002], [88.64348000000001, 27.615250000000003], [88.64885000000001, 27.615090000000002]]]}}, {"id": "44", "type": "Feature", "properties": {"village_name": "Lachung", "vil_lgd": 260926, "district_name": "Mangan", "dist_lgd": 226, "subdistrict_name": "Chungthang", "sdcode": 1547, "block_name": "Chungthang", "block_lgd": 1.0, "gp_name": "Lachung Dzumsa", "state_name": "SIKKIM", "state_lgd": 11, "population": 2495, "households": 401}, "geometry": {"type": "Polygon", "coordinates": [[[88.73699, 27.644370000000002], [88.74106, 27.63971], [88.74787, 27.63437], [88.73108, 27.619590000000002], [88.72912000000001, 27.62197], [88.72446000000001, 27.622690000000002], [88.71866000000001, 27.62508], [88.70002000000001, 27.623720000000002], [88.69342, 27.624750000000002], [88.67555, 27.61437], [88.66576, 27.618370000000002], [88.67304, 27.625690000000002], [88.67093000000001, 27.6336], [88.66969, 27.644050000000004], [88.67615, 27.650430000000004], [88.68383, 27.65311], [88.70004, 27.652970000000003], [88.70445000000001, 27.655150000000003], [88.71745000000001, 27.649200000000004], [88.71932000000001, 27.64966], [88.71838000000001, 27.660790000000002], [88.71887000000001, 27.669430000000002], [88.72079000000001, 27.67377], [88.72428000000001, 27.678150000000002], [88.72981, 27.6824], [88.73419000000001, 27.684230000000003], [88.7479, 27.67902], [88.74429, 27.670820000000003], [88.7493, 27.66327], [88.74764, 27.658050000000003], [88.74168, 27.65229], [88.73898000000001, 27.648120000000002], [88.73699, 27.644370000000002]]]}}, {"id": "45", "type": "Feature", "properties": {"village_name": "Sakyong Pentong", "vil_lgd": 260945, "district_name": "Mangan", "dist_lgd": 226, "subdistrict_name": "Mangan", "sdcode": 1548, "block_name": "Mangan", "block_lgd": 2.0, "gp_name": "Sakyong Pentong", "state_name": "SIKKIM", "state_lgd": 11, "population": 171, "households": 37}, "geometry": {"type": "Polygon", "coordinates": [[[88.39792000000001, 27.59861], [88.41365, 27.595670000000002], [88.41914000000001, 27.596010000000003], [88.43130000000001, 27.57719], [88.43501, 27.576330000000002], [88.43267, 27.570840000000004], [88.43203000000001, 27.565170000000002], [88.43268, 27.550890000000003], [88.42668, 27.552920000000004], [88.41818, 27.560670000000002], [88.40347000000001, 27.56492], [88.3815, 27.574220000000004], [88.38115, 27.585580000000004], [88.37530000000001, 27.597170000000002], [88.37513000000001, 27.600360000000002], [88.39084000000001, 27.59871], [88.39792000000001, 27.59861]]]}}, {"id": "46", "type": "Feature", "properties": {"village_name": "R F", "vil_lgd": 999999, "district_name": "Mangan", "dist_lgd": 226, "subdistrict_name": "Mangan", "sdcode": 1548, "block_name": "", "block_lgd": null, "gp_name": "", "state_name": "SIKKIM", "state_lgd": 11, "population": 0, "households": 0}, "geometry": {"type": "Polygon", "coordinates": [[[88.24941000000001, 27.67395], [88.25623, 27.669390000000003], [88.26383000000001, 27.66786], [88.29661, 27.656540000000003], [88.30650000000001, 27.656200000000002], [88.31863000000001, 27.646610000000003], [88.33833000000001, 27.621240000000004], [88.34229, 27.621100000000002], [88.34969000000001, 27.61625], [88.3618, 27.610370000000003], [88.3639, 27.604740000000003], [88.37513000000001, 27.600360000000002], [88.37530000000001, 27.597170000000002], [88.38115, 27.585580000000004], [88.3815, 27.574220000000004], [88.40347000000001, 27.56492], [88.41818, 27.560670000000002], [88.42668, 27.552920000000004], [88.43268, 27.550890000000003], [88.44324, 27.54202], [88.46367000000001, 27.530330000000003], [88.47136, 27.526750000000003], [88.47679000000001, 27.525940000000002], [88.48865, 27.52342], [88.50173000000001, 27.522060000000003], [88.49952, 27.51648], [88.49786, 27.50655], [88.483, 27.5025], [88.45923, 27.49827], [88.45933000000001, 27.493240000000004], [88.46339, 27.48664], [88.47770000000001, 27.483210000000003], [88.48908, 27.47896], [88.49376000000001, 27.4754], [88.49354000000001, 27.471560000000004], [88.49162000000001, 27.466040000000003], [88.49151, 27.448760000000004], [88.48828, 27.438650000000003], [88.48492, 27.42602], [88.48468000000001, 27.41945], [88.49391000000001, 27.412270000000003], [88.49159, 27.409760000000002], [88.4843, 27.40764], [88.45415000000001, 27.4018], [88.43547000000001, 27.401020000000003], [88.42669000000001, 27.413120000000003], [88.41953000000001, 27.4186], [88.41666000000001, 27.423540000000003], [88.41447000000001, 27.430290000000003], [88.41423, 27.439380000000003], [88.41590000000001, 27.446710000000003], [88.40872, 27.45848], [88.40709000000001, 27.46338], [88.40729, 27.470260000000003], [88.40552000000001, 27.47566], [88.39871000000001, 27.47895], [88.37554, 27.497580000000003], [88.36472, 27.510270000000002], [88.36108, 27.517270000000003], [88.35600000000001, 27.521060000000002], [88.34258000000001, 27.526310000000002], [88.32894, 27.52803], [88.31956000000001, 27.52709], [88.29122000000001, 27.518860000000004], [88.28163, 27.512880000000003], [88.26347000000001, 27.525660000000002], [88.24796, 27.531470000000002], [88.24148000000001, 27.534860000000002], [88.23764000000001, 27.540640000000003], [88.23195000000001, 27.557190000000002], [88.21792, 27.573600000000003], [88.20984000000001, 27.581190000000003], [88.16364, 27.600080000000002], [88.12709000000001, 27.611320000000003], [88.11511, 27.61785], [88.11697000000001, 27.62017], [88.11661000000001, 27.62404], [88.11984000000001, 27.627560000000003], [88.11698000000001, 27.629810000000003], [88.12063, 27.638430000000003], [88.12021, 27.64525], [88.12452, 27.650000000000002], [88.13027000000001, 27.65351], [88.13215000000001, 27.656200000000002], [88.13734000000001, 27.657400000000003], [88.13850000000001, 27.658330000000003], [88.13915, 27.660370000000004], [88.14204000000001, 27.66317], [88.14370000000001, 27.66373], [88.14721, 27.674670000000003], [88.14694, 27.679340000000003], [88.14868000000001, 27.68223], [88.15220000000001, 27.681320000000003], [88.23707, 27.67818], [88.24156, 27.67669], [88.24941000000001, 27.67395]], [[88.45416, 27.521140000000003], [88.45483, 27.52192], [88.45424000000001, 27.522640000000003], [88.45327, 27.522420000000004], [88.45314, 27.52154], [88.45416, 27.521140000000003]], [[88.45540000000001, 27.427300000000002], [88.45607000000001, 27.42808], [88.45514000000001, 27.42885], [88.45429, 27.428], [88.45496000000001, 27.427290000000003], [88.45540000000001, 27.427300000000002]]]}}, {"id": "47", "type": "Feature", "properties": {"village_name": "Mangan Np", "vil_lgd": 801416, "district_name": "Mangan", "dist_lgd": 226, "subdistrict_name": "Mangan", "sdcode": 1548, "block_name": "", "block_lgd": null, "gp_name": "", "state_name": "SIKKIM", "state_lgd": 11, "population": 4644, "households": 1054}, "geometry": {"type": "Polygon", "coordinates": [[[88.53531000000001, 27.50186], [88.53613000000001, 27.49565], [88.53778000000001, 27.49349], [88.53464000000001, 27.48926], [88.52527, 27.48778], [88.52344000000001, 27.49331], [88.52385000000001, 27.49828], [88.52554, 27.50326], [88.53442000000001, 27.503000000000004], [88.53531000000001, 27.50186]]]}}, {"id": "48", "type": "Feature", "properties": {"village_name": "R F", "vil_lgd": 999999, "district_name": "Mangan", "dist_lgd": 226, "subdistrict_name": "Chungthang", "sdcode": 1547, "block_name": "", "block_lgd": null, "gp_name": "", "state_name": "SIKKIM", "state_lgd": 11, "population": 0, "households": 0}, "geometry": {"type": "Polygon", "coordinates": [[[88.65441000000001, 28.09465], [88.6564, 28.09241], [88.65686000000001, 28.090040000000002], [88.66135000000001, 28.089640000000003], [88.66434000000001, 28.087410000000002], [88.6654, 28.085420000000003], [88.66516, 28.08264], [88.66640000000001, 28.079780000000003], [88.66668000000001, 28.076100000000004], [88.67206, 28.072340000000004], [88.67844000000001, 28.071460000000002], [88.68135000000001, 28.07691], [88.68681000000001, 28.07794], [88.69344000000001, 28.077630000000003], [88.69720000000001, 28.075930000000003], [88.70325000000001, 28.07626], [88.70955000000001, 28.077640000000002], [88.72042, 28.074330000000003], [88.73485000000001, 28.074350000000003], [88.7471, 28.076040000000003], [88.75629, 28.07597], [88.76565000000001, 28.070470000000004], [88.77093, 28.065870000000004], [88.77415, 28.062300000000004], [88.7776, 28.05412], [88.78378000000001, 28.053950000000004], [88.78741000000001, 28.05038], [88.79288000000001, 28.048640000000002], [88.79385, 28.043400000000002], [88.79758000000001, 28.040940000000003], [88.80307, 28.031810000000004], [88.80588, 28.02916], [88.80777, 28.028430000000004], [88.81359, 28.022440000000003], [88.81687000000001, 28.020680000000002], [88.82015000000001, 28.02147], [88.82261000000001, 28.020860000000003], [88.83628, 28.01481], [88.83779000000001, 28.008540000000004], [88.83798, 28.000490000000003], [88.83928, 27.997740000000004], [88.84371, 27.993250000000003], [88.84381, 27.990420000000004], [88.84317, 27.985380000000003], [88.84140000000001, 27.981740000000002], [88.84299, 27.975260000000002], [88.84084000000001, 27.966340000000002], [88.84240000000001, 27.963630000000002], [88.84289000000001, 27.95278], [88.84177000000001, 27.94956], [88.84134, 27.944150000000004], [88.83871, 27.94273], [88.83921000000001, 27.94065], [88.83765000000001, 27.93663], [88.83694000000001, 27.928780000000003], [88.84358, 27.928810000000002], [88.85265000000001, 27.925780000000003], [88.86041, 27.92715], [88.86370000000001, 27.92134], [88.87002000000001, 27.9156], [88.86933, 27.913000000000004], [88.87015000000001, 27.91015], [88.86918000000001, 27.907590000000003], [88.86953000000001, 27.905440000000002], [88.87217000000001, 27.901190000000003], [88.87181000000001, 27.89852], [88.88263, 27.890770000000003], [88.88066, 27.88662], [88.88078, 27.88228], [88.87849000000001, 27.879730000000002], [88.87781000000001, 27.875760000000003], [88.87937000000001, 27.867160000000002], [88.88505, 27.86154], [88.88767000000001, 27.856180000000002], [88.88130000000001, 27.849750000000004], [88.88176000000001, 27.846950000000003], [88.88051, 27.844590000000004], [88.87994, 27.840080000000004], [88.88207000000001, 27.83763], [88.88269000000001, 27.834270000000004], [88.88055000000001, 27.83179], [88.88045000000001, 27.82918], [88.87171000000001, 27.825590000000002], [88.86393000000001, 27.819720000000004], [88.85581, 27.815210000000004], [88.85834000000001, 27.811100000000003], [88.85891000000001, 27.807330000000004], [88.85810000000001, 27.8042], [88.86023, 27.802950000000003], [88.85966, 27.800980000000003], [88.86123, 27.798790000000004], [88.86145, 27.79699], [88.85982000000001, 27.794690000000003], [88.85928000000001, 27.79023], [88.85492, 27.783500000000004], [88.85468, 27.777500000000003], [88.85591000000001, 27.770770000000002], [88.85356, 27.769170000000003], [88.85328000000001, 27.764480000000002], [88.85449000000001, 27.762950000000004], [88.85445000000001, 27.756420000000002], [88.85609000000001, 27.752290000000002], [88.85839000000001, 27.753940000000004], [88.85989000000001, 27.7539], [88.86161000000001, 27.75249], [88.86409, 27.746660000000002], [88.8636, 27.74425], [88.86514000000001, 27.742250000000002], [88.85942000000001, 27.738110000000002], [88.85866, 27.733780000000003], [88.85669, 27.73167], [88.85751, 27.726820000000004], [88.85579000000001, 27.72521], [88.85559, 27.722430000000003], [88.85424, 27.72012], [88.85583000000001, 27.718580000000003], [88.8563, 27.71655], [88.85470000000001, 27.716350000000002], [88.85263, 27.71449], [88.8498, 27.71439], [88.83979000000001, 27.711230000000004], [88.83798, 27.706290000000003], [88.83827000000001, 27.70379], [88.84263000000001, 27.702880000000004], [88.84360000000001, 27.700160000000004], [88.84604, 27.69807], [88.84766, 27.69356], [88.84234000000001, 27.68418], [88.84192, 27.6822], [88.84243000000001, 27.680580000000003], [88.84438, 27.679650000000002], [88.84457, 27.677090000000003], [88.84759000000001, 27.675440000000002], [88.84839000000001, 27.668010000000002], [88.84309, 27.659910000000004], [88.83913000000001, 27.65698], [88.83825, 27.654930000000004], [88.83572000000001, 27.653620000000004], [88.83551000000001, 27.650340000000003], [88.83385000000001, 27.649510000000003], [88.83153, 27.64666], [88.82885, 27.645860000000003], [88.82795, 27.644260000000003], [88.82278000000001, 27.643530000000002], [88.81946, 27.646390000000004], [88.81677, 27.647170000000003], [88.81526000000001, 27.64609], [88.81413, 27.642450000000004], [88.81157, 27.63878], [88.81119000000001, 27.636540000000004], [88.80868000000001, 27.63444], [88.80852, 27.631120000000003], [88.80652, 27.628650000000004], [88.80491, 27.623510000000003], [88.80801000000001, 27.622040000000002], [88.81166, 27.61839], [88.80823000000001, 27.613400000000002], [88.80633, 27.60892], [88.80903, 27.60253], [88.80754, 27.6015], [88.80473, 27.59436], [88.80314000000001, 27.594330000000003], [88.79469, 27.59025], [88.79142, 27.5865], [88.78837, 27.584930000000004], [88.79083000000001, 27.58116], [88.79119, 27.57504], [88.78801000000001, 27.574790000000004], [88.78444, 27.573280000000004], [88.78139, 27.569920000000003], [88.77000000000001, 27.571260000000002], [88.76594, 27.56846], [88.76375, 27.565070000000002], [88.77173, 27.55807], [88.77393000000001, 27.553790000000003], [88.77301000000001, 27.54896], [88.77518, 27.544520000000002], [88.77310000000001, 27.540760000000002], [88.77645000000001, 27.53385], [88.77828000000001, 27.531740000000003], [88.78332, 27.529180000000004], [88.78482000000001, 27.530630000000002], [88.78680000000001, 27.530450000000002], [88.78097000000001, 27.51574], [88.77466000000001, 27.51253], [88.76493, 27.511190000000003], [88.75496000000001, 27.504780000000004], [88.72759, 27.510530000000003], [88.71897000000001, 27.511070000000004], [88.68553000000001, 27.519280000000002], [88.66196000000001, 27.521340000000002], [88.64932, 27.525660000000002], [88.64068, 27.532510000000002], [88.63910000000001, 27.53674], [88.64772, 27.537280000000003], [88.67093000000001, 27.54428], [88.67521, 27.549110000000002], [88.67601, 27.555470000000003], [88.67555, 27.61437], [88.69342, 27.624750000000002], [88.70002000000001, 27.623720000000002], [88.71866000000001, 27.62508], [88.72446000000001, 27.622690000000002], [88.72912000000001, 27.62197], [88.73108, 27.619590000000002], [88.74787, 27.63437], [88.74106, 27.63971], [88.73699, 27.644370000000002], [88.73898000000001, 27.648120000000002], [88.74168, 27.65229], [88.74764, 27.658050000000003], [88.7493, 27.66327], [88.74429, 27.670820000000003], [88.7479, 27.67902], [88.73419000000001, 27.684230000000003], [88.72981, 27.6824], [88.72428000000001, 27.678150000000002], [88.72079000000001, 27.67377], [88.71887000000001, 27.669430000000002], [88.71838000000001, 27.660790000000002], [88.71932000000001, 27.64966], [88.71745000000001, 27.649200000000004], [88.70445000000001, 27.655150000000003], [88.70004, 27.652970000000003], [88.68383, 27.65311], [88.67615, 27.650430000000004], [88.66969, 27.644050000000004], [88.67093000000001, 27.6336], [88.66129000000001, 27.626230000000003], [88.65496, 27.61851], [88.64885000000001, 27.615090000000002], [88.64348000000001, 27.615250000000003], [88.62790000000001, 27.633100000000002], [88.62468000000001, 27.644790000000004], [88.62112, 27.651930000000004], [88.61116000000001, 27.660760000000003], [88.60266, 27.65594], [88.59083000000001, 27.65603], [88.60093, 27.643970000000003], [88.60436000000001, 27.63183], [88.60791, 27.62385], [88.61345, 27.61757], [88.62450000000001, 27.610840000000003], [88.63945000000001, 27.60406], [88.64327, 27.60115], [88.64403, 27.59504], [88.64219000000001, 27.58507], [88.63657, 27.574180000000002], [88.62601000000001, 27.562520000000003], [88.61633, 27.55638], [88.60052, 27.552210000000002], [88.57412000000001, 27.54999], [88.54887000000001, 27.5465], [88.5399, 27.547380000000004], [88.54051000000001, 27.55544], [88.52367000000001, 27.55946], [88.50952000000001, 27.561880000000002], [88.50329, 27.56436], [88.49487, 27.565820000000002], [88.46812000000001, 27.57287], [88.45724000000001, 27.57419], [88.4435, 27.577090000000002], [88.44498, 27.596280000000004], [88.44199, 27.59521], [88.43825000000001, 27.587190000000003], [88.43501, 27.576330000000002], [88.43130000000001, 27.57719], [88.41914000000001, 27.596010000000003], [88.41365, 27.595670000000002], [88.39792000000001, 27.59861], [88.39084000000001, 27.59871], [88.37513000000001, 27.600360000000002], [88.3639, 27.604740000000003], [88.3618, 27.610370000000003], [88.34969000000001, 27.61625], [88.34229, 27.621100000000002], [88.33833000000001, 27.621240000000004], [88.31863000000001, 27.646610000000003], [88.30650000000001, 27.656200000000002], [88.29661, 27.656540000000003], [88.26383000000001, 27.66786], [88.25623, 27.669390000000003], [88.24941000000001, 27.67395], [88.24156, 27.67669], [88.23707, 27.67818], [88.15220000000001, 27.681320000000003], [88.14868000000001, 27.68223], [88.15415, 27.6918], [88.15114000000001, 27.69609], [88.15084, 27.69853], [88.14965000000001, 27.699180000000002], [88.14757, 27.702800000000003], [88.14909, 27.704880000000003], [88.14903000000001, 27.708150000000003], [88.15280000000001, 27.711720000000003], [88.15537, 27.717350000000003], [88.15451, 27.720540000000003], [88.15447, 27.728540000000002], [88.15617, 27.736110000000004], [88.15795000000001, 27.737940000000002], [88.15848000000001, 27.74057], [88.16285, 27.739770000000004], [88.16594, 27.74104], [88.16991, 27.74114], [88.17421, 27.74292], [88.17592, 27.745610000000003], [88.17837, 27.746180000000003], [88.17892, 27.749950000000002], [88.17767, 27.758440000000004], [88.18228, 27.762620000000002], [88.18366, 27.766700000000004], [88.18179, 27.76941], [88.18220000000001, 27.77577], [88.18546, 27.777140000000003], [88.18957, 27.782280000000004], [88.19529000000001, 27.786260000000002], [88.19717000000001, 27.79117], [88.19397000000001, 27.79641], [88.19197000000001, 27.796920000000004], [88.18742, 27.8011], [88.18626, 27.804660000000002], [88.18654000000001, 27.807420000000004], [88.18549, 27.808590000000002], [88.18566000000001, 27.810460000000003], [88.17927, 27.815450000000002], [88.17409, 27.817370000000004], [88.17359, 27.820600000000002], [88.18284000000001, 27.823120000000003], [88.18801, 27.825460000000003], [88.19144000000001, 27.829480000000004], [88.19255000000001, 27.832960000000003], [88.19563000000001, 27.835300000000004], [88.20182000000001, 27.836720000000003], [88.20280000000001, 27.838800000000003], [88.20166, 27.84288], [88.19860000000001, 27.84533], [88.19738000000001, 27.84879], [88.19762, 27.851340000000004], [88.19522, 27.854540000000004], [88.18901000000001, 27.854380000000003], [88.18556000000001, 27.856530000000003], [88.18321, 27.857000000000003], [88.17895, 27.85648], [88.17407, 27.86266], [88.16706, 27.86606], [88.16493000000001, 27.8683], [88.15781000000001, 27.87066], [88.15475, 27.870720000000002], [88.15312, 27.873030000000004], [88.14899000000001, 27.876410000000003], [88.14408, 27.877950000000002], [88.14007000000001, 27.87741], [88.13669, 27.881230000000002], [88.13501000000001, 27.88162], [88.13624, 27.88454], [88.13794, 27.885640000000002], [88.13990000000001, 27.88915], [88.13430000000001, 27.897050000000004], [88.13083, 27.898920000000004], [88.12263, 27.90837], [88.12191000000001, 27.911700000000003], [88.11958000000001, 27.916000000000004], [88.12125, 27.92197], [88.12549000000001, 27.92453], [88.13065, 27.92575], [88.13049000000001, 27.929370000000002], [88.13207000000001, 27.93287], [88.13472, 27.935480000000002], [88.13786, 27.937150000000003], [88.13560000000001, 27.943990000000003], [88.13275, 27.947180000000003], [88.12939, 27.94931], [88.13434000000001, 27.951320000000003], [88.14521, 27.964080000000003], [88.14885000000001, 27.960790000000003], [88.1543, 27.957400000000003], [88.16389000000001, 27.957680000000003], [88.16511000000001, 27.95597], [88.17056000000001, 27.952450000000002], [88.17907000000001, 27.94919], [88.18547000000001, 27.94348], [88.18991000000001, 27.942890000000002], [88.19534, 27.944160000000004], [88.20059, 27.94169], [88.2064, 27.941670000000002], [88.20493, 27.949410000000004], [88.20646, 27.959680000000002], [88.20796000000001, 27.961660000000002], [88.21275000000001, 27.964270000000003], [88.21476000000001, 27.963060000000002], [88.22505000000001, 27.960420000000003], [88.22915, 27.9659], [88.23717, 27.970850000000002], [88.2415, 27.957150000000002], [88.24739000000001, 27.949790000000004], [88.24877000000001, 27.94543], [88.25108, 27.94235], [88.25410000000001, 27.94527], [88.26111, 27.94713], [88.2647, 27.956070000000004], [88.26624000000001, 27.957300000000004], [88.26819, 27.957130000000003], [88.27394000000001, 27.954500000000003], [88.27564000000001, 27.954700000000003], [88.28056000000001, 27.957050000000002], [88.28604000000001, 27.966260000000002], [88.29334, 27.96582], [88.29995000000001, 27.967280000000002], [88.30347, 27.96581], [88.30821, 27.96711], [88.31117, 27.970290000000002], [88.31320000000001, 27.970840000000003], [88.31541000000001, 27.97651], [88.31792, 27.978800000000003], [88.32597000000001, 27.97624], [88.33040000000001, 27.973180000000003], [88.33193000000001, 27.974780000000003], [88.33672000000001, 27.984150000000003], [88.34134, 27.985560000000003], [88.34566000000001, 27.985020000000002], [88.35227, 27.989950000000004], [88.36227000000001, 27.9887], [88.36958000000001, 27.989330000000002], [88.37115000000001, 27.989870000000003], [88.37177000000001, 27.991080000000004], [88.37701000000001, 27.989870000000003], [88.379, 27.98523], [88.38091000000001, 27.98307], [88.38618000000001, 27.981420000000004], [88.3875, 27.979400000000002], [88.39907000000001, 27.978040000000004], [88.40060000000001, 27.98092], [88.40302000000001, 27.982630000000004], [88.4068, 27.981730000000002], [88.41077000000001, 27.98328], [88.41149, 27.98506], [88.41083, 27.988080000000004], [88.41222, 27.994500000000002], [88.41470000000001, 27.998880000000003], [88.41823000000001, 28.00082], [88.42461, 28.001600000000003], [88.43059000000001, 28.008090000000003], [88.43476000000001, 28.007990000000003], [88.44375000000001, 28.009380000000004], [88.45638000000001, 28.014920000000004], [88.46079, 28.014550000000003], [88.46238000000001, 28.016150000000003], [88.46782, 28.01713], [88.47263000000001, 28.02661], [88.47444, 28.033870000000004], [88.47853, 28.038470000000004], [88.48036, 28.042540000000002], [88.48247, 28.043730000000004], [88.48805, 28.044480000000004], [88.49562, 28.05393], [88.49655000000001, 28.053900000000002], [88.50448, 28.04782], [88.50962000000001, 28.041190000000004], [88.51968000000001, 28.043550000000003], [88.52185, 28.03629], [88.52351, 28.03499], [88.52753000000001, 28.037770000000002], [88.53271000000001, 28.033320000000003], [88.54364000000001, 28.033250000000002], [88.55080000000001, 28.037570000000002], [88.55107000000001, 28.039350000000002], [88.54897000000001, 28.043080000000003], [88.54872, 28.04689], [88.55174000000001, 28.05479], [88.55392, 28.067380000000004], [88.55622000000001, 28.073480000000004], [88.55255000000001, 28.08142], [88.5597, 28.083930000000002], [88.56349, 28.088540000000002], [88.56627, 28.09033], [88.57071, 28.088790000000003], [88.57494000000001, 28.08462], [88.58148000000001, 28.082990000000002], [88.584, 28.08331], [88.58788000000001, 28.087280000000003], [88.59123000000001, 28.089260000000003], [88.59742000000001, 28.088600000000003], [88.60259, 28.089170000000003], [88.60214, 28.092050000000004], [88.60521000000001, 28.09756], [88.61160000000001, 28.099050000000002], [88.61934000000001, 28.098080000000003], [88.61771, 28.110000000000003], [88.61770000000001, 28.117770000000004], [88.60858, 28.122600000000002], [88.60996, 28.128690000000002], [88.62402, 28.12618], [88.62874000000001, 28.12442], [88.63577000000001, 28.117910000000002], [88.64595000000001, 28.098750000000003], [88.65081, 28.09682], [88.65441000000001, 28.09465]], [[88.59556, 27.893060000000002], [88.59455000000001, 27.893790000000003], [88.59379000000001, 27.893060000000002], [88.59466, 27.89224], [88.59556, 27.893060000000002]], [[88.54238000000001, 27.70821], [88.55452000000001, 27.703370000000003], [88.56189, 27.688480000000002], [88.57489000000001, 27.673430000000003], [88.57981000000001, 27.674260000000004], [88.58646, 27.677470000000003], [88.59391000000001, 27.679090000000002], [88.58957000000001, 27.68758], [88.57832, 27.697680000000002], [88.56678000000001, 27.712190000000003], [88.56693000000001, 27.718560000000004], [88.56056000000001, 27.725260000000002], [88.55529000000001, 27.73354], [88.55161000000001, 27.742050000000003], [88.54652, 27.75055], [88.54514, 27.756390000000003], [88.54035, 27.75756], [88.54122000000001, 27.721590000000003], [88.54238000000001, 27.70821]], [[88.60931000000001, 27.746090000000002], [88.61018000000001, 27.746920000000003], [88.60956, 27.74762], [88.6085, 27.747220000000002], [88.60893, 27.746160000000003], [88.60931000000001, 27.746090000000002]], [[88.73291, 27.7162], [88.73372, 27.716900000000003], [88.73291, 27.717760000000002], [88.73196, 27.717010000000002], [88.73251, 27.716250000000002], [88.73291, 27.7162]], [[88.57253, 27.63765], [88.5734, 27.63847], [88.57278000000001, 27.639180000000003], [88.57171000000001, 27.63877], [88.57215000000001, 27.637710000000002], [88.57253, 27.63765]]]}}, {"id": "49", "type": "Feature", "properties": {"village_name": "Lower Dzongu Forest Block", "vil_lgd": 260975, "district_name": "Mangan", "dist_lgd": 226, "subdistrict_name": "Mangan", "sdcode": 1548, "block_name": "Mangan", "block_lgd": 2.0, "gp_name": "NA", "state_name": "SIKKIM", "state_lgd": 11, "population": 0, "households": 0}, "geometry": {"type": "Polygon", "coordinates": [[[88.45496000000001, 27.427290000000003], [88.45429, 27.428], [88.45514000000001, 27.42885], [88.45607000000001, 27.42808], [88.45540000000001, 27.427300000000002], [88.45496000000001, 27.427290000000003]]]}}, {"id": "50", "type": "Feature", "properties": {"village_name": "Phodong Forest Block", "vil_lgd": 260978, "district_name": "Mangan", "dist_lgd": 226, "subdistrict_name": "Mangan", "sdcode": 1548, "block_name": "Mangan", "block_lgd": 2.0, "gp_name": "NA", "state_name": "SIKKIM", "state_lgd": 11, "population": 10, "households": 5}, "geometry": {"type": "Polygon", "coordinates": [[[88.57757000000001, 27.44527], [88.57703000000001, 27.446240000000003], [88.57816000000001, 27.44675], [88.57876, 27.446040000000004], [88.57798000000001, 27.445220000000003], [88.57757000000001, 27.44527]]]}}, {"id": "51", "type": "Feature", "properties": {"village_name": "Upper Dzongu Forest Block", "vil_lgd": 260974, "district_name": "Mangan", "dist_lgd": 226, "subdistrict_name": "Mangan", "sdcode": 1548, "block_name": "Mangan", "block_lgd": 2.0, "gp_name": "NA", "state_name": "SIKKIM", "state_lgd": 11, "population": 0, "households": 0}, "geometry": {"type": "Polygon", "coordinates": [[[88.45314, 27.52154], [88.45327, 27.522420000000004], [88.45424000000001, 27.522640000000003], [88.45483, 27.52192], [88.45416, 27.521140000000003], [88.45314, 27.52154]]]}}, {"id": "52", "type": "Feature", "properties": {"village_name": "Naga Forest Block", "vil_lgd": 260976, "district_name": "Mangan", "dist_lgd": 226, "subdistrict_name": "Mangan", "sdcode": 1548, "block_name": "Mangan", "block_lgd": 2.0, "gp_name": "NA", "state_name": "SIKKIM", "state_lgd": 11, "population": 10, "households": 10}, "geometry": {"type": "Polygon", "coordinates": [[[88.63986000000001, 27.528380000000002], [88.64067000000001, 27.52924], [88.64162, 27.5285], [88.64068, 27.527680000000004], [88.63986000000001, 27.528380000000002]]]}}, {"id": "53", "type": "Feature", "properties": {"village_name": "Mangan Forest Block", "vil_lgd": 260977, "district_name": "Mangan", "dist_lgd": 226, "subdistrict_name": "Mangan", "sdcode": 1548, "block_name": "Mangan", "block_lgd": 2.0, "gp_name": "NA", "state_name": "SIKKIM", "state_lgd": 11, "population": 9, "households": 9}, "geometry": {"type": "Polygon", "coordinates": [[[88.59239000000001, 27.492960000000004], [88.59195000000001, 27.494010000000003], [88.59302000000001, 27.49442], [88.59364000000001, 27.493710000000004], [88.59277, 27.492890000000003], [88.59239000000001, 27.492960000000004]]]}}, {"id": "54", "type": "Feature", "properties": {"village_name": "Lachen Forest Block", "vil_lgd": 260930, "district_name": "Mangan", "dist_lgd": 226, "subdistrict_name": "Chungthang", "sdcode": 1547, "block_name": "Chungthang", "block_lgd": 1.0, "gp_name": "NA", "state_name": "SIKKIM", "state_lgd": 11, "population": 3, "households": 2}, "geometry": {"type": "Polygon", "coordinates": [[[88.60893, 27.746160000000003], [88.6085, 27.747220000000002], [88.60956, 27.74762], [88.61018000000001, 27.746920000000003], [88.60931000000001, 27.746090000000002], [88.60893, 27.746160000000003]]]}}, {"id": "55", "type": "Feature", "properties": {"village_name": "Tshungthang Forest Block", "vil_lgd": 260933, "district_name": "Mangan", "dist_lgd": 226, "subdistrict_name": "Chungthang", "sdcode": 1547, "block_name": "Chungthang", "block_lgd": 1.0, "gp_name": "NA", "state_name": "SIKKIM", "state_lgd": 11, "population": 0, "households": 0}, "geometry": {"type": "Polygon", "coordinates": [[[88.57215000000001, 27.637710000000002], [88.57171000000001, 27.63877], [88.57278000000001, 27.639180000000003], [88.5734, 27.63847], [88.57253, 27.63765], [88.57215000000001, 27.637710000000002]]]}}, {"id": "56", "type": "Feature", "properties": {"village_name": "Kabi Forest Block", "vil_lgd": 260979, "district_name": "Mangan", "dist_lgd": 226, "subdistrict_name": "Mangan", "sdcode": 1548, "block_name": "Mangan", "block_lgd": 2.0, "gp_name": "NA", "state_name": "SIKKIM", "state_lgd": 11, "population": 5, "households": 3}, "geometry": {"type": "Polygon", "coordinates": [[[88.66768, 27.410950000000003], [88.66885, 27.411440000000002], [88.66940000000001, 27.41064], [88.6684, 27.409940000000002], [88.66768, 27.410950000000003]]]}}, {"id": "57", "type": "Feature", "properties": {"village_name": "Lachung Forest Block", "vil_lgd": 260932, "district_name": "Mangan", "dist_lgd": 226, "subdistrict_name": "Chungthang", "sdcode": 1547, "block_name": "Chungthang", "block_lgd": 1.0, "gp_name": "NA", "state_name": "SIKKIM", "state_lgd": 11, "population": 4, "households": 1}, "geometry": {"type": "Polygon", "coordinates": [[[88.73251, 27.716250000000002], [88.73196, 27.717010000000002], [88.73291, 27.717760000000002], [88.73372, 27.716900000000003], [88.73291, 27.7162], [88.73251, 27.716250000000002]]]}}, {"id": "58", "type": "Feature", "properties": {"village_name": "Thangu Forest Block", "vil_lgd": 260931, "district_name": "Mangan", "dist_lgd": 226, "subdistrict_name": "Chungthang", "sdcode": 1547, "block_name": "Chungthang", "block_lgd": 1.0, "gp_name": "NA", "state_name": "SIKKIM", "state_lgd": 11, "population": 1294, "households": 63}, "geometry": {"type": "Polygon", "coordinates": [[[88.59379000000001, 27.893060000000002], [88.59455000000001, 27.893790000000003], [88.59556, 27.893060000000002], [88.59466, 27.89224], [88.59379000000001, 27.893060000000002]]]}}]}