{"type":"FeatureCollection","metadata":{"source":"India Geodata project (LGD-sourced village boundaries), https://github.com/yashveeeeeeer/india-geodata","license":"Mixed CC0-1.0/CC-BY-4.0, per India Geodata project documentation","fetch_date":"2026-08-01","processing":"Douglas-Peucker simplification tolerance 0.0005 deg (~55m), coordinates rounded to 5 decimal places (~1m), matching this repo's existing village-layer convention","quality":"community-sourced, not government-published -- see docs/DATA_SOURCES.md"},"features":[{"type":"Feature","geometry":{"type":"Polygon","coordinates":[[[76.76896,30.77573],[76.76854,30.77408],[76.76976,30.77244],[76.77489,30.77063],[76.77786,30.77196],[76.78012,30.7768],[76.78348,30.77057],[76.79047,30.77071],[76.79169,30.76871],[76.79605,30.77103],[76.79952,30.77077],[76.80516,30.76539],[76.81534,30.75302],[76.81324,30.75271],[76.81293,30.74849],[76.8253,30.74821],[76.8253,30.74671],[76.82708,30.74788],[76.82938,30.74731],[76.82769,30.7501],[76.8299,30.74768],[76.83286,30.7502],[76.83524,30.75031],[76.83384,30.74983],[76.83387,30.74434],[76.83494,30.74184],[76.83686,30.74266],[76.8315,30.73951],[76.83196,30.73865],[76.83305,30.73879],[76.83716,30.73345],[76.83885,30.73376],[76.84184,30.73272],[76.84319,30.73111],[76.84742,30.73141],[76.84822,30.7303],[76.84639,30.72968],[76.8494,30.72339],[76.84607,30.72229],[76.84357,30.71921],[76.84503,30.71719],[76.84945,30.71827],[76.84677,30.71689],[76.84832,30.7153],[76.84723,30.71228],[76.84392,30.70798],[76.8387,30.70588],[76.83555,30.70358],[76.83528,30.70155],[76.8286,30.69465],[76.83022,30.69345],[76.82738,30.69197],[76.82755,30.6898],[76.82516,30.68825],[76.82621,30.68668],[76.82762,30.68767],[76.83189,30.68323],[76.82922,30.68196],[76.82914,30.68093],[76.82745,30.68213],[76.82247,30.67926],[76.81753,30.68618],[76.81536,30.6873],[76.81647,30.69139],[76.81576,30.69148],[76.81519,30.6945],[76.81586,30.69478],[76.81829,30.70288],[76.81537,30.70301],[76.81213,30.69942],[76.81056,30.69611],[76.8112,30.69166],[76.8145,30.68687],[76.81392,30.68647],[76.81525,30.68219],[76.82084,30.67485],[76.81691,30.67296],[76.8165,30.67138],[76.81485,30.67081],[76.81413,30.67677],[76.81284,30.67817],[76.81194,30.68147],[76.80705,30.68181],[76.81408,30.67057],[76.81167,30.67004],[76.80876,30.66732],[76.80259,30.66649],[76.80047,30.6702],[76.79672,30.66751],[76.79431,30.66951],[76.79017,30.67557],[76.78195,30.6737],[76.78088,30.67386],[76.77872,30.67618],[76.77756,30.67386],[76.77397,30.67507],[76.77512,30.67749],[76.77432,30.67773],[76.77467,30.67839],[76.76991,30.68009],[76.7665,30.68327],[76.7737,30.68091],[76.77449,30.68246],[76.773,30.68314],[76.77036,30.68631],[76.76575,30.68436],[76.76355,30.68663],[76.75687,30.68612],[76.75276,30.68449],[76.75026,30.68831],[76.74777,30.68754],[76.74717,30.6955],[76.73932,30.69286],[76.73962,30.69806],[76.7379,30.69981],[76.73936,30.70033],[76.7391,30.70575],[76.73003,30.70683],[76.72909,30.71177],[76.73137,30.71258],[76.72855,30.71578],[76.73121,30.71741],[76.7311,30.72356],[76.73051,30.72414],[76.72957,30.72348],[76.72576,30.72783],[76.72321,30.72841],[76.72127,30.72997],[76.71572,30.73721],[76.71419,30.74093],[76.7133,30.74049],[76.71284,30.74124],[76.70747,30.73945],[76.70518,30.74292],[76.70651,30.74437],[76.71111,30.74401],[76.71111,30.74265],[76.71341,30.74267],[76.71447,30.74428],[76.7163,30.74467],[76.71684,30.7456],[76.71758,30.75898],[76.71072,30.75584],[76.708,30.75626],[76.70798,30.75834],[76.71076,30.76098],[76.7136,30.76199],[76.71392,30.76309],[76.71579,30.76273],[76.71847,30.7639],[76.7207,30.76316],[76.72139,30.76357],[76.72108,30.76416],[76.72568,30.76642],[76.7267,30.76527],[76.72967,30.76465],[76.72976,30.76391],[76.73257,30.76295],[76.73732,30.75933],[76.74497,30.75843],[76.74358,30.76319],[76.73844,30.76329],[76.73876,30.76562],[76.74264,30.76565],[76.74379,30.76731],[76.7429,30.7694],[76.74375,30.76985],[76.74374,30.77142],[76.7455,30.77227],[76.74502,30.77427],[76.74331,30.77592],[76.74807,30.77833],[76.75377,30.77823],[76.75475,30.78123],[76.75555,30.78114],[76.75579,30.77929],[76.7582,30.77829],[76.76002,30.78259],[76.75623,30.78634],[76.75924,30.78819],[76.75897,30.78898],[76.76172,30.79147],[76.76779,30.79436],[76.76949,30.79419],[76.77119,30.79509],[76.77128,30.78771],[76.77003,30.78638],[76.76997,30.77792],[76.76896,30.77573]],[[76.75581,30.77171],[76.75569,30.77099],[76.75262,30.77122],[76.74941,30.76902],[76.75156,30.76888],[76.75167,30.76774],[76.75277,30.76777],[76.75271,30.76691],[76.75405,30.76689],[76.7543,30.76618],[76.75711,30.76785],[76.7576,30.7717],[76.75581,30.77171]],[[76.73145,30.7599],[76.731,30.76266],[76.72519,30.76441],[76.72381,30.76208],[76.72543,30.76207],[76.72513,30.76027],[76.72856,30.76032],[76.73143,30.75911],[76.73145,30.7599]],[[76.72532,30.75543],[76.72511,30.75427],[76.72443,30.75434],[76.72433,30.75146],[76.73002,30.75486],[76.72875,30.75568],[76.72871,30.75737],[76.72618,30.75728],[76.72604,30.75569],[76.72532,30.75543]],[[76.7453,30.75512],[76.74208,30.75448],[76.74247,30.75],[76.7432,30.75],[76.74677,30.75423],[76.74672,30.75495],[76.7453,30.75512]],[[76.73688,30.7319],[76.73649,30.73238],[76.73732,30.73303],[76.73607,30.73439],[76.73268,30.73213],[76.73464,30.73051],[76.73688,30.7319]],[[76.7282,30.73154],[76.72784,30.73293],[76.72641,30.73274],[76.72583,30.73434],[76.72444,30.73437],[76.72596,30.7304],[76.72829,30.73019],[76.7282,30.73154]],[[76.73531,30.71394],[76.73945,30.71324],[76.73958,30.71681],[76.73743,30.71656],[76.73743,30.71738],[76.73544,30.71751],[76.73531,30.71394]],[[76.76104,30.70504],[76.76352,30.70492],[76.76412,30.71032],[76.75734,30.71038],[76.75758,30.7054],[76.76104,30.70504]],[[76.79718,30.69363],[76.79481,30.69308],[76.79866,30.68807],[76.8038,30.68902],[76.80265,30.69199],[76.80005,30.6943],[76.79718,30.69363]],[[76.79869,30.67884],[76.79874,30.67721],[76.80195,30.6781],[76.80083,30.68011],[76.79869,30.67884]],[[76.82697,30.69409],[76.82757,30.69378],[76.82825,30.69437],[76.82781,30.69475],[76.82697,30.69409]],[[76.82496,30.6837],[76.82652,30.68438],[76.82553,30.68656],[76.82391,30.68611],[76.82368,30.68534],[76.82496,30.6837]]]},"properties":{"vil_lgd":0,"village_name":"CHANDIGARH","district_name":"Chandigarh","subdistrict_name":"Chandigarh","block_name":"CHANDIGARH","gp_name":"","state_name":"CHANDIGARH","dist_lgd":44,"state_lgd":4}},{"type":"Feature","geometry":{"type":"Polygon","coordinates":[[[76.80083,30.68011],[76.80195,30.6781],[76.79874,30.67721],[76.79867,30.67891],[76.80083,30.68011]]]},"properties":{"vil_lgd":40098,"village_name":"Behlana (CT)","district_name":"Chandigarh","subdistrict_name":"Chandigarh","block_name":"CHANDIGARH","gp_name":"","state_name":"CHANDIGARH","dist_lgd":44,"state_lgd":4}},{"type":"Feature","geometry":{"type":"Polygon","coordinates":[[[76.81485,30.67081],[76.81408,30.67057],[76.81281,30.67227],[76.80705,30.68181],[76.81194,30.68147],[76.81284,30.67817],[76.81413,30.67677],[76.81485,30.67081]]]},"properties":{"vil_lgd":40092,"village_name":"Raipur Khurd","district_name":"Chandigarh","subdistrict_name":"Chandigarh","block_name":"CHANDIGARH","gp_name":"","state_name":"CHANDIGARH","dist_lgd":44,"state_lgd":4}},{"type":"Feature","geometry":{"type":"Polygon","coordinates":[[[76.82652,30.68438],[76.8247,30.68373],[76.82385,30.68448],[76.82391,30.68611],[76.82553,30.68656],[76.82652,30.68438]]]},"properties":{"vil_lgd":40093,"village_name":"Raipur Kalan & Makhan Majra","district_name":"Chandigarh","subdistrict_name":"Chandigarh","block_name":"CHANDIGARH","gp_name":"","state_name":"CHANDIGARH","dist_lgd":44,"state_lgd":4}},{"type":"Feature","geometry":{"type":"Polygon","coordinates":[[[76.80005,30.6943],[76.80265,30.69199],[76.8038,30.68902],[76.79866,30.68807],[76.79481,30.69308],[76.80005,30.6943]]]},"properties":{"vil_lgd":0,"village_name":"HALO MAJRA","district_name":"Chandigarh","subdistrict_name":"Chandigarh","block_name":"CHANDIGARH","gp_name":"","state_name":"CHANDIGARH","dist_lgd":44,"state_lgd":4}},{"type":"Feature","geometry":{"type":"MultiPolygon","coordinates":[[[[76.77104,30.68305],[76.76962,30.68202],[76.76702,30.68291],[76.76575,30.68436],[76.77036,30.68631],[76.77087,30.68536],[76.76973,30.68438],[76.77104,30.68305]]],[[[76.76397,30.70613],[76.76352,30.70492],[76.75758,30.7054],[76.75734,30.71038],[76.76412,30.71032],[76.76397,30.70613]]]]},"properties":{"vil_lgd":0,"village_name":"BURAIL","district_name":"Chandigarh","subdistrict_name":"Chandigarh","block_name":"CHANDIGARH","gp_name":"","state_name":"CHANDIGARH","dist_lgd":44,"state_lgd":4}},{"type":"Feature","geometry":{"type":"Polygon","coordinates":[[[76.73743,30.71738],[76.73743,30.71656],[76.73958,30.71681],[76.73945,30.71324],[76.73531,30.71394],[76.73544,30.71751],[76.73743,30.71738]]]},"properties":{"vil_lgd":0,"village_name":"KAJHERI","district_name":"Chandigarh","subdistrict_name":"Chandigarh","block_name":"CHANDIGARH","gp_name":"","state_name":"CHANDIGARH","dist_lgd":44,"state_lgd":4}},{"type":"Feature","geometry":{"type":"Polygon","coordinates":[[[76.72583,30.73434],[76.72641,30.73274],[76.72784,30.73293],[76.72829,30.73019],[76.72596,30.7304],[76.72444,30.73437],[76.72583,30.73434]]]},"properties":{"vil_lgd":0,"village_name":"PALSORA","district_name":"Chandigarh","subdistrict_name":"Chandigarh","block_name":"CHANDIGARH","gp_name":"","state_name":"CHANDIGARH","dist_lgd":44,"state_lgd":4}},{"type":"Feature","geometry":{"type":"Polygon","coordinates":[[[76.82881,30.76129],[76.83675,30.75498],[76.83888,30.75101],[76.83286,30.7502],[76.8299,30.74768],[76.82769,30.7501],[76.82938,30.74731],[76.82708,30.74788],[76.8253,30.74671],[76.8253,30.74821],[76.81293,30.74849],[76.81324,30.75271],[76.81561,30.75271],[76.81768,30.75409],[76.81813,30.75743],[76.82024,30.76096],[76.82421,30.76096],[76.82478,30.76247],[76.82635,30.7633],[76.82881,30.76129]]]},"properties":{"vil_lgd":40089,"village_name":"Kaimbwala","district_name":"Chandigarh","subdistrict_name":"Chandigarh","block_name":"CHANDIGARH","gp_name":"","state_name":"CHANDIGARH","dist_lgd":44,"state_lgd":4}},{"type":"Feature","geometry":{"type":"MultiPolygon","coordinates":[[[[76.72969,30.75462],[76.72627,30.75247],[76.72433,30.75146],[76.72443,30.75434],[76.72604,30.75569],[76.72618,30.75728],[76.72871,30.75737],[76.72875,30.75568],[76.72999,30.75516],[76.72969,30.75462]]],[[[76.71758,30.75898],[76.71754,30.75254],[76.71676,30.75251],[76.71759,30.75162],[76.71729,30.74713],[76.7163,30.74467],[76.71447,30.74428],[76.71341,30.74267],[76.71111,30.74265],[76.71111,30.74401],[76.70651,30.74437],[76.7059,30.7474],[76.70715,30.74782],[76.70794,30.74973],[76.70707,30.75382],[76.70525,30.75534],[76.70561,30.75645],[76.70798,30.75834],[76.708,30.75626],[76.71072,30.75584],[76.71758,30.75898]]],[[[76.72982,30.76283],[76.72977,30.75999],[76.72513,30.76027],[76.72543,30.76207],[76.72381,30.76208],[76.72519,30.76441],[76.72982,30.76283]]]]},"properties":{"vil_lgd":0,"village_name":"MALOYA","district_name":"Chandigarh","subdistrict_name":"Chandigarh","block_name":"CHANDIGARH","gp_name":"","state_name":"CHANDIGARH","dist_lgd":44,"state_lgd":4}},{"type":"Feature","geometry":{"type":"Polygon","coordinates":[[[76.7576,30.7717],[76.75711,30.76785],[76.7543,30.76618],[76.75405,30.76689],[76.75271,30.76691],[76.75277,30.76777],[76.75167,30.76774],[76.75156,30.76888],[76.74941,30.76902],[76.75262,30.77122],[76.75569,30.77099],[76.75581,30.77171],[76.7576,30.7717]]]},"properties":{"vil_lgd":40091,"village_name":"Dhanas","district_name":"Chandigarh","subdistrict_name":"Chandigarh","block_name":"CHANDIGARH","gp_name":"","state_name":"CHANDIGARH","dist_lgd":44,"state_lgd":4}},{"type":"Feature","geometry":{"type":"Polygon","coordinates":[[[76.75925,30.7818],[76.7582,30.77829],[76.75579,30.77929],[76.75555,30.78114],[76.75475,30.78123],[76.75377,30.77823],[76.7498,30.77863],[76.75234,30.78025],[76.75241,30.7831],[76.75171,30.78424],[76.75623,30.78634],[76.76002,30.78259],[76.75925,30.7818]]]},"properties":{"vil_lgd":40090,"village_name":"Sarangpur","district_name":"Chandigarh","subdistrict_name":"Chandigarh","block_name":"CHANDIGARH","gp_name":"","state_name":"CHANDIGARH","dist_lgd":44,"state_lgd":4}},{"type":"Feature","geometry":{"type":"Polygon","coordinates":[[[76.77233,30.79414],[76.77556,30.79051],[76.78278,30.78917],[76.7873,30.77895],[76.77898,30.77812],[76.76896,30.77573],[76.76997,30.77792],[76.77003,30.78638],[76.77128,30.78771],[76.77119,30.79509],[76.77233,30.79414]]]},"properties":{"vil_lgd":40099,"village_name":"Lahora (OG)","district_name":"Chandigarh","subdistrict_name":"Chandigarh","block_name":"CHANDIGARH","gp_name":"","state_name":"CHANDIGARH","dist_lgd":44,"state_lgd":4}},{"type":"Feature","geometry":{"type":"Polygon","coordinates":[[[76.81547,30.69358],[76.8112,30.69165],[76.81081,30.69716],[76.81537,30.70301],[76.81829,30.70288],[76.81586,30.69478],[76.81519,30.6945],[76.81547,30.69358]]]},"properties":{"vil_lgd":40096,"village_name":"Daria (CT)","district_name":"Chandigarh","subdistrict_name":"Chandigarh","block_name":"CHANDIGARH","gp_name":"","state_name":"CHANDIGARH","dist_lgd":44,"state_lgd":4}},{"type":"Feature","geometry":{"type":"MultiPolygon","coordinates":[[[[76.81536,30.6873],[76.8145,30.68688],[76.8112,30.69165],[76.81547,30.69358],[76.81576,30.69148],[76.81647,30.69139],[76.81536,30.6873]]],[[[76.82825,30.69437],[76.82757,30.69378],[76.82697,30.69409],[76.82781,30.69475],[76.82825,30.69437]]]]},"properties":{"vil_lgd":40097,"village_name":"Mauli Jagran (CT)","district_name":"Chandigarh","subdistrict_name":"Chandigarh","block_name":"CHANDIGARH","gp_name":"","state_name":"CHANDIGARH","dist_lgd":44,"state_lgd":4}},{"type":"Feature","geometry":{"type":"Polygon","coordinates":[[[76.7732,30.68105],[76.76973,30.68438],[76.77118,30.68553],[76.773,30.68314],[76.77449,30.68246],[76.7732,30.68105]]]},"properties":{"vil_lgd":0,"village_name":"BAIR MAJRA","district_name":"Chandigarh","subdistrict_name":"Chandigarh","block_name":"CHANDIGARH","gp_name":"","state_name":"CHANDIGARH","dist_lgd":44,"state_lgd":4}},{"type":"Feature","geometry":{"type":"MultiPolygon","coordinates":[[[[76.7453,30.75512],[76.74672,30.75495],[76.74677,30.75423],[76.7432,30.75],[76.74247,30.75],[76.74208,30.75448],[76.7453,30.75512]]],[[[76.73145,30.7599],[76.73143,30.75911],[76.72977,30.75999],[76.72982,30.76284],[76.731,30.76266],[76.73145,30.7599]]],[[[76.7429,30.7694],[76.74379,30.76731],[76.74319,30.76637],[76.74264,30.76565],[76.73876,30.76562],[76.73844,30.76329],[76.74358,30.76319],[76.74497,30.75843],[76.73732,30.75933],[76.73257,30.76295],[76.72976,30.76391],[76.72967,30.76465],[76.7429,30.7694]]]]},"properties":{"vil_lgd":0,"village_name":"DADU MAJRA","district_name":"Chandigarh","subdistrict_name":"Chandigarh","block_name":"CHANDIGARH","gp_name":"","state_name":"CHANDIGARH","dist_lgd":44,"state_lgd":4}},{"type":"Feature","geometry":{"type":"Polygon","coordinates":[[[76.82288,30.67898],[76.82105,30.67768],[76.82084,30.67485],[76.81525,30.68219],[76.81392,30.68647],[76.81537,30.6873],[76.81753,30.68618],[76.82288,30.67898]]]},"properties":{"vil_lgd":0,"village_name":"MAKHAN MAJRA","district_name":"Chandigarh","subdistrict_name":"Chandigarh","block_name":"CHANDIGARH","gp_name":"","state_name":"CHANDIGARH","dist_lgd":44,"state_lgd":4}},{"type":"Feature","geometry":{"type":"Polygon","coordinates":[[[76.73688,30.7319],[76.73464,30.73051],[76.73268,30.73213],[76.73607,30.73439],[76.73732,30.73303],[76.73649,30.73238],[76.73688,30.7319]]]},"properties":{"vil_lgd":0,"village_name":"BADHERI","district_name":"Chandigarh","subdistrict_name":"Chandigarh","block_name":"CHANDIGARH","gp_name":"","state_name":"CHANDIGARH","dist_lgd":44,"state_lgd":4}},{"type":"Feature","geometry":{"type":"MultiPolygon","coordinates":[[[[76.77397,30.67507],[76.77756,30.67386],[76.77872,30.67618],[76.78088,30.67386],[76.77939,30.67153],[76.77687,30.67035],[76.77596,30.67166],[76.7744,30.6721],[76.76991,30.68009],[76.77467,30.67839],[76.77432,30.67773],[76.77512,30.67749],[76.77397,30.67507]]],[[[76.77107,30.68301],[76.7732,30.68105],[76.76962,30.68202],[76.77107,30.68301]]]]},"properties":{"vil_lgd":0,"village_name":"CHAR TARF BURAIL","district_name":"Chandigarh","subdistrict_name":"Chandigarh","block_name":"CHANDIGARH","gp_name":"","state_name":"CHANDIGARH","dist_lgd":44,"state_lgd":4}},{"type":"Feature","geometry":{"type":"Polygon","coordinates":[[[76.77992,30.77782],[76.77989,30.77589],[76.77786,30.77196],[76.77601,30.77075],[76.77077,30.77193],[76.76868,30.77365],[76.76896,30.77573],[76.77992,30.77782]]]},"properties":{"vil_lgd":40100,"village_name":"Khuda Jassu (OG)","district_name":"Chandigarh","subdistrict_name":"Chandigarh","block_name":"CHANDIGARH","gp_name":"","state_name":"CHANDIGARH","dist_lgd":44,"state_lgd":4}},{"type":"Feature","geometry":{"type":"Polygon","coordinates":[[[76.81855,30.77795],[76.81812,30.77544],[76.81953,30.77456],[76.81957,30.77365],[76.81812,30.77129],[76.80735,30.76664],[76.80537,30.76497],[76.79837,30.77134],[76.79818,30.77206],[76.79997,30.77286],[76.80213,30.77557],[76.80744,30.77739],[76.80917,30.77936],[76.81212,30.77925],[76.81352,30.78017],[76.81544,30.77801],[76.81855,30.77795]]]},"properties":{"vil_lgd":40094,"village_name":"Khuda Alisher (CT)","district_name":"Chandigarh","subdistrict_name":"Chandigarh","block_name":"CHANDIGARH","gp_name":"","state_name":"CHANDIGARH","dist_lgd":44,"state_lgd":4}}]}