{"type":"FeatureCollection","metadata":{"source":"India Geodata project (LGD-sourced village boundaries), https://github.com/yashveeeeeeer/india-geodata","license":"Mixed CC0-1.0/CC-BY-4.0, per India Geodata project documentation","fetch_date":"2026-08-01","processing":"Douglas-Peucker simplification tolerance 0.0005 deg (~55m), coordinates rounded to 5 decimal places (~1m), matching this repo's existing village-layer convention","quality":"community-sourced, not government-published -- see docs/DATA_SOURCES.md"},"features":[{"type":"Feature","geometry":{"type":"Polygon","coordinates":[[[73.05273,8.2735],[73.04785,8.26744],[73.04562,8.26586],[73.04199,8.2652],[73.03525,8.26563],[73.03102,8.26627],[73.02006,8.27002],[73.01822,8.27141],[73.017,8.27686],[73.01782,8.27723],[73.02065,8.27536],[73.02141,8.27329],[73.01804,8.27578],[73.02093,8.27261],[73.02746,8.27203],[73.03356,8.2734],[73.03953,8.27338],[73.04699,8.27667],[73.05502,8.28323],[73.05936,8.29078],[73.06286,8.29508],[73.06788,8.31033],[73.07416,8.32185],[73.07764,8.3255],[73.07481,8.32177],[73.06925,8.31146],[73.06614,8.30399],[73.06484,8.29496],[73.06566,8.28773],[73.06521,8.28616],[73.05273,8.2735]]]},"properties":{"vil_lgd":627056,"village_name":" ","district_name":"Lakshadweep District","subdistrict_name":"Minicoy","block_name":"MINICOY","gp_name":"MINICOY","state_name":"LAKSHADWEEP","dist_lgd":553,"state_lgd":31}},{"type":"Feature","geometry":{"type":"Polygon","coordinates":[[[72.64338,10.57943],[72.64632,10.57917],[72.65009,10.57322],[72.65063,10.57037],[72.64893,10.56465],[72.64589,10.56243],[72.63549,10.55854],[72.62354,10.54941],[72.61933,10.5444],[72.61644,10.54328],[72.61581,10.54538],[72.61767,10.54761],[72.62295,10.54956],[72.63115,10.56184],[72.63858,10.57472],[72.63986,10.58035],[72.64338,10.57943]]]},"properties":{"vil_lgd":627038,"village_name":" ","district_name":"Lakshadweep District","subdistrict_name":"Kavaratti","block_name":"KAVARATTI","gp_name":"KAVARATTI","state_name":"LAKSHADWEEP","dist_lgd":553,"state_lgd":31}},{"type":"Feature","geometry":{"type":"Polygon","coordinates":[[[73.66725,10.81865],[73.67571,10.81739],[73.67783,10.81822],[73.69861,10.81747],[73.70066,10.81659],[73.70092,10.8154],[73.69902,10.81281],[73.69211,10.81103],[73.68341,10.80729],[73.67651,10.80529],[73.67092,10.80508],[73.66289,10.80676],[73.66043,10.80874],[73.65898,10.81208],[73.65881,10.81557],[73.65986,10.81747],[73.66211,10.81835],[73.66725,10.81865]]]},"properties":{"vil_lgd":627046,"village_name":" ","district_name":"Lakshadweep District","subdistrict_name":"Andrott","block_name":"ANDROTT","gp_name":"VILLAGE(DWEEP)PANCHAYAT ANDROTT","state_name":"LAKSHADWEEP","dist_lgd":553,"state_lgd":31}},{"type":"Feature","geometry":{"type":"Polygon","coordinates":[[[72.20221,10.87964],[72.20512,10.8797],[72.20577,10.87866],[72.20209,10.87045],[72.18847,10.84914],[72.18255,10.83841],[72.17898,10.82992],[72.17211,10.82117],[72.16937,10.81928],[72.17834,10.83194],[72.18741,10.85038],[72.19392,10.87242],[72.20033,10.87993],[72.20221,10.87964]]]},"properties":{"vil_lgd":627044,"village_name":" ","district_name":"Lakshadweep District","subdistrict_name":"Agatti","block_name":"AGATTI","gp_name":"VILLAGE(DWEEP)PANCHAYAT AGATTI","state_name":"LAKSHADWEEP","dist_lgd":553,"state_lgd":31}},{"type":"Feature","geometry":{"type":"Polygon","coordinates":[[[72.28812,10.94762],[72.29275,10.94717],[72.29012,10.94718],[72.28882,10.94535],[72.2898,10.94115],[72.292,10.93805],[72.2888,10.93678],[72.28494,10.93733],[72.28396,10.93864],[72.28639,10.94743],[72.28694,10.94825],[72.28812,10.94762]]]},"properties":{"vil_lgd":627043,"village_name":" ","district_name":"Lakshadweep District","subdistrict_name":"Agatti","block_name":"AGATTI","gp_name":"VILLAGE(DWEEP)PANCHAYAT AGATTI","state_name":"LAKSHADWEEP","dist_lgd":553,"state_lgd":31}},{"type":"Feature","geometry":{"type":"Polygon","coordinates":[[[72.7321,11.13768],[72.73328,11.1372],[72.73374,11.13545],[72.73047,11.12676],[72.7266,11.1215],[72.71902,11.11498],[72.71679,11.11754],[72.71585,11.12059],[72.71619,11.12488],[72.7178,11.12837],[72.72024,11.13151],[72.72849,11.13739],[72.7321,11.13768]]]},"properties":{"vil_lgd":627030,"village_name":" ","district_name":"Lakshadweep District","subdistrict_name":"Amini","block_name":"AMINI","gp_name":"VILLAGE(DWEEP)PANCHAYAT AMINI","state_name":"LAKSHADWEEP","dist_lgd":553,"state_lgd":31}},{"type":"Feature","geometry":{"type":"Polygon","coordinates":[[[72.76133,11.18393],[72.7639,11.19816],[72.77137,11.21797],[72.77871,11.24369],[72.78513,11.25803],[72.78667,11.26009],[72.78946,11.26149],[72.78926,11.25658],[72.78187,11.23875],[72.77633,11.21849],[72.76887,11.20677],[72.76388,11.19228],[72.76233,11.18526],[72.76133,11.18393]]]},"properties":{"vil_lgd":627034,"village_name":" ","district_name":"Lakshadweep District","subdistrict_name":"Kadmat","block_name":"KADMAT","gp_name":"KADMAT","state_name":"LAKSHADWEEP","dist_lgd":553,"state_lgd":31}},{"type":"Feature","geometry":{"type":"Polygon","coordinates":[[[73.00764,11.47085],[73.0063,11.47132],[73.00741,11.47383],[73.00516,11.47908],[73.00183,11.49405],[72.99924,11.4953],[72.99741,11.4983],[72.99878,11.49952],[73.00135,11.4994],[73.00403,11.49759],[73.00918,11.48868],[73.00925,11.48181],[73.01108,11.47429],[73.00764,11.47085]]]},"properties":{"vil_lgd":627033,"village_name":" ","district_name":"Lakshadweep District","subdistrict_name":"Kiltan","block_name":"KILTAN","gp_name":"KILTAN","state_name":"LAKSHADWEEP","dist_lgd":553,"state_lgd":31}},{"type":"Feature","geometry":{"type":"Polygon","coordinates":[[[72.18652,11.60274],[72.18847,11.60172],[72.18968,11.5999],[72.18573,11.5999],[72.1845,11.60271],[72.18652,11.60274]]]},"properties":{"vil_lgd":627031,"village_name":" ","district_name":"Lakshadweep District","subdistrict_name":"Bitra","block_name":"BITRA","gp_name":"BITRA","state_name":"LAKSHADWEEP","dist_lgd":553,"state_lgd":31}},{"type":"Feature","geometry":{"type":"Polygon","coordinates":[[[73.0132,8.30322],[73.01286,8.30334],[73.01294,8.30358],[73.01325,8.30351],[73.0132,8.30322]]]},"properties":{"vil_lgd":627055,"village_name":" ","district_name":"Lakshadweep District","subdistrict_name":"Minicoy","block_name":"MINICOY","gp_name":"MINICOY","state_name":"LAKSHADWEEP","dist_lgd":553,"state_lgd":31}},{"type":"Feature","geometry":{"type":"Polygon","coordinates":[[[73.63003,10.06934],[73.62959,10.06972],[73.63093,10.06978],[73.63049,10.0694],[73.63003,10.06934]]]},"properties":{"vil_lgd":627049,"village_name":" ","district_name":"Lakshadweep District","subdistrict_name":"Kalpeni","block_name":"KALPENI","gp_name":"KALPENI","state_name":"LAKSHADWEEP","dist_lgd":553,"state_lgd":31}},{"type":"Feature","geometry":{"type":"Polygon","coordinates":[[[73.63242,10.07037],[73.63211,10.06991],[73.63154,10.07012],[73.6322,10.07109],[73.63242,10.07037]]]},"properties":{"vil_lgd":627050,"village_name":" ","district_name":"Lakshadweep District","subdistrict_name":"Kalpeni","block_name":"KALPENI","gp_name":"KALPENI","state_name":"LAKSHADWEEP","dist_lgd":553,"state_lgd":31}},{"type":"Feature","geometry":{"type":"Polygon","coordinates":[[[73.63386,10.07342],[73.63398,10.07294],[73.63307,10.07251],[73.6328,10.07328],[73.63386,10.07342]]]},"properties":{"vil_lgd":627053,"village_name":" ","district_name":"Lakshadweep District","subdistrict_name":"Kalpeni","block_name":"KALPENI","gp_name":"KALPENI","state_name":"LAKSHADWEEP","dist_lgd":553,"state_lgd":31}},{"type":"Feature","geometry":{"type":"Polygon","coordinates":[[[73.63016,10.07428],[73.62975,10.07446],[73.63042,10.07495],[73.63041,10.07462],[73.63016,10.07428]]]},"properties":{"vil_lgd":627051,"village_name":" ","district_name":"Lakshadweep District","subdistrict_name":"Kalpeni","block_name":"KALPENI","gp_name":"KALPENI","state_name":"LAKSHADWEEP","dist_lgd":553,"state_lgd":31}},{"type":"Feature","geometry":{"type":"Polygon","coordinates":[[[73.62723,10.07484],[73.62797,10.07474],[73.6271,10.07363],[73.62544,10.07359],[73.62688,10.07536],[73.62773,10.07527],[73.62723,10.07484]]]},"properties":{"vil_lgd":627052,"village_name":" ","district_name":"Lakshadweep District","subdistrict_name":"Kalpeni","block_name":"KALPENI","gp_name":"KALPENI","state_name":"LAKSHADWEEP","dist_lgd":553,"state_lgd":31}},{"type":"Feature","geometry":{"type":"Polygon","coordinates":[[[73.64693,10.07354],[73.64644,10.05979],[73.64475,10.05824],[73.64038,10.05833],[73.63887,10.05964],[73.63894,10.06295],[73.6342,10.07237],[73.63804,10.07163],[73.63966,10.07225],[73.6433,10.0774],[73.64936,10.09658],[73.65039,10.10307],[73.65073,10.09944],[73.647,10.08242],[73.64693,10.07354]]]},"properties":{"vil_lgd":627054,"village_name":" ","district_name":"Lakshadweep District","subdistrict_name":"Kalpeni","block_name":"KALPENI","gp_name":"KALPENI","state_name":"LAKSHADWEEP","dist_lgd":553,"state_lgd":31}},{"type":"Feature","geometry":{"type":"Polygon","coordinates":[[[73.65171,10.10972],[73.65126,10.10984],[73.65131,10.11063],[73.6518,10.11031],[73.65171,10.10972]]]},"properties":{"vil_lgd":627048,"village_name":" ","district_name":"Lakshadweep District","subdistrict_name":"Kalpeni","block_name":"KALPENI","gp_name":"KALPENI","state_name":"LAKSHADWEEP","dist_lgd":553,"state_lgd":31}},{"type":"Feature","geometry":{"type":"Polygon","coordinates":[[[72.28565,10.04357],[72.28421,10.04244],[72.28259,10.04246],[72.28479,10.04744],[72.28804,10.05094],[72.28981,10.05428],[72.28821,10.04731],[72.28565,10.04357]]]},"properties":{"vil_lgd":627037,"village_name":" ","district_name":"Lakshadweep District","subdistrict_name":"Kavaratti","block_name":"KAVARATTI","gp_name":"KAVARATTI","state_name":"LAKSHADWEEP","dist_lgd":553,"state_lgd":31}},{"type":"Feature","geometry":{"type":"Polygon","coordinates":[[[73.65954,10.15531],[73.66076,10.14909],[73.66338,10.14226],[73.66057,10.131],[73.65919,10.13035],[73.66001,10.13165],[73.66157,10.14177],[73.65854,10.15294],[73.6577,10.15499],[73.65707,10.15378],[73.65691,10.15497],[73.6575,10.15615],[73.65882,10.15661],[73.65954,10.15531]]]},"properties":{"vil_lgd":627047,"village_name":" ","district_name":"Lakshadweep District","subdistrict_name":"Kalpeni","block_name":"KALPENI","gp_name":"KALPENI","state_name":"LAKSHADWEEP","dist_lgd":553,"state_lgd":31}},{"type":"Feature","geometry":{"type":"Polygon","coordinates":[[[72.33731,10.10531],[72.33558,10.10217],[72.33418,10.10094],[72.33648,10.10601],[72.33593,10.10751],[72.33756,10.10644],[72.33731,10.10531]]]},"properties":{"vil_lgd":627035,"village_name":" ","district_name":"Lakshadweep District","subdistrict_name":"Kavaratti","block_name":"KAVARATTI","gp_name":"KAVARATTI","state_name":"LAKSHADWEEP","dist_lgd":553,"state_lgd":31}},{"type":"Feature","geometry":{"type":"Polygon","coordinates":[[[72.33159,10.13125],[72.33231,10.12905],[72.33032,10.13082],[72.32662,10.13095],[72.32761,10.13384],[72.32688,10.13903],[72.32736,10.13982],[72.33102,10.13409],[72.33159,10.13125]]]},"properties":{"vil_lgd":627036,"village_name":" ","district_name":"Lakshadweep District","subdistrict_name":"Kavaratti","block_name":"KAVARATTI","gp_name":"KAVARATTI","state_name":"LAKSHADWEEP","dist_lgd":553,"state_lgd":31}},{"type":"Feature","geometry":{"type":"Polygon","coordinates":[[[72.168,10.81605],[72.16814,10.81393],[72.16411,10.81404],[72.16592,10.8158],[72.168,10.81605]]]},"properties":{"vil_lgd":627045,"village_name":" ","district_name":"Lakshadweep District","subdistrict_name":"Agatti","block_name":"AGATTI","gp_name":"VILLAGE(DWEEP)PANCHAYAT AGATTI","state_name":"LAKSHADWEEP","dist_lgd":553,"state_lgd":31}},{"type":"Feature","geometry":{"type":"Polygon","coordinates":[[[72.32636,10.95245],[72.3198,10.94711],[72.31466,10.94469],[72.31468,10.94854],[72.31631,10.95074],[72.32636,10.95245]]]},"properties":{"vil_lgd":627039,"village_name":" ","district_name":"Lakshadweep District","subdistrict_name":"Agatti","block_name":"AGATTI","gp_name":"VILLAGE(DWEEP)PANCHAYAT AGATTI","state_name":"LAKSHADWEEP","dist_lgd":553,"state_lgd":31}},{"type":"Feature","geometry":{"type":"Polygon","coordinates":[[[72.33257,10.9531],[72.33071,10.95166],[72.32959,10.95258],[72.33236,10.95394],[72.33257,10.9531]]]},"properties":{"vil_lgd":627040,"village_name":" ","district_name":"Lakshadweep District","subdistrict_name":"Agatti","block_name":"AGATTI","gp_name":"VILLAGE(DWEEP)PANCHAYAT AGATTI","state_name":"LAKSHADWEEP","dist_lgd":553,"state_lgd":31}},{"type":"Feature","geometry":{"type":"Polygon","coordinates":[[[72.33411,10.95625],[72.33368,10.95452],[72.33313,10.95415],[72.33225,10.95603],[72.33411,10.95625]]]},"properties":{"vil_lgd":627041,"village_name":" ","district_name":"Lakshadweep District","subdistrict_name":"Agatti","block_name":"AGATTI","gp_name":"VILLAGE(DWEEP)PANCHAYAT AGATTI","state_name":"LAKSHADWEEP","dist_lgd":553,"state_lgd":31}},{"type":"Feature","geometry":{"type":"Polygon","coordinates":[[[72.33472,10.9577],[72.33361,10.95749],[72.3334,10.96035],[72.33444,10.95944],[72.33472,10.9577]]]},"properties":{"vil_lgd":627042,"village_name":" ","district_name":"Lakshadweep District","subdistrict_name":"Agatti","block_name":"AGATTI","gp_name":"VILLAGE(DWEEP)PANCHAYAT AGATTI","state_name":"LAKSHADWEEP","dist_lgd":553,"state_lgd":31}},{"type":"Feature","geometry":{"type":"Polygon","coordinates":[[[72.71529,11.6928],[72.70915,11.68411],[72.708,11.68344],[72.70497,11.68355],[72.70552,11.68587],[72.708,11.6871],[72.70967,11.69361],[72.71328,11.70185],[72.71575,11.70498],[72.71663,11.69578],[72.71529,11.6928]]]},"properties":{"vil_lgd":627032,"village_name":" ","district_name":"Lakshadweep District","subdistrict_name":"Chetlat","block_name":"CHETLAT","gp_name":"CHETLAT","state_name":"LAKSHADWEEP","dist_lgd":553,"state_lgd":31}}]}