{"type":"FeatureCollection","metadata":{"source":"India Geodata project (LGD-sourced village boundaries), https://github.com/yashveeeeeeer/india-geodata","license":"Mixed CC0-1.0/CC-BY-4.0, per India Geodata project documentation","fetch_date":"2026-08-01","processing":"Douglas-Peucker simplification tolerance 0.0005 deg (~55m), coordinates rounded to 5 decimal places (~1m), matching this repo's existing village-layer convention","quality":"community-sourced, not government-published -- see docs/DATA_SOURCES.md"},"features":[{"type":"Feature","geometry":{"type":"Polygon","coordinates":[[[91.48363,25.89745],[91.48673,25.89625],[91.49119,25.89653],[91.49141,25.89574],[91.484,25.89304],[91.48034,25.88938],[91.48256,25.89263],[91.48261,25.89736],[91.48363,25.89745]]]},"properties":{"vil_lgd":303289,"village_name":"Katal Para N.C.","district_name":"Kamrup","subdistrict_name":"Jirang","block_name":"RANI","gp_name":"DAKHIN BHOLAGAON","state_name":"MEGHALAYA","dist_lgd":291,"state_lgd":18}}]}