{"type":"FeatureCollection","metadata":{"source":"India Geodata project (LGD-sourced village boundaries), https://github.com/yashveeeeeeer/india-geodata","license":"Mixed CC0-1.0/CC-BY-4.0, per India Geodata project documentation","fetch_date":"2026-08-01","processing":"Douglas-Peucker simplification tolerance 0.0005 deg (~55m), coordinates rounded to 5 decimal places (~1m), matching this repo's existing village-layer convention","quality":"community-sourced, not government-published -- see docs/DATA_SOURCES.md"},"features":[{"type":"Feature","geometry":{"type":"Polygon","coordinates":[[[79.69922,11.82304],[79.702,11.82291],[79.70275,11.8162],[79.70423,11.81347],[79.69299,11.81374],[79.69459,11.82304],[79.69922,11.82304]]]},"properties":{"vil_lgd":644974,"village_name":"Kaduvanur","district_name":"Pondicherry","subdistrict_name":"Bahour Taluk","block_name":"ARIANKUPPAM","gp_name":"MANAMEDU","state_name":"PUDUCHERRY","dist_lgd":600,"state_lgd":34}},{"type":"Feature","geometry":{"type":"Polygon","coordinates":[[[79.75549,11.86785],[79.75387,11.86593],[79.75457,11.86582],[79.75442,11.86411],[79.75374,11.8642],[79.75373,11.86211],[79.75438,11.86184],[79.75365,11.85882],[79.75393,11.85012],[79.7504,11.84793],[79.74868,11.84908],[79.74311,11.84832],[79.74246,11.85159],[79.74304,11.85279],[79.74405,11.85292],[79.74394,11.85513],[79.74332,11.8597],[79.74225,11.86088],[79.74195,11.8628],[79.7397,11.86464],[79.7323,11.86568],[79.73184,11.86637],[79.73355,11.86977],[79.73352,11.87134],[79.73821,11.86988],[79.74226,11.87045],[79.74404,11.86897],[79.74744,11.86829],[79.7487,11.86853],[79.75055,11.87153],[79.75186,11.87175],[79.75397,11.87122],[79.75549,11.86785]]]},"properties":{"vil_lgd":644966,"village_name":"Karikalampakkam","district_name":"Pondicherry","subdistrict_name":"Bahour Taluk","block_name":"ARIANKUPPAM","gp_name":"KARIKALAMPAKKAM","state_name":"PUDUCHERRY","dist_lgd":600,"state_lgd":34}},{"type":"Feature","geometry":{"type":"Polygon","coordinates":[[[79.73329,11.88746],[79.73416,11.8864],[79.74101,11.88631],[79.7429,11.88695],[79.74254,11.88595],[79.74347,11.88507],[79.74638,11.88642],[79.75174,11.88554],[79.75297,11.88463],[79.75176,11.88004],[79.75186,11.87175],[79.74988,11.87093],[79.7487,11.86853],[79.74499,11.86865],[79.74226,11.87045],[79.73821,11.86988],[79.73352,11.87134],[79.73395,11.88186],[79.73164,11.88624],[79.73329,11.88746]]]},"properties":{"vil_lgd":644965,"village_name":"Korkadu","district_name":"Pondicherry","subdistrict_name":"Bahour Taluk","block_name":"ARIANKUPPAM","gp_name":"KORKADU","state_name":"PUDUCHERRY","dist_lgd":600,"state_lgd":34}},{"type":"Feature","geometry":{"type":"Polygon","coordinates":[[[79.73164,11.88624],[79.73395,11.88186],[79.73355,11.86977],[79.73186,11.86713],[79.73269,11.86562],[79.73259,11.86256],[79.72112,11.8625],[79.71946,11.85675],[79.71975,11.85311],[79.7189,11.85329],[79.71343,11.86067],[79.71271,11.86665],[79.70826,11.86909],[79.70934,11.88335],[79.71216,11.88419],[79.71335,11.88205],[79.71681,11.88046],[79.72219,11.88292],[79.72621,11.88271],[79.72934,11.88616],[79.73164,11.88624]]]},"properties":{"vil_lgd":644964,"village_name":"Embalam","district_name":"Pondicherry","subdistrict_name":"Bahour Taluk","block_name":"ARIANKUPPAM","gp_name":"EMBALAM","state_name":"PUDUCHERRY","dist_lgd":600,"state_lgd":34}},{"type":"Feature","geometry":{"type":"Polygon","coordinates":[[[79.80463,11.83352],[79.80706,11.83349],[79.80696,11.83261],[79.80176,11.81549],[79.79854,11.81561],[79.79734,11.81648],[79.79624,11.81587],[79.79558,11.81404],[79.79407,11.81502],[79.79318,11.81441],[79.78433,11.81914],[79.78034,11.82225],[79.77304,11.82267],[79.77332,11.82638],[79.77438,11.82694],[79.77471,11.82864],[79.77623,11.82866],[79.77838,11.83171],[79.78649,11.83099],[79.78739,11.82935],[79.79236,11.82755],[79.7958,11.8285],[79.79625,11.82692],[79.79507,11.82569],[79.796,11.8247],[79.79754,11.82456],[79.7984,11.82755],[79.80053,11.82903],[79.8007,11.83064],[79.79868,11.8333],[79.79364,11.83235],[79.79384,11.83355],[79.79814,11.83465],[79.79768,11.83786],[79.79829,11.8387],[79.80043,11.83766],[79.80225,11.83389],[79.80463,11.83352]]]},"properties":{"vil_lgd":644971,"village_name":"Kirumampakkam","district_name":"Pondicherry","subdistrict_name":"Bahour Taluk","block_name":"ARIANKUPPAM","gp_name":"KIRUMAMPAKKAM","state_name":"PUDUCHERRY","dist_lgd":600,"state_lgd":34}},{"type":"Feature","geometry":{"type":"Polygon","coordinates":[[[79.77304,11.82267],[79.78034,11.82225],[79.78433,11.81914],[79.79318,11.81441],[79.79407,11.81502],[79.79558,11.81404],[79.79624,11.81587],[79.79734,11.81648],[79.79854,11.81561],[79.80176,11.81549],[79.79954,11.80626],[79.79296,11.80641],[79.79132,11.80456],[79.78885,11.8048],[79.78818,11.80602],[79.77742,11.80734],[79.77305,11.80913],[79.7686,11.80989],[79.76834,11.81136],[79.76581,11.813],[79.76407,11.81607],[79.76541,11.81774],[79.76874,11.81917],[79.77004,11.82344],[79.77304,11.82267]]]},"properties":{"vil_lgd":644972,"village_name":"Pillaiarkuppam","district_name":"Pondicherry","subdistrict_name":"Bahour Taluk","block_name":"ARIANKUPPAM","gp_name":"PILLAYARKUPPAM","state_name":"PUDUCHERRY","dist_lgd":600,"state_lgd":34}},{"type":"Feature","geometry":{"type":"Polygon","coordinates":[[[79.79954,11.80626],[79.79586,11.78572],[79.7851,11.78721],[79.78545,11.79212],[79.78001,11.79465],[79.77395,11.79579],[79.77218,11.79716],[79.76247,11.80073],[79.76404,11.8086],[79.7686,11.80989],[79.77305,11.80913],[79.77742,11.80734],[79.78818,11.80602],[79.78885,11.8048],[79.79132,11.80456],[79.79296,11.80641],[79.79954,11.80626]]]},"properties":{"vil_lgd":644979,"village_name":"Manapattu","district_name":"Pondicherry","subdistrict_name":"Bahour Taluk","block_name":"ARIANKUPPAM","gp_name":"MANAPET","state_name":"PUDUCHERRY","dist_lgd":600,"state_lgd":34}},{"type":"Feature","geometry":{"type":"Polygon","coordinates":[[[79.7851,11.78721],[79.78443,11.78734],[79.78248,11.78448],[79.78124,11.7843],[79.78049,11.78111],[79.77499,11.78246],[79.77478,11.7819],[79.77137,11.78233],[79.77016,11.78395],[79.77109,11.78814],[79.77066,11.78951],[79.76937,11.78889],[79.76882,11.79073],[79.76161,11.79299],[79.76067,11.79549],[79.76134,11.79877],[79.76247,11.80073],[79.77218,11.79716],[79.77395,11.79579],[79.78001,11.79465],[79.78545,11.79212],[79.7851,11.78721]]]},"properties":{"vil_lgd":644980,"village_name":"Outchimedu","district_name":"Pondicherry","subdistrict_name":"Bahour Taluk","block_name":"ARIANKUPPAM","gp_name":"KRISHNAVARAM","state_name":"PUDUCHERRY","dist_lgd":600,"state_lgd":34}},{"type":"Feature","geometry":{"type":"Polygon","coordinates":[[[79.76078,11.79478],[79.76161,11.79299],[79.76564,11.79155],[79.762,11.79079],[79.76096,11.78694],[79.75999,11.78702],[79.75836,11.78494],[79.75596,11.77535],[79.75124,11.77557],[79.74192,11.78021],[79.74446,11.7877],[79.74463,11.79467],[79.7487,11.79449],[79.74997,11.79589],[79.76078,11.79478]]]},"properties":{"vil_lgd":644981,"village_name":"Parikalpet","district_name":"Pondicherry","subdistrict_name":"Bahour Taluk","block_name":"ARIANKUPPAM","gp_name":"PARIKALPATTU","state_name":"PUDUCHERRY","dist_lgd":600,"state_lgd":34}},{"type":"Feature","geometry":{"type":"Polygon","coordinates":[[[79.73821,11.83692],[79.74229,11.83651],[79.74417,11.83494],[79.7445,11.82934],[79.74768,11.82013],[79.7465,11.8116],[79.75868,11.81089],[79.75975,11.80893],[79.76404,11.8086],[79.76078,11.79478],[79.74997,11.79589],[79.7487,11.79449],[79.74324,11.79446],[79.74227,11.79466],[79.74032,11.79711],[79.73565,11.79793],[79.73644,11.80478],[79.73592,11.81248],[79.73438,11.81364],[79.73479,11.81685],[79.73301,11.81813],[79.73275,11.8238],[79.73166,11.8244],[79.73239,11.8334],[79.72945,11.83696],[79.73821,11.83692]]]},"properties":{"vil_lgd":644978,"village_name":"Bahour","district_name":"Pondicherry","subdistrict_name":"Bahour Taluk","block_name":"ARIANKUPPAM","gp_name":"BAHOUR(EAST)","state_name":"PUDUCHERRY","dist_lgd":600,"state_lgd":34}},{"type":"Feature","geometry":{"type":"Polygon","coordinates":[[[79.73572,11.80932],[79.73644,11.80478],[79.73565,11.79793],[79.7315,11.79793],[79.72868,11.79597],[79.72282,11.79649],[79.72352,11.79906],[79.72262,11.79962],[79.72312,11.80285],[79.7253,11.80315],[79.72553,11.80585],[79.72424,11.80751],[79.72452,11.81044],[79.72987,11.81003],[79.7298,11.80926],[79.73572,11.80932]]]},"properties":{"vil_lgd":644977,"village_name":"Irulansandy","district_name":"Pondicherry","subdistrict_name":"Bahour Taluk","block_name":"ARIANKUPPAM","gp_name":"KURUVINATHAM","state_name":"PUDUCHERRY","dist_lgd":600,"state_lgd":34}},{"type":"Feature","geometry":{"type":"Polygon","coordinates":[[[79.73565,11.79793],[79.74032,11.79711],[79.74227,11.79466],[79.74463,11.79467],[79.74446,11.7877],[79.74192,11.78021],[79.73974,11.78099],[79.7319,11.78076],[79.72618,11.78252],[79.72186,11.78686],[79.71988,11.78495],[79.71236,11.79151],[79.71391,11.7963],[79.71676,11.79646],[79.71702,11.79755],[79.72765,11.79591],[79.72974,11.79642],[79.7315,11.79793],[79.73565,11.79793]]]},"properties":{"vil_lgd":644982,"village_name":"Kuruvinatham","district_name":"Pondicherry","subdistrict_name":"Bahour Taluk","block_name":"ARIANKUPPAM","gp_name":"KURUVINATHAM","state_name":"PUDUCHERRY","dist_lgd":600,"state_lgd":34}},{"type":"Feature","geometry":{"type":"Polygon","coordinates":[[[79.76446,11.83362],[79.76533,11.83189],[79.76499,11.82412],[79.76775,11.82334],[79.76782,11.8227],[79.77013,11.82259],[79.76874,11.81917],[79.76541,11.81774],[79.76407,11.81607],[79.76581,11.813],[79.76834,11.81136],[79.7686,11.80989],[79.76404,11.8086],[79.75975,11.80893],[79.75868,11.81089],[79.7465,11.8116],[79.74768,11.82013],[79.74605,11.82538],[79.75115,11.82557],[79.75598,11.83159],[79.75802,11.83139],[79.76105,11.83453],[79.76446,11.83362]]]},"properties":{"vil_lgd":644973,"village_name":"Seliamedu","district_name":"Pondicherry","subdistrict_name":"Bahour Taluk","block_name":"ARIANKUPPAM","gp_name":"SELIAMEDU","state_name":"PUDUCHERRY","dist_lgd":600,"state_lgd":34}},{"type":"Feature","geometry":{"type":"Polygon","coordinates":[[[79.73772,11.84296],[79.73892,11.84365],[79.73964,11.84237],[79.74868,11.84069],[79.75077,11.83863],[79.7557,11.83754],[79.75571,11.83687],[79.76193,11.83456],[79.76105,11.83453],[79.75802,11.83139],[79.75598,11.83159],[79.75115,11.82557],[79.74605,11.82538],[79.7445,11.82934],[79.74417,11.83494],[79.74229,11.83651],[79.73821,11.83692],[79.73673,11.84421],[79.73743,11.84431],[79.73772,11.84296]]]},"properties":{"vil_lgd":644970,"village_name":"Aranganur","district_name":"Pondicherry","subdistrict_name":"Bahour Taluk","block_name":"ARIANKUPPAM","gp_name":"SELIAMEDU","state_name":"PUDUCHERRY","dist_lgd":600,"state_lgd":34}},{"type":"Feature","geometry":{"type":"Polygon","coordinates":[[[79.6476,11.83156],[79.65411,11.83113],[79.65967,11.82912],[79.6634,11.82529],[79.67131,11.82365],[79.67129,11.81488],[79.66519,11.815],[79.66342,11.81306],[79.66066,11.81367],[79.65965,11.81287],[79.65791,11.81384],[79.64634,11.81624],[79.64708,11.81968],[79.64501,11.82021],[79.64434,11.82221],[79.64105,11.82279],[79.64095,11.82337],[79.64104,11.82441],[79.64324,11.82608],[79.6444,11.83235],[79.6476,11.83156]]]},"properties":{"vil_lgd":644975,"village_name":"Karaiyambuthur","district_name":"Pondicherry","subdistrict_name":"Bahour Taluk","block_name":"ARIANKUPPAM","gp_name":"KARAYAMPUTHUR","state_name":"PUDUCHERRY","dist_lgd":600,"state_lgd":34}},{"type":"Feature","geometry":{"type":"Polygon","coordinates":[[[79.64733,11.84422],[79.65155,11.84383],[79.65455,11.84186],[79.66178,11.83942],[79.65967,11.82912],[79.65411,11.83113],[79.6444,11.83235],[79.64594,11.83567],[79.64535,11.83906],[79.64596,11.84231],[79.64719,11.84226],[79.64733,11.84422]]]},"properties":{"vil_lgd":644969,"village_name":"Panayadikuppam","district_name":"Pondicherry","subdistrict_name":"Bahour Taluk","block_name":"ARIANKUPPAM","gp_name":"KARAYAMPUTHUR","state_name":"PUDUCHERRY","dist_lgd":600,"state_lgd":34}},{"type":"Feature","geometry":{"type":"Polygon","coordinates":[[[79.65192,11.87034],[79.65775,11.87009],[79.65781,11.8687],[79.65923,11.86863],[79.65928,11.86773],[79.66037,11.86733],[79.66273,11.86725],[79.66276,11.86551],[79.66335,11.86545],[79.66342,11.86125],[79.66165,11.86118],[79.66175,11.85935],[79.65789,11.85266],[79.65384,11.85174],[79.65284,11.8505],[79.64862,11.85021],[79.63999,11.85206],[79.64063,11.85263],[79.64119,11.8576],[79.64126,11.87035],[79.65192,11.87034]]]},"properties":{"vil_lgd":644967,"village_name":"Pandasozhanur","district_name":"Pondicherry","subdistrict_name":"Bahour Taluk","block_name":"ARIANKUPPAM","gp_name":"KALMANDAPAM","state_name":"PUDUCHERRY","dist_lgd":600,"state_lgd":34}},{"type":"Feature","geometry":{"type":"Polygon","coordinates":[[[79.63999,11.85206],[79.62634,11.85467],[79.62727,11.86482],[79.62857,11.86532],[79.62846,11.8698],[79.64126,11.87035],[79.64119,11.8576],[79.64063,11.85263],[79.63999,11.85206]]]},"properties":{"vil_lgd":644968,"village_name":"Nettapakkam","district_name":"Pondicherry","subdistrict_name":"Bahour Taluk","block_name":"ARIANKUPPAM","gp_name":"NETTAPAKKAM","state_name":"PUDUCHERRY","dist_lgd":600,"state_lgd":34}},{"type":"Feature","geometry":{"type":"Polygon","coordinates":[[[79.59944,11.883],[79.60391,11.88176],[79.60741,11.87844],[79.60876,11.87655],[79.6082,11.87208],[79.60873,11.87029],[79.61915,11.87019],[79.61951,11.86269],[79.61223,11.86263],[79.61251,11.86169],[79.61021,11.86067],[79.61066,11.86002],[79.60764,11.8601],[79.60564,11.85872],[79.602,11.85786],[79.60315,11.86875],[79.6027,11.87174],[79.60138,11.87115],[79.60007,11.87584],[79.59944,11.883]]]},"properties":{"vil_lgd":644961,"village_name":"Madukkarai","district_name":"Pondicherry","subdistrict_name":"Bahour Taluk","block_name":"ARIANKUPPAM","gp_name":"MADUCARAI(EAST)","state_name":"PUDUCHERRY","dist_lgd":600,"state_lgd":34}},{"type":"Feature","geometry":{"type":"Polygon","coordinates":[[[79.63039,11.88128],[79.63075,11.87007],[79.62431,11.86948],[79.60842,11.87054],[79.60876,11.87655],[79.60815,11.87686],[79.6119,11.87898],[79.61711,11.88341],[79.62122,11.8906],[79.62496,11.8908],[79.62491,11.88925],[79.62978,11.88868],[79.63039,11.88128]]]},"properties":{"vil_lgd":644962,"village_name":"Kariamanickam","district_name":"Pondicherry","subdistrict_name":"Bahour Taluk","block_name":"ARIANKUPPAM","gp_name":"KARIAMANICKAM","state_name":"PUDUCHERRY","dist_lgd":600,"state_lgd":34}},{"type":"Feature","geometry":{"type":"Polygon","coordinates":[[[79.64108,11.88666],[79.64052,11.88059],[79.64839,11.88045],[79.64858,11.87053],[79.63075,11.87007],[79.63039,11.88128],[79.6345,11.88104],[79.6347,11.88876],[79.64108,11.88666]]]},"properties":{"vil_lgd":644963,"village_name":"Eripakkam","district_name":"Pondicherry","subdistrict_name":"Bahour Taluk","block_name":"ARIANKUPPAM","gp_name":"ERIPAKKAM","state_name":"PUDUCHERRY","dist_lgd":600,"state_lgd":34}},{"type":"Feature","geometry":{"type":"Polygon","coordinates":[[[79.67992,11.81443],[79.68813,11.81224],[79.68945,11.80907],[79.69062,11.80857],[79.68966,11.80214],[79.68393,11.80217],[79.68142,11.79624],[79.67845,11.79842],[79.67458,11.80354],[79.67593,11.8143],[79.67992,11.81443]]]},"properties":{"vil_lgd":644976,"village_name":"Manamedu","district_name":"Pondicherry","subdistrict_name":"Bahour Taluk","block_name":"ARIANKUPPAM","gp_name":"MANAMEDU","state_name":"PUDUCHERRY","dist_lgd":600,"state_lgd":34}},{"type":"Feature","geometry":{"type":"Polygon","coordinates":[[[79.84829,12.03606],[79.85269,12.03511],[79.85153,12.02811],[79.85254,12.02743],[79.85519,12.02771],[79.85591,12.02986],[79.85901,12.02923],[79.85966,12.03085],[79.86156,12.0302],[79.86571,12.031],[79.86793,12.02968],[79.8568,12.00605],[79.8409,12.01281],[79.8414,12.01711],[79.84397,12.02419],[79.84443,12.03606],[79.84598,12.03702],[79.84829,12.03606]]]},"properties":{"vil_lgd":937514,"village_name":"PILLAICHAVADY","district_name":"Pondicherry","subdistrict_name":"Ozhukarai Taluk","block_name":"OZHUKARAI","gp_name":"","state_name":"PUDUCHERRY","dist_lgd":600,"state_lgd":34}},{"type":"Feature","geometry":{"type":"Polygon","coordinates":[[[79.87365,12.04203],[79.86793,12.02968],[79.86571,12.031],[79.86156,12.0302],[79.85966,12.03085],[79.85901,12.02923],[79.85591,12.02986],[79.85519,12.02771],[79.85254,12.02743],[79.85153,12.02811],[79.85269,12.03511],[79.84598,12.03702],[79.84443,12.03606],[79.84977,12.05131],[79.8685,12.04517],[79.87365,12.04203]]]},"properties":{"vil_lgd":937516,"village_name":"KALAPET","district_name":"Pondicherry","subdistrict_name":"Ozhukarai Taluk","block_name":"OZHUKARAI","gp_name":"","state_name":"PUDUCHERRY","dist_lgd":600,"state_lgd":34}},{"type":"Feature","geometry":{"type":"Polygon","coordinates":[[[79.79766,11.95664],[79.80334,11.95314],[79.80507,11.95326],[79.80872,11.94383],[79.81203,11.94336],[79.81133,11.94055],[79.80052,11.94161],[79.78994,11.93935],[79.77356,11.93896],[79.77378,11.94106],[79.77152,11.94389],[79.7732,11.94908],[79.77385,11.9499],[79.7751,11.94973],[79.77677,11.9537],[79.77947,11.95356],[79.78085,11.95653],[79.78348,11.95626],[79.78472,11.95986],[79.78818,11.96037],[79.78842,11.9597],[79.79173,11.95938],[79.79766,11.95664]]]},"properties":{"vil_lgd":937517,"village_name":"THATTANCHAVADI","district_name":"Pondicherry","subdistrict_name":"Ozhukarai Taluk","block_name":"OZHUKARAI","gp_name":"","state_name":"PUDUCHERRY","dist_lgd":600,"state_lgd":34}},{"type":"Feature","geometry":{"type":"Polygon","coordinates":[[[79.80919,11.94086],[79.8084,11.93472],[79.80645,11.93348],[79.80645,11.93268],[79.80926,11.9318],[79.80935,11.92373],[79.80581,11.92411],[79.79839,11.92322],[79.79745,11.91944],[79.79192,11.92024],[79.79115,11.92195],[79.78975,11.92206],[79.78941,11.92432],[79.791,11.92663],[79.79082,11.93193],[79.79013,11.93315],[79.79096,11.93455],[79.79344,11.93401],[79.79638,11.93487],[79.79729,11.93702],[79.79715,11.94084],[79.80415,11.94165],[79.80919,11.94086]]]},"properties":{"vil_lgd":804037,"village_name":"Ozhukarai (M)","district_name":"Pondicherry","subdistrict_name":"Ozhukarai Taluk","block_name":"OZHUKARAI","gp_name":"","state_name":"PUDUCHERRY","dist_lgd":600,"state_lgd":34}},{"type":"Feature","geometry":{"type":"Polygon","coordinates":[[[79.8088,11.9562],[79.8112,11.95593],[79.81237,11.95659],[79.81733,11.95582],[79.83017,11.95094],[79.8291,11.94673],[79.82436,11.93717],[79.81829,11.93787],[79.81486,11.94001],[79.81133,11.94055],[79.81203,11.94336],[79.80872,11.94383],[79.80507,11.95326],[79.80503,11.9564],[79.8088,11.9562]]]},"properties":{"vil_lgd":804036,"village_name":"Puducherry (M)","district_name":"Pondicherry","subdistrict_name":"Ozhukarai Taluk","block_name":"OZHUKARAI","gp_name":"","state_name":"PUDUCHERRY","dist_lgd":600,"state_lgd":34}},{"type":"Feature","geometry":{"type":"Polygon","coordinates":[[[79.79722,11.93867],[79.79638,11.93487],[79.79344,11.93401],[79.79067,11.9344],[79.79013,11.93315],[79.79082,11.93193],[79.79097,11.92585],[79.78941,11.92432],[79.78516,11.92509],[79.78466,11.92742],[79.78377,11.92772],[79.78239,11.92409],[79.78026,11.92344],[79.77847,11.92183],[79.77344,11.92137],[79.77286,11.92271],[79.77668,11.92308],[79.77833,11.92456],[79.77218,11.92467],[79.77023,11.9269],[79.76705,11.92821],[79.76759,11.9305],[79.7712,11.9303],[79.77248,11.93096],[79.77356,11.93896],[79.78994,11.93935],[79.79715,11.94084],[79.79722,11.93867]]]},"properties":{"vil_lgd":937513,"village_name":"OZHUKARAI","district_name":"Pondicherry","subdistrict_name":"Ozhukarai Taluk","block_name":"OZHUKARAI","gp_name":"","state_name":"PUDUCHERRY","dist_lgd":600,"state_lgd":34}},{"type":"Feature","geometry":{"type":"Polygon","coordinates":[[[79.78933,12.02637],[79.79254,12.02535],[79.80434,12.02586],[79.80577,12.0242],[79.805,12.02323],[79.80505,12.021],[79.80252,12.01914],[79.80186,12.01707],[79.79691,12.0167],[79.7956,12.01749],[79.79461,12.01683],[79.78993,12.01793],[79.78911,12.01823],[79.78998,12.02291],[79.7888,12.02574],[79.78933,12.02637]]]},"properties":{"vil_lgd":937515,"village_name":"ALANKUPPAM","district_name":"Pondicherry","subdistrict_name":"Ozhukarai Taluk","block_name":"OZHUKARAI","gp_name":"","state_name":"PUDUCHERRY","dist_lgd":600,"state_lgd":34}},{"type":"Feature","geometry":{"type":"Polygon","coordinates":[[[79.81133,11.94055],[79.81486,11.94001],[79.81829,11.93787],[79.82436,11.93717],[79.82388,11.93322],[79.82286,11.93161],[79.82087,11.93061],[79.81731,11.92317],[79.80935,11.92373],[79.80926,11.9318],[79.80739,11.93199],[79.80645,11.93348],[79.8084,11.93472],[79.80919,11.94086],[79.81133,11.94055]]]},"properties":{"vil_lgd":804036,"village_name":"Puducherry (M)","district_name":"Pondicherry","subdistrict_name":"Puducherry Taluk","block_name":" ","gp_name":"","state_name":"PUDUCHERRY","dist_lgd":600,"state_lgd":34}},{"type":"Feature","geometry":{"type":"Polygon","coordinates":[[[79.80935,11.92373],[79.81731,11.92317],[79.81584,11.92124],[79.81608,11.91832],[79.81406,11.91551],[79.80996,11.91479],[79.8063,11.91537],[79.80625,11.91912],[79.80459,11.91941],[79.80245,11.91888],[79.80221,11.91624],[79.80084,11.91383],[79.79777,11.91368],[79.794,11.91498],[79.7943,11.91881],[79.79519,11.92007],[79.79745,11.91944],[79.79806,11.92002],[79.79839,11.92322],[79.80581,11.92411],[79.80935,11.92373]]]},"properties":{"vil_lgd":804036,"village_name":"Puducherry (M)","district_name":"Pondicherry","subdistrict_name":"Puducherry Taluk","block_name":" ","gp_name":"","state_name":"PUDUCHERRY","dist_lgd":600,"state_lgd":34}},{"type":"Feature","geometry":{"type":"Polygon","coordinates":[[[79.82978,11.90877],[79.82811,11.90153],[79.82213,11.90374],[79.822,11.90555],[79.81698,11.90406],[79.81449,11.90488],[79.81293,11.90699],[79.81264,11.90964],[79.81097,11.9105],[79.81282,11.9151],[79.81406,11.91551],[79.8165,11.91888],[79.81957,11.9197],[79.83017,11.91623],[79.82948,11.91224],[79.82738,11.90863],[79.82978,11.90877]]]},"properties":{"vil_lgd":804036,"village_name":"Puducherry (M)","district_name":"Pondicherry","subdistrict_name":"Puducherry Taluk","block_name":" ","gp_name":"","state_name":"PUDUCHERRY","dist_lgd":600,"state_lgd":34}},{"type":"Feature","geometry":{"type":"Polygon","coordinates":[[[79.81282,11.9151],[79.81097,11.9105],[79.81264,11.90964],[79.81347,11.90584],[79.81698,11.90406],[79.81498,11.89909],[79.81295,11.89761],[79.80948,11.89793],[79.80836,11.89935],[79.80758,11.89915],[79.80593,11.90045],[79.80062,11.90051],[79.79649,11.89989],[79.79057,11.89711],[79.78767,11.89684],[79.78405,11.90007],[79.78478,11.90091],[79.78771,11.90096],[79.78854,11.90485],[79.79289,11.90861],[79.7924,11.91484],[79.79293,11.91637],[79.79383,11.91623],[79.79415,11.91474],[79.79508,11.91422],[79.80031,11.91368],[79.80167,11.9147],[79.80245,11.91888],[79.80601,11.91941],[79.8063,11.91537],[79.81282,11.9151]]]},"properties":{"vil_lgd":804036,"village_name":"Puducherry (M)","district_name":"Pondicherry","subdistrict_name":"Puducherry Taluk","block_name":" ","gp_name":"","state_name":"PUDUCHERRY","dist_lgd":600,"state_lgd":34}},{"type":"Feature","geometry":{"type":"Polygon","coordinates":[[[79.79291,11.91637],[79.7924,11.91484],[79.79289,11.90861],[79.78854,11.90485],[79.78771,11.90096],[79.78478,11.90091],[79.78405,11.90007],[79.7815,11.90276],[79.78302,11.90674],[79.78486,11.91699],[79.78701,11.91743],[79.79291,11.91637]]]},"properties":{"vil_lgd":804036,"village_name":"Puducherry (M)","district_name":"Pondicherry","subdistrict_name":"Puducherry Taluk","block_name":" ","gp_name":"","state_name":"PUDUCHERRY","dist_lgd":600,"state_lgd":34}},{"type":"Feature","geometry":{"type":"Polygon","coordinates":[[[79.82811,11.90153],[79.82419,11.88654],[79.8213,11.88779],[79.81993,11.88683],[79.81392,11.88962],[79.81304,11.89058],[79.81328,11.89217],[79.8125,11.89251],[79.80568,11.89222],[79.79997,11.89467],[79.79622,11.89256],[79.7965,11.89989],[79.80593,11.90045],[79.80758,11.89915],[79.80836,11.89935],[79.80948,11.89793],[79.81295,11.89761],[79.81498,11.89909],[79.81698,11.90406],[79.82121,11.90568],[79.82226,11.9053],[79.82213,11.90374],[79.82811,11.90153]]]},"properties":{"vil_lgd":804036,"village_name":"Puducherry (M)","district_name":"Pondicherry","subdistrict_name":"Puducherry Taluk","block_name":" ","gp_name":"","state_name":"PUDUCHERRY","dist_lgd":600,"state_lgd":34}},{"type":"Feature","geometry":{"type":"Polygon","coordinates":[[[79.80919,11.87468],[79.81017,11.87425],[79.81286,11.87497],[79.82035,11.87199],[79.81489,11.85869],[79.80782,11.83658],[79.80656,11.83708],[79.80614,11.84044],[79.80625,11.84208],[79.80821,11.84526],[79.80774,11.84673],[79.80529,11.84766],[79.80513,11.84935],[79.8031,11.85073],[79.80323,11.85218],[79.80446,11.85242],[79.80568,11.85434],[79.80626,11.86036],[79.80788,11.86164],[79.80612,11.86251],[79.80549,11.86448],[79.80226,11.86525],[79.80197,11.86717],[79.80236,11.86867],[79.80441,11.86924],[79.80626,11.878],[79.80719,11.87815],[79.80919,11.87468]],[[79.81302,11.85839],[79.81428,11.85808],[79.815,11.85969],[79.8134,11.86005],[79.81302,11.85839]]]},"properties":{"vil_lgd":644920,"village_name":"Purnankuppam","district_name":"Pondicherry","subdistrict_name":"Puducherry Taluk","block_name":" ","gp_name":"POORNANKUPPAM","state_name":"PUDUCHERRY","dist_lgd":600,"state_lgd":34}},{"type":"Feature","geometry":{"type":"Polygon","coordinates":[[[79.79924,11.8812],[79.79001,11.85529],[79.77697,11.85679],[79.77556,11.85607],[79.77599,11.85983],[79.77716,11.86134],[79.77564,11.86341],[79.77603,11.86423],[79.77843,11.86539],[79.77833,11.86316],[79.78521,11.86283],[79.78721,11.87333],[79.78818,11.87368],[79.78959,11.87716],[79.79237,11.87685],[79.79258,11.87785],[79.79181,11.87796],[79.79273,11.88142],[79.79924,11.8812]]]},"properties":{"vil_lgd":644918,"village_name":"Abishegapakkam","district_name":"Pondicherry","subdistrict_name":"Puducherry Taluk","block_name":" ","gp_name":"ABISHEGAPAKKAM","state_name":"PUDUCHERRY","dist_lgd":600,"state_lgd":34}},{"type":"Feature","geometry":{"type":"Polygon","coordinates":[[[79.80626,11.878],[79.80441,11.86924],[79.80236,11.86867],[79.80197,11.86717],[79.80226,11.86525],[79.80549,11.86448],[79.80612,11.86251],[79.80788,11.86164],[79.80602,11.85978],[79.80534,11.85348],[79.80323,11.85218],[79.8027,11.85401],[79.80067,11.85527],[79.79461,11.85477],[79.79001,11.85529],[79.79924,11.8812],[79.80719,11.88041],[79.80626,11.878]]]},"properties":{"vil_lgd":644919,"village_name":"Tavalakuppam","district_name":"Pondicherry","subdistrict_name":"Puducherry Taluk","block_name":" ","gp_name":"Nonankuppam","state_name":"PUDUCHERRY","dist_lgd":600,"state_lgd":34}},{"type":"Feature","geometry":{"type":"Polygon","coordinates":[[[79.80421,11.89284],[79.80568,11.89222],[79.8125,11.89251],[79.81328,11.89217],[79.81304,11.89058],[79.81392,11.88962],[79.81993,11.88683],[79.8213,11.88779],[79.82419,11.88654],[79.82269,11.87648],[79.82035,11.87199],[79.81286,11.87497],[79.81017,11.87425],[79.80919,11.87468],[79.80719,11.87815],[79.80626,11.878],[79.80719,11.88041],[79.79273,11.88142],[79.79483,11.88521],[79.79622,11.89256],[79.79997,11.89467],[79.80421,11.89284]]]},"properties":{"vil_lgd":644922,"village_name":"Manavely (CT)","district_name":"Pondicherry","subdistrict_name":"Puducherry Taluk","block_name":" ","gp_name":"MANAVELY","state_name":"PUDUCHERRY","dist_lgd":600,"state_lgd":34}},{"type":"Feature","geometry":{"type":"Polygon","coordinates":[[[79.77824,11.87782],[79.77967,11.87791],[79.7799,11.87239],[79.77924,11.86879],[79.77769,11.86672],[79.77842,11.86655],[79.77843,11.86539],[79.77574,11.8638],[79.77716,11.86134],[79.77599,11.85983],[79.77556,11.85607],[79.77697,11.85679],[79.78173,11.85577],[79.78016,11.84811],[79.77844,11.8476],[79.77672,11.8452],[79.77639,11.83908],[79.77397,11.8367],[79.77244,11.83662],[79.76616,11.84055],[79.76433,11.84687],[79.76217,11.84839],[79.7632,11.85183],[79.76513,11.85194],[79.76696,11.858],[79.7695,11.85827],[79.77088,11.86133],[79.77025,11.86481],[79.76928,11.86507],[79.77009,11.87461],[79.77345,11.87517],[79.7739,11.87654],[79.7762,11.87822],[79.77824,11.87782]]]},"properties":{"vil_lgd":644917,"village_name":"Thimmanaickenpalayam","district_name":"Pondicherry","subdistrict_name":"Puducherry Taluk","block_name":" ","gp_name":"THIMMANAICKANPALAYAM","state_name":"PUDUCHERRY","dist_lgd":600,"state_lgd":34}},{"type":"Feature","geometry":{"type":"Polygon","coordinates":[[[79.79089,11.89536],[79.79071,11.89455],[79.78902,11.89504],[79.78926,11.89584],[79.79089,11.89536]]]},"properties":{"vil_lgd":644922,"village_name":"Manavely (CT)","district_name":"Pondicherry","subdistrict_name":"Puducherry Taluk","block_name":" ","gp_name":"MANAVELY","state_name":"PUDUCHERRY","dist_lgd":600,"state_lgd":34}},{"type":"Feature","geometry":{"type":"Polygon","coordinates":[[[79.63891,12.00803],[79.64084,12.00702],[79.64192,12.00734],[79.64252,12.00571],[79.64389,12.00517],[79.64207,11.99888],[79.64105,11.99821],[79.63724,11.99843],[79.63616,11.99671],[79.63409,11.99708],[79.63119,11.9901],[79.62404,11.99057],[79.62632,12.00036],[79.61968,12.00042],[79.61917,12.00141],[79.62071,12.01353],[79.62633,12.01571],[79.62905,12.0188],[79.63557,12.02383],[79.63625,12.02285],[79.63588,12.01739],[79.63804,12.01464],[79.63772,12.01092],[79.63891,12.00803]]]},"properties":{"vil_lgd":644931,"village_name":"Kunichampet","district_name":"Pondicherry","subdistrict_name":"Villianur Taluk","block_name":"VILLIANUR","gp_name":"KOONICHAMPET","state_name":"PUDUCHERRY","dist_lgd":600,"state_lgd":34}},{"type":"Feature","geometry":{"type":"Polygon","coordinates":[[[79.6375,12.02654],[79.63398,12.02234],[79.62905,12.0188],[79.62804,12.02098],[79.6282,12.02335],[79.6268,12.02376],[79.62725,12.02685],[79.62576,12.02853],[79.6251,12.03129],[79.62553,12.03217],[79.62817,12.03226],[79.62947,12.03135],[79.63118,12.03137],[79.63338,12.03024],[79.63358,12.02905],[79.63526,12.02942],[79.63492,12.02839],[79.63643,12.02817],[79.6375,12.02654]]]},"properties":{"vil_lgd":644923,"village_name":"Manalipet","district_name":"Pondicherry","subdistrict_name":"Villianur Taluk","block_name":"VILLIANUR","gp_name":"CHETTIPET","state_name":"PUDUCHERRY","dist_lgd":600,"state_lgd":34}},{"type":"Feature","geometry":{"type":"Polygon","coordinates":[[[79.64592,12.02565],[79.651,12.02181],[79.64779,12.01875],[79.64784,12.01581],[79.64692,12.01557],[79.64593,12.0119],[79.64531,12.00471],[79.64252,12.00571],[79.64192,12.00734],[79.64084,12.00702],[79.63849,12.00844],[79.63772,12.01092],[79.63804,12.01464],[79.63588,12.01739],[79.63625,12.02285],[79.63557,12.02383],[79.63828,12.02732],[79.63983,12.02783],[79.64384,12.02744],[79.64592,12.02565]]]},"properties":{"vil_lgd":644924,"village_name":"Chettipet","district_name":"Pondicherry","subdistrict_name":"Villianur Taluk","block_name":"VILLIANUR","gp_name":"CHETTIPET","state_name":"PUDUCHERRY","dist_lgd":600,"state_lgd":34}},{"type":"Feature","geometry":{"type":"Polygon","coordinates":[[[79.63616,11.99671],[79.63807,11.99354],[79.64148,11.99163],[79.64039,11.99103],[79.63997,11.98832],[79.63917,11.98821],[79.6379,11.98487],[79.63644,11.97785],[79.63457,11.97837],[79.63271,11.97788],[79.63225,11.97395],[79.63065,11.9736],[79.62987,11.96991],[79.6277,11.96979],[79.62749,11.96815],[79.62251,11.96929],[79.62245,11.96994],[79.61861,11.96995],[79.61872,11.97099],[79.62457,11.97601],[79.62376,11.97857],[79.62437,11.98179],[79.62085,11.98238],[79.62082,11.98394],[79.61978,11.98397],[79.61977,11.98486],[79.61797,11.98498],[79.61718,11.98955],[79.62361,11.98932],[79.62404,11.99057],[79.63119,11.9901],[79.63365,11.99665],[79.63616,11.99671]]]},"properties":{"vil_lgd":644932,"village_name":"Mannadipet","district_name":"Pondicherry","subdistrict_name":"Villianur Taluk","block_name":"VILLIANUR","gp_name":"MANNADIPET","state_name":"PUDUCHERRY","dist_lgd":600,"state_lgd":34}},{"type":"Feature","geometry":{"type":"Polygon","coordinates":[[[79.63644,11.97785],[79.64032,11.97627],[79.64131,11.97053],[79.64852,11.96759],[79.64761,11.96431],[79.64769,11.95843],[79.64688,11.95662],[79.64731,11.95343],[79.64223,11.95399],[79.64185,11.94846],[79.64251,11.9473],[79.64265,11.9421],[79.64026,11.94061],[79.63664,11.94276],[79.62841,11.94516],[79.62876,11.9596],[79.6266,11.96427],[79.6277,11.96979],[79.62987,11.96991],[79.63065,11.9736],[79.63225,11.97395],[79.63271,11.97788],[79.63457,11.97837],[79.63644,11.97785]]]},"properties":{"vil_lgd":644933,"village_name":"Vadanur","district_name":"Pondicherry","subdistrict_name":"Villianur Taluk","block_name":"VILLIANUR","gp_name":"VADHANUR","state_name":"PUDUCHERRY","dist_lgd":600,"state_lgd":34}},{"type":"Feature","geometry":{"type":"Polygon","coordinates":[[[79.65865,11.94459],[79.65862,11.94197],[79.66045,11.94141],[79.66049,11.93665],[79.65679,11.93514],[79.6523,11.93521],[79.65136,11.93177],[79.6407,11.93239],[79.6401,11.93279],[79.6406,11.93503],[79.63544,11.93526],[79.63417,11.93597],[79.6349,11.94069],[79.63447,11.9433],[79.64026,11.94061],[79.64658,11.94447],[79.65202,11.94357],[79.65289,11.94823],[79.65748,11.94805],[79.65654,11.94702],[79.65753,11.94508],[79.65865,11.94459]]]},"properties":{"vil_lgd":644937,"village_name":"Sannasikuppam","district_name":"Pondicherry","subdistrict_name":"Villianur Taluk","block_name":"VILLIANUR","gp_name":"SANYASIKUPPAM","state_name":"PUDUCHERRY","dist_lgd":600,"state_lgd":34}},{"type":"Feature","geometry":{"type":"Polygon","coordinates":[[[79.63447,11.9433],[79.6349,11.94069],[79.63417,11.93597],[79.63544,11.93526],[79.6406,11.93503],[79.6401,11.93279],[79.64291,11.93229],[79.64306,11.92903],[79.64134,11.9283],[79.64156,11.92609],[79.63922,11.92455],[79.63952,11.92281],[79.64084,11.92244],[79.64101,11.9202],[79.63609,11.91927],[79.62829,11.91975],[79.62703,11.92178],[79.61849,11.92606],[79.61888,11.93028],[79.61825,11.93213],[79.61851,11.93608],[79.61795,11.93604],[79.61886,11.94332],[79.62475,11.94313],[79.6289,11.94526],[79.63447,11.9433]]]},"properties":{"vil_lgd":644938,"village_name":"Kalithirthalkuppam","district_name":"Pondicherry","subdistrict_name":"Villianur Taluk","block_name":"VILLIANUR","gp_name":"KALITHEERTHALKUPPAM (EAST)","state_name":"PUDUCHERRY","dist_lgd":600,"state_lgd":34}},{"type":"Feature","geometry":{"type":"Polygon","coordinates":[[[79.64398,11.91939],[79.64713,11.91913],[79.64817,11.91816],[79.64828,11.90773],[79.64111,11.90778],[79.64071,11.9022],[79.63209,11.90126],[79.62532,11.90303],[79.62829,11.91975],[79.63609,11.91927],[79.64101,11.9202],[79.64398,11.91939]]]},"properties":{"vil_lgd":644939,"village_name":"Madagadipet","district_name":"Pondicherry","subdistrict_name":"Villianur Taluk","block_name":"VILLIANUR","gp_name":"MADAGADIPET","state_name":"PUDUCHERRY","dist_lgd":600,"state_lgd":34}},{"type":"Feature","geometry":{"type":"Polygon","coordinates":[[[79.64873,11.93148],[79.65267,11.93233],[79.65769,11.93077],[79.65753,11.92728],[79.65645,11.92513],[79.6522,11.92163],[79.65284,11.91975],[79.65628,11.91904],[79.65689,11.91684],[79.65588,11.9079],[79.64828,11.90773],[79.64793,11.9186],[79.64101,11.9202],[79.64084,11.92244],[79.63926,11.92323],[79.63922,11.92455],[79.64156,11.92609],[79.64134,11.9283],[79.64306,11.92903],[79.64292,11.93224],[79.64527,11.93255],[79.64873,11.93148]]]},"properties":{"vil_lgd":644940,"village_name":"Thirubuvanai","district_name":"Pondicherry","subdistrict_name":"Villianur Taluk","block_name":"VILLIANUR","gp_name":"T.Palayam-M.Palayam","state_name":"PUDUCHERRY","dist_lgd":600,"state_lgd":34}},{"type":"Feature","geometry":{"type":"Polygon","coordinates":[[[79.66934,11.93747],[79.67035,11.935],[79.66974,11.93499],[79.67035,11.93272],[79.66977,11.93272],[79.66982,11.93162],[79.6707,11.93158],[79.669,11.92602],[79.66887,11.91827],[79.66267,11.91819],[79.66258,11.91645],[79.66103,11.91631],[79.6611,11.91518],[79.6627,11.91517],[79.66267,11.9131],[79.65608,11.91293],[79.65695,11.91545],[79.65628,11.91904],[79.65284,11.91975],[79.6522,11.92163],[79.65645,11.92513],[79.65753,11.92728],[79.65769,11.93077],[79.65203,11.93235],[79.65205,11.93492],[79.65836,11.93546],[79.66069,11.93716],[79.66426,11.93698],[79.66418,11.93834],[79.66934,11.93747]]]},"properties":{"vil_lgd":644941,"village_name":"Thiruvandarkoil","district_name":"Pondicherry","subdistrict_name":"Villianur Taluk","block_name":"VILLIANUR","gp_name":"THIRUVANDARKOIL","state_name":"PUDUCHERRY","dist_lgd":600,"state_lgd":34}},{"type":"Feature","geometry":{"type":"Polygon","coordinates":[[[79.68785,11.96958],[79.68389,11.96041],[79.68341,11.95522],[79.68252,11.95721],[79.67986,11.95933],[79.67711,11.95979],[79.67323,11.9637],[79.67277,11.96778],[79.67667,11.96811],[79.67678,11.96886],[79.67776,11.96886],[79.6784,11.97183],[79.68019,11.97188],[79.68035,11.97286],[79.68651,11.97325],[79.68785,11.96958]]]},"properties":{"vil_lgd":644935,"village_name":"Vambupet","district_name":"Pondicherry","subdistrict_name":"Villianur Taluk","block_name":"VILLIANUR","gp_name":"SORAPET","state_name":"PUDUCHERRY","dist_lgd":600,"state_lgd":34}},{"type":"Feature","geometry":{"type":"Polygon","coordinates":[[[79.66756,11.96823],[79.66959,11.96856],[79.67277,11.96778],[79.6735,11.96325],[79.67711,11.95979],[79.67986,11.95933],[79.68252,11.95721],[79.68466,11.95335],[79.68015,11.95172],[79.67669,11.94956],[79.67658,11.94845],[79.67322,11.94787],[79.67071,11.94935],[79.6641,11.95086],[79.65878,11.95007],[79.65823,11.95251],[79.65464,11.95349],[79.65281,11.95786],[79.65379,11.96067],[79.6542,11.9595],[79.66002,11.95839],[79.66052,11.96258],[79.66198,11.96277],[79.66266,11.96682],[79.6622,11.96917],[79.66756,11.96823]]]},"properties":{"vil_lgd":644934,"village_name":"Sorapet","district_name":"Pondicherry","subdistrict_name":"Villianur Taluk","block_name":"VILLIANUR","gp_name":"SORAPET","state_name":"PUDUCHERRY","dist_lgd":600,"state_lgd":34}},{"type":"Feature","geometry":{"type":"Polygon","coordinates":[[[79.67112,12.01011],[79.67249,12.00945],[79.67463,12.00647],[79.67498,12.00201],[79.6739,11.9951],[79.67192,11.9947],[79.6673,11.99096],[79.66252,11.98952],[79.66086,11.98921],[79.66056,11.99028],[79.65702,11.99139],[79.65844,12.00141],[79.65762,12.00516],[79.65943,12.00814],[79.65977,12.01062],[79.66163,12.0123],[79.67112,12.01011]]]},"properties":{"vil_lgd":644930,"village_name":"Kodathur","district_name":"Pondicherry","subdistrict_name":"Villianur Taluk","block_name":"VILLIANUR","gp_name":"KODATHUR","state_name":"PUDUCHERRY","dist_lgd":600,"state_lgd":34}},{"type":"Feature","geometry":{"type":"Polygon","coordinates":[[[79.68342,12.02161],[79.68433,12.02009],[79.68499,12.01431],[79.68631,12.01185],[79.68778,12.01194],[79.68815,12.00998],[79.69173,12.00929],[79.69313,12.00723],[79.69214,12.00215],[79.6928,12.00009],[79.6901,11.99806],[79.68532,11.99855],[79.68349,12.00031],[79.68086,11.99857],[79.67674,11.99817],[79.67421,11.9964],[79.67498,12.00201],[79.67463,12.00647],[79.67249,12.00945],[79.67112,12.01011],[79.67324,12.01571],[79.67304,12.01703],[79.67548,12.02137],[79.68146,12.02094],[79.68342,12.02161]]]},"properties":{"vil_lgd":644925,"village_name":"Suthukeny","district_name":"Pondicherry","subdistrict_name":"Villianur Taluk","block_name":"VILLIANUR","gp_name":"SUTHUKENI","state_name":"PUDUCHERRY","dist_lgd":600,"state_lgd":34}},{"type":"Feature","geometry":{"type":"Polygon","coordinates":[[[79.69701,12.0326],[79.69884,12.03284],[79.69721,12.02181],[79.69312,12.01248],[79.69193,12.01164],[79.69173,12.00929],[79.68934,12.00952],[79.68815,12.00998],[79.68778,12.01194],[79.68631,12.01185],[79.68524,12.01373],[79.68359,12.02249],[79.68507,12.0264],[79.68623,12.02626],[79.68793,12.02785],[79.68977,12.02785],[79.69153,12.03467],[79.69396,12.03481],[79.69379,12.03414],[79.69701,12.0326]]]},"properties":{"vil_lgd":644926,"village_name":"Pudukuppam","district_name":"Pondicherry","subdistrict_name":"Villianur Taluk","block_name":"VILLIANUR","gp_name":"KRISHNAVARAM","state_name":"PUDUCHERRY","dist_lgd":600,"state_lgd":34}},{"type":"Feature","geometry":{"type":"Polygon","coordinates":[[[79.70352,12.03144],[79.70441,12.02704],[79.70334,12.01944],[79.70275,12.01942],[79.7016,12.01383],[79.70268,12.01295],[79.70305,12.00815],[79.70651,12.00675],[79.70823,12.0042],[79.71141,12.00355],[79.71254,12.0014],[79.71513,12.00025],[79.71538,11.99825],[79.71756,11.99782],[79.71746,11.99602],[79.71844,11.99519],[79.71802,11.99295],[79.71404,11.99487],[79.71194,11.99786],[79.69869,12.00261],[79.69529,12.00622],[79.69308,12.00624],[79.69313,12.00723],[79.69175,12.00861],[79.69193,12.01164],[79.69312,12.01248],[79.69721,12.02181],[79.69884,12.03284],[79.70352,12.03144]]]},"properties":{"vil_lgd":644927,"village_name":"Katteri","district_name":"Pondicherry","subdistrict_name":"Villianur Taluk","block_name":"VILLIANUR","gp_name":"KATTERIKUPPAM","state_name":"PUDUCHERRY","dist_lgd":600,"state_lgd":34}},{"type":"Feature","geometry":{"type":"Polygon","coordinates":[[[79.69673,12.00402],[79.69763,12.00417],[79.70004,12.00181],[79.70759,11.99986],[79.71194,11.99786],[79.71404,11.99487],[79.71725,11.99307],[79.71967,11.99291],[79.71961,11.99222],[79.71786,11.9923],[79.71799,11.99042],[79.71464,11.99068],[79.7056,11.99461],[79.70549,11.99395],[79.70232,11.99418],[79.70144,11.99188],[79.69472,11.99199],[79.69356,11.98997],[79.68949,11.99009],[79.68547,11.99164],[79.68579,11.99326],[79.68858,11.99417],[79.68974,11.99769],[79.6928,12.00009],[79.69214,12.00215],[79.69308,12.00624],[79.69529,12.00622],[79.69673,12.00402]]]},"properties":{"vil_lgd":644928,"village_name":"Kuppam","district_name":"Pondicherry","subdistrict_name":"Villianur Taluk","block_name":"VILLIANUR","gp_name":"KATTERIKUPPAM","state_name":"PUDUCHERRY","dist_lgd":600,"state_lgd":34}},{"type":"Feature","geometry":{"type":"Polygon","coordinates":[[[79.6901,11.99806],[79.68858,11.99417],[79.68579,11.99326],[79.68511,11.99075],[79.68327,11.98913],[79.68093,11.98341],[79.67803,11.98625],[79.675,11.99142],[79.67411,11.99365],[79.67421,11.9964],[79.67674,11.99817],[79.68086,11.99857],[79.68349,12.00031],[79.68532,11.99855],[79.6901,11.99806]]]},"properties":{"vil_lgd":644929,"village_name":"Thethampakkam","district_name":"Pondicherry","subdistrict_name":"Villianur Taluk","block_name":"VILLIANUR","gp_name":"SUTHUKENI","state_name":"PUDUCHERRY","dist_lgd":600,"state_lgd":34}},{"type":"Feature","geometry":{"type":"Polygon","coordinates":[[[79.77152,11.94389],[79.77378,11.94106],[79.77268,11.93157],[79.7712,11.9303],[79.76759,11.9305],[79.76705,11.92821],[79.77023,11.9269],[79.77218,11.92467],[79.77833,11.92456],[79.77668,11.92308],[79.77286,11.92271],[79.77344,11.92137],[79.7715,11.92],[79.76045,11.91836],[79.76048,11.92177],[79.7563,11.92262],[79.7564,11.92426],[79.75512,11.92441],[79.75508,11.92601],[79.75644,11.92604],[79.75726,11.92817],[79.7622,11.92854],[79.76218,11.93082],[79.76099,11.9307],[79.7607,11.93202],[79.75994,11.9436],[79.77152,11.94389]]]},"properties":{"vil_lgd":804038,"village_name":"Kurumbapet (GP)","district_name":"Pondicherry","subdistrict_name":"Villianur Taluk","block_name":"VILLIANUR","gp_name":"","state_name":"PUDUCHERRY","dist_lgd":600,"state_lgd":34}},{"type":"Feature","geometry":{"type":"Polygon","coordinates":[[[79.74924,11.92718],[79.74932,11.92216],[79.75067,11.92256],[79.75112,11.92169],[79.75116,11.92057],[79.75029,11.92056],[79.75027,11.91991],[79.75628,11.92039],[79.7563,11.92262],[79.75984,11.92229],[79.76092,11.92104],[79.76038,11.91868],[79.76102,11.91374],[79.76458,11.91341],[79.76536,11.91182],[79.76605,11.9048],[79.76444,11.8945],[79.76278,11.89488],[79.75706,11.90378],[79.7557,11.90479],[79.75278,11.90551],[79.74627,11.90427],[79.74179,11.90501],[79.73673,11.90995],[79.73755,11.91042],[79.73771,11.91675],[79.74592,11.91774],[79.74481,11.92737],[79.74605,11.92831],[79.74924,11.92718]]]},"properties":{"vil_lgd":804038,"village_name":"Kurumbapet (GP + OG)","district_name":"Pondicherry","subdistrict_name":"Villianur Taluk","block_name":"VILLIANUR","gp_name":"","state_name":"PUDUCHERRY","dist_lgd":600,"state_lgd":34}},{"type":"Feature","geometry":{"type":"Polygon","coordinates":[[[79.78941,11.92432],[79.78975,11.92206],[79.79115,11.92195],[79.79192,11.92024],[79.79519,11.92007],[79.79383,11.91623],[79.78701,11.91743],[79.78486,11.91699],[79.78169,11.90293],[79.77882,11.90465],[79.77108,11.90506],[79.7694,11.90324],[79.76926,11.8966],[79.76456,11.8965],[79.76605,11.9048],[79.76536,11.91182],[79.76458,11.91341],[79.76102,11.91374],[79.76045,11.91836],[79.77016,11.91956],[79.77344,11.92137],[79.77847,11.92183],[79.78308,11.92475],[79.78377,11.92772],[79.78466,11.92742],[79.78516,11.92509],[79.78941,11.92432]]]},"properties":{"vil_lgd":804038,"village_name":"Kurumbapet (GP + OG)","district_name":"Pondicherry","subdistrict_name":"Villianur Taluk","block_name":"VILLIANUR","gp_name":"","state_name":"PUDUCHERRY","dist_lgd":600,"state_lgd":34}},{"type":"Feature","geometry":{"type":"Polygon","coordinates":[[[79.75404,11.88533],[79.75297,11.88463],[79.75174,11.88554],[79.74638,11.88642],[79.74347,11.88507],[79.74254,11.88595],[79.74297,11.88685],[79.74213,11.88679],[79.7434,11.88932],[79.74275,11.89105],[79.74356,11.89863],[79.74671,11.9017],[79.74731,11.90453],[79.75278,11.90551],[79.75298,11.89373],[79.75469,11.88858],[79.75404,11.88533]]]},"properties":{"vil_lgd":644955,"village_name":"Uruvaiyar","district_name":"Pondicherry","subdistrict_name":"Villianur Taluk","block_name":"VILLIANUR","gp_name":"URUVAYAR","state_name":"PUDUCHERRY","dist_lgd":600,"state_lgd":34}},{"type":"Feature","geometry":{"type":"Polygon","coordinates":[[[79.76428,11.87613],[79.76399,11.87697],[79.76071,11.87688],[79.76009,11.8757],[79.75743,11.87607],[79.75778,11.87231],[79.75878,11.8716],[79.75868,11.86847],[79.75549,11.86785],[79.75397,11.87122],[79.75186,11.87175],[79.75176,11.88004],[79.75297,11.88463],[79.7538,11.88517],[79.75656,11.88353],[79.7604,11.88301],[79.76148,11.8806],[79.76543,11.8772],[79.76428,11.87613]]]},"properties":{"vil_lgd":644957,"village_name":"Perungalur","district_name":"Pondicherry","subdistrict_name":"Villianur Taluk","block_name":"VILLIANUR","gp_name":"URUVAYAR","state_name":"PUDUCHERRY","dist_lgd":600,"state_lgd":34}},{"type":"Feature","geometry":{"type":"Polygon","coordinates":[[[79.69539,11.89479],[79.70196,11.8937],[79.70492,11.89405],[79.70972,11.89269],[79.70849,11.8913],[79.70811,11.88911],[79.69961,11.88911],[79.69686,11.88858],[79.69658,11.88667],[79.68474,11.88595],[79.68561,11.88488],[79.68506,11.88098],[79.674,11.8807],[79.67385,11.89161],[79.68282,11.89197],[79.68263,11.88878],[79.68684,11.88889],[79.68716,11.89454],[79.69539,11.89479]]]},"properties":{"vil_lgd":644952,"village_name":"Kizhur","district_name":"Pondicherry","subdistrict_name":"Villianur Taluk","block_name":"VILLIANUR","gp_name":"SATHAMANGALAM","state_name":"PUDUCHERRY","dist_lgd":600,"state_lgd":34}},{"type":"Feature","geometry":{"type":"Polygon","coordinates":[[[79.7186,11.91904],[79.71795,11.91336],[79.7066,11.91362],[79.70661,11.90519],[79.70895,11.90431],[79.70854,11.90158],[79.70742,11.9015],[79.70606,11.89936],[79.70528,11.89392],[79.70196,11.8937],[79.69539,11.89479],[79.69574,11.90241],[79.69762,11.90243],[79.6979,11.90473],[79.69776,11.9076],[79.6956,11.90789],[79.6962,11.91917],[79.7186,11.91904]]]},"properties":{"vil_lgd":644951,"village_name":"Arugur","district_name":"Pondicherry","subdistrict_name":"Villianur Taluk","block_name":"VILLIANUR","gp_name":"ARIYUR (North)","state_name":"PUDUCHERRY","dist_lgd":600,"state_lgd":34}},{"type":"Feature","geometry":{"type":"Polygon","coordinates":[[[79.73593,11.93938],[79.73747,11.93974],[79.73729,11.93492],[79.73993,11.93307],[79.74337,11.93218],[79.74383,11.93109],[79.74337,11.92843],[79.74033,11.92852],[79.73743,11.92736],[79.73777,11.91248],[79.73755,11.91042],[79.73673,11.90995],[79.73221,11.91371],[79.72644,11.92198],[79.72895,11.92432],[79.7295,11.9285],[79.73378,11.92929],[79.73478,11.93978],[79.73593,11.93938]]]},"properties":{"vil_lgd":644949,"village_name":"Ulaivaikkal","district_name":"Pondicherry","subdistrict_name":"Villianur Taluk","block_name":"VILLIANUR","gp_name":"PORAYUR AGARAM","state_name":"PUDUCHERRY","dist_lgd":600,"state_lgd":34}},{"type":"Feature","geometry":{"type":"Polygon","coordinates":[[[79.72726,11.94333],[79.73478,11.93978],[79.73471,11.93806],[79.73416,11.93],[79.73283,11.92873],[79.7295,11.9285],[79.72895,11.92432],[79.72644,11.92198],[79.71753,11.92899],[79.7211,11.94543],[79.72299,11.94566],[79.72726,11.94333]]]},"properties":{"vil_lgd":644948,"village_name":"Koodapakkam","district_name":"Pondicherry","subdistrict_name":"Villianur Taluk","block_name":"VILLIANUR","gp_name":"KOODAPAKKAM","state_name":"PUDUCHERRY","dist_lgd":600,"state_lgd":34}},{"type":"Feature","geometry":{"type":"Polygon","coordinates":[[[79.72451,11.97143],[79.72963,11.97067],[79.73349,11.96872],[79.73296,11.96262],[79.73515,11.96042],[79.73502,11.95744],[79.73337,11.96009],[79.72938,11.9602],[79.72762,11.95682],[79.72598,11.95702],[79.72361,11.95961],[79.71989,11.95805],[79.71831,11.95618],[79.71194,11.9566],[79.7106,11.9587],[79.71406,11.96045],[79.71602,11.97106],[79.71852,11.97116],[79.71943,11.97409],[79.72363,11.97544],[79.72451,11.97143]]]},"properties":{"vil_lgd":644945,"village_name":"Thondamanatham","district_name":"Pondicherry","subdistrict_name":"Villianur Taluk","block_name":"VILLIANUR","gp_name":"THONDAMANATHAM","state_name":"PUDUCHERRY","dist_lgd":600,"state_lgd":34}},{"type":"Feature","geometry":{"type":"Polygon","coordinates":[[[79.72978,11.96015],[79.73337,11.96009],[79.73502,11.95744],[79.73234,11.94401],[79.72726,11.94333],[79.72299,11.94566],[79.72089,11.9449],[79.71227,11.94854],[79.7127,11.95017],[79.71383,11.95098],[79.71364,11.95201],[79.71517,11.95176],[79.71534,11.95265],[79.71194,11.9566],[79.71831,11.95618],[79.71989,11.95805],[79.72361,11.95961],[79.72598,11.95702],[79.72762,11.95682],[79.72978,11.96015]]]},"properties":{"vil_lgd":644946,"village_name":"Ramanathapuram","district_name":"Pondicherry","subdistrict_name":"Villianur Taluk","block_name":"VILLIANUR","gp_name":"PILLAYARKUPPAM","state_name":"PUDUCHERRY","dist_lgd":600,"state_lgd":34}},{"type":"Feature","geometry":{"type":"Polygon","coordinates":[[[79.69797,11.96049],[79.70313,11.95206],[79.70507,11.95155],[79.70829,11.94769],[79.70814,11.94076],[79.71122,11.93307],[79.70662,11.93517],[79.70653,11.93727],[79.70429,11.94017],[79.70162,11.94142],[79.69731,11.94175],[79.69595,11.94453],[79.69576,11.9477],[79.69397,11.94912],[79.69385,11.95021],[79.69166,11.95132],[79.69292,11.95742],[79.69354,11.95726],[79.69569,11.96392],[79.69797,11.96049]]]},"properties":{"vil_lgd":644936,"village_name":"Sellipattu","district_name":"Pondicherry","subdistrict_name":"Villianur Taluk","block_name":"VILLIANUR","gp_name":"SELLIPET","state_name":"PUDUCHERRY","dist_lgd":600,"state_lgd":34}},{"type":"Feature","geometry":{"type":"Polygon","coordinates":[[[79.71503,11.96764],[79.71406,11.96045],[79.7106,11.9587],[79.71528,11.95195],[79.71372,11.95212],[79.71383,11.95098],[79.7127,11.95017],[79.71227,11.94854],[79.70968,11.94996],[79.70911,11.94751],[79.70829,11.94769],[79.70507,11.95155],[79.70313,11.95206],[79.69797,11.96049],[79.70017,11.96281],[79.70104,11.96268],[79.7019,11.96491],[79.70368,11.96547],[79.7026,11.96702],[79.70582,11.96713],[79.70607,11.96636],[79.71021,11.96578],[79.71082,11.96728],[79.71417,11.96699],[79.71503,11.96764]]]},"properties":{"vil_lgd":644947,"village_name":"Pillaiyarkuppam","district_name":"Pondicherry","subdistrict_name":"Villianur Taluk","block_name":"VILLIANUR","gp_name":"PILLAYARKUPPAM","state_name":"PUDUCHERRY","dist_lgd":600,"state_lgd":34}},{"type":"Feature","geometry":{"type":"Polygon","coordinates":[[[79.77437,11.90468],[79.77539,11.90499],[79.77516,11.90183],[79.76984,11.90277],[79.76925,11.90174],[79.7694,11.90324],[79.77108,11.90506],[79.77437,11.90468]]]},"properties":{"vil_lgd":644956,"village_name":"Thirukanji","district_name":"Pondicherry","subdistrict_name":"Villianur Taluk","block_name":"VILLIANUR","gp_name":"THIRUKANJI","state_name":"PUDUCHERRY","dist_lgd":600,"state_lgd":34}},{"type":"Feature","geometry":{"type":"Polygon","coordinates":[[[79.74678,12.00757],[79.76237,12.00269],[79.76155,11.9911],[79.76042,11.9892],[79.75552,11.98829],[79.75434,11.98612],[79.75327,11.98609],[79.75191,11.98427],[79.74812,11.98475],[79.74403,11.98858],[79.73948,11.98981],[79.73792,11.99154],[79.73822,11.99609],[79.74,12.00129],[79.74132,12.00122],[79.74152,12.00394],[79.74373,12.00364],[79.74489,12.00626],[79.74678,12.00757]]]},"properties":{"vil_lgd":644942,"village_name":"Sedarapet","district_name":"Pondicherry","subdistrict_name":"Villianur Taluk","block_name":"VILLIANUR","gp_name":"SEDURAPET","state_name":"PUDUCHERRY","dist_lgd":600,"state_lgd":34}},{"type":"Feature","geometry":{"type":"Polygon","coordinates":[[[79.73851,12.00094],[79.7399,12.00092],[79.73822,11.99609],[79.7382,11.99105],[79.73948,11.98981],[79.74403,11.98858],[79.74812,11.98475],[79.74372,11.97986],[79.74283,11.97781],[79.73551,11.97919],[79.73023,11.98322],[79.72958,11.98493],[79.73041,11.98594],[79.72885,11.98599],[79.72891,11.9884],[79.73049,11.99155],[79.73193,11.99354],[79.73343,11.99326],[79.73479,11.99747],[79.73701,11.99789],[79.73768,12.00095],[79.73851,12.00094]]]},"properties":{"vil_lgd":644943,"village_name":"Karasur","district_name":"Pondicherry","subdistrict_name":"Villianur Taluk","block_name":"VILLIANUR","gp_name":"SEDURAPET","state_name":"PUDUCHERRY","dist_lgd":600,"state_lgd":34}},{"type":"Feature","geometry":{"type":"Polygon","coordinates":[[[79.74453,11.96496],[79.7487,11.94399],[79.74924,11.92718],[79.74605,11.92831],[79.74481,11.92737],[79.74588,11.9217],[79.74569,11.91743],[79.74299,11.91785],[79.73771,11.91675],[79.73743,11.92736],[79.74033,11.92852],[79.74337,11.92843],[79.74376,11.93156],[79.73729,11.93492],[79.73747,11.93974],[79.73536,11.93954],[79.72726,11.94333],[79.73234,11.94401],[79.73388,11.9494],[79.73524,11.95913],[79.73515,11.96042],[79.73296,11.96262],[79.73349,11.96872],[79.74453,11.96496]]]},"properties":{"vil_lgd":644950,"village_name":"Oussudu","district_name":"Pondicherry","subdistrict_name":"Villianur Taluk","block_name":"VILLIANUR","gp_name":"PORAYUR AGARAM","state_name":"PUDUCHERRY","dist_lgd":600,"state_lgd":34}},{"type":"Feature","geometry":{"type":"Polygon","coordinates":[[[79.76396,11.89454],[79.76456,11.8965],[79.76926,11.8966],[79.7692,11.90066],[79.77288,11.90044],[79.77053,11.89088],[79.77202,11.88537],[79.77102,11.88344],[79.77356,11.88329],[79.77284,11.87522],[79.76971,11.87461],[79.76853,11.87593],[79.76577,11.87631],[79.76453,11.87545],[79.76428,11.87613],[79.76543,11.8772],[79.76148,11.8806],[79.7604,11.88301],[79.75656,11.88353],[79.7538,11.88517],[79.75469,11.88858],[79.75298,11.89373],[79.75278,11.90551],[79.75706,11.90378],[79.76073,11.89734],[79.76278,11.89488],[79.76396,11.89454]]]},"properties":{"vil_lgd":644956,"village_name":"Thirukanji","district_name":"Pondicherry","subdistrict_name":"Villianur Taluk","block_name":"VILLIANUR","gp_name":"THIRUKANJI","state_name":"PUDUCHERRY","dist_lgd":600,"state_lgd":34}},{"type":"Feature","geometry":{"type":"Polygon","coordinates":[[[79.74487,11.90441],[79.74731,11.90453],[79.74671,11.9017],[79.74356,11.89863],[79.74275,11.89105],[79.7434,11.88932],[79.74213,11.88679],[79.73416,11.8864],[79.73281,11.88775],[79.72864,11.88905],[79.72955,11.89166],[79.7305,11.89173],[79.73072,11.902],[79.73131,11.90321],[79.73344,11.90407],[79.73809,11.90418],[79.7407,11.90544],[79.74487,11.90441]]]},"properties":{"vil_lgd":644954,"village_name":"Mangalam","district_name":"Pondicherry","subdistrict_name":"Villianur Taluk","block_name":"VILLIANUR","gp_name":"MANGALAM","state_name":"PUDUCHERRY","dist_lgd":600,"state_lgd":34}},{"type":"Feature","geometry":{"type":"Polygon","coordinates":[[[79.71725,11.8926],[79.71883,11.89043],[79.72097,11.8905],[79.72331,11.88872],[79.72499,11.88929],[79.72331,11.88992],[79.72274,11.8916],[79.72444,11.89192],[79.72489,11.89062],[79.72593,11.89107],[79.72887,11.89021],[79.72864,11.88905],[79.72994,11.88815],[79.73327,11.88747],[79.73165,11.88624],[79.72934,11.88616],[79.72621,11.88271],[79.72219,11.88292],[79.71681,11.88046],[79.71335,11.88205],[79.71216,11.88419],[79.70934,11.88335],[79.71072,11.88759],[79.70992,11.88787],[79.71,11.88921],[79.70811,11.88911],[79.70895,11.89207],[79.70948,11.89252],[79.71157,11.89067],[79.71257,11.89182],[79.71368,11.89104],[79.71725,11.8926]]]},"properties":{"vil_lgd":644953,"village_name":"Sathamangalam","district_name":"Pondicherry","subdistrict_name":"Villianur Taluk","block_name":"VILLIANUR","gp_name":"SATHAMANGALAM","state_name":"PUDUCHERRY","dist_lgd":600,"state_lgd":34}},{"type":"Feature","geometry":{"type":"Polygon","coordinates":[[[79.69984,11.87392],[79.69907,11.86129],[79.696,11.86035],[79.69723,11.87408],[79.69984,11.87392]]]},"properties":{"vil_lgd":644958,"village_name":"Manakuppam","district_name":"Pondicherry","subdistrict_name":"Bahour Taluk","block_name":"ARIANKUPPAM","gp_name":"SATHAMANGALAM","state_name":"PUDUCHERRY","dist_lgd":600,"state_lgd":34}},{"type":"Feature","geometry":{"type":"Polygon","coordinates":[[[79.79332,11.88455],[79.79295,11.88348],[79.79125,11.88393],[79.79159,11.885],[79.79332,11.88455]]]},"properties":{"vil_lgd":644922,"village_name":"Manavely (CT)","district_name":"Pondicherry","subdistrict_name":"Puducherry Taluk","block_name":" ","gp_name":"MANAVELY","state_name":"PUDUCHERRY","dist_lgd":600,"state_lgd":34}},{"type":"Feature","geometry":{"type":"Polygon","coordinates":[[[79.83281,11.95652],[79.84064,11.95579],[79.83775,11.9443],[79.83697,11.93557],[79.83406,11.92306],[79.82978,11.90877],[79.82772,11.90854],[79.82743,11.90926],[79.82948,11.91224],[79.83017,11.91623],[79.81957,11.9197],[79.81781,11.91955],[79.81608,11.91832],[79.81565,11.92042],[79.81838,11.92465],[79.81986,11.92905],[79.82388,11.93322],[79.82454,11.93775],[79.83017,11.94957],[79.82949,11.95229],[79.83128,11.95712],[79.83281,11.95652]]]},"properties":{"vil_lgd":804036,"village_name":"Puducherry (M)","district_name":"Pondicherry","subdistrict_name":"Puducherry Taluk","block_name":" ","gp_name":"","state_name":"PUDUCHERRY","dist_lgd":600,"state_lgd":34}},{"type":"Feature","geometry":{"type":"Polygon","coordinates":[[[79.83128,11.95712],[79.82949,11.95229],[79.82974,11.95123],[79.81733,11.95582],[79.81237,11.95659],[79.8112,11.95593],[79.80503,11.9564],[79.80524,11.96317],[79.80648,11.96802],[79.80981,11.97522],[79.81392,11.97836],[79.8163,11.97903],[79.8185,11.97789],[79.82171,11.96951],[79.82235,11.96577],[79.82487,11.96152],[79.83128,11.95712]]]},"properties":{"vil_lgd":804036,"village_name":"Puducherry (M)","district_name":"Pondicherry","subdistrict_name":"Ozhukarai Taluk","block_name":"OZHUKARAI","gp_name":"","state_name":"PUDUCHERRY","dist_lgd":600,"state_lgd":34}},{"type":"Feature","geometry":{"type":"Polygon","coordinates":[[[79.815,11.85969],[79.81428,11.85808],[79.81302,11.85839],[79.8134,11.86005],[79.815,11.85969]]]},"properties":{"vil_lgd":912392,"village_name":"Nallavadu","district_name":"Pondicherry","subdistrict_name":"Puducherry Taluk","block_name":" ","gp_name":"NALLAVADU","state_name":"PUDUCHERRY","dist_lgd":600,"state_lgd":34}},{"type":"Feature","geometry":{"type":"Polygon","coordinates":[[[79.73168,11.99295],[79.72891,11.9884],[79.72885,11.98599],[79.72648,11.98576],[79.72363,11.97803],[79.72363,11.97544],[79.71943,11.97409],[79.71852,11.97116],[79.71602,11.97106],[79.71463,11.97271],[79.7124,11.97361],[79.71228,11.97438],[79.71087,11.97456],[79.71081,11.97567],[79.70927,11.97581],[79.71057,11.97746],[79.71242,11.98655],[79.71465,11.98639],[79.71451,11.98497],[79.7159,11.98484],[79.7194,11.98925],[79.72057,11.99274],[79.72312,11.99249],[79.72342,11.99314],[79.7283,11.99231],[79.72904,11.99362],[79.73168,11.99295]]]},"properties":{"vil_lgd":644944,"village_name":"Thuthipet","district_name":"Pondicherry","subdistrict_name":"Villianur Taluk","block_name":"VILLIANUR","gp_name":"THONDAMANATHAM","state_name":"PUDUCHERRY","dist_lgd":600,"state_lgd":34}},{"type":"Feature","geometry":{"type":"Polygon","coordinates":[[[82.21879,16.73999],[82.22258,16.73727],[82.22824,16.7304],[82.23485,16.72927],[82.25276,16.73107],[82.2715,16.73151],[82.28851,16.73491],[82.29287,16.74666],[82.29688,16.75312],[82.3015,16.75518],[82.30553,16.75253],[82.30885,16.74551],[82.31062,16.73504],[82.30727,16.72634],[82.30264,16.71826],[82.293,16.70966],[82.28417,16.70533],[82.27252,16.70274],[82.26128,16.70192],[82.25437,16.70362],[82.23524,16.71677],[82.22327,16.72186],[82.21037,16.71976],[82.20141,16.72052],[82.18691,16.72833],[82.18245,16.73711],[82.18814,16.7401],[82.19656,16.73922],[82.20459,16.74848],[82.21502,16.75572],[82.21892,16.76023],[82.22547,16.7637],[82.22961,16.76236],[82.22758,16.75689],[82.21783,16.74331],[82.21879,16.73999]]]},"properties":{"vil_lgd":804035,"village_name":"Yanam (M)","district_name":"Yanam","subdistrict_name":"Yanam Taluk","block_name":"YANAM","gp_name":"","state_name":"PUDUCHERRY","dist_lgd":601,"state_lgd":34}},{"type":"Feature","geometry":{"type":"Polygon","coordinates":[[[75.53831,11.76272],[75.53862,11.76014],[75.53935,11.76086],[75.54136,11.75937],[75.5441,11.7591],[75.54644,11.75627],[75.54472,11.75353],[75.54449,11.74646],[75.54298,11.74294],[75.54335,11.74136],[75.54207,11.73719],[75.54324,11.7344],[75.54465,11.73412],[75.54475,11.73267],[75.54998,11.73115],[75.55562,11.7276],[75.55494,11.72372],[75.55534,11.72147],[75.55426,11.71944],[75.55135,11.71905],[75.54995,11.71719],[75.54829,11.71689],[75.5478,11.71543],[75.54578,11.71751],[75.54404,11.71751],[75.54373,11.7165],[75.54226,11.71663],[75.5415,11.71553],[75.5376,11.71607],[75.5373,11.71894],[75.53653,11.7193],[75.53424,11.71682],[75.5325,11.71621],[75.53325,11.71391],[75.53451,11.71325],[75.5367,11.71351],[75.53737,11.71218],[75.53235,11.71011],[75.53083,11.71021],[75.53176,11.70896],[75.531,11.70826],[75.52908,11.70908],[75.52903,11.70979],[75.53056,11.71044],[75.53079,11.71362],[75.53218,11.71393],[75.53156,11.71588],[75.52914,11.71676],[75.52783,11.71601],[75.52807,11.71844],[75.52708,11.72057],[75.52754,11.72149],[75.52656,11.72606],[75.52898,11.73034],[75.53082,11.73096],[75.53172,11.73466],[75.53602,11.73355],[75.53607,11.73435],[75.54011,11.73491],[75.54146,11.73889],[75.54169,11.74295],[75.54026,11.74847],[75.53906,11.74918],[75.53744,11.74866],[75.53744,11.75038],[75.53472,11.7526],[75.53438,11.75638],[75.53189,11.75759],[75.53123,11.75871],[75.53575,11.76105],[75.53623,11.7627],[75.53831,11.76272]]]},"properties":{"vil_lgd":804039,"village_name":"Mahe (M)","district_name":"Mahe","subdistrict_name":"Mahe Taluk","block_name":"MAHE","gp_name":"","state_name":"PUDUCHERRY","dist_lgd":599,"state_lgd":34}},{"type":"Feature","geometry":{"type":"Polygon","coordinates":[[[75.54423,11.70454],[75.54225,11.70209],[75.54163,11.69601],[75.53994,11.6962],[75.53623,11.69354],[75.53375,11.69799],[75.53232,11.69911],[75.5316,11.69876],[75.53133,11.7003],[75.5289,11.70174],[75.53004,11.70357],[75.53305,11.7058],[75.53426,11.70901],[75.53567,11.70967],[75.5393,11.70901],[75.54423,11.70454]]]},"properties":{"vil_lgd":804039,"village_name":"Mahe (M)","district_name":"Mahe","subdistrict_name":"Mahe Taluk","block_name":"MAHE","gp_name":"","state_name":"PUDUCHERRY","dist_lgd":599,"state_lgd":34}},{"type":"Feature","geometry":{"type":"Polygon","coordinates":[[[79.80666,10.90213],[79.80432,10.90057],[79.80442,10.8959],[79.80142,10.89356],[79.80219,10.8906],[79.79995,10.88892],[79.79979,10.88735],[79.79469,10.88754],[79.79571,10.88959],[79.79528,10.89085],[79.79376,10.89121],[79.79281,10.89362],[79.79069,10.89482],[79.78998,10.89424],[79.79005,10.89046],[79.78907,10.88987],[79.78707,10.88976],[79.78557,10.88867],[79.78454,10.88914],[79.78382,10.88841],[79.78211,10.89043],[79.78256,10.89533],[79.78785,10.89551],[79.78953,10.89674],[79.79127,10.89596],[79.79245,10.8984],[79.79386,10.89869],[79.792,10.90024],[79.79136,10.90484],[79.7947,10.90211],[79.79541,10.90274],[79.79768,10.90182],[79.80328,10.90292],[79.8042,10.90363],[79.80474,10.90746],[79.80857,10.90846],[79.80839,10.9068],[79.80685,10.90519],[79.80734,10.90323],[79.80666,10.90213]]]},"properties":{"vil_lgd":644989,"village_name":"Kizhamanai","district_name":"Karaikal","subdistrict_name":"Karaikal Taluk","block_name":"KARAIKAL","gp_name":"KEEZHAMANAI","state_name":"PUDUCHERRY","dist_lgd":598,"state_lgd":34}},{"type":"Feature","geometry":{"type":"Polygon","coordinates":[[[79.83083,10.90018],[79.83107,10.89384],[79.82822,10.89352],[79.82831,10.89274],[79.82609,10.89161],[79.82714,10.88469],[79.82328,10.88427],[79.81871,10.88644],[79.81453,10.88682],[79.81135,10.88844],[79.80883,10.88734],[79.80711,10.8875],[79.80607,10.88788],[79.80433,10.89106],[79.80219,10.8906],[79.8012,10.89272],[79.80442,10.8959],[79.80617,10.89641],[79.80706,10.89882],[79.80875,10.90004],[79.81418,10.89882],[79.82397,10.90136],[79.83083,10.90018]]]},"properties":{"vil_lgd":644990,"village_name":"Neravy","district_name":"Karaikal","subdistrict_name":"Karaikal Taluk","block_name":"KARAIKAL","gp_name":"NERAVY(NORTH)","state_name":"PUDUCHERRY","dist_lgd":598,"state_lgd":34}},{"type":"Feature","geometry":{"type":"Polygon","coordinates":[[[79.84656,10.91063],[79.84558,10.90613],[79.84359,10.90448],[79.84055,10.90445],[79.83807,10.90331],[79.83593,10.9044],[79.83415,10.90426],[79.83364,10.9032],[79.83245,10.90298],[79.83245,10.90093],[79.83083,10.90018],[79.82397,10.90136],[79.81418,10.89882],[79.80875,10.90004],[79.80706,10.89882],[79.80617,10.89641],[79.80442,10.8959],[79.80432,10.90057],[79.80712,10.90272],[79.80685,10.90519],[79.80839,10.9068],[79.80857,10.90846],[79.8305,10.91121],[79.83124,10.9105],[79.84656,10.91063]]]},"properties":{"vil_lgd":804040,"village_name":"Karaikal (M)","district_name":"Karaikal","subdistrict_name":"Karaikal Taluk","block_name":"KARAIKAL","gp_name":"","state_name":"PUDUCHERRY","dist_lgd":598,"state_lgd":34}},{"type":"Feature","geometry":{"type":"Polygon","coordinates":[[[79.85135,10.87138],[79.84876,10.87024],[79.84449,10.8707],[79.84318,10.86971],[79.84129,10.87008],[79.84112,10.87107],[79.83898,10.87275],[79.83759,10.87278],[79.83561,10.87533],[79.83306,10.87685],[79.83331,10.88043],[79.83151,10.88254],[79.83774,10.88464],[79.84254,10.88387],[79.85116,10.88731],[79.85053,10.88557],[79.85147,10.88254],[79.85135,10.87138]]]},"properties":{"vil_lgd":644991,"village_name":"Keezhaiyur (North)","district_name":"Karaikal","subdistrict_name":"Karaikal Taluk","block_name":"KARAIKAL","gp_name":"T.R. PATTINAM (EAST)","state_name":"PUDUCHERRY","dist_lgd":598,"state_lgd":34}},{"type":"Feature","geometry":{"type":"Polygon","coordinates":[[[79.83151,10.88254],[79.83331,10.88043],[79.83306,10.87685],[79.83561,10.87533],[79.83759,10.87278],[79.83479,10.87213],[79.83422,10.87404],[79.83142,10.87365],[79.83012,10.86489],[79.82922,10.86497],[79.82872,10.86702],[79.82486,10.86689],[79.82481,10.86903],[79.82332,10.87005],[79.82241,10.87424],[79.81692,10.87431],[79.81331,10.87561],[79.81111,10.87557],[79.8113,10.88034],[79.81702,10.88063],[79.81931,10.87996],[79.82101,10.88136],[79.82282,10.88024],[79.82378,10.88106],[79.82467,10.88039],[79.82545,10.88139],[79.82807,10.8817],[79.82881,10.88347],[79.83151,10.88254]]]},"properties":{"vil_lgd":644995,"village_name":"Thirumalairayanpattinam (CT)","district_name":"Karaikal","subdistrict_name":"Karaikal Taluk","block_name":"KARAIKAL","gp_name":"T.R.PATTINAM(NORTH)","state_name":"PUDUCHERRY","dist_lgd":598,"state_lgd":34}},{"type":"Feature","geometry":{"type":"Polygon","coordinates":[[[79.85206,10.92856],[79.8521,10.91092],[79.84135,10.91096],[79.84145,10.91322],[79.83965,10.9133],[79.83964,10.91581],[79.84071,10.91574],[79.84103,10.92046],[79.84234,10.92434],[79.84119,10.92716],[79.8408,10.93159],[79.8478,10.93191],[79.84859,10.92855],[79.85041,10.92799],[79.85206,10.92856]]]},"properties":{"vil_lgd":804040,"village_name":"Karaikal (M)","district_name":"Karaikal","subdistrict_name":"Karaikal Taluk","block_name":"KARAIKAL","gp_name":"","state_name":"PUDUCHERRY","dist_lgd":598,"state_lgd":34}},{"type":"Feature","geometry":{"type":"Polygon","coordinates":[[[79.8521,10.91092],[79.85116,10.88731],[79.84254,10.88387],[79.83774,10.88464],[79.83151,10.88254],[79.82714,10.88469],[79.82609,10.89161],[79.82831,10.89274],[79.82822,10.89352],[79.83107,10.89384],[79.83083,10.90018],[79.83245,10.90093],[79.83245,10.90298],[79.83456,10.90433],[79.83807,10.90331],[79.84055,10.90445],[79.84359,10.90448],[79.84558,10.90613],[79.84696,10.91069],[79.8521,10.91092]]]},"properties":{"vil_lgd":804040,"village_name":"Karaikal (M)","district_name":"Karaikal","subdistrict_name":"Karaikal Taluk","block_name":"KARAIKAL","gp_name":"","state_name":"PUDUCHERRY","dist_lgd":598,"state_lgd":34}},{"type":"Feature","geometry":{"type":"Polygon","coordinates":[[[79.83023,10.91161],[79.82984,10.91104],[79.80857,10.90846],[79.80854,10.91059],[79.8056,10.91075],[79.80534,10.91774],[79.80406,10.9196],[79.80421,10.92459],[79.80291,10.9267],[79.80761,10.92674],[79.80938,10.92904],[79.81545,10.93025],[79.81685,10.92976],[79.81998,10.9311],[79.8249,10.92554],[79.82479,10.91744],[79.83023,10.91161]]]},"properties":{"vil_lgd":804040,"village_name":"Karaikal (M)","district_name":"Karaikal","subdistrict_name":"Karaikal Taluk","block_name":"KARAIKAL","gp_name":"","state_name":"PUDUCHERRY","dist_lgd":598,"state_lgd":34}},{"type":"Feature","geometry":{"type":"Polygon","coordinates":[[[79.85209,10.92892],[79.8493,10.92803],[79.8481,10.92906],[79.8478,10.93191],[79.83968,10.93166],[79.83663,10.93383],[79.83491,10.93383],[79.83336,10.93347],[79.83404,10.9312],[79.83004,10.93075],[79.82725,10.93218],[79.82278,10.93202],[79.81741,10.93052],[79.81685,10.92976],[79.81545,10.93025],[79.80938,10.92904],[79.80761,10.92674],[79.80291,10.9267],[79.80609,10.93143],[79.80393,10.93305],[79.80449,10.9365],[79.80671,10.93771],[79.80666,10.93941],[79.81076,10.9399],[79.81024,10.94152],[79.81805,10.9429],[79.8295,10.94254],[79.83514,10.94386],[79.83691,10.94212],[79.84091,10.94068],[79.84575,10.94068],[79.84824,10.94137],[79.85005,10.94432],[79.85267,10.94526],[79.85209,10.92892]]]},"properties":{"vil_lgd":804040,"village_name":"Karaikal (M)","district_name":"Karaikal","subdistrict_name":"Karaikal Taluk","block_name":"KARAIKAL","gp_name":"","state_name":"PUDUCHERRY","dist_lgd":598,"state_lgd":34}},{"type":"Feature","geometry":{"type":"Polygon","coordinates":[[[79.83759,10.87278],[79.83898,10.87275],[79.84211,10.86963],[79.84391,10.87062],[79.84876,10.87024],[79.85135,10.87138],[79.84984,10.85822],[79.85025,10.85615],[79.8473,10.85414],[79.84426,10.85375],[79.84114,10.85207],[79.83194,10.85283],[79.83119,10.86189],[79.83012,10.86489],[79.83093,10.87289],[79.83142,10.87365],[79.83422,10.87404],[79.83447,10.87221],[79.83759,10.87278]]]},"properties":{"vil_lgd":644992,"village_name":"Keezhaiyur (South)","district_name":"Karaikal","subdistrict_name":"Karaikal Taluk","block_name":"KARAIKAL","gp_name":"T.R. PATTINAM (EAST)","state_name":"PUDUCHERRY","dist_lgd":598,"state_lgd":34}},{"type":"Feature","geometry":{"type":"Polygon","coordinates":[[[79.83012,10.86489],[79.83119,10.86189],[79.83194,10.85283],[79.82997,10.85199],[79.82527,10.84694],[79.82108,10.84556],[79.81926,10.84738],[79.81943,10.84914],[79.81376,10.84996],[79.80794,10.85562],[79.80749,10.86544],[79.80966,10.86566],[79.80957,10.86393],[79.8117,10.85965],[79.81797,10.86345],[79.82491,10.86483],[79.82486,10.86689],[79.82872,10.86702],[79.82922,10.86497],[79.83012,10.86489]]]},"properties":{"vil_lgd":644993,"village_name":"Polagam","district_name":"Karaikal","subdistrict_name":"Karaikal Taluk","block_name":"KARAIKAL","gp_name":"T.R.PATTINAM(SOUTH)","state_name":"PUDUCHERRY","dist_lgd":598,"state_lgd":34}},{"type":"Feature","geometry":{"type":"Polygon","coordinates":[[[79.84145,10.91284],[79.84135,10.91096],[79.83124,10.9105],[79.82479,10.91744],[79.8249,10.92554],[79.81998,10.9311],[79.82658,10.93225],[79.83004,10.93075],[79.83404,10.9312],[79.83336,10.93347],[79.83491,10.93383],[79.83663,10.93383],[79.83888,10.93191],[79.8408,10.93159],[79.84119,10.92716],[79.84234,10.92434],[79.84103,10.92046],[79.84071,10.91574],[79.83964,10.91581],[79.83965,10.9133],[79.84145,10.91284]]]},"properties":{"vil_lgd":804040,"village_name":"Karaikal (M)","district_name":"Karaikal","subdistrict_name":"Karaikal Taluk","block_name":"KARAIKAL","gp_name":"","state_name":"PUDUCHERRY","dist_lgd":598,"state_lgd":34}},{"type":"Feature","geometry":{"type":"Polygon","coordinates":[[[79.85295,10.95791],[79.85273,10.95016],[79.83274,10.94853],[79.81363,10.94927],[79.81352,10.95501],[79.81267,10.95784],[79.85295,10.95791]]]},"properties":{"vil_lgd":804040,"village_name":"Karaikal (M)","district_name":"Karaikal","subdistrict_name":"Karaikal Taluk","block_name":"KARAIKAL","gp_name":"","state_name":"PUDUCHERRY","dist_lgd":598,"state_lgd":34}},{"type":"Feature","geometry":{"type":"Polygon","coordinates":[[[79.85267,10.94526],[79.85005,10.94432],[79.84824,10.94137],[79.84204,10.94048],[79.83691,10.94212],[79.83514,10.94386],[79.8295,10.94254],[79.81805,10.9429],[79.81072,10.94165],[79.80828,10.94329],[79.80882,10.94485],[79.80798,10.94688],[79.81355,10.94686],[79.81363,10.94927],[79.83274,10.94853],[79.85273,10.95016],[79.85267,10.94526]]]},"properties":{"vil_lgd":804040,"village_name":"Karaikal (M)","district_name":"Karaikal","subdistrict_name":"Karaikal Taluk","block_name":"KARAIKAL","gp_name":"","state_name":"PUDUCHERRY","dist_lgd":598,"state_lgd":34}},{"type":"Feature","geometry":{"type":"Polygon","coordinates":[[[79.83168,10.9702],[79.83517,10.96865],[79.83908,10.96858],[79.84357,10.97018],[79.84839,10.96962],[79.85363,10.97017],[79.85295,10.95791],[79.81267,10.95784],[79.81208,10.95998],[79.81255,10.96264],[79.80985,10.97071],[79.81831,10.9705],[79.82741,10.97133],[79.83168,10.9702]]]},"properties":{"vil_lgd":644987,"village_name":"Kottucherry","district_name":"Karaikal","subdistrict_name":"Karaikal Taluk","block_name":"KARAIKAL","gp_name":"KOTTUCHERRY (NORTH)","state_name":"PUDUCHERRY","dist_lgd":598,"state_lgd":34}},{"type":"Feature","geometry":{"type":"Polygon","coordinates":[[[79.8319,10.98254],[79.83279,10.97754],[79.83028,10.97345],[79.8319,10.97207],[79.83168,10.9702],[79.82741,10.97133],[79.81831,10.9705],[79.80985,10.97071],[79.80929,10.97373],[79.80717,10.97486],[79.80487,10.98017],[79.80346,10.98186],[79.8,10.98207],[79.79899,10.98556],[79.80247,10.98842],[79.80395,10.98688],[79.80415,10.9877],[79.81096,10.98885],[79.81625,10.98858],[79.81799,10.98916],[79.81873,10.98729],[79.8262,10.98579],[79.82625,10.98271],[79.8319,10.98254]]]},"properties":{"vil_lgd":644986,"village_name":"Varichikudy (South)","district_name":"Karaikal","subdistrict_name":"Karaikal Taluk","block_name":"KARAIKAL","gp_name":"VARICHIKUDY","state_name":"PUDUCHERRY","dist_lgd":598,"state_lgd":34}},{"type":"Feature","geometry":{"type":"Polygon","coordinates":[[[79.85382,10.98322],[79.85363,10.97017],[79.84839,10.96962],[79.84357,10.97018],[79.84011,10.9687],[79.83517,10.96865],[79.83168,10.9702],[79.8319,10.97207],[79.83038,10.97272],[79.83033,10.9742],[79.8319,10.97518],[79.83279,10.97754],[79.83152,10.98407],[79.83328,10.98823],[79.83314,10.98966],[79.83433,10.99083],[79.84421,10.98836],[79.8449,10.99],[79.84268,10.99321],[79.84298,10.99477],[79.84675,10.99527],[79.84781,10.99451],[79.85126,10.99429],[79.85189,10.9926],[79.8507,10.99025],[79.85067,10.98739],[79.85195,10.98384],[79.85382,10.98322]]]},"properties":{"vil_lgd":644985,"village_name":"Thiruvettakudy","district_name":"Karaikal","subdistrict_name":"Karaikal Taluk","block_name":"KARAIKAL","gp_name":"THIRUVETTAKUDY","state_name":"PUDUCHERRY","dist_lgd":598,"state_lgd":34}},{"type":"Feature","geometry":{"type":"Polygon","coordinates":[[[79.83775,11.00155],[79.84013,11.0016],[79.83944,10.99584],[79.84263,10.99556],[79.84268,10.99321],[79.84466,10.99102],[79.84485,10.98897],[79.84342,10.98835],[79.83433,10.99083],[79.83314,10.98966],[79.83161,10.98356],[79.8289,10.98362],[79.82864,10.98703],[79.83033,10.99458],[79.83065,11.00239],[79.83328,11.00276],[79.83775,11.00155]]]},"properties":{"vil_lgd":644984,"village_name":"Poovam","district_name":"Karaikal","subdistrict_name":"Karaikal Taluk","block_name":"KARAIKAL","gp_name":"POOVAM","state_name":"PUDUCHERRY","dist_lgd":598,"state_lgd":34}},{"type":"Feature","geometry":{"type":"Polygon","coordinates":[[[79.81578,11.00386],[79.82068,10.99816],[79.823,11.00076],[79.82579,10.99831],[79.82793,10.99814],[79.82899,11.00179],[79.83065,11.00239],[79.83033,10.99458],[79.82857,10.98443],[79.8289,10.98362],[79.83161,10.98356],[79.8319,10.98254],[79.82625,10.98271],[79.8262,10.98579],[79.81873,10.98729],[79.81799,10.98916],[79.80415,10.9877],[79.80365,10.98907],[79.80468,10.99097],[79.80383,10.9921],[79.80511,10.9928],[79.80571,10.99189],[79.80627,10.99295],[79.80346,10.99479],[79.80366,10.99684],[79.80497,10.99845],[79.80815,10.99988],[79.8125,10.99907],[79.81383,10.99952],[79.81489,11.00147],[79.81412,11.00312],[79.81578,11.00386]]]},"properties":{"vil_lgd":644983,"village_name":"Varichikudy (North)","district_name":"Karaikal","subdistrict_name":"Karaikal Taluk","block_name":"KARAIKAL","gp_name":"VARICHIKUDY","state_name":"PUDUCHERRY","dist_lgd":598,"state_lgd":34}},{"type":"Feature","geometry":{"type":"Polygon","coordinates":[[[79.85025,10.85421],[79.85129,10.8344],[79.85027,10.82923],[79.85074,10.82783],[79.83107,10.82738],[79.83008,10.83727],[79.82936,10.83815],[79.83027,10.8383],[79.82809,10.84967],[79.82858,10.85054],[79.83194,10.85283],[79.84114,10.85207],[79.84426,10.85375],[79.8473,10.85414],[79.85025,10.85615],[79.85025,10.85421]]]},"properties":{"vil_lgd":644994,"village_name":"Vanjiur","district_name":"Karaikal","subdistrict_name":"Karaikal Taluk","block_name":"KARAIKAL","gp_name":"VANJOOR","state_name":"PUDUCHERRY","dist_lgd":598,"state_lgd":34}},{"type":"Feature","geometry":{"type":"Polygon","coordinates":[[[79.80913,10.87788],[79.80695,10.87761],[79.80605,10.87964],[79.80748,10.88064],[79.80976,10.88042],[79.81003,10.87837],[79.80913,10.87788]]]},"properties":{"vil_lgd":644995,"village_name":"Thirumalairayanpattinam (CT)","district_name":"Karaikal","subdistrict_name":"Karaikal Taluk","block_name":"KARAIKAL","gp_name":"T.R.PATTINAM(NORTH)","state_name":"PUDUCHERRY","dist_lgd":598,"state_lgd":34}},{"type":"Feature","geometry":{"type":"Polygon","coordinates":[[[79.75681,11.00262],[79.75885,11.00191],[79.76007,10.99902],[79.76215,11.00135],[79.76327,10.9991],[79.76486,10.99897],[79.76669,10.99733],[79.77393,10.99774],[79.77471,10.99295],[79.7733,10.98964],[79.77346,10.9855],[79.77374,10.9844],[79.7751,10.98368],[79.77502,10.98155],[79.77703,10.97968],[79.77812,10.97725],[79.7769,10.97402],[79.77277,10.97354],[79.76978,10.97478],[79.76742,10.97886],[79.76229,10.98077],[79.75854,10.98081],[79.75846,10.98354],[79.75648,10.98396],[79.75509,10.98293],[79.7529,10.98287],[79.75261,10.98802],[79.74737,10.9883],[79.74842,10.99007],[79.74859,10.9979],[79.7468,11.00258],[79.7487,11.00327],[79.75392,11.00254],[79.75584,11.00379],[79.75681,11.00262]]]},"properties":{"vil_lgd":644996,"village_name":"Kurumbagaram","district_name":"Karaikal","subdistrict_name":"Thirunallar Taluk","block_name":"KARAIKAL","gp_name":"KURUMBAGARAM","state_name":"PUDUCHERRY","dist_lgd":598,"state_lgd":34}},{"type":"Feature","geometry":{"type":"Polygon","coordinates":[[[79.7798,10.99861],[79.77894,10.99686],[79.78359,10.99478],[79.7841,10.99501],[79.78356,10.99668],[79.78608,10.99737],[79.78699,10.99671],[79.78904,10.99124],[79.78615,10.99079],[79.78611,10.99002],[79.78855,10.98815],[79.78828,10.98747],[79.79123,10.9859],[79.79118,10.98331],[79.79266,10.98237],[79.7933,10.97728],[79.79267,10.97501],[79.79478,10.97301],[79.79366,10.96869],[79.79207,10.96833],[79.78318,10.96967],[79.77337,10.97294],[79.77325,10.97354],[79.77612,10.97351],[79.77811,10.97602],[79.77703,10.97968],[79.77502,10.98155],[79.7751,10.98368],[79.77374,10.9844],[79.77346,10.9855],[79.7733,10.98964],[79.77471,10.99295],[79.77393,10.99774],[79.77679,10.99764],[79.7798,10.99861]]]},"properties":{"vil_lgd":644997,"village_name":"Ponbethy","district_name":"Karaikal","subdistrict_name":"Thirunallar Taluk","block_name":"KARAIKAL","gp_name":"PONBETHY","state_name":"PUDUCHERRY","dist_lgd":598,"state_lgd":34}},{"type":"Feature","geometry":{"type":"Polygon","coordinates":[[[79.76815,10.97824],[79.76978,10.97478],[79.77325,10.97354],[79.77371,10.97273],[79.78318,10.96967],[79.78518,10.9626],[79.7827,10.96117],[79.77488,10.96153],[79.77299,10.95954],[79.77141,10.95984],[79.768,10.95835],[79.76362,10.95955],[79.76404,10.96024],[79.76287,10.96129],[79.7617,10.965],[79.76175,10.96637],[79.76229,10.96547],[79.7628,10.96653],[79.76058,10.96809],[79.75945,10.97219],[79.75828,10.9719],[79.75674,10.97291],[79.75455,10.97205],[79.75479,10.97517],[79.75269,10.97775],[79.75559,10.97797],[79.75571,10.97951],[79.75845,10.9798],[79.75854,10.98081],[79.76403,10.98034],[79.76815,10.97824]]]},"properties":{"vil_lgd":644999,"village_name":"Nedungadu","district_name":"Karaikal","subdistrict_name":"Thirunallar Taluk","block_name":"KARAIKAL","gp_name":"NEDUNGADU","state_name":"PUDUCHERRY","dist_lgd":598,"state_lgd":34}},{"type":"Feature","geometry":{"type":"Polygon","coordinates":[[[79.73254,10.9694],[79.73528,10.96941],[79.73553,10.9675],[79.73896,10.96729],[79.74011,10.96435],[79.74185,10.96643],[79.74477,10.96621],[79.74638,10.9651],[79.74537,10.95934],[79.74546,10.9568],[79.7461,10.95629],[79.74408,10.95606],[79.73607,10.95926],[79.7358,10.95756],[79.73358,10.95724],[79.73376,10.95479],[79.73255,10.95513],[79.73269,10.95143],[79.73043,10.95157],[79.72995,10.95089],[79.72995,10.95165],[79.72749,10.95136],[79.72754,10.95212],[79.72474,10.95122],[79.72394,10.952],[79.72262,10.95148],[79.72225,10.95233],[79.72153,10.95156],[79.72135,10.95227],[79.72085,10.95187],[79.71998,10.9526],[79.71974,10.95445],[79.72146,10.95417],[79.72151,10.9557],[79.72077,10.95579],[79.72105,10.95677],[79.71935,10.95639],[79.71919,10.95718],[79.72048,10.95798],[79.72103,10.96505],[79.71969,10.96851],[79.72176,10.96917],[79.72201,10.96824],[79.72366,10.96976],[79.72604,10.96887],[79.72637,10.96944],[79.73012,10.96949],[79.7312,10.97052],[79.73254,10.9694]],[[79.72178,10.96248],[79.7218,10.96144],[79.72384,10.96159],[79.72332,10.96369],[79.7217,10.96336],[79.72178,10.96248]]]},"properties":{"vil_lgd":645001,"village_name":"Ambagarathur","district_name":"Karaikal","subdistrict_name":"Thirunallar Taluk","block_name":"KARAIKAL","gp_name":"AMBAGARATHUR","state_name":"PUDUCHERRY","dist_lgd":598,"state_lgd":34}},{"type":"Feature","geometry":{"type":"Polygon","coordinates":[[[79.75705,10.95879],[79.75643,10.95158],[79.75799,10.94672],[79.75665,10.94587],[79.75462,10.94644],[79.7534,10.94436],[79.75157,10.94368],[79.74703,10.94352],[79.74595,10.94244],[79.74152,10.94159],[79.73803,10.94186],[79.73278,10.94085],[79.73081,10.94591],[79.73218,10.94781],[79.73718,10.94906],[79.73756,10.95258],[79.73662,10.95305],[79.7367,10.95743],[79.7358,10.95756],[79.73576,10.95913],[79.74519,10.95599],[79.74938,10.95846],[79.75184,10.95786],[79.75353,10.95882],[79.75576,10.95841],[79.75719,10.95986],[79.75705,10.95879]]]},"properties":{"vil_lgd":645002,"village_name":"Nallazhundur","district_name":"Karaikal","subdistrict_name":"Thirunallar Taluk","block_name":"KARAIKAL","gp_name":"NALLAMBAL","state_name":"PUDUCHERRY","dist_lgd":598,"state_lgd":34}},{"type":"Feature","geometry":{"type":"Polygon","coordinates":[[[79.76003,10.96004],[79.76246,10.96019],[79.76719,10.95859],[79.76736,10.95658],[79.77028,10.95345],[79.77108,10.95037],[79.77364,10.95014],[79.77474,10.94922],[79.776,10.9461],[79.77394,10.94599],[79.77615,10.94165],[79.77579,10.93763],[79.77082,10.93676],[79.76769,10.93731],[79.76224,10.9357],[79.75837,10.93568],[79.75705,10.93875],[79.75766,10.94122],[79.75665,10.94587],[79.75799,10.94672],[79.75643,10.95158],[79.75642,10.95474],[79.75719,10.95986],[79.75932,10.96064],[79.76003,10.96004]]]},"properties":{"vil_lgd":645003,"village_name":"Thevamapuram","district_name":"Karaikal","subdistrict_name":"Thirunallar Taluk","block_name":"KARAIKAL","gp_name":"KARUKKANKUDY","state_name":"PUDUCHERRY","dist_lgd":598,"state_lgd":34}},{"type":"Feature","geometry":{"type":"Polygon","coordinates":[[[79.80828,10.94329],[79.81072,10.94165],[79.81076,10.9399],[79.7915,10.93855],[79.78357,10.93681],[79.78081,10.94709],[79.78346,10.94985],[79.78543,10.94969],[79.78638,10.95054],[79.78818,10.94877],[79.79038,10.94914],[79.79542,10.94808],[79.80828,10.94329]]]},"properties":{"vil_lgd":645005,"village_name":"Subrayapuram","district_name":"Karaikal","subdistrict_name":"Thirunallar Taluk","block_name":"KARAIKAL","gp_name":"THIRUNALLAR(NORTH)","state_name":"PUDUCHERRY","dist_lgd":598,"state_lgd":34}},{"type":"Feature","geometry":{"type":"Polygon","coordinates":[[[79.78982,10.969],[79.78961,10.96355],[79.79276,10.96496],[79.79467,10.96477],[79.79544,10.95877],[79.79887,10.95817],[79.79989,10.95911],[79.81267,10.95784],[79.81352,10.95501],[79.81355,10.94686],[79.80798,10.94688],[79.80882,10.94485],[79.80828,10.94329],[79.79542,10.94808],[79.78755,10.94932],[79.78638,10.95054],[79.78726,10.95613],[79.78445,10.96209],[79.78518,10.9626],[79.78318,10.96967],[79.78982,10.969]]]},"properties":{"vil_lgd":645000,"village_name":"Melakasakudy","district_name":"Karaikal","subdistrict_name":"Thirunallar Taluk","block_name":"KARAIKAL","gp_name":"MELAKASAKUDY","state_name":"PUDUCHERRY","dist_lgd":598,"state_lgd":34}},{"type":"Feature","geometry":{"type":"Polygon","coordinates":[[[79.76736,10.95658],[79.76719,10.95859],[79.77141,10.95984],[79.77299,10.95954],[79.77488,10.96153],[79.78506,10.96164],[79.78726,10.95613],[79.78592,10.94982],[79.78346,10.94985],[79.78081,10.94709],[79.78436,10.93286],[79.78318,10.932],[79.78102,10.92785],[79.78122,10.9248],[79.77689,10.92421],[79.77446,10.93063],[79.77508,10.93423],[79.77085,10.93598],[79.77082,10.93676],[79.77579,10.93763],[79.77615,10.94165],[79.77394,10.94599],[79.776,10.9461],[79.77434,10.94975],[79.77108,10.95037],[79.77028,10.95345],[79.76736,10.95658]]]},"properties":{"vil_lgd":645004,"village_name":"Sorakudy","district_name":"Karaikal","subdistrict_name":"Thirunallar Taluk","block_name":"KARAIKAL","gp_name":"SURAKKUDY","state_name":"PUDUCHERRY","dist_lgd":598,"state_lgd":34}},{"type":"Feature","geometry":{"type":"Polygon","coordinates":[[[79.79947,10.98285],[79.80078,10.98176],[79.80346,10.98186],[79.80634,10.97756],[79.80717,10.97486],[79.80929,10.97373],[79.81255,10.96264],[79.81208,10.95998],[79.81267,10.95784],[79.79989,10.95911],[79.79887,10.95817],[79.79544,10.95877],[79.79467,10.96477],[79.79276,10.96496],[79.78961,10.96355],[79.79016,10.96898],[79.79366,10.96869],[79.79478,10.97301],[79.79267,10.97501],[79.79316,10.98068],[79.79266,10.98237],[79.79118,10.98331],[79.79162,10.98468],[79.79429,10.983],[79.79947,10.98285]]]},"properties":{"vil_lgd":644998,"village_name":"Puthakudy","district_name":"Karaikal","subdistrict_name":"Thirunallar Taluk","block_name":"KARAIKAL","gp_name":"KARUKKANKUDY","state_name":"PUDUCHERRY","dist_lgd":598,"state_lgd":34}},{"type":"Feature","geometry":{"type":"Polygon","coordinates":[[[79.77433,10.93216],[79.77584,10.92567],[79.77869,10.92117],[79.77866,10.91612],[79.77679,10.91314],[79.77404,10.91275],[79.77296,10.90951],[79.77132,10.90938],[79.76847,10.91081],[79.76495,10.91129],[79.76306,10.91344],[79.76412,10.91575],[79.76419,10.92308],[79.76515,10.92432],[79.76459,10.92956],[79.76505,10.93167],[79.77433,10.93216]]]},"properties":{"vil_lgd":645010,"village_name":"Sellur","district_name":"Karaikal","subdistrict_name":"Thirunallar Taluk","block_name":"KARAIKAL","gp_name":"SELLUR","state_name":"PUDUCHERRY","dist_lgd":598,"state_lgd":34}},{"type":"Feature","geometry":{"type":"Polygon","coordinates":[[[79.77082,10.93676],[79.77121,10.93543],[79.77485,10.93449],[79.77508,10.93358],[79.77433,10.93216],[79.76505,10.93167],[79.76447,10.92742],[79.76515,10.92432],[79.76419,10.92308],[79.76412,10.91575],[79.76306,10.91344],[79.75897,10.91661],[79.7544,10.91622],[79.75377,10.91404],[79.74338,10.91483],[79.74351,10.91607],[79.74512,10.91613],[79.74558,10.91947],[79.74336,10.91758],[79.74211,10.91819],[79.74239,10.91894],[79.7438,10.91916],[79.74312,10.92504],[79.7421,10.92511],[79.74183,10.92708],[79.74544,10.92812],[79.74985,10.92755],[79.75196,10.92883],[79.75449,10.92885],[79.75441,10.93328],[79.75837,10.93568],[79.76224,10.9357],[79.76769,10.93731],[79.77082,10.93676]]]},"properties":{"vil_lgd":645008,"village_name":"Thennankudy","district_name":"Karaikal","subdistrict_name":"Thirunallar Taluk","block_name":"KARAIKAL","gp_name":"SELLUR","state_name":"PUDUCHERRY","dist_lgd":598,"state_lgd":34}},{"type":"Feature","geometry":{"type":"Polygon","coordinates":[[[79.75665,10.94587],[79.75766,10.94122],[79.75709,10.93841],[79.75837,10.93568],[79.75441,10.93328],[79.75449,10.92885],[79.75262,10.92902],[79.7487,10.9274],[79.74544,10.92812],[79.74225,10.92734],[79.7421,10.92511],[79.73978,10.9247],[79.73965,10.92354],[79.73881,10.92346],[79.73952,10.92649],[79.73754,10.92584],[79.73837,10.92486],[79.73556,10.92486],[79.736,10.92761],[79.73321,10.92842],[79.73042,10.92749],[79.72981,10.92763],[79.73027,10.9285],[79.72719,10.92859],[79.7247,10.92972],[79.7259,10.93429],[79.72723,10.93527],[79.72819,10.93419],[79.72959,10.93415],[79.72949,10.93657],[79.72684,10.9365],[79.72685,10.93557],[79.725,10.93634],[79.7233,10.93518],[79.72338,10.93618],[79.72734,10.93737],[79.72629,10.93878],[79.72529,10.9384],[79.72549,10.94118],[79.72493,10.94073],[79.72407,10.94134],[79.72575,10.94332],[79.73088,10.94441],[79.73278,10.94085],[79.73373,10.94062],[79.73803,10.94186],[79.74152,10.94159],[79.74595,10.94244],[79.74774,10.94367],[79.75157,10.94368],[79.7534,10.94436],[79.75497,10.94659],[79.75665,10.94587]]]},"properties":{"vil_lgd":645009,"village_name":"Sethur","district_name":"Karaikal","subdistrict_name":"Thirunallar Taluk","block_name":"KARAIKAL","gp_name":"SETHUR","state_name":"PUDUCHERRY","dist_lgd":598,"state_lgd":34}},{"type":"Feature","geometry":{"type":"Polygon","coordinates":[[[79.80666,10.93941],[79.80671,10.93771],[79.80449,10.9365],[79.80387,10.93432],[79.80393,10.93305],[79.80609,10.93143],[79.80532,10.92972],[79.80291,10.9267],[79.80315,10.92844],[79.80238,10.92846],[79.80085,10.92697],[79.79665,10.9269],[79.79575,10.92618],[79.79435,10.92321],[79.79429,10.92059],[79.79329,10.92017],[79.79264,10.91811],[79.79262,10.91559],[79.79113,10.9143],[79.78596,10.91931],[79.78181,10.91972],[79.7803,10.92202],[79.77869,10.92117],[79.77689,10.92421],[79.78122,10.9248],[79.78102,10.92785],[79.78318,10.932],[79.78436,10.93286],[79.78357,10.93681],[79.7915,10.93855],[79.80666,10.93941]]]},"properties":{"vil_lgd":645007,"village_name":"Thirunallar","district_name":"Karaikal","subdistrict_name":"Thirunallar Taluk","block_name":"KARAIKAL","gp_name":"THIRUNALLAR(NORTH)","state_name":"PUDUCHERRY","dist_lgd":598,"state_lgd":34}},{"type":"Feature","geometry":{"type":"Polygon","coordinates":[[[79.80406,10.9196],[79.80534,10.91774],[79.8056,10.91075],[79.80854,10.91059],[79.80857,10.90846],[79.80474,10.90746],[79.8042,10.90363],[79.80328,10.90292],[79.79642,10.90198],[79.79185,10.90704],[79.78933,10.90844],[79.78213,10.90624],[79.77991,10.90881],[79.77516,10.90861],[79.77296,10.90951],[79.77404,10.91275],[79.77679,10.91314],[79.77853,10.91541],[79.77869,10.92117],[79.7803,10.92202],[79.78181,10.91972],[79.78596,10.91931],[79.79072,10.91434],[79.79262,10.91559],[79.79329,10.92017],[79.79429,10.92059],[79.79485,10.92215],[79.80212,10.92091],[79.80406,10.9196]]]},"properties":{"vil_lgd":645011,"village_name":"Pettai","district_name":"Karaikal","subdistrict_name":"Thirunallar Taluk","block_name":"KARAIKAL","gp_name":"PETTAI","state_name":"PUDUCHERRY","dist_lgd":598,"state_lgd":34}},{"type":"Feature","geometry":{"type":"Polygon","coordinates":[[[79.79485,10.92215],[79.79424,10.92175],[79.79435,10.92321],[79.79665,10.9269],[79.80085,10.92697],[79.80148,10.92815],[79.80315,10.92844],[79.8027,10.92685],[79.80421,10.92459],[79.80406,10.9196],[79.80212,10.92091],[79.79485,10.92215]]]},"properties":{"vil_lgd":0,"village_name":" ","district_name":"Karaikal","subdistrict_name":"Thirunallar Taluk","block_name":"KARAIKAL","gp_name":"","state_name":"PUDUCHERRY","dist_lgd":598,"state_lgd":34}},{"type":"Feature","geometry":{"type":"Polygon","coordinates":[[[79.76406,10.91222],[79.76247,10.90623],[79.76303,10.90681],[79.76368,10.90465],[79.76508,10.90415],[79.7623,10.90341],[79.76218,10.90152],[79.76351,10.90158],[79.76425,10.90347],[79.76524,10.90354],[79.76535,10.90219],[79.76398,10.90209],[79.76398,10.90146],[79.76561,10.90168],[79.76602,10.90096],[79.76789,10.90177],[79.76709,10.90389],[79.76637,10.90343],[79.76604,10.90531],[79.7639,10.90594],[79.7651,10.90892],[79.76495,10.91129],[79.77516,10.90861],[79.77742,10.90895],[79.77707,10.90712],[79.77831,10.90686],[79.77924,10.90527],[79.7767,10.90541],[79.777,10.89656],[79.76515,10.89628],[79.76529,10.89437],[79.76785,10.89355],[79.76795,10.89246],[79.76424,10.89272],[79.76391,10.89196],[79.75836,10.89275],[79.75787,10.89147],[79.75629,10.89176],[79.75682,10.89267],[79.75586,10.8946],[79.75741,10.89547],[79.75728,10.89462],[79.75781,10.89478],[79.758,10.8958],[79.75889,10.89599],[79.75867,10.89721],[79.7596,10.89666],[79.76089,10.89802],[79.76238,10.89799],[79.76229,10.8992],[79.76359,10.89979],[79.76137,10.90175],[79.76095,10.90065],[79.76251,10.90043],[79.76175,10.89924],[79.76097,10.89896],[79.76158,10.8998],[79.76029,10.90048],[79.75983,10.89853],[79.758,10.89837],[79.75757,10.89634],[79.75703,10.89647],[79.75789,10.90191],[79.75927,10.90093],[79.7595,10.90186],[79.75772,10.90553],[79.75757,10.90786],[79.76097,10.91239],[79.76306,10.91344],[79.76406,10.91222]],[[79.76894,10.90096],[79.76908,10.90176],[79.76616,10.90061],[79.76664,10.89863],[79.76782,10.89871],[79.7679,10.89985],[79.76695,10.9002],[79.76935,10.89997],[79.77043,10.90139],[79.76894,10.90096]]]},"properties":{"vil_lgd":644988,"village_name":"Vizhidiur","district_name":"Karaikal","subdistrict_name":"Thirunallar Taluk","block_name":"KARAIKAL","gp_name":"VIZHIDIYUR","state_name":"PUDUCHERRY","dist_lgd":598,"state_lgd":34}},{"type":"Feature","geometry":{"type":"Polygon","coordinates":[[[79.72294,10.93626],[79.72192,10.93518],[79.72189,10.93615],[79.72049,10.93623],[79.72045,10.93724],[79.72177,10.93724],[79.72247,10.93827],[79.72294,10.93626]]]},"properties":{"vil_lgd":645009,"village_name":"Sethur","district_name":"Karaikal","subdistrict_name":"Thirunallar Taluk","block_name":"KARAIKAL","gp_name":"SETHUR","state_name":"PUDUCHERRY","dist_lgd":598,"state_lgd":34}},{"type":"Feature","geometry":{"type":"Polygon","coordinates":[[[79.73984,10.92005],[79.7389,10.91988],[79.73917,10.92141],[79.7397,10.92132],[79.73984,10.92005]]]},"properties":{"vil_lgd":645009,"village_name":"Sethur","district_name":"Karaikal","subdistrict_name":"Thirunallar Taluk","block_name":"KARAIKAL","gp_name":"SETHUR","state_name":"PUDUCHERRY","dist_lgd":598,"state_lgd":34}},{"type":"Feature","geometry":{"type":"Polygon","coordinates":[[[79.72178,10.96248],[79.7217,10.96336],[79.72332,10.96369],[79.72384,10.96159],[79.7218,10.96144],[79.72178,10.96248]]]},"properties":{"vil_lgd":645001,"village_name":"Ambagarathur","district_name":"Karaikal","subdistrict_name":"Thirunallar Taluk","block_name":"KARAIKAL","gp_name":"AMBAGARATHUR","state_name":"PUDUCHERRY","dist_lgd":598,"state_lgd":34}},{"type":"Feature","geometry":{"type":"Polygon","coordinates":[[[79.7197,10.95485],[79.71834,10.95483],[79.71838,10.95591],[79.71974,10.95595],[79.7197,10.95485]]]},"properties":{"vil_lgd":645001,"village_name":"Ambagarathur","district_name":"Karaikal","subdistrict_name":"Thirunallar Taluk","block_name":"KARAIKAL","gp_name":"AMBAGARATHUR","state_name":"PUDUCHERRY","dist_lgd":598,"state_lgd":34}}]}