{
 "metadata": {
  "source": "Survey of India village boundary, via National Water Data Portal (NWDP), same pipeline as dashboard/data/boundaries/soi/villages/madhya_pradesh/indore.geojson",
  "resolution": "village polygon (SoI vb_soi_madhya_pradesh_geojson.zip)",
  "crs": "EPSG:4326",
  "processing": "Single feature (village_name=Simrol, vil_lgd=476504) extracted from the full Indore district village layer for the CROP_INSURANCE_SYSTEM_PROMPT.md Module 1 Simrol pilot -- geometry itself unmodified from the SoI source.",
  "last_updated": "2026-08-15",
  "note": "This is the REAL village boundary. Parcel-level subdivision within it (crop_insurance_pilot/index.html) is SYNTHETIC DEMO data, clearly labeled -- see CROP_INSURANCE_SYSTEM_PROMPT.md rule 2."
 },
 "feature": {
  "id": "305",
  "type": "Feature",
  "properties": {
   "village_name": "Simrol",
   "vil_lgd": 476504,
   "district_name": "Indore",
   "dist_lgd": 410,
   "subdistrict_name": "Mhow",
   "sdcode": 3544,
   "block_name": "Mhow",
   "block_lgd": 139.0,
   "gp_name": "",
   "state_name": "MADHYA PRADESH",
   "state_lgd": 23,
   "population": 9856,
   "households": 1956
  },
  "geometry": {
   "type": "Polygon",
   "coordinates": [
    [
     [
      75.93229000000001,
      22.5557
     ],
     [
      75.93224000000001,
      22.555100000000003
     ],
     [
      75.93533000000001,
      22.55345
     ],
     [
      75.93745000000001,
      22.549080000000004
     ],
     [
      75.93706,
      22.54285
     ],
     [
      75.93764,
      22.540560000000003
     ],
     [
      75.93739000000001,
      22.537940000000003
     ],
     [
      75.93371,
      22.529780000000002
     ],
     [
      75.91727,
      22.51554
     ],
     [
      75.90697,
      22.5146
     ],
     [
      75.90096000000001,
      22.53254
     ],
     [
      75.89813000000001,
      22.53744
     ],
     [
      75.89606,
      22.54427
     ],
     [
      75.89705000000001,
      22.55046
     ],
     [
      75.89403,
      22.55479
     ],
     [
      75.89712,
      22.55601
     ],
     [
      75.89891,
      22.55917
     ],
     [
      75.90287000000001,
      22.56324
     ],
     [
      75.9054,
      22.567210000000003
     ],
     [
      75.91144000000001,
      22.565330000000003
     ],
     [
      75.91463,
      22.56295
     ],
     [
      75.92516,
      22.55947
     ],
     [
      75.93082000000001,
      22.556160000000002
     ],
     [
      75.93229000000001,
      22.5557
     ]
    ]
   ]
  }
 }
}