{"type": "FeatureCollection", "metadata": {"source": "Survey of India (per src_agency attribute in the source data)", "hosted_via": "National Water Data Portal (NWDP), NWIC, Ministry of Jal Shakti -- https://nwdp.nwic.gov.in/", "access": "public, no login required", "crs_original": "EPSG:7755 (WGS 84 / India NSF LCC)", "fetch_date": "2026-08-02", "quality": "verified-official -- Survey of India source", "state": "Dadra and Nagar Haveli and Daman and Diu", "district": "Dadra And Nagar Haveli", "processing": "reprojected to EPSG:4326, topology-preserving simplify (shared-arc, tolerance 0.0005 deg) so adjacent polygons never overlap/gap at shared borders, coords rounded 5dp, 0 feature(s) needed the per-feature fallback", "feature_count": 71}, "features": [{"id": "0", "type": "Feature", "properties": {"village_name": "Medha", "vil_lgd": 524970, "district_name": "Dadra And Nagar Haveli", "dist_lgd": 465, "subdistrict_name": "Dadra & Nagar Haveli", "sdcode": 3949, "block_name": "Dadra & Nagar Haveli", "block_lgd": 1.0, "gp_name": "DUDHANI", "state_name": "DADRA & NAGAR HAVELLI AND DAMAN & DIU", "state_lgd": 38, "population": 467, "households": 83}, "geometry": {"type": "Polygon", "coordinates": [[[73.14309, 20.158810000000003], [73.13887000000001, 20.15418], [73.13133, 20.15724], [73.13156000000001, 20.165840000000003], [73.13301000000001, 20.16929], [73.13366, 20.16935], [73.13851000000001, 20.16589], [73.14291, 20.16439], [73.14374000000001, 20.16372], [73.14402000000001, 20.161260000000002], [73.14309, 20.158810000000003]]]}}, {"id": "1", "type": "Feature", "properties": {"village_name": "Surangi", "vil_lgd": 524959, "district_name": "Dadra And Nagar Haveli", "dist_lgd": 465, "subdistrict_name": "Dadra & Nagar Haveli", "sdcode": 3949, "block_name": "Dadra & Nagar Haveli", "block_lgd": 1.0, "gp_name": "DAPADA", "state_name": "DADRA & NAGAR HAVELLI AND DAMAN & DIU", "state_lgd": 38, "population": 5016, "households": 949}, "geometry": {"type": "Polygon", "coordinates": [[[72.99471000000001, 20.17808], [73.00469000000001, 20.173060000000003], [73.01075, 20.16891], [73.01731000000001, 20.166900000000002], [73.02337, 20.16215], [73.02470000000001, 20.159550000000003], [73.02049000000001, 20.15453], [73.01821000000001, 20.153190000000002], [73.01469, 20.14695], [73.01155, 20.14507], [73.00889000000001, 20.14114], [73.00716, 20.140690000000003], [73.00212, 20.156660000000002], [73.00070000000001, 20.15747], [73.00013000000001, 20.159070000000003], [72.99186, 20.16784], [72.99164, 20.170050000000003], [72.98893000000001, 20.17413], [72.98799000000001, 20.17883], [72.99093, 20.177880000000002], [72.99471000000001, 20.17808]]]}}, {"id": "2", "type": "Feature", "properties": {"village_name": "Ambabari", "vil_lgd": 524971, "district_name": "Dadra And Nagar Haveli", "dist_lgd": 465, "subdistrict_name": "Dadra & Nagar Haveli", "sdcode": 3949, "block_name": "Dadra & Nagar Haveli", "block_lgd": 1.0, "gp_name": "DUDHANI", "state_name": "DADRA & NAGAR HAVELLI AND DAMAN & DIU", "state_lgd": 38, "population": 450, "households": 84}, "geometry": {"type": "Polygon", "coordinates": [[[73.15658, 20.17303], [73.15795, 20.169680000000003], [73.15556000000001, 20.163970000000003], [73.14844000000001, 20.161430000000003], [73.14402000000001, 20.161260000000002], [73.14374000000001, 20.16372], [73.14291, 20.16439], [73.13851000000001, 20.16589], [73.13366, 20.16935], [73.13623000000001, 20.17004], [73.13876, 20.174690000000002], [73.14206, 20.177370000000003], [73.14933, 20.178440000000002], [73.15153000000001, 20.17772], [73.15658, 20.17303]]]}}, {"id": "3", "type": "Feature", "properties": {"village_name": "Sindoni", "vil_lgd": 524995, "district_name": "Dadra And Nagar Haveli", "dist_lgd": 465, "subdistrict_name": "Dadra & Nagar Haveli", "sdcode": 3949, "block_name": "Dadra & Nagar Haveli", "block_lgd": 1.0, "gp_name": "MANDONI", "state_name": "DADRA & NAGAR HAVELLI AND DAMAN & DIU", "state_lgd": 38, "population": 3041, "households": 510}, "geometry": {"type": "Polygon", "coordinates": [[[73.17474, 20.098450000000003], [73.17493, 20.096310000000003], [73.17778000000001, 20.094700000000003], [73.18206, 20.09524], [73.18206, 20.093], [73.18776000000001, 20.08791], [73.18852000000001, 20.085410000000003], [73.191, 20.083000000000002], [73.19130000000001, 20.081650000000003], [73.1871, 20.079610000000002], [73.18396, 20.075590000000002], [73.17093000000001, 20.073], [73.16903, 20.07184], [73.16770000000001, 20.070320000000002], [73.16429000000001, 20.06071], [73.16075000000001, 20.063560000000003], [73.15742, 20.06304], [73.15776000000001, 20.06569], [73.15622, 20.06574], [73.15518, 20.069760000000002], [73.15320000000001, 20.072190000000003], [73.15496, 20.074740000000002], [73.15477, 20.07592], [73.14957000000001, 20.078380000000003], [73.14957000000001, 20.07485], [73.14693000000001, 20.07363], [73.14373, 20.07617], [73.14237, 20.07977], [73.14203, 20.086660000000002], [73.14289000000001, 20.09175], [73.14460000000001, 20.094070000000002], [73.15154000000001, 20.099970000000003], [73.15677000000001, 20.09925], [73.16029, 20.1064], [73.16105, 20.108900000000002], [73.16080000000001, 20.11186], [73.16533000000001, 20.1122], [73.16770000000001, 20.11041], [73.16837000000001, 20.10845], [73.17122, 20.107110000000002], [73.17474, 20.098450000000003]]]}}, {"id": "4", "type": "Feature", "properties": {"village_name": "Velugam", "vil_lgd": 524961, "district_name": "Dadra And Nagar Haveli", "dist_lgd": 465, "subdistrict_name": "Dadra & Nagar Haveli", "sdcode": 3949, "block_name": "Dadra & Nagar Haveli", "block_lgd": 1.0, "gp_name": "AMBOLI", "state_name": "DADRA & NAGAR HAVELLI AND DAMAN & DIU", "state_lgd": 38, "population": 4612, "households": 801}, "geometry": {"type": "Polygon", "coordinates": [[[72.98087000000001, 20.14722], [72.99007, 20.142200000000003], [72.99293, 20.142400000000002], [72.99663000000001, 20.140060000000002], [72.99484000000001, 20.13772], [72.99573000000001, 20.132630000000002], [72.99243000000001, 20.11776], [72.99154, 20.116840000000003], [72.97979000000001, 20.11589], [72.97767, 20.11298], [72.97212, 20.11492], [72.97003000000001, 20.117610000000003], [72.96909000000001, 20.124070000000003], [72.9646, 20.1262], [72.96069, 20.13435], [72.96439000000001, 20.14335], [72.96957, 20.151470000000003], [72.97203, 20.14816], [72.97538, 20.147360000000003], [72.98087000000001, 20.14722]]]}}, {"id": "5", "type": "Feature", "properties": {"village_name": "Amboli", "vil_lgd": 524962, "district_name": "Dadra And Nagar Haveli", "dist_lgd": 465, "subdistrict_name": "Dadra & Nagar Haveli", "sdcode": 3949, "block_name": "Dadra & Nagar Haveli", "block_lgd": 1.0, "gp_name": "AMBOLI", "state_name": "DADRA & NAGAR HAVELLI AND DAMAN & DIU", "state_lgd": 38, "population": 3472, "households": 619}, "geometry": {"type": "Polygon", "coordinates": [[[73.04010000000001, 20.14411], [73.04324000000001, 20.14123], [73.04388, 20.13828], [73.04566000000001, 20.135540000000002], [73.04616, 20.13232], [73.04443, 20.131610000000002], [73.04274000000001, 20.131520000000002], [73.03019, 20.133460000000003], [73.02427, 20.135270000000002], [73.02067000000001, 20.133750000000003], [73.01714000000001, 20.13326], [73.01189000000001, 20.131140000000002], [73.01147, 20.134210000000003], [73.01050000000001, 20.13466], [73.00858000000001, 20.13406], [73.00576000000001, 20.13542], [73.00426, 20.13673], [73.00372, 20.13906], [73.00716, 20.140690000000003], [73.00889000000001, 20.14114], [73.01155, 20.14507], [73.01469, 20.14695], [73.01821000000001, 20.153190000000002], [73.02049000000001, 20.15453], [73.02470000000001, 20.159550000000003], [73.02600000000001, 20.160600000000002], [73.02600000000001, 20.158730000000002], [73.02791, 20.15462], [73.03123000000001, 20.151590000000002], [73.03872000000001, 20.147550000000003], [73.04010000000001, 20.14411]]]}}, {"id": "6", "type": "Feature", "properties": {"village_name": "Bindrabin", "vil_lgd": 524963, "district_name": "Dadra And Nagar Haveli", "dist_lgd": 465, "subdistrict_name": "Dadra & Nagar Haveli", "sdcode": 3949, "block_name": "Dadra & Nagar Haveli", "block_lgd": 1.0, "gp_name": "AMBOLI", "state_name": "DADRA & NAGAR HAVELLI AND DAMAN & DIU", "state_lgd": 38, "population": 1184, "households": 222}, "geometry": {"type": "Polygon", "coordinates": [[[73.04511000000001, 20.145880000000002], [73.05158, 20.145180000000003], [73.05422, 20.14063], [73.05437, 20.13691], [73.05322000000001, 20.13453], [73.05001, 20.13407], [73.04766000000001, 20.13239], [73.04616, 20.13232], [73.04566000000001, 20.135540000000002], [73.04388, 20.13828], [73.04324000000001, 20.14123], [73.04010000000001, 20.14411], [73.03872000000001, 20.147550000000003], [73.04445000000001, 20.145880000000002], [73.04511000000001, 20.145880000000002]]]}}, {"id": "7", "type": "Feature", "properties": {"village_name": "Khanvel", "vil_lgd": 524965, "district_name": "Dadra And Nagar Haveli", "dist_lgd": 465, "subdistrict_name": "Dadra & Nagar Haveli", "sdcode": 3949, "block_name": "Dadra & Nagar Haveli", "block_lgd": 1.0, "gp_name": "KHANVEL", "state_name": "DADRA & NAGAR HAVELLI AND DAMAN & DIU", "state_lgd": 38, "population": 7965, "households": 1612}, "geometry": {"type": "Polygon", "coordinates": [[[73.081, 20.153920000000003], [73.08130000000001, 20.15266], [73.07824000000001, 20.14048], [73.07289, 20.13231], [73.07289, 20.130170000000003], [73.07482, 20.127090000000003], [73.07824000000001, 20.126420000000003], [73.07966, 20.12434], [73.06754000000001, 20.123340000000002], [73.06487, 20.125480000000003], [73.05957000000001, 20.132530000000003], [73.06563000000001, 20.14056], [73.0687, 20.156730000000003], [73.07266, 20.154980000000002], [73.07437, 20.157030000000002], [73.07867, 20.155340000000002], [73.081, 20.153920000000003]]]}}, {"id": "8", "type": "Feature", "properties": {"village_name": "Kala", "vil_lgd": 524983, "district_name": "Dadra And Nagar Haveli", "dist_lgd": 465, "subdistrict_name": "Dadra & Nagar Haveli", "sdcode": 3949, "block_name": "Dadra & Nagar Haveli", "block_lgd": 1.0, "gp_name": "AMBOLI", "state_name": "DADRA & NAGAR HAVELLI AND DAMAN & DIU", "state_lgd": 38, "population": 1341, "households": 243}, "geometry": {"type": "Polygon", "coordinates": [[[73.04443, 20.131610000000002], [73.04487, 20.12273], [73.04601000000001, 20.121010000000002], [73.04520000000001, 20.1198], [73.04301000000001, 20.11908], [73.03427, 20.11899], [73.03389, 20.11721], [73.03208000000001, 20.116400000000002], [73.02799, 20.117030000000003], [73.02772, 20.11805], [73.02809, 20.12114], [73.02733, 20.124260000000003], [73.02067000000001, 20.133750000000003], [73.02427, 20.135270000000002], [73.03019, 20.133460000000003], [73.04274000000001, 20.131520000000002], [73.04443, 20.131610000000002]]]}}, {"id": "9", "type": "Feature", "properties": {"village_name": "Karachgam", "vil_lgd": 524984, "district_name": "Dadra And Nagar Haveli", "dist_lgd": 465, "subdistrict_name": "Dadra & Nagar Haveli", "sdcode": 3949, "block_name": "Dadra & Nagar Haveli", "block_lgd": 1.0, "gp_name": "AMBOLI", "state_name": "DADRA & NAGAR HAVELLI AND DAMAN & DIU", "state_lgd": 38, "population": 2517, "households": 482}, "geometry": {"type": "Polygon", "coordinates": [[[73.02162000000001, 20.114440000000002], [73.01525000000001, 20.10641], [73.01194000000001, 20.10338], [73.00835000000001, 20.10828], [73.00522000000001, 20.110570000000003], [73.00124000000001, 20.11176], [73.00023, 20.116560000000003], [72.99872, 20.11944], [72.99985000000001, 20.12256], [73.00149, 20.12431], [73.00508, 20.12527], [73.01152, 20.128970000000002], [73.01228, 20.12948], [73.01189000000001, 20.131140000000002], [73.01714000000001, 20.13326], [73.02067000000001, 20.133750000000003], [73.02733, 20.124260000000003], [73.02809, 20.12114], [73.02772, 20.11805], [73.02162000000001, 20.114440000000002]]]}}, {"id": "10", "type": "Feature", "properties": {"village_name": "Kherdi", "vil_lgd": 524985, "district_name": "Dadra And Nagar Haveli", "dist_lgd": 465, "subdistrict_name": "Dadra & Nagar Haveli", "sdcode": 3949, "block_name": "Dadra & Nagar Haveli", "block_lgd": 1.0, "gp_name": "AMBOLI", "state_name": "DADRA & NAGAR HAVELLI AND DAMAN & DIU", "state_lgd": 38, "population": 3637, "households": 725}, "geometry": {"type": "Polygon", "coordinates": [[[73.05008000000001, 20.11213], [73.04501, 20.111140000000002], [73.04168, 20.10846], [73.0374, 20.09909], [73.03855, 20.094260000000002], [73.03800000000001, 20.091040000000003], [73.03569, 20.08962], [73.02552, 20.08989], [73.0223, 20.089010000000002], [73.01994, 20.09215], [73.01407, 20.096300000000003], [73.01194000000001, 20.10338], [73.01525000000001, 20.10641], [73.02162000000001, 20.114440000000002], [73.02772, 20.11805], [73.02799, 20.117030000000003], [73.03208000000001, 20.116400000000002], [73.03389, 20.11721], [73.03427, 20.11899], [73.04301000000001, 20.11908], [73.04520000000001, 20.1198], [73.04601000000001, 20.121010000000002], [73.04729, 20.119320000000002], [73.05008000000001, 20.11213]]]}}, {"id": "11", "type": "Feature", "properties": {"village_name": "Dolara", "vil_lgd": 524986, "district_name": "Dadra And Nagar Haveli", "dist_lgd": 465, "subdistrict_name": "Dadra & Nagar Haveli", "sdcode": 3949, "block_name": "Dadra & Nagar Haveli", "block_lgd": 1.0, "gp_name": "AMBOLI", "state_name": "DADRA & NAGAR HAVELLI AND DAMAN & DIU", "state_lgd": 38, "population": 1296, "households": 190}, "geometry": {"type": "Polygon", "coordinates": [[[73.04530000000001, 20.08846], [73.04786, 20.08623], [73.04929, 20.083370000000002], [73.05293, 20.081860000000002], [73.05260000000001, 20.06484], [73.05175000000001, 20.063930000000003], [73.04779, 20.06662], [73.04486, 20.065350000000002], [73.03899000000001, 20.06765], [73.02863, 20.081570000000003], [73.02569000000001, 20.08235], [73.02347, 20.08463], [73.0223, 20.089010000000002], [73.02552, 20.08989], [73.03569, 20.08962], [73.03800000000001, 20.091040000000003], [73.03988000000001, 20.09016], [73.04530000000001, 20.08846]]]}}, {"id": "12", "type": "Feature", "properties": {"village_name": "Parzai", "vil_lgd": 524987, "district_name": "Dadra And Nagar Haveli", "dist_lgd": 465, "subdistrict_name": "Dadra & Nagar Haveli", "sdcode": 3949, "block_name": "Dadra & Nagar Haveli", "block_lgd": 1.0, "gp_name": "AMBOLI", "state_name": "DADRA & NAGAR HAVELLI AND DAMAN & DIU", "state_lgd": 38, "population": 1717, "households": 297}, "geometry": {"type": "Polygon", "coordinates": [[[73.05842000000001, 20.103730000000002], [73.05851000000001, 20.09879], [73.05569000000001, 20.098860000000002], [73.05288, 20.09183], [73.05293, 20.081860000000002], [73.04929, 20.083370000000002], [73.04786, 20.08623], [73.04530000000001, 20.08846], [73.03988000000001, 20.09016], [73.03800000000001, 20.091040000000003], [73.03855, 20.094260000000002], [73.0374, 20.09909], [73.04168, 20.10846], [73.04501, 20.111140000000002], [73.05008000000001, 20.11213], [73.05457000000001, 20.10921], [73.05842000000001, 20.103730000000002]]]}}, {"id": "13", "type": "Feature", "properties": {"village_name": "Talavali", "vil_lgd": 524988, "district_name": "Dadra And Nagar Haveli", "dist_lgd": 465, "subdistrict_name": "Dadra & Nagar Haveli", "sdcode": 3949, "block_name": "Dadra & Nagar Haveli", "block_lgd": 1.0, "gp_name": "KHANVEL", "state_name": "DADRA & NAGAR HAVELLI AND DAMAN & DIU", "state_lgd": 38, "population": 922, "households": 181}, "geometry": {"type": "Polygon", "coordinates": [[[73.09365000000001, 20.11747], [73.09422, 20.11167], [73.09032, 20.10783], [73.08548, 20.10104], [73.08471, 20.0989], [73.08543, 20.09101], [73.07609000000001, 20.095110000000002], [73.06765, 20.09634], [73.06396000000001, 20.09844], [73.05851000000001, 20.09879], [73.05842000000001, 20.103730000000002], [73.05457000000001, 20.10921], [73.05628, 20.10988], [73.06070000000001, 20.11805], [73.06341, 20.121260000000003], [73.06754000000001, 20.123340000000002], [73.07966, 20.12434], [73.08452000000001, 20.123980000000003], [73.08814000000001, 20.126040000000003], [73.09042000000001, 20.126130000000003], [73.09118000000001, 20.125320000000002], [73.09365000000001, 20.11747]]]}}, {"id": "14", "type": "Feature", "properties": {"village_name": "Khutali", "vil_lgd": 524981, "district_name": "Dadra And Nagar Haveli", "dist_lgd": 465, "subdistrict_name": "Dadra & Nagar Haveli", "sdcode": 3949, "block_name": "Dadra & Nagar Haveli", "block_lgd": 1.0, "gp_name": "KHANVEL", "state_name": "DADRA & NAGAR HAVELLI AND DAMAN & DIU", "state_lgd": 38, "population": 2981, "households": 643}, "geometry": {"type": "Polygon", "coordinates": [[[73.09242, 20.153170000000003], [73.0922, 20.14564], [73.09194000000001, 20.13969], [73.09546, 20.13363], [73.09574, 20.13175], [73.0947, 20.127820000000003], [73.09042000000001, 20.126130000000003], [73.08814000000001, 20.126040000000003], [73.08452000000001, 20.123980000000003], [73.07966, 20.12434], [73.07824000000001, 20.126420000000003], [73.07482, 20.127090000000003], [73.07289, 20.130170000000003], [73.07289, 20.13231], [73.07824000000001, 20.14048], [73.08130000000001, 20.15266], [73.081, 20.153920000000003], [73.08708, 20.154400000000003], [73.09100000000001, 20.157210000000003], [73.09223, 20.15972], [73.09530000000001, 20.158830000000002], [73.09242, 20.153170000000003]]]}}, {"id": "15", "type": "Feature", "properties": {"village_name": "Shelti", "vil_lgd": 524980, "district_name": "Dadra And Nagar Haveli", "dist_lgd": 465, "subdistrict_name": "Dadra & Nagar Haveli", "sdcode": 3949, "block_name": "Dadra & Nagar Haveli", "block_lgd": 1.0, "gp_name": "KHANVEL", "state_name": "DADRA & NAGAR HAVELLI AND DAMAN & DIU", "state_lgd": 38, "population": 3999, "households": 669}, "geometry": {"type": "Polygon", "coordinates": [[[73.11989000000001, 20.1463], [73.12455, 20.142100000000003], [73.12797, 20.140770000000003], [73.13339, 20.137110000000003], [73.13351, 20.136080000000003], [73.13387, 20.132640000000002], [73.13596000000001, 20.12836], [73.13475000000001, 20.126790000000003], [73.12978000000001, 20.12425], [73.11789, 20.122200000000003], [73.11561, 20.12113], [73.11205000000001, 20.11774], [73.11057000000001, 20.118000000000002], [73.10706, 20.122110000000003], [73.10496, 20.122470000000003], [73.10211000000001, 20.125230000000002], [73.09574, 20.12631], [73.09479, 20.12666], [73.0947, 20.127820000000003], [73.09574, 20.13175], [73.09546, 20.13363], [73.09194000000001, 20.13969], [73.0922, 20.14564], [73.09318, 20.14532], [73.09555, 20.14675], [73.09983000000001, 20.147550000000003], [73.10924, 20.151570000000003], [73.11201000000001, 20.14902], [73.11989000000001, 20.1463]]]}}, {"id": "16", "type": "Feature", "properties": {"village_name": "Kherarbari", "vil_lgd": 524979, "district_name": "Dadra And Nagar Haveli", "dist_lgd": 465, "subdistrict_name": "Dadra & Nagar Haveli", "sdcode": 3949, "block_name": "Dadra & Nagar Haveli", "block_lgd": 1.0, "gp_name": "DUDHANI", "state_name": "DADRA & NAGAR HAVELLI AND DAMAN & DIU", "state_lgd": 38, "population": 636, "households": 107}, "geometry": {"type": "Polygon", "coordinates": [[[73.13964, 20.144810000000003], [73.13941000000001, 20.14129], [73.13691, 20.13822], [73.13351, 20.136080000000003], [73.13339, 20.137110000000003], [73.12797, 20.140770000000003], [73.12455, 20.142100000000003], [73.11989000000001, 20.1463], [73.11201000000001, 20.14902], [73.11522000000001, 20.149050000000003], [73.11784, 20.151220000000002], [73.12271000000001, 20.152340000000002], [73.13857, 20.152060000000002], [73.13964, 20.144810000000003]]]}}, {"id": "17", "type": "Feature", "properties": {"village_name": "Karchond", "vil_lgd": 524978, "district_name": "Dadra And Nagar Haveli", "dist_lgd": 465, "subdistrict_name": "Dadra & Nagar Haveli", "sdcode": 3949, "block_name": "Dadra & Nagar Haveli", "block_lgd": 1.0, "gp_name": "DUDHANI", "state_name": "DADRA & NAGAR HAVELLI AND DAMAN & DIU", "state_lgd": 38, "population": 4688, "households": 792}, "geometry": {"type": "Polygon", "coordinates": [[[73.16018000000001, 20.16102], [73.17237, 20.15874], [73.17366000000001, 20.15934], [73.17301, 20.16195], [73.17858000000001, 20.153850000000002], [73.18472000000001, 20.14729], [73.18565000000001, 20.137410000000003], [73.18726000000001, 20.13305], [73.18444000000001, 20.131020000000003], [73.18327000000001, 20.13117], [73.17769000000001, 20.134320000000002], [73.17189, 20.134770000000003], [73.16799, 20.13673], [73.16019, 20.136020000000002], [73.15506, 20.133960000000002], [73.14793, 20.127180000000003], [73.14574, 20.12396], [73.14262000000001, 20.124630000000003], [73.13548, 20.12593], [73.13475000000001, 20.126790000000003], [73.13596000000001, 20.12836], [73.13387, 20.132640000000002], [73.13351, 20.136080000000003], [73.13691, 20.13822], [73.13941000000001, 20.14129], [73.13964, 20.144810000000003], [73.13857, 20.152060000000002], [73.13887000000001, 20.15418], [73.14309, 20.158810000000003], [73.14402000000001, 20.161260000000002], [73.14844000000001, 20.161430000000003], [73.15556000000001, 20.163970000000003], [73.15775000000001, 20.16269], [73.16018000000001, 20.16102]]]}}, {"id": "18", "type": "Feature", "properties": {"village_name": "Rudana", "vil_lgd": 524989, "district_name": "Dadra And Nagar Haveli", "dist_lgd": 465, "subdistrict_name": "Dadra & Nagar Haveli", "sdcode": 3949, "block_name": "Dadra & Nagar Haveli", "block_lgd": 1.0, "gp_name": "KHANVEL", "state_name": "DADRA & NAGAR HAVELLI AND DAMAN & DIU", "state_lgd": 38, "population": 4609, "households": 774}, "geometry": {"type": "Polygon", "coordinates": [[[73.11313000000001, 20.11363], [73.11522000000001, 20.110860000000002], [73.11655, 20.103810000000003], [73.12036, 20.09372], [73.12102, 20.08827], [73.12375, 20.07822], [73.12055000000001, 20.07926], [73.11962000000001, 20.07883], [73.11995, 20.076340000000002], [73.11918, 20.07516], [73.11515, 20.07654], [73.11265, 20.074430000000003], [73.11099, 20.07468], [73.10756, 20.077650000000002], [73.10654000000001, 20.079620000000002], [73.10617, 20.081400000000002], [73.10706, 20.0848], [73.10392, 20.08978], [73.09677, 20.089290000000002], [73.08543, 20.09101], [73.08471, 20.0989], [73.08548, 20.10104], [73.09032, 20.10783], [73.09422, 20.11167], [73.09365000000001, 20.11747], [73.09118000000001, 20.125320000000002], [73.09042000000001, 20.126130000000003], [73.0947, 20.127820000000003], [73.09479, 20.12666], [73.09574, 20.12631], [73.10211000000001, 20.125230000000002], [73.10496, 20.122470000000003], [73.10706, 20.122110000000003], [73.11057000000001, 20.118000000000002], [73.11205000000001, 20.11774], [73.11313000000001, 20.11363]]]}}, {"id": "19", "type": "Feature", "properties": {"village_name": "Chinsda", "vil_lgd": 524990, "district_name": "Dadra And Nagar Haveli", "dist_lgd": 465, "subdistrict_name": "Dadra & Nagar Haveli", "sdcode": 3949, "block_name": "Dadra & Nagar Haveli", "block_lgd": 1.0, "gp_name": "MANDONI", "state_name": "DADRA & NAGAR HAVELLI AND DAMAN & DIU", "state_lgd": 38, "population": 3792, "households": 633}, "geometry": {"type": "Polygon", "coordinates": [[[73.14156000000001, 20.120230000000003], [73.13833000000001, 20.11541], [73.13756000000001, 20.11229], [73.13680000000001, 20.088720000000002], [73.13597, 20.08639], [73.13411, 20.08586], [73.13132, 20.081400000000002], [73.12624000000001, 20.082720000000002], [73.12517000000001, 20.078400000000002], [73.12375, 20.07822], [73.12102, 20.08827], [73.12036, 20.09372], [73.11655, 20.103810000000003], [73.11522000000001, 20.110860000000002], [73.11313000000001, 20.11363], [73.11205000000001, 20.11774], [73.11561, 20.12113], [73.11789, 20.122200000000003], [73.12978000000001, 20.12425], [73.13475000000001, 20.126790000000003], [73.13548, 20.12593], [73.14262000000001, 20.124630000000003], [73.14156000000001, 20.120230000000003]]]}}, {"id": "20", "type": "Feature", "properties": {"village_name": "Mandoni", "vil_lgd": 524991, "district_name": "Dadra And Nagar Haveli", "dist_lgd": 465, "subdistrict_name": "Dadra & Nagar Haveli", "sdcode": 3949, "block_name": "Dadra & Nagar Haveli", "block_lgd": 1.0, "gp_name": "MANDONI", "state_name": "DADRA & NAGAR HAVELLI AND DAMAN & DIU", "state_lgd": 38, "population": 2114, "households": 364}, "geometry": {"type": "Polygon", "coordinates": [[[73.1524, 20.122200000000003], [73.15411, 20.120320000000003], [73.15439, 20.11756], [73.15705000000001, 20.116570000000003], [73.16080000000001, 20.11186], [73.16105, 20.108900000000002], [73.16029, 20.1064], [73.15677000000001, 20.09925], [73.15154000000001, 20.099970000000003], [73.14460000000001, 20.094070000000002], [73.14289000000001, 20.09175], [73.14203, 20.086660000000002], [73.14237, 20.07977], [73.13976000000001, 20.078180000000003], [73.13777, 20.078760000000003], [73.13686000000001, 20.08061], [73.13816, 20.08415], [73.13709, 20.08605], [73.13597, 20.08639], [73.13680000000001, 20.088720000000002], [73.13756000000001, 20.11229], [73.13833000000001, 20.11541], [73.14156000000001, 20.120230000000003], [73.14262000000001, 20.124630000000003], [73.14574, 20.12396], [73.1524, 20.122200000000003]]]}}, {"id": "21", "type": "Feature", "properties": {"village_name": "Vansda", "vil_lgd": 524992, "district_name": "Dadra And Nagar Haveli", "dist_lgd": 465, "subdistrict_name": "Dadra & Nagar Haveli", "sdcode": 3949, "block_name": "Dadra & Nagar Haveli", "block_lgd": 1.0, "gp_name": "MANDONI", "state_name": "DADRA & NAGAR HAVELLI AND DAMAN & DIU", "state_lgd": 38, "population": 2048, "households": 352}, "geometry": {"type": "Polygon", "coordinates": [[[73.18244, 20.12077], [73.17921000000001, 20.11729], [73.1774, 20.118540000000003], [73.17417, 20.118000000000002], [73.1717, 20.11336], [73.17122, 20.107110000000002], [73.16837000000001, 20.10845], [73.16770000000001, 20.11041], [73.16533000000001, 20.1122], [73.16080000000001, 20.11186], [73.15705000000001, 20.116570000000003], [73.15439, 20.11756], [73.15411, 20.120320000000003], [73.1524, 20.122200000000003], [73.14574, 20.12396], [73.14793, 20.127180000000003], [73.15506, 20.133960000000002], [73.16019, 20.136020000000002], [73.16799, 20.13673], [73.17189, 20.134770000000003], [73.17769000000001, 20.134320000000002], [73.18327000000001, 20.13117], [73.18244, 20.12077]]]}}, {"id": "22", "type": "Feature", "properties": {"village_name": "Chauda", "vil_lgd": 524982, "district_name": "Dadra And Nagar Haveli", "dist_lgd": 465, "subdistrict_name": "Dadra & Nagar Haveli", "sdcode": 3949, "block_name": "Dadra & Nagar Haveli", "block_lgd": 1.0, "gp_name": "KHANVEL", "state_name": "DADRA & NAGAR HAVELLI AND DAMAN & DIU", "state_lgd": 38, "population": 1118, "households": 240}, "geometry": {"type": "Polygon", "coordinates": [[[73.05957000000001, 20.132530000000003], [73.06487, 20.125480000000003], [73.06754000000001, 20.123340000000002], [73.06341, 20.121260000000003], [73.06070000000001, 20.11805], [73.05628, 20.10988], [73.05457000000001, 20.10921], [73.05008000000001, 20.11213], [73.04729, 20.119320000000002], [73.04601000000001, 20.121010000000002], [73.04487, 20.12273], [73.04443, 20.131610000000002], [73.04616, 20.13232], [73.04766000000001, 20.13239], [73.05001, 20.13407], [73.05322000000001, 20.13453], [73.05437, 20.13691], [73.05636000000001, 20.135140000000003], [73.05957000000001, 20.132530000000003]]]}}, {"id": "23", "type": "Feature", "properties": {"village_name": "Khedpa", "vil_lgd": 524996, "district_name": "Dadra And Nagar Haveli", "dist_lgd": 465, "subdistrict_name": "Dadra & Nagar Haveli", "sdcode": 3949, "block_name": "Dadra & Nagar Haveli", "block_lgd": 1.0, "gp_name": "MANDONI", "state_name": "DADRA & NAGAR HAVELLI AND DAMAN & DIU", "state_lgd": 38, "population": 1733, "households": 321}, "geometry": {"type": "Polygon", "coordinates": [[[73.19158, 20.07749], [73.18925, 20.07732], [73.19030000000001, 20.0728], [73.18863, 20.06999], [73.18927000000001, 20.068550000000002], [73.18807000000001, 20.065640000000002], [73.18862, 20.063730000000003], [73.18743, 20.05883], [73.18849, 20.056320000000003], [73.19017000000001, 20.05665], [73.1927, 20.054350000000003], [73.19244, 20.04973], [73.18856000000001, 20.05096], [73.18531, 20.04982], [73.18354000000001, 20.05038], [73.17904, 20.04757], [73.17782000000001, 20.051340000000003], [73.17105000000001, 20.05232], [73.16866, 20.055680000000002], [73.16634, 20.05495], [73.16536, 20.05599], [73.16429000000001, 20.06071], [73.16770000000001, 20.070320000000002], [73.16903, 20.07184], [73.17093000000001, 20.073], [73.18396, 20.075590000000002], [73.1871, 20.079610000000002], [73.19130000000001, 20.081650000000003], [73.19147000000001, 20.078270000000003], [73.19158, 20.07749]]]}}, {"id": "24", "type": "Feature", "properties": {"village_name": "Bensda", "vil_lgd": 524993, "district_name": "Dadra And Nagar Haveli", "dist_lgd": 465, "subdistrict_name": "Dadra & Nagar Haveli", "sdcode": 3949, "block_name": "Dadra & Nagar Haveli", "block_lgd": 1.0, "gp_name": "MANDONI", "state_name": "DADRA & NAGAR HAVELLI AND DAMAN & DIU", "state_lgd": 38, "population": 2031, "households": 378}, "geometry": {"type": "Polygon", "coordinates": [[[73.18718000000001, 20.12946], [73.18889, 20.12768], [73.19275, 20.1278], [73.19764, 20.126330000000003], [73.19901, 20.124260000000003], [73.20059, 20.123450000000002], [73.20248000000001, 20.11989], [73.20427000000001, 20.11927], [73.19908000000001, 20.112820000000003], [73.19233000000001, 20.10791], [73.18206, 20.09524], [73.17778000000001, 20.094700000000003], [73.17493, 20.096310000000003], [73.17474, 20.098450000000003], [73.17122, 20.107110000000002], [73.1717, 20.11336], [73.17417, 20.118000000000002], [73.1774, 20.118540000000003], [73.17921000000001, 20.11729], [73.18244, 20.12077], [73.18327000000001, 20.13117], [73.18444000000001, 20.131020000000003], [73.18726000000001, 20.13305], [73.18676, 20.131330000000002], [73.18718000000001, 20.12946]]]}}, {"id": "25", "type": "Feature", "properties": {"village_name": "Bedpa", "vil_lgd": 524994, "district_name": "Dadra And Nagar Haveli", "dist_lgd": 465, "subdistrict_name": "Dadra & Nagar Haveli", "sdcode": 3949, "block_name": "Dadra & Nagar Haveli", "block_lgd": 1.0, "gp_name": "MANDONI", "state_name": "DADRA & NAGAR HAVELLI AND DAMAN & DIU", "state_lgd": 38, "population": 3137, "households": 539}, "geometry": {"type": "Polygon", "coordinates": [[[73.21501, 20.11924], [73.2137, 20.10441], [73.21254, 20.100230000000003], [73.21309000000001, 20.09112], [73.2106, 20.085890000000003], [73.20411, 20.07871], [73.19936000000001, 20.07769], [73.19698000000001, 20.075480000000002], [73.19158, 20.07749], [73.19147000000001, 20.078270000000003], [73.19130000000001, 20.081650000000003], [73.191, 20.083000000000002], [73.18852000000001, 20.085410000000003], [73.18776000000001, 20.08791], [73.18206, 20.093], [73.18206, 20.09524], [73.19233000000001, 20.10791], [73.19908000000001, 20.112820000000003], [73.20427000000001, 20.11927], [73.21066, 20.120520000000003], [73.21501, 20.11924]]]}}, {"id": "26", "type": "Feature", "properties": {"village_name": "Kanadi", "vil_lgd": 524944, "district_name": "Dadra And Nagar Haveli", "dist_lgd": 465, "subdistrict_name": "Dadra & Nagar Haveli", "sdcode": 3949, "block_name": "Dadra & Nagar Haveli", "block_lgd": 1.0, "gp_name": "NAROLI", "state_name": "DADRA & NAGAR HAVELLI AND DAMAN & DIU", "state_lgd": 38, "population": 1042, "households": 231}, "geometry": {"type": "Polygon", "coordinates": [[[72.94247, 20.25102], [72.94513, 20.248880000000003], [72.94599000000001, 20.247], [72.94646, 20.244860000000003], [72.94509000000001, 20.240150000000003], [72.93707, 20.24332], [72.93090000000001, 20.24284], [72.93041000000001, 20.24436], [72.92908, 20.24531], [72.92864, 20.24783], [72.9274, 20.248900000000003], [72.93568, 20.251530000000002], [72.93848000000001, 20.25084], [72.94247, 20.25102]]]}}, {"id": "27", "type": "Feature", "properties": {"village_name": "Dhapsa", "vil_lgd": 524943, "district_name": "Dadra And Nagar Haveli", "dist_lgd": 465, "subdistrict_name": "Dadra & Nagar Haveli", "sdcode": 3949, "block_name": "Dadra & Nagar Haveli", "block_lgd": 1.0, "gp_name": "NAROLI", "state_name": "DADRA & NAGAR HAVELLI AND DAMAN & DIU", "state_lgd": 38, "population": 444, "households": 101}, "geometry": {"type": "Polygon", "coordinates": [[[72.93335, 20.293850000000003], [72.93663000000001, 20.294770000000003], [72.9392, 20.29406], [72.93964000000001, 20.29286], [72.94006, 20.29354], [72.94133000000001, 20.293360000000003], [72.94446, 20.289230000000003], [72.94711000000001, 20.28768], [72.9486, 20.288050000000002], [72.94894000000001, 20.286790000000003], [72.95168000000001, 20.285400000000003], [72.94894000000001, 20.2817], [72.94827000000001, 20.279200000000003], [72.94257, 20.277240000000003], [72.93439000000001, 20.278930000000003], [72.92663, 20.2861], [72.92952000000001, 20.289330000000003], [72.93139000000001, 20.295090000000002], [72.93282, 20.295170000000002], [72.93335, 20.293850000000003]]]}}, {"id": "28", "type": "Feature", "properties": {"village_name": "Demani", "vil_lgd": 524932, "district_name": "Dadra And Nagar Haveli", "dist_lgd": 465, "subdistrict_name": "Dadra & Nagar Haveli", "sdcode": 3949, "block_name": "Dadra & Nagar Haveli", "block_lgd": 1.0, "gp_name": "DADRA", "state_name": "DADRA & NAGAR HAVELLI AND DAMAN & DIU", "state_lgd": 38, "population": 3642, "households": 1142}, "geometry": {"type": "Polygon", "coordinates": [[[72.97865, 20.331680000000002], [72.97970000000001, 20.32862], [72.98161, 20.32674], [72.98311000000001, 20.31959], [72.97871, 20.31341], [72.97722, 20.313650000000003], [72.97210000000001, 20.31762], [72.97217, 20.3215], [72.97467, 20.327650000000002], [72.97363, 20.331860000000002], [72.97666000000001, 20.33143], [72.97865, 20.331680000000002]]]}}, {"id": "29", "type": "Feature", "properties": {"village_name": "Tighra", "vil_lgd": 524933, "district_name": "Dadra And Nagar Haveli", "dist_lgd": 465, "subdistrict_name": "Dadra & Nagar Haveli", "sdcode": 3949, "block_name": "Dadra & Nagar Haveli", "block_lgd": 1.0, "gp_name": "DADRA", "state_name": "DADRA & NAGAR HAVELLI AND DAMAN & DIU", "state_lgd": 38, "population": 924, "households": 220}, "geometry": {"type": "Polygon", "coordinates": [[[72.96412000000001, 20.31494], [72.96707, 20.31387], [72.96926, 20.314010000000003], [72.97201000000001, 20.31249], [72.97345, 20.309], [72.97182000000001, 20.29792], [72.97030000000001, 20.297250000000002], [72.96794000000001, 20.29861], [72.96300000000001, 20.30535], [72.95477000000001, 20.310170000000003], [72.95261, 20.31453], [72.95538, 20.313650000000003], [72.96412000000001, 20.31494]]]}}, {"id": "30", "type": "Feature", "properties": {"village_name": "Vaghchhipa", "vil_lgd": 524934, "district_name": "Dadra And Nagar Haveli", "dist_lgd": 465, "subdistrict_name": "Dadra & Nagar Haveli", "sdcode": 3949, "block_name": "Dadra & Nagar Haveli", "block_lgd": 1.0, "gp_name": "SAMARVARNI", "state_name": "DADRA & NAGAR HAVELLI AND DAMAN & DIU", "state_lgd": 38, "population": 1083, "households": 238}, "geometry": {"type": "Polygon", "coordinates": [[[73.01251, 20.31108], [73.01222, 20.309250000000002], [73.01627, 20.30996], [73.01717000000001, 20.30903], [73.01746, 20.305470000000003], [73.01609, 20.293660000000003], [73.01097, 20.29335], [73.0107, 20.297420000000002], [73.01206, 20.300780000000003], [73.01041000000001, 20.303060000000002], [73.00995, 20.30787], [73.00678, 20.311880000000002], [73.00893, 20.312240000000003], [73.01251, 20.31108]]]}}, {"id": "31", "type": "Feature", "properties": {"village_name": "Kharadpada", "vil_lgd": 524945, "district_name": "Dadra And Nagar Haveli", "dist_lgd": 465, "subdistrict_name": "Dadra & Nagar Haveli", "sdcode": 3949, "block_name": "Dadra & Nagar Haveli", "block_lgd": 1.0, "gp_name": "NAROLI", "state_name": "DADRA & NAGAR HAVELLI AND DAMAN & DIU", "state_lgd": 38, "population": 3691, "households": 752}, "geometry": {"type": "Polygon", "coordinates": [[[72.96034, 20.25815], [72.96047, 20.256610000000002], [72.96574000000001, 20.248990000000003], [72.97501000000001, 20.24377], [72.98043000000001, 20.2433], [72.98585, 20.24163], [72.98642000000001, 20.239620000000002], [72.98585, 20.23702], [72.97943000000001, 20.23404], [72.97483000000001, 20.225340000000003], [72.9696, 20.223360000000003], [72.96803000000001, 20.221960000000003], [72.96573000000001, 20.221590000000003], [72.96558, 20.22485], [72.96033, 20.229460000000003], [72.95798, 20.234080000000002], [72.9539, 20.236970000000003], [72.94509000000001, 20.240150000000003], [72.94646, 20.244860000000003], [72.94599000000001, 20.247], [72.94513, 20.248880000000003], [72.94247, 20.25102], [72.94304000000001, 20.25352], [72.94808, 20.257350000000002], [72.95017, 20.26021], [72.95531000000001, 20.26047], [72.95825, 20.25869], [72.96034, 20.25815]]]}}, {"id": "32", "type": "Feature", "properties": {"village_name": "Athal", "vil_lgd": 524946, "district_name": "Dadra And Nagar Haveli", "dist_lgd": 465, "subdistrict_name": "Dadra & Nagar Haveli", "sdcode": 3949, "block_name": "Dadra & Nagar Haveli", "block_lgd": 1.0, "gp_name": "NAROLI", "state_name": "DADRA & NAGAR HAVELLI AND DAMAN & DIU", "state_lgd": 38, "population": 3965, "households": 966}, "geometry": {"type": "Polygon", "coordinates": [[[72.99049000000001, 20.263160000000003], [72.99124, 20.257270000000002], [72.99145, 20.251520000000003], [72.99078, 20.24911], [72.99164, 20.24489], [72.99158, 20.238400000000002], [72.98961, 20.238760000000003], [72.98585, 20.23702], [72.98642000000001, 20.239620000000002], [72.98585, 20.24163], [72.98043000000001, 20.2433], [72.97501000000001, 20.24377], [72.96574000000001, 20.248990000000003], [72.96047, 20.256610000000002], [72.96034, 20.25815], [72.95863, 20.26895], [72.96034, 20.2726], [72.96194000000001, 20.27389], [72.96271, 20.27129], [72.97329, 20.27042], [72.97406000000001, 20.271990000000002], [72.97948000000001, 20.27346], [72.98031, 20.27577], [72.98122000000001, 20.276210000000003], [72.98472000000001, 20.27118], [72.99049000000001, 20.263160000000003]]]}}, {"id": "33", "type": "Feature", "properties": {"village_name": "Silvassa", "vil_lgd": 251273, "district_name": "Dadra And Nagar Haveli", "dist_lgd": 465, "subdistrict_name": "Dadra & Nagar Haveli", "sdcode": 3949, "block_name": "", "block_lgd": 0.0, "gp_name": "", "state_name": "DADRA & NAGAR HAVELLI AND DAMAN & DIU", "state_lgd": 38, "population": 98265, "households": 24105}, "geometry": {"type": "Polygon", "coordinates": [[[73.02175000000001, 20.29258], [73.02411000000001, 20.2908], [73.02619, 20.29042], [73.02555000000001, 20.28181], [73.02697, 20.27747], [73.03386, 20.269660000000002], [73.03493, 20.26676], [73.036, 20.25751], [73.02769, 20.25394], [73.01901000000001, 20.2584], [73.01643, 20.26], [73.01578, 20.26179], [73.01489000000001, 20.25928], [73.01286, 20.257270000000002], [72.997, 20.256330000000002], [72.99124, 20.257270000000002], [72.99049000000001, 20.263160000000003], [72.98472000000001, 20.27118], [72.98122000000001, 20.276210000000003], [72.98061000000001, 20.282040000000002], [72.98122000000001, 20.28986], [72.98488, 20.28819], [72.98821000000001, 20.291150000000002], [72.99358000000001, 20.292520000000003], [72.99991, 20.291220000000003], [73.00107000000001, 20.29173], [73.00592, 20.288990000000002], [73.00965000000001, 20.29081], [73.01097, 20.29335], [73.01609, 20.293660000000003], [73.01754000000001, 20.29335], [73.02175000000001, 20.29258]]]}}, {"id": "34", "type": "Feature", "properties": {"village_name": "Sili", "vil_lgd": 524935, "district_name": "Dadra And Nagar Haveli", "dist_lgd": 465, "subdistrict_name": "Dadra & Nagar Haveli", "sdcode": 3949, "block_name": "Dadra & Nagar Haveli", "block_lgd": 1.0, "gp_name": "KILAVANI", "state_name": "DADRA & NAGAR HAVELLI AND DAMAN & DIU", "state_lgd": 38, "population": 7646, "households": 1489}, "geometry": {"type": "Polygon", "coordinates": [[[73.07749000000001, 20.32301], [73.08108, 20.32198], [73.08522, 20.31811], [73.09097000000001, 20.307910000000003], [73.08878, 20.296310000000002], [73.08629, 20.292890000000003], [73.08144, 20.28995], [73.07982000000001, 20.285390000000003], [73.07076, 20.29145], [73.05842000000001, 20.29399], [73.03625000000001, 20.30283], [73.03788, 20.31031], [73.0386, 20.31897], [73.04252000000001, 20.325110000000002], [73.04819, 20.32373], [73.05211, 20.32432], [73.06143, 20.32816], [73.0672, 20.329500000000003], [73.07094000000001, 20.324840000000002], [73.07749000000001, 20.32301]]]}}, {"id": "35", "type": "Feature", "properties": {"village_name": "Saily", "vil_lgd": 524949, "district_name": "Dadra And Nagar Haveli", "dist_lgd": 465, "subdistrict_name": "Dadra & Nagar Haveli", "sdcode": 3949, "block_name": "Dadra & Nagar Haveli", "block_lgd": 1.0, "gp_name": "RAKHOLI", "state_name": "DADRA & NAGAR HAVELLI AND DAMAN & DIU", "state_lgd": 38, "population": 15655, "households": 3801}, "geometry": {"type": "Polygon", "coordinates": [[[73.04735000000001, 20.25428], [73.04978000000001, 20.254450000000002], [73.05482, 20.252840000000003], [73.05734000000001, 20.25006], [73.05929, 20.24276], [73.06138, 20.23946], [73.06423000000001, 20.237940000000002], [73.06613, 20.2342], [73.07269000000001, 20.232770000000002], [73.07433, 20.231740000000002], [73.07064000000001, 20.23205], [73.06736000000001, 20.22931], [73.06424000000001, 20.22819], [73.06266000000001, 20.224010000000003], [73.06016000000001, 20.22335], [73.05944000000001, 20.22164], [73.05719, 20.2226], [73.05235, 20.222330000000003], [73.04493000000001, 20.22492], [73.04191, 20.22455], [73.0378, 20.2251], [73.03656000000001, 20.226170000000003], [73.03305, 20.22697], [73.02744000000001, 20.231080000000002], [73.01887, 20.23035], [73.02059000000001, 20.235590000000002], [73.01918, 20.245900000000002], [73.02261, 20.247570000000003], [73.02463, 20.25203], [73.02769, 20.25394], [73.036, 20.25751], [73.03732000000001, 20.256230000000002], [73.04255, 20.254], [73.04735000000001, 20.25428]]]}}, {"id": "36", "type": "Feature", "properties": {"village_name": "Umarkui", "vil_lgd": 524948, "district_name": "Dadra And Nagar Haveli", "dist_lgd": 465, "subdistrict_name": "Dadra & Nagar Haveli", "sdcode": 3949, "block_name": "Dadra & Nagar Haveli", "block_lgd": 1.0, "gp_name": "KILAVANI", "state_name": "DADRA & NAGAR HAVELLI AND DAMAN & DIU", "state_lgd": 38, "population": 4585, "households": 818}, "geometry": {"type": "Polygon", "coordinates": [[[73.10216000000001, 20.275650000000002], [73.1033, 20.27521], [73.10768, 20.26727], [73.11222000000001, 20.256790000000002], [73.10730000000001, 20.250590000000003], [73.10767000000001, 20.248620000000003], [73.10646000000001, 20.246190000000002], [73.10353, 20.24446], [73.10053, 20.240160000000003], [73.09749000000001, 20.238670000000003], [73.09727000000001, 20.23611], [73.09841, 20.23494], [73.09784, 20.233610000000002], [73.09916000000001, 20.232010000000002], [73.09793, 20.22933], [73.09182000000001, 20.228420000000003], [73.08946, 20.226770000000002], [73.08568000000001, 20.22765], [73.08445, 20.230020000000003], [73.08264000000001, 20.230900000000002], [73.07433, 20.231740000000002], [73.07269000000001, 20.232770000000002], [73.06613, 20.2342], [73.06423000000001, 20.237940000000002], [73.06138, 20.23946], [73.05929, 20.24276], [73.05734000000001, 20.25006], [73.06632, 20.26031], [73.06984, 20.262900000000002], [73.07098, 20.26816], [73.07716, 20.270660000000003], [73.08172, 20.27111], [73.09275000000001, 20.27637], [73.09513000000001, 20.27655], [73.09827, 20.27539], [73.10216000000001, 20.275650000000002]]]}}, {"id": "37", "type": "Feature", "properties": {"village_name": "Nana Randha", "vil_lgd": 524937, "district_name": "Dadra And Nagar Haveli", "dist_lgd": 465, "subdistrict_name": "Dadra & Nagar Haveli", "sdcode": 3949, "block_name": "Dadra & Nagar Haveli", "block_lgd": 1.0, "gp_name": "RANDHA", "state_name": "DADRA & NAGAR HAVELLI AND DAMAN & DIU", "state_lgd": 38, "population": 1236, "households": 231}, "geometry": {"type": "Polygon", "coordinates": [[[73.16578000000001, 20.305120000000002], [73.16300000000001, 20.298560000000002], [73.16577000000001, 20.28997], [73.16542000000001, 20.285890000000002], [73.16430000000001, 20.283600000000003], [73.15806, 20.281180000000003], [73.15565000000001, 20.281740000000003], [73.15298, 20.2847], [73.15164, 20.290680000000002], [73.15064000000001, 20.291600000000003], [73.15027, 20.29483], [73.15265000000001, 20.301430000000003], [73.15836, 20.309070000000002], [73.15984, 20.30816], [73.16373, 20.30968], [73.16537000000001, 20.30883], [73.16578000000001, 20.305120000000002]]]}}, {"id": "38", "type": "Feature", "properties": {"village_name": "Mota Randha", "vil_lgd": 524938, "district_name": "Dadra And Nagar Haveli", "dist_lgd": 465, "subdistrict_name": "Dadra & Nagar Haveli", "sdcode": 3949, "block_name": "Dadra & Nagar Haveli", "block_lgd": 1.0, "gp_name": "RANDHA", "state_name": "DADRA & NAGAR HAVELLI AND DAMAN & DIU", "state_lgd": 38, "population": 3202, "households": 623}, "geometry": {"type": "Polygon", "coordinates": [[[73.14043000000001, 20.317500000000003], [73.15135000000001, 20.31728], [73.15836, 20.309070000000002], [73.15265000000001, 20.301430000000003], [73.15027, 20.29483], [73.15064000000001, 20.291600000000003], [73.14399, 20.287480000000002], [73.14120000000001, 20.279860000000003], [73.14116, 20.276220000000002], [73.13859000000001, 20.27345], [73.13667000000001, 20.29269], [73.13049000000001, 20.30205], [73.12627, 20.304820000000003], [73.12621, 20.308780000000002], [73.12910000000001, 20.31734], [73.13876, 20.316840000000003], [73.14043000000001, 20.317500000000003]]]}}, {"id": "39", "type": "Feature", "properties": {"village_name": "Bonta", "vil_lgd": 524939, "district_name": "Dadra And Nagar Haveli", "dist_lgd": 465, "subdistrict_name": "Dadra & Nagar Haveli", "sdcode": 3949, "block_name": "Dadra & Nagar Haveli", "block_lgd": 1.0, "gp_name": "RANDHA", "state_name": "DADRA & NAGAR HAVELLI AND DAMAN & DIU", "state_lgd": 38, "population": 3009, "households": 559}, "geometry": {"type": "Polygon", "coordinates": [[[73.12402, 20.30368], [73.12627, 20.304820000000003], [73.13049000000001, 20.30205], [73.13667000000001, 20.29269], [73.13859000000001, 20.27345], [73.13744000000001, 20.273100000000003], [73.13546000000001, 20.27486], [73.13395000000001, 20.27411], [73.13056, 20.27505], [73.12935, 20.26866], [73.12532, 20.26159], [73.11899000000001, 20.25934], [73.11415000000001, 20.25889], [73.11222000000001, 20.256790000000002], [73.10768, 20.26727], [73.1033, 20.27521], [73.10216000000001, 20.275650000000002], [73.09987000000001, 20.279690000000002], [73.10044, 20.285040000000002], [73.09972, 20.289920000000002], [73.10518, 20.30245], [73.10924, 20.304650000000002], [73.11144, 20.30366], [73.11343000000001, 20.30384], [73.11711000000001, 20.305400000000002], [73.12011000000001, 20.304250000000003], [73.12402, 20.30368]]]}}, {"id": "40", "type": "Feature", "properties": {"village_name": "Samarvarni CT", "vil_lgd": 524999, "district_name": "Dadra And Nagar Haveli", "dist_lgd": 465, "subdistrict_name": "Dadra & Nagar Haveli", "sdcode": 3949, "block_name": "", "block_lgd": null, "gp_name": "", "state_name": "DADRA & NAGAR HAVELLI AND DAMAN & DIU", "state_lgd": 38, "population": 12553, "households": 3345}, "geometry": {"type": "Polygon", "coordinates": [[[73.02769, 20.25394], [73.02463, 20.25203], [73.02261, 20.247570000000003], [73.01918, 20.245900000000002], [73.01768000000001, 20.244670000000003], [73.01435000000001, 20.244010000000003], [73.00918, 20.24406], [72.99439000000001, 20.249080000000003], [72.99145, 20.251520000000003], [72.99124, 20.257270000000002], [72.997, 20.256330000000002], [73.01286, 20.257270000000002], [73.01489000000001, 20.25928], [73.01578, 20.26179], [73.01643, 20.26], [73.01901000000001, 20.2584], [73.02769, 20.25394]]]}}, {"id": "41", "type": "Feature", "properties": {"village_name": "Morkhal", "vil_lgd": 524936, "district_name": "Dadra And Nagar Haveli", "dist_lgd": 465, "subdistrict_name": "Dadra & Nagar Haveli", "sdcode": 3949, "block_name": "Dadra & Nagar Haveli", "block_lgd": 1.0, "gp_name": "RANDHA", "state_name": "DADRA & NAGAR HAVELLI AND DAMAN & DIU", "state_lgd": 38, "population": 3568, "households": 703}, "geometry": {"type": "Polygon", "coordinates": [[[73.09864, 20.35828], [73.09928000000001, 20.354360000000003], [73.10231, 20.35369], [73.10538000000001, 20.349870000000003], [73.10463, 20.346100000000003], [73.10753000000001, 20.34327], [73.10912, 20.33837], [73.11148, 20.336940000000002], [73.10856000000001, 20.330150000000003], [73.10876, 20.32384], [73.10438, 20.315430000000003], [73.10099000000001, 20.30394], [73.09492, 20.305670000000003], [73.09097000000001, 20.307910000000003], [73.08522, 20.31811], [73.08108, 20.32198], [73.07749000000001, 20.32301], [73.07881, 20.32572], [73.08445, 20.33042], [73.09078000000001, 20.344880000000003], [73.08897, 20.349300000000003], [73.08994000000001, 20.352430000000002], [73.08993000000001, 20.35844], [73.09226000000001, 20.3596], [73.09709000000001, 20.360200000000003], [73.09864, 20.35828]]]}}, {"id": "42", "type": "Feature", "properties": {"village_name": "Kilavani", "vil_lgd": 524940, "district_name": "Dadra And Nagar Haveli", "dist_lgd": 465, "subdistrict_name": "Dadra & Nagar Haveli", "sdcode": 3949, "block_name": "Dadra & Nagar Haveli", "block_lgd": 1.0, "gp_name": "KILAVANI", "state_name": "DADRA & NAGAR HAVELLI AND DAMAN & DIU", "state_lgd": 38, "population": 1287, "households": 283}, "geometry": {"type": "Polygon", "coordinates": [[[73.1032, 20.30133], [73.10518, 20.30245], [73.09972, 20.289920000000002], [73.10044, 20.285040000000002], [73.09987000000001, 20.279690000000002], [73.10216000000001, 20.275650000000002], [73.09827, 20.27539], [73.09513000000001, 20.27655], [73.09275000000001, 20.27637], [73.08172, 20.27111], [73.07716, 20.270660000000003], [73.07098, 20.26816], [73.07096, 20.269550000000002], [73.07265000000001, 20.272450000000003], [73.07823, 20.276510000000002], [73.07923000000001, 20.27852], [73.07982000000001, 20.285390000000003], [73.08144, 20.28995], [73.08629, 20.292890000000003], [73.08878, 20.296310000000002], [73.09097000000001, 20.307910000000003], [73.09492, 20.305670000000003], [73.10099000000001, 20.30394], [73.1032, 20.30133]]]}}, {"id": "43", "type": "Feature", "properties": {"village_name": "Athola", "vil_lgd": 524942, "district_name": "Dadra And Nagar Haveli", "dist_lgd": 465, "subdistrict_name": "Dadra & Nagar Haveli", "sdcode": 3949, "block_name": "Dadra & Nagar Haveli", "block_lgd": 1.0, "gp_name": "SAMARVARNI", "state_name": "DADRA & NAGAR HAVELLI AND DAMAN & DIU", "state_lgd": 38, "population": 4668, "households": 1018}, "geometry": {"type": "Polygon", "coordinates": [[[73.04159, 20.285570000000003], [73.05022000000001, 20.280890000000003], [73.05379, 20.27654], [73.0463, 20.26791], [73.04602000000001, 20.26182], [73.04735000000001, 20.25428], [73.04255, 20.254], [73.03732000000001, 20.256230000000002], [73.036, 20.25751], [73.03493, 20.26676], [73.03386, 20.269660000000002], [73.02697, 20.27747], [73.02555000000001, 20.28181], [73.02619, 20.29042], [73.03002000000001, 20.290460000000003], [73.03524, 20.291800000000002], [73.03639000000001, 20.290920000000003], [73.04159, 20.285570000000003]]]}}, {"id": "44", "type": "Feature", "properties": {"village_name": "Falandi", "vil_lgd": 524947, "district_name": "Dadra And Nagar Haveli", "dist_lgd": 465, "subdistrict_name": "Dadra & Nagar Haveli", "sdcode": 3949, "block_name": "Dadra & Nagar Haveli", "block_lgd": 1.0, "gp_name": "KIVALANI", "state_name": "DADRA & NAGAR HAVELLI AND DAMAN & DIU", "state_lgd": 38, "population": 1878, "households": 392}, "geometry": {"type": "Polygon", "coordinates": [[[73.06135, 20.27493], [73.06513000000001, 20.27326], [73.06762, 20.27346], [73.0699, 20.272060000000003], [73.07265000000001, 20.272450000000003], [73.07096, 20.269550000000002], [73.07098, 20.26816], [73.06984, 20.262900000000002], [73.06632, 20.26031], [73.05734000000001, 20.25006], [73.05482, 20.252840000000003], [73.04978000000001, 20.254450000000002], [73.04735000000001, 20.25428], [73.04602000000001, 20.26182], [73.0463, 20.26791], [73.05379, 20.27654], [73.05571, 20.27513], [73.05914, 20.2742], [73.06135, 20.27493]]]}}, {"id": "45", "type": "Feature", "properties": {"village_name": "Galonda", "vil_lgd": 524941, "district_name": "Dadra And Nagar Haveli", "dist_lgd": 465, "subdistrict_name": "Dadra & Nagar Haveli", "sdcode": 3949, "block_name": "Dadra & Nagar Haveli", "block_lgd": 1.0, "gp_name": "KILAVANI", "state_name": "DADRA & NAGAR HAVELLI AND DAMAN & DIU", "state_lgd": 38, "population": 5395, "households": 1000}, "geometry": {"type": "Polygon", "coordinates": [[[73.07923000000001, 20.27852], [73.07823, 20.276510000000002], [73.07265000000001, 20.272450000000003], [73.0699, 20.272060000000003], [73.06762, 20.27346], [73.06513000000001, 20.27326], [73.06135, 20.27493], [73.05914, 20.2742], [73.05571, 20.27513], [73.05379, 20.27654], [73.05022000000001, 20.280890000000003], [73.04159, 20.285570000000003], [73.03639000000001, 20.290920000000003], [73.03524, 20.291800000000002], [73.03625000000001, 20.30283], [73.05842000000001, 20.29399], [73.07076, 20.29145], [73.07982000000001, 20.285390000000003], [73.07923000000001, 20.27852]]]}}, {"id": "46", "type": "Feature", "properties": {"village_name": "Luhari", "vil_lgd": 524954, "district_name": "Dadra And Nagar Haveli", "dist_lgd": 465, "subdistrict_name": "Dadra & Nagar Haveli", "sdcode": 3949, "block_name": "Dadra & Nagar Haveli", "block_lgd": 1.0, "gp_name": "NAROLI", "state_name": "DADRA & NAGAR HAVELLI AND DAMAN & DIU", "state_lgd": 38, "population": 2918, "households": 484}, "geometry": {"type": "Polygon", "coordinates": [[[72.97498, 20.21928], [72.97925000000001, 20.215590000000002], [72.98397, 20.213070000000002], [72.99049000000001, 20.213350000000002], [72.99306, 20.21421], [72.99191, 20.20961], [72.99263, 20.206490000000002], [72.98903, 20.1993], [72.98906000000001, 20.19679], [72.99049000000001, 20.193330000000003], [72.99073, 20.188650000000003], [72.98799000000001, 20.18117], [72.98799000000001, 20.17883], [72.98466, 20.17883], [72.97735, 20.179360000000003], [72.97634000000001, 20.181], [72.96721000000001, 20.183220000000002], [72.96305000000001, 20.182250000000003], [72.96146, 20.18493], [72.96178, 20.191580000000002], [72.95988000000001, 20.200010000000002], [72.96130000000001, 20.208650000000002], [72.96287000000001, 20.20993], [72.96471000000001, 20.213810000000002], [72.96573000000001, 20.221590000000003], [72.96803000000001, 20.221960000000003], [72.9696, 20.223360000000003], [72.97483000000001, 20.225340000000003], [72.9749, 20.22265], [72.97498, 20.21928]]]}}, {"id": "47", "type": "Feature", "properties": {"village_name": "Kudacha", "vil_lgd": 524950, "district_name": "Dadra And Nagar Haveli", "dist_lgd": 465, "subdistrict_name": "Dadra & Nagar Haveli", "sdcode": 3949, "block_name": "Dadra & Nagar Haveli", "block_lgd": 1.0, "gp_name": "RAKHOLI", "state_name": "DADRA & NAGAR HAVELLI AND DAMAN & DIU", "state_lgd": 38, "population": 1943, "households": 404}, "geometry": {"type": "Polygon", "coordinates": [[[73.02483000000001, 20.224220000000003], [73.02768, 20.221100000000003], [73.02782, 20.21734], [73.02531, 20.216420000000003], [73.01295, 20.21686], [73.007, 20.215480000000003], [73.00285000000001, 20.215300000000003], [73.00160000000001, 20.21583], [73.00275, 20.22063], [73.00582, 20.2234], [73.00686, 20.2255], [73.00930000000001, 20.22622], [73.01245, 20.228450000000002], [73.01821000000001, 20.22973], [73.02002, 20.22727], [73.02483000000001, 20.224220000000003]]]}}, {"id": "48", "type": "Feature", "properties": {"village_name": "Karad", "vil_lgd": 524951, "district_name": "Dadra And Nagar Haveli", "dist_lgd": 465, "subdistrict_name": "Dadra & Nagar Haveli", "sdcode": 3949, "block_name": "Dadra & Nagar Haveli", "block_lgd": 1.0, "gp_name": "RAKHOLI", "state_name": "DADRA & NAGAR HAVELLI AND DAMAN & DIU", "state_lgd": 38, "population": 5860, "households": 1476}, "geometry": {"type": "Polygon", "coordinates": [[[73.05235, 20.222330000000003], [73.05719, 20.2226], [73.05944000000001, 20.22164], [73.05831, 20.217760000000002], [73.05526, 20.21225], [73.05466000000001, 20.207430000000002], [73.05252, 20.203950000000003], [73.05003, 20.20111], [73.04956, 20.20146], [73.04807000000001, 20.203570000000003], [73.03499000000001, 20.212660000000003], [73.03565, 20.215950000000003], [73.04046000000001, 20.22058], [73.04159, 20.222140000000003], [73.04191, 20.22455], [73.04493000000001, 20.22492], [73.05235, 20.222330000000003]]]}}, {"id": "49", "type": "Feature", "properties": {"village_name": "Vasona", "vil_lgd": 524952, "district_name": "Dadra And Nagar Haveli", "dist_lgd": 465, "subdistrict_name": "Dadra & Nagar Haveli", "sdcode": 3949, "block_name": "Dadra & Nagar Haveli", "block_lgd": 1.0, "gp_name": "DAPADA", "state_name": "DADRA & NAGAR HAVELLI AND DAMAN & DIU", "state_lgd": 38, "population": 4707, "households": 878}, "geometry": {"type": "Polygon", "coordinates": [[[73.02782, 20.21734], [73.02834, 20.216450000000002], [73.0322, 20.215110000000003], [73.03499000000001, 20.212660000000003], [73.04807000000001, 20.203570000000003], [73.04956, 20.20146], [73.04904, 20.20022], [73.05120000000001, 20.19743], [73.04839000000001, 20.197110000000002], [73.04323000000001, 20.197680000000002], [73.03763000000001, 20.19912], [73.03306, 20.201870000000003], [73.02985000000001, 20.202270000000002], [73.02529000000001, 20.20427], [73.01987000000001, 20.204140000000002], [73.01902000000001, 20.206480000000003], [73.01402, 20.211170000000003], [73.007, 20.215480000000003], [73.01295, 20.21686], [73.02531, 20.216420000000003], [73.02782, 20.21734]]]}}, {"id": "50", "type": "Feature", "properties": {"village_name": "Pati", "vil_lgd": 524957, "district_name": "Dadra And Nagar Haveli", "dist_lgd": 465, "subdistrict_name": "Dadra & Nagar Haveli", "sdcode": 3949, "block_name": "Dadra & Nagar Haveli", "block_lgd": 1.0, "gp_name": "DAPADA", "state_name": "DADRA & NAGAR HAVELLI AND DAMAN & DIU", "state_lgd": 38, "population": 1943, "households": 334}, "geometry": {"type": "Polygon", "coordinates": [[[73.05120000000001, 20.19743], [73.05522, 20.19459], [73.05974, 20.193810000000003], [73.06227000000001, 20.184260000000002], [73.063, 20.17762], [73.06227000000001, 20.172880000000003], [73.06283, 20.16976], [73.06067, 20.166970000000003], [73.0605, 20.16475], [73.05757000000001, 20.16685], [73.04960000000001, 20.17483], [73.04519, 20.17751], [73.04219, 20.18119], [73.04190000000001, 20.182660000000002], [73.04226000000001, 20.189950000000003], [73.04419, 20.19404], [73.04323000000001, 20.197680000000002], [73.04839000000001, 20.197110000000002], [73.05120000000001, 20.19743]]]}}, {"id": "51", "type": "Feature", "properties": {"village_name": "Chinchpada", "vil_lgd": 524953, "district_name": "Dadra And Nagar Haveli", "dist_lgd": 465, "subdistrict_name": "Dadra & Nagar Haveli", "sdcode": 3949, "block_name": "Dadra & Nagar Haveli", "block_lgd": 1.0, "gp_name": "DAPADA", "state_name": "DADRA & NAGAR HAVELLI AND DAMAN & DIU", "state_lgd": 38, "population": 2510, "households": 434}, "geometry": {"type": "Polygon", "coordinates": [[[73.007, 20.215480000000003], [73.01402, 20.211170000000003], [73.01902000000001, 20.206480000000003], [73.01987000000001, 20.204140000000002], [73.02002, 20.20144], [73.0171, 20.19649], [73.01403, 20.196550000000002], [73.01289000000001, 20.19535], [73.00141, 20.19836], [72.99304000000001, 20.1994], [72.98903, 20.1993], [72.99263, 20.206490000000002], [72.99191, 20.20961], [72.99306, 20.21421], [72.99315, 20.215000000000003], [73.00133000000001, 20.214450000000003], [73.00160000000001, 20.21583], [73.00285000000001, 20.215300000000003], [73.007, 20.215480000000003]]]}}, {"id": "52", "type": "Feature", "properties": {"village_name": "Dapada", "vil_lgd": 524956, "district_name": "Dadra And Nagar Haveli", "dist_lgd": 465, "subdistrict_name": "Dadra & Nagar Haveli", "sdcode": 3949, "block_name": "Dadra & Nagar Haveli", "block_lgd": 1.0, "gp_name": "DAPADA", "state_name": "DADRA & NAGAR HAVELLI AND DAMAN & DIU", "state_lgd": 38, "population": 5713, "households": 1115}, "geometry": {"type": "Polygon", "coordinates": [[[73.04419, 20.19404], [73.04226000000001, 20.189950000000003], [73.04190000000001, 20.182660000000002], [73.04219, 20.18119], [73.04519, 20.17751], [73.04048, 20.17601], [73.03706000000001, 20.176740000000002], [73.03264, 20.17574], [73.02679, 20.17594], [73.02637, 20.17781], [73.02309000000001, 20.18223], [73.01895, 20.183970000000002], [73.01011000000001, 20.18558], [73.00462, 20.188390000000002], [72.99606, 20.19575], [72.99304000000001, 20.1994], [73.00141, 20.19836], [73.01289000000001, 20.19535], [73.01403, 20.196550000000002], [73.0171, 20.19649], [73.02002, 20.20144], [73.01987000000001, 20.204140000000002], [73.02529000000001, 20.20427], [73.02985000000001, 20.202270000000002], [73.03306, 20.201870000000003], [73.03763000000001, 20.19912], [73.04323000000001, 20.197680000000002], [73.04419, 20.19404]]]}}, {"id": "53", "type": "Feature", "properties": {"village_name": "Khadoli", "vil_lgd": 524958, "district_name": "Dadra And Nagar Haveli", "dist_lgd": 465, "subdistrict_name": "Dadra & Nagar Haveli", "sdcode": 3949, "block_name": "Dadra & Nagar Haveli", "block_lgd": 1.0, "gp_name": "AMBOLI", "state_name": "DADRA & NAGAR HAVELLI AND DAMAN & DIU", "state_lgd": 38, "population": 3140, "households": 661}, "geometry": {"type": "Polygon", "coordinates": [[[73.05671000000001, 20.162390000000002], [73.04892000000001, 20.15801], [73.04378000000001, 20.151410000000002], [73.04369000000001, 20.148020000000002], [73.04511000000001, 20.145880000000002], [73.04445000000001, 20.145880000000002], [73.03872000000001, 20.147550000000003], [73.03123000000001, 20.151590000000002], [73.02791, 20.15462], [73.02600000000001, 20.158730000000002], [73.02600000000001, 20.160600000000002], [73.02679, 20.17594], [73.03264, 20.17574], [73.03706000000001, 20.176740000000002], [73.04048, 20.17601], [73.04519, 20.17751], [73.04960000000001, 20.17483], [73.05757000000001, 20.16685], [73.05671000000001, 20.162390000000002]]]}}, {"id": "54", "type": "Feature", "properties": {"village_name": "Chikhali", "vil_lgd": 524955, "district_name": "Dadra And Nagar Haveli", "dist_lgd": 465, "subdistrict_name": "Dadra & Nagar Haveli", "sdcode": 3949, "block_name": "Dadra & Nagar Haveli", "block_lgd": 1.0, "gp_name": "DAPADA", "state_name": "DADRA & NAGAR HAVELLI AND DAMAN & DIU", "state_lgd": 38, "population": 3390, "households": 563}, "geometry": {"type": "Polygon", "coordinates": [[[72.99606, 20.19575], [73.00462, 20.188390000000002], [73.01011000000001, 20.18558], [73.01895, 20.183970000000002], [73.02309000000001, 20.18223], [73.02637, 20.17781], [73.02679, 20.17594], [73.02600000000001, 20.160600000000002], [73.02470000000001, 20.159550000000003], [73.02337, 20.16215], [73.01731000000001, 20.166900000000002], [73.01075, 20.16891], [73.00469000000001, 20.173060000000003], [72.99471000000001, 20.17808], [72.99093, 20.177880000000002], [72.98799000000001, 20.17883], [72.98799000000001, 20.18117], [72.99073, 20.188650000000003], [72.99049000000001, 20.193330000000003], [72.98906000000001, 20.19679], [72.98903, 20.1993], [72.99304000000001, 20.1994], [72.99606, 20.19575]]]}}, {"id": "55", "type": "Feature", "properties": {"village_name": "Masat CT", "vil_lgd": 525000, "district_name": "Dadra And Nagar Haveli", "dist_lgd": 465, "subdistrict_name": "Dadra & Nagar Haveli", "sdcode": 3949, "block_name": "", "block_lgd": null, "gp_name": "", "state_name": "DADRA & NAGAR HAVELLI AND DAMAN & DIU", "state_lgd": 38, "population": 12139, "households": 3187}, "geometry": {"type": "Polygon", "coordinates": [[[73.01435000000001, 20.244010000000003], [73.01768000000001, 20.244670000000003], [73.01918, 20.245900000000002], [73.02059000000001, 20.235590000000002], [73.01887, 20.23035], [73.01821000000001, 20.22973], [73.01245, 20.228450000000002], [73.00930000000001, 20.22622], [73.00686, 20.2255], [73.00849000000001, 20.228930000000002], [73.00568000000001, 20.23198], [72.99860000000001, 20.23676], [72.99158, 20.238400000000002], [72.99164, 20.24489], [72.99078, 20.24911], [72.99145, 20.251520000000003], [72.99439000000001, 20.249080000000003], [73.00918, 20.24406], [73.01435000000001, 20.244010000000003]]]}}, {"id": "56", "type": "Feature", "properties": {"village_name": "Apti", "vil_lgd": 524960, "district_name": "Dadra And Nagar Haveli", "dist_lgd": 465, "subdistrict_name": "Dadra & Nagar Haveli", "sdcode": 3949, "block_name": "Dadra & Nagar Haveli", "block_lgd": 1.0, "gp_name": "DAPADA", "state_name": "DADRA & NAGAR HAVELLI AND DAMAN & DIU", "state_lgd": 38, "population": 1655, "households": 284}, "geometry": {"type": "Polygon", "coordinates": [[[72.98799000000001, 20.17883], [72.98893000000001, 20.17413], [72.99164, 20.170050000000003], [72.99186, 20.16784], [73.00013000000001, 20.159070000000003], [73.00070000000001, 20.15747], [73.00212, 20.156660000000002], [73.00716, 20.140690000000003], [73.00372, 20.13906], [73.00125000000001, 20.141270000000002], [72.99801000000001, 20.142670000000003], [72.99663000000001, 20.140060000000002], [72.99293, 20.142400000000002], [72.99007, 20.142200000000003], [72.98087000000001, 20.14722], [72.97538, 20.147360000000003], [72.97203, 20.14816], [72.96957, 20.151470000000003], [72.97395, 20.1593], [72.97337, 20.173240000000003], [72.97735, 20.179360000000003], [72.98466, 20.17883], [72.98799000000001, 20.17883]]]}}, {"id": "57", "type": "Feature", "properties": {"village_name": "Tinoda", "vil_lgd": 524964, "district_name": "Dadra And Nagar Haveli", "dist_lgd": 465, "subdistrict_name": "Dadra & Nagar Haveli", "sdcode": 3949, "block_name": "Dadra & Nagar Haveli", "block_lgd": 1.0, "gp_name": "AMBOLI", "state_name": "DADRA & NAGAR HAVELLI AND DAMAN & DIU", "state_lgd": 38, "population": 748, "households": 130}, "geometry": {"type": "Polygon", "coordinates": [[[73.06043000000001, 20.161900000000003], [73.06138, 20.160890000000002], [73.0687, 20.156730000000003], [73.06563000000001, 20.14056], [73.05957000000001, 20.132530000000003], [73.05636000000001, 20.135140000000003], [73.05437, 20.13691], [73.05422, 20.14063], [73.05158, 20.145180000000003], [73.04511000000001, 20.145880000000002], [73.04369000000001, 20.148020000000002], [73.04378000000001, 20.151410000000002], [73.04892000000001, 20.15801], [73.05671000000001, 20.162390000000002], [73.05757000000001, 20.16685], [73.0605, 20.16475], [73.06043000000001, 20.161900000000003]]]}}, {"id": "58", "type": "Feature", "properties": {"village_name": "Umbervarni", "vil_lgd": 524966, "district_name": "Dadra And Nagar Haveli", "dist_lgd": 465, "subdistrict_name": "Dadra & Nagar Haveli", "sdcode": 3949, "block_name": "Dadra & Nagar Haveli", "block_lgd": 1.0, "gp_name": "KHANVEL", "state_name": "DADRA & NAGAR HAVELLI AND DAMAN & DIU", "state_lgd": 38, "population": 1053, "households": 173}, "geometry": {"type": "Polygon", "coordinates": [[[73.08364, 20.17227], [73.08724000000001, 20.170330000000003], [73.09026, 20.163390000000003], [73.08998000000001, 20.1613], [73.09223, 20.15972], [73.09100000000001, 20.157210000000003], [73.08708, 20.154400000000003], [73.081, 20.153920000000003], [73.07867, 20.155340000000002], [73.07437, 20.157030000000002], [73.07476000000001, 20.16057], [73.07776000000001, 20.16701], [73.07785000000001, 20.16964], [73.07892000000001, 20.17256], [73.08014, 20.173090000000002], [73.08364, 20.17227]]]}}, {"id": "59", "type": "Feature", "properties": {"village_name": "Goratpada", "vil_lgd": 524967, "district_name": "Dadra And Nagar Haveli", "dist_lgd": 465, "subdistrict_name": "Dadra & Nagar Haveli", "sdcode": 3949, "block_name": "Dadra & Nagar Haveli", "block_lgd": 1.0, "gp_name": "KHANVEL", "state_name": "DADRA & NAGAR HAVELLI AND DAMAN & DIU", "state_lgd": 38, "population": 316, "households": 60}, "geometry": {"type": "Polygon", "coordinates": [[[73.10495, 20.157210000000003], [73.10668000000001, 20.15353], [73.10924, 20.151570000000003], [73.09983000000001, 20.147550000000003], [73.09555, 20.14675], [73.09318, 20.14532], [73.0922, 20.14564], [73.09242, 20.153170000000003], [73.09530000000001, 20.158830000000002], [73.09960000000001, 20.15623], [73.10495, 20.157210000000003]]]}}, {"id": "60", "type": "Feature", "properties": {"village_name": "Vaghchauda", "vil_lgd": 524968, "district_name": "Dadra And Nagar Haveli", "dist_lgd": 465, "subdistrict_name": "Dadra & Nagar Haveli", "sdcode": 3949, "block_name": "Dadra & Nagar Haveli", "block_lgd": 1.0, "gp_name": "DUDHANI", "state_name": "DADRA & NAGAR HAVELLI AND DAMAN & DIU", "state_lgd": 38, "population": 357, "households": 57}, "geometry": {"type": "Polygon", "coordinates": [[[73.13133, 20.15724], [73.13887000000001, 20.15418], [73.13857, 20.152060000000002], [73.12271000000001, 20.152340000000002], [73.11784, 20.151220000000002], [73.11522000000001, 20.149050000000003], [73.11201000000001, 20.14902], [73.10924, 20.151570000000003], [73.10668000000001, 20.15353], [73.10495, 20.157210000000003], [73.10831, 20.157850000000003], [73.11071000000001, 20.156350000000003], [73.11384000000001, 20.1521], [73.11525, 20.1519], [73.11672, 20.15583], [73.11503, 20.158900000000003], [73.11938, 20.15775], [73.12402, 20.15942], [73.12889000000001, 20.15858], [73.13133, 20.15724]]]}}, {"id": "61", "type": "Feature", "properties": {"village_name": "Kothar", "vil_lgd": 524969, "district_name": "Dadra And Nagar Haveli", "dist_lgd": 465, "subdistrict_name": "Dadra & Nagar Haveli", "sdcode": 3949, "block_name": "Dadra & Nagar Haveli", "block_lgd": 1.0, "gp_name": "DUDHANI", "state_name": "DADRA & NAGAR HAVELLI AND DAMAN & DIU", "state_lgd": 38, "population": 115, "households": 20}, "geometry": {"type": "Polygon", "coordinates": [[[73.13156000000001, 20.165840000000003], [73.13133, 20.15724], [73.12889000000001, 20.15858], [73.12402, 20.15942], [73.11938, 20.15775], [73.11503, 20.158900000000003], [73.11586000000001, 20.16222], [73.11787000000001, 20.16385], [73.11968, 20.164050000000003], [73.11937, 20.16822], [73.12255, 20.17069], [73.12388, 20.17012], [73.12854, 20.17341], [73.13301000000001, 20.16929], [73.13156000000001, 20.165840000000003]]]}}, {"id": "62", "type": "Feature", "properties": {"village_name": "Jamalpada", "vil_lgd": 524972, "district_name": "Dadra And Nagar Haveli", "dist_lgd": 465, "subdistrict_name": "Dadra & Nagar Haveli", "sdcode": 3949, "block_name": "Dadra & Nagar Haveli", "block_lgd": 1.0, "gp_name": "DUDHANI", "state_name": "DADRA & NAGAR HAVELLI AND DAMAN & DIU", "state_lgd": 38, "population": 553, "households": 104}, "geometry": {"type": "Polygon", "coordinates": [[[73.14776, 20.200740000000003], [73.14285000000001, 20.19696], [73.14339000000001, 20.191380000000002], [73.14006, 20.18709], [73.13915, 20.18447], [73.13633, 20.184540000000002], [73.13498000000001, 20.18539], [73.13486, 20.184600000000003], [73.13341000000001, 20.18861], [73.13254, 20.19979], [73.13318000000001, 20.20577], [73.1376, 20.207520000000002], [73.13871, 20.204510000000003], [73.14083000000001, 20.203490000000002], [73.14776, 20.200740000000003]]]}}, {"id": "63", "type": "Feature", "properties": {"village_name": "Kauncha", "vil_lgd": 524973, "district_name": "Dadra And Nagar Haveli", "dist_lgd": 465, "subdistrict_name": "Dadra & Nagar Haveli", "sdcode": 3949, "block_name": "Dadra & Nagar Haveli", "block_lgd": 1.0, "gp_name": "DUDHANI", "state_name": "DADRA & NAGAR HAVELLI AND DAMAN & DIU", "state_lgd": 38, "population": 1592, "households": 306}, "geometry": {"type": "Polygon", "coordinates": [[[73.16454, 20.197570000000002], [73.15949, 20.19283], [73.15272, 20.18881], [73.14380000000001, 20.18089], [73.14206, 20.177370000000003], [73.13915, 20.18447], [73.14006, 20.18709], [73.14339000000001, 20.191380000000002], [73.14285000000001, 20.19696], [73.14776, 20.200740000000003], [73.15244000000001, 20.20391], [73.15737, 20.19835], [73.16848, 20.20824], [73.16892, 20.203020000000002], [73.17013, 20.20098], [73.16454, 20.197570000000002]]]}}, {"id": "64", "type": "Feature", "properties": {"village_name": "Dudhani", "vil_lgd": 524974, "district_name": "Dadra And Nagar Haveli", "dist_lgd": 465, "subdistrict_name": "Dadra & Nagar Haveli", "sdcode": 3949, "block_name": "Dadra & Nagar Haveli", "block_lgd": 1.0, "gp_name": "DUDHANI", "state_name": "DADRA & NAGAR HAVELLI AND DAMAN & DIU", "state_lgd": 38, "population": 3979, "households": 660}, "geometry": {"type": "Polygon", "coordinates": [[[73.17166, 20.19845], [73.17694, 20.199330000000003], [73.17899000000001, 20.197760000000002], [73.17947000000001, 20.195610000000002], [73.17814, 20.19265], [73.1777, 20.19013], [73.17853000000001, 20.18589], [73.18019000000001, 20.1782], [73.18126000000001, 20.177190000000003], [73.17743, 20.175870000000003], [73.17530000000001, 20.173930000000002], [73.1738, 20.170250000000003], [73.17301, 20.16195], [73.17366000000001, 20.15934], [73.17237, 20.15874], [73.16018000000001, 20.16102], [73.15775000000001, 20.16269], [73.15556000000001, 20.163970000000003], [73.15795, 20.169680000000003], [73.15658, 20.17303], [73.15153000000001, 20.17772], [73.14933, 20.178440000000002], [73.14206, 20.177370000000003], [73.14380000000001, 20.18089], [73.15272, 20.18881], [73.15949, 20.19283], [73.16454, 20.197570000000002], [73.17013, 20.20098], [73.17044, 20.19996], [73.17166, 20.19845]]]}}, {"id": "65", "type": "Feature", "properties": {"village_name": "Gunsa", "vil_lgd": 524975, "district_name": "Dadra And Nagar Haveli", "dist_lgd": 465, "subdistrict_name": "Dadra & Nagar Haveli", "sdcode": 3949, "block_name": "Dadra & Nagar Haveli", "block_lgd": 1.0, "gp_name": "DUDHANI", "state_name": "DADRA & NAGAR HAVELLI AND DAMAN & DIU", "state_lgd": 38, "population": 1337, "households": 238}, "geometry": {"type": "Polygon", "coordinates": [[[73.19900000000001, 20.194460000000003], [73.20333000000001, 20.189950000000003], [73.20686, 20.18814], [73.20348, 20.187230000000003], [73.19980000000001, 20.18756], [73.19493, 20.185560000000002], [73.19326000000001, 20.1792], [73.19160000000001, 20.1782], [73.18126000000001, 20.177190000000003], [73.18019000000001, 20.1782], [73.17853000000001, 20.18589], [73.1777, 20.19013], [73.17814, 20.19265], [73.18058, 20.192330000000002], [73.18196, 20.194390000000002], [73.18371, 20.193910000000002], [73.19022000000001, 20.1951], [73.19191000000001, 20.19744], [73.19357000000001, 20.196450000000002], [73.19900000000001, 20.194460000000003]]]}}, {"id": "66", "type": "Feature", "properties": {"village_name": "Bildhari", "vil_lgd": 524976, "district_name": "Dadra And Nagar Haveli", "dist_lgd": 465, "subdistrict_name": "Dadra & Nagar Haveli", "sdcode": 3949, "block_name": "Dadra & Nagar Haveli", "block_lgd": 1.0, "gp_name": "DUDHANI", "state_name": "DADRA & NAGAR HAVELLI AND DAMAN & DIU", "state_lgd": 38, "population": 1116, "households": 204}, "geometry": {"type": "Polygon", "coordinates": [[[73.21784000000001, 20.18597], [73.21838000000001, 20.181520000000003], [73.21425, 20.17163], [73.20573, 20.16418], [73.20123000000001, 20.16532], [73.18986000000001, 20.164270000000002], [73.19006, 20.16711], [73.18264, 20.17454], [73.18126000000001, 20.177190000000003], [73.19160000000001, 20.1782], [73.19326000000001, 20.1792], [73.19493, 20.185560000000002], [73.19980000000001, 20.18756], [73.20348, 20.187230000000003], [73.20686, 20.18814], [73.20844000000001, 20.189500000000002], [73.21310000000001, 20.18776], [73.21784000000001, 20.18597]]]}}, {"id": "67", "type": "Feature", "properties": {"village_name": "Ghodbari", "vil_lgd": 524977, "district_name": "Dadra And Nagar Haveli", "dist_lgd": 465, "subdistrict_name": "Dadra & Nagar Haveli", "sdcode": 3949, "block_name": "Dadra & Nagar Haveli", "block_lgd": 1.0, "gp_name": "DUDHANI", "state_name": "DADRA & NAGAR HAVELLI AND DAMAN & DIU", "state_lgd": 38, "population": 726, "households": 132}, "geometry": {"type": "Polygon", "coordinates": [[[73.1885, 20.15866], [73.18557000000001, 20.15584], [73.18472000000001, 20.14729], [73.17858000000001, 20.153850000000002], [73.17301, 20.16195], [73.1738, 20.170250000000003], [73.17530000000001, 20.173930000000002], [73.17743, 20.175870000000003], [73.18126000000001, 20.177190000000003], [73.18264, 20.17454], [73.19006, 20.16711], [73.18986000000001, 20.164270000000002], [73.1885, 20.15866]]]}}, {"id": "68", "type": "Feature", "properties": {"village_name": "Naroli CT", "vil_lgd": 524998, "district_name": "Dadra And Nagar Haveli", "dist_lgd": 465, "subdistrict_name": "Dadra & Nagar Haveli", "sdcode": 3949, "block_name": "", "block_lgd": null, "gp_name": "", "state_name": "DADRA & NAGAR HAVELLI AND DAMAN & DIU", "state_lgd": 38, "population": 16260, "households": 4047}, "geometry": {"type": "Polygon", "coordinates": [[[72.93439000000001, 20.278930000000003], [72.94257, 20.277240000000003], [72.94827000000001, 20.279200000000003], [72.94894000000001, 20.2817], [72.95168000000001, 20.285400000000003], [72.95485000000001, 20.284390000000002], [72.95515, 20.2831], [72.95597000000001, 20.283140000000003], [72.9556, 20.2802], [72.95805, 20.27756], [72.95880000000001, 20.278070000000003], [72.96194000000001, 20.27389], [72.96034, 20.2726], [72.95863, 20.26895], [72.96034, 20.25815], [72.95825, 20.25869], [72.95531000000001, 20.26047], [72.95017, 20.26021], [72.94808, 20.257350000000002], [72.94304000000001, 20.25352], [72.94247, 20.25102], [72.93848000000001, 20.25084], [72.93568, 20.251530000000002], [72.9274, 20.248900000000003], [72.92384000000001, 20.25543], [72.91879, 20.257080000000002], [72.91770000000001, 20.263060000000003], [72.91625, 20.263820000000003], [72.91191, 20.269640000000003], [72.91179000000001, 20.27149], [72.91214000000001, 20.275550000000003], [72.91438000000001, 20.276000000000003], [72.91459, 20.275280000000002], [72.9166, 20.276220000000002], [72.91738000000001, 20.278080000000003], [72.91691, 20.281350000000003], [72.91994000000001, 20.2817], [72.91993000000001, 20.28327], [72.92663, 20.2861], [72.93439000000001, 20.278930000000003]]]}}, {"id": "69", "type": "Feature", "properties": {"village_name": "Rakholi CT", "vil_lgd": 525001, "district_name": "Dadra And Nagar Haveli", "dist_lgd": 465, "subdistrict_name": "Dadra & Nagar Haveli", "sdcode": 3949, "block_name": "", "block_lgd": null, "gp_name": "", "state_name": "DADRA & NAGAR HAVELLI AND DAMAN & DIU", "state_lgd": 38, "population": 8339, "households": 2295}, "geometry": {"type": "Polygon", "coordinates": [[[73.03305, 20.22697], [73.03656000000001, 20.226170000000003], [73.0378, 20.2251], [73.04191, 20.22455], [73.04159, 20.222140000000003], [73.04046000000001, 20.22058], [73.03565, 20.215950000000003], [73.03499000000001, 20.212660000000003], [73.0322, 20.215110000000003], [73.02834, 20.216450000000002], [73.02782, 20.21734], [73.02768, 20.221100000000003], [73.02483000000001, 20.224220000000003], [73.02002, 20.22727], [73.01821000000001, 20.22973], [73.01887, 20.23035], [73.02744000000001, 20.231080000000002], [73.03305, 20.22697]]]}}, {"id": "70", "type": "Feature", "properties": {"village_name": "Dadra CT", "vil_lgd": 524997, "district_name": "Dadra And Nagar Haveli", "dist_lgd": 465, "subdistrict_name": "Dadra & Nagar Haveli", "sdcode": 3949, "block_name": "", "block_lgd": null, "gp_name": "", "state_name": "DADRA & NAGAR HAVELLI AND DAMAN & DIU", "state_lgd": 38, "population": 13039, "households": 3385}, "geometry": {"type": "Polygon", "coordinates": [[[72.97363, 20.331860000000002], [72.97467, 20.327650000000002], [72.97217, 20.3215], [72.97210000000001, 20.31762], [72.97722, 20.313650000000003], [72.9743, 20.311010000000003], [72.97345, 20.309], [72.97201000000001, 20.31249], [72.96926, 20.314010000000003], [72.96707, 20.31387], [72.96412000000001, 20.31494], [72.95538, 20.313650000000003], [72.95261, 20.31453], [72.96115, 20.32841], [72.96161000000001, 20.33219], [72.96327000000001, 20.33227], [72.97363, 20.331860000000002]]]}}]}