{"type": "FeatureCollection", "metadata": {"source": "Survey of India (per src_agency attribute in the source data)", "hosted_via": "National Water Data Portal (NWDP), NWIC, Ministry of Jal Shakti -- https://nwdp.nwic.gov.in/", "access": "public, no login required", "crs_original": "EPSG:7755 (WGS 84 / India NSF LCC)", "fetch_date": "2026-08-02", "quality": "verified-official -- Survey of India source", "state": "Dadra and Nagar Haveli and Daman and Diu", "district": "Daman", "processing": "reprojected to EPSG:4326, topology-preserving simplify (shared-arc, tolerance 0.0005 deg) so adjacent polygons never overlap/gap at shared borders, coords rounded 5dp, 0 feature(s) needed the per-feature fallback", "feature_count": 25}, "features": [{"id": "0", "type": "Feature", "properties": {"village_name": "Devka", "vil_lgd": 524911, "district_name": "Daman", "dist_lgd": 463, "subdistrict_name": "Daman", "sdcode": 3948, "block_name": "Daman", "block_lgd": 2.0, "gp_name": "MARWAD", "state_name": "DADRA & NAGAR HAVELLI AND DAMAN & DIU", "state_lgd": 38, "population": 3461, "households": 844}, "geometry": {"type": "Polygon", "coordinates": [[[72.85009000000001, 20.45247], [72.848, 20.447090000000003], [72.84254, 20.447840000000003], [72.83287, 20.448990000000002], [72.83934, 20.457990000000002], [72.84388000000001, 20.461080000000003], [72.84549000000001, 20.46141], [72.84786000000001, 20.46055], [72.84913, 20.458250000000003], [72.85009000000001, 20.45247]]]}}, {"id": "1", "type": "Feature", "properties": {"village_name": "Zari", "vil_lgd": 524925, "district_name": "Daman", "dist_lgd": 463, "subdistrict_name": "Daman", "sdcode": 3948, "block_name": "Daman", "block_lgd": 2.0, "gp_name": "MAGARWADA", "state_name": "DADRA & NAGAR HAVELLI AND DAMAN & DIU", "state_lgd": 38, "population": 1163, "households": 238}, "geometry": {"type": "Polygon", "coordinates": [[[72.87591, 20.374560000000002], [72.87983000000001, 20.371100000000002], [72.87668000000001, 20.369760000000003], [72.86566, 20.37228], [72.86428000000001, 20.37515], [72.86117, 20.374740000000003], [72.8596, 20.376130000000003], [72.85972000000001, 20.37769], [72.86062000000001, 20.378890000000002], [72.86438000000001, 20.380370000000003], [72.86868000000001, 20.377540000000003], [72.87239000000001, 20.376160000000002], [72.87591, 20.374560000000002]]]}}, {"id": "2", "type": "Feature", "properties": {"village_name": "Jampore", "vil_lgd": 524920, "district_name": "Daman", "dist_lgd": 463, "subdistrict_name": "Daman", "sdcode": 3948, "block_name": "Daman", "block_lgd": 2.0, "gp_name": "PARIARI", "state_name": "DADRA & NAGAR HAVELLI AND DAMAN & DIU", "state_lgd": 38, "population": 875, "households": 163}, "geometry": {"type": "Polygon", "coordinates": [[[72.83004000000001, 20.386580000000002], [72.82923000000001, 20.385540000000002], [72.82987, 20.38119], [72.82871, 20.38007], [72.82769, 20.377000000000002], [72.82881, 20.37479], [72.83016, 20.37453], [72.83041, 20.373260000000002], [72.83245000000001, 20.371850000000002], [72.8284, 20.368530000000003], [72.82578000000001, 20.36786], [72.82248000000001, 20.36924], [72.82179000000001, 20.37111], [72.82621, 20.38492], [72.82772, 20.38513], [72.82816000000001, 20.38868], [72.8292, 20.38625], [72.83004000000001, 20.386580000000002]]]}}, {"id": "3", "type": "Feature", "properties": {"village_name": "Pariari", "vil_lgd": 524921, "district_name": "Daman", "dist_lgd": 463, "subdistrict_name": "Daman", "sdcode": 3948, "block_name": "Daman", "block_lgd": 2.0, "gp_name": "PARIARI", "state_name": "DADRA & NAGAR HAVELLI AND DAMAN & DIU", "state_lgd": 38, "population": 1891, "households": 381}, "geometry": {"type": "Polygon", "coordinates": [[[72.84014, 20.37611], [72.84125, 20.375], [72.83619, 20.3747], [72.83245000000001, 20.371850000000002], [72.83041, 20.373260000000002], [72.83016, 20.37453], [72.82881, 20.37479], [72.82769, 20.377000000000002], [72.82871, 20.38007], [72.82987, 20.38119], [72.83176, 20.38034], [72.83326000000001, 20.381330000000002], [72.83537000000001, 20.37928], [72.83666000000001, 20.379340000000003], [72.83832000000001, 20.381580000000003], [72.83766, 20.382830000000002], [72.83811, 20.38446], [72.83983, 20.38286], [72.84014, 20.37611]]]}}, {"id": "4", "type": "Feature", "properties": {"village_name": "Thana Pardi", "vil_lgd": 524924, "district_name": "Daman", "dist_lgd": 463, "subdistrict_name": "Daman", "sdcode": 3948, "block_name": "Daman", "block_lgd": 2.0, "gp_name": "MAGARWADA", "state_name": "DADRA & NAGAR HAVELLI AND DAMAN & DIU", "state_lgd": 38, "population": 1091, "households": 228}, "geometry": {"type": "Polygon", "coordinates": [[[72.85616, 20.378130000000002], [72.85972000000001, 20.37769], [72.8596, 20.376130000000003], [72.86117, 20.374740000000003], [72.85814, 20.37403], [72.85643, 20.37256], [72.84846, 20.37553], [72.84821000000001, 20.37763], [72.84970000000001, 20.376920000000002], [72.85247000000001, 20.37912], [72.85209, 20.379990000000003], [72.85272, 20.38061], [72.85497000000001, 20.38072], [72.85578000000001, 20.37929], [72.85616, 20.378130000000002]]]}}, {"id": "5", "type": "Feature", "properties": {"village_name": "Magarwada", "vil_lgd": 524915, "district_name": "Daman", "dist_lgd": 463, "subdistrict_name": "Daman", "sdcode": 3948, "block_name": "Daman", "block_lgd": 2.0, "gp_name": "MAGARWADA", "state_name": "DADRA & NAGAR HAVELLI AND DAMAN & DIU", "state_lgd": 38, "population": 6735, "households": 1398}, "geometry": {"type": "Polygon", "coordinates": [[[72.85494, 20.405790000000003], [72.86012000000001, 20.398490000000002], [72.86345, 20.395370000000003], [72.86402000000001, 20.39082], [72.86307000000001, 20.38204], [72.86438000000001, 20.380370000000003], [72.86062000000001, 20.378890000000002], [72.85972000000001, 20.37769], [72.85616, 20.378130000000002], [72.85578000000001, 20.37929], [72.85497000000001, 20.38072], [72.85272, 20.38061], [72.85209, 20.379990000000003], [72.85247000000001, 20.37912], [72.84970000000001, 20.376920000000002], [72.84821000000001, 20.37763], [72.84719000000001, 20.38407], [72.84593000000001, 20.387420000000002], [72.84573, 20.388800000000003], [72.84446000000001, 20.389380000000003], [72.84089, 20.39194], [72.84056000000001, 20.393230000000003], [72.83814000000001, 20.3948], [72.83762, 20.39824], [72.83835, 20.398480000000003], [72.83846000000001, 20.40051], [72.83704, 20.404490000000003], [72.83986, 20.409850000000002], [72.84163000000001, 20.410870000000003], [72.84382000000001, 20.41052], [72.85494, 20.405790000000003]]]}}, {"id": "6", "type": "Feature", "properties": {"village_name": "Ringanwada", "vil_lgd": 524914, "district_name": "Daman", "dist_lgd": 463, "subdistrict_name": "Daman", "sdcode": 3948, "block_name": "Daman", "block_lgd": 2.0, "gp_name": "DABHEL", "state_name": "DADRA & NAGAR HAVELLI AND DAMAN & DIU", "state_lgd": 38, "population": 4953, "households": 1449}, "geometry": {"type": "Polygon", "coordinates": [[[72.87446, 20.40726], [72.87606000000001, 20.40426], [72.87719000000001, 20.40361], [72.87826000000001, 20.397930000000002], [72.87318, 20.3978], [72.87192, 20.40051], [72.86738000000001, 20.40324], [72.86662000000001, 20.40556], [72.86686, 20.41028], [72.86992000000001, 20.41419], [72.87207000000001, 20.413960000000003], [72.87485000000001, 20.415830000000003], [72.87597000000001, 20.414250000000003], [72.87446, 20.40726]]]}}, {"id": "7", "type": "Feature", "properties": {"village_name": "Varkund", "vil_lgd": 524913, "district_name": "Daman", "dist_lgd": 463, "subdistrict_name": "Daman", "sdcode": 3948, "block_name": "Daman", "block_lgd": 2.0, "gp_name": "VARKUND", "state_name": "DADRA & NAGAR HAVELLI AND DAMAN & DIU", "state_lgd": 38, "population": 5355, "households": 1266}, "geometry": {"type": "Polygon", "coordinates": [[[72.86491000000001, 20.4173], [72.86853, 20.41634], [72.86992000000001, 20.41419], [72.86686, 20.41028], [72.86662000000001, 20.40556], [72.86738000000001, 20.40324], [72.87192, 20.40051], [72.87100000000001, 20.4003], [72.86824, 20.400740000000003], [72.86472, 20.397270000000002], [72.85925, 20.402220000000003], [72.85826, 20.40529], [72.8546, 20.410770000000003], [72.85445, 20.412480000000002], [72.8554, 20.41759], [72.85764, 20.418550000000003], [72.86265, 20.416770000000003], [72.86491000000001, 20.4173]]]}}, {"id": "8", "type": "Feature", "properties": {"village_name": "River Kolak", "vil_lgd": 999999, "district_name": "Daman", "dist_lgd": 463, "subdistrict_name": "Daman", "sdcode": 3948, "block_name": "", "block_lgd": null, "gp_name": "", "state_name": "DADRA & NAGAR HAVELLI AND DAMAN & DIU", "state_lgd": 38, "population": 0, "households": 0}, "geometry": {"type": "Polygon", "coordinates": [[[72.86291, 20.46387], [72.87048, 20.46348], [72.87954, 20.46178], [72.87628000000001, 20.461160000000003], [72.87162000000001, 20.46263], [72.86729000000001, 20.462490000000003], [72.86097000000001, 20.46347], [72.8592, 20.4631], [72.85375, 20.462490000000003], [72.85227, 20.461560000000002], [72.85061, 20.45889], [72.85189000000001, 20.45737], [72.84913, 20.458250000000003], [72.84786000000001, 20.46055], [72.84549000000001, 20.46141], [72.84388000000001, 20.461080000000003], [72.84855, 20.463500000000003], [72.85629, 20.47053], [72.85812, 20.46565], [72.86291, 20.46387]]]}}, {"id": "9", "type": "Feature", "properties": {"village_name": "Janivankad", "vil_lgd": 524912, "district_name": "Daman", "dist_lgd": 463, "subdistrict_name": "Daman", "sdcode": 3948, "block_name": "Daman", "block_lgd": 2.0, "gp_name": "BHIMPORE", "state_name": "DADRA & NAGAR HAVELLI AND DAMAN & DIU", "state_lgd": 38, "population": 2063, "households": 467}, "geometry": {"type": "Polygon", "coordinates": [[[72.88872, 20.449450000000002], [72.89533, 20.444300000000002], [72.89145, 20.440900000000003], [72.89017000000001, 20.438650000000003], [72.887, 20.4383], [72.88209, 20.44001], [72.87891, 20.441650000000003], [72.87631, 20.445020000000003], [72.88040000000001, 20.455550000000002], [72.87855, 20.459190000000003], [72.87954, 20.46178], [72.8853, 20.46262], [72.8876, 20.461250000000003], [72.888, 20.45932], [72.88714, 20.45492], [72.88785, 20.45101], [72.88872, 20.449450000000002]]]}}, {"id": "10", "type": "Feature", "properties": {"village_name": "Daman", "vil_lgd": 251272, "district_name": "Daman", "dist_lgd": 463, "subdistrict_name": "Daman", "sdcode": 3948, "block_name": "", "block_lgd": 0.0, "gp_name": "", "state_name": "DADRA & NAGAR HAVELLI AND DAMAN & DIU", "state_lgd": 38, "population": 44282, "households": 10222}, "geometry": {"type": "MultiPolygon", "coordinates": [[[[72.84756, 20.437160000000002], [72.84612, 20.43457], [72.84535000000001, 20.43044], [72.84872, 20.428240000000002], [72.84421, 20.42312], [72.85106, 20.424190000000003], [72.85148000000001, 20.419520000000002], [72.84606000000001, 20.415370000000003], [72.84385, 20.412300000000002], [72.83661000000001, 20.413420000000002], [72.83114, 20.412770000000002], [72.83014, 20.41337], [72.82941000000001, 20.41738], [72.82834000000001, 20.416600000000003], [72.82729, 20.42838], [72.8272, 20.43383], [72.82799, 20.43608], [72.83229, 20.435160000000003], [72.83467, 20.438270000000003], [72.84192, 20.43794], [72.84578, 20.438940000000002], [72.84655000000001, 20.438270000000003], [72.84756, 20.437160000000002]]], [[[72.83986, 20.409850000000002], [72.83704, 20.404490000000003], [72.83846000000001, 20.40051], [72.83835, 20.398480000000003], [72.83762, 20.39824], [72.83668, 20.398840000000003], [72.83618000000001, 20.400850000000002], [72.83547, 20.39995], [72.83572000000001, 20.395300000000002], [72.83115000000001, 20.3946], [72.82908, 20.395190000000003], [72.82851000000001, 20.404500000000002], [72.82951, 20.408240000000003], [72.83227000000001, 20.410780000000003], [72.83940000000001, 20.411360000000002], [72.83986, 20.409850000000002]]]]}}, {"id": "11", "type": "Feature", "properties": {"village_name": "Damanwada Dama O De Cima", "vil_lgd": 524916, "district_name": "Daman", "dist_lgd": 463, "subdistrict_name": "Daman", "sdcode": 3948, "block_name": "Daman", "block_lgd": 2.0, "gp_name": "DAMANWADA", "state_name": "DADRA & NAGAR HAVELLI AND DAMAN & DIU", "state_lgd": 38, "population": 1176, "households": 216}, "geometry": {"type": "Polygon", "coordinates": [[[72.83814000000001, 20.3948], [72.84056000000001, 20.393230000000003], [72.84089, 20.39194], [72.83898, 20.389200000000002], [72.83500000000001, 20.38897], [72.83056, 20.39095], [72.82844, 20.390900000000002], [72.82908, 20.395190000000003], [72.83115000000001, 20.3946], [72.83572000000001, 20.395300000000002], [72.83547, 20.39995], [72.83618000000001, 20.400850000000002], [72.83668, 20.398840000000003], [72.83762, 20.39824], [72.83814000000001, 20.3948]]]}}, {"id": "12", "type": "Feature", "properties": {"village_name": "Palhit", "vil_lgd": 524917, "district_name": "Daman", "dist_lgd": 463, "subdistrict_name": "Daman", "sdcode": 3948, "block_name": "Daman", "block_lgd": 2.0, "gp_name": "DAMANWADA", "state_name": "DADRA & NAGAR HAVELLI AND DAMAN & DIU", "state_lgd": 38, "population": 345, "households": 75}, "geometry": {"type": "Polygon", "coordinates": [[[72.84573, 20.388800000000003], [72.84593000000001, 20.387420000000002], [72.84121, 20.38782], [72.84056000000001, 20.38903], [72.83900000000001, 20.388830000000002], [72.83715000000001, 20.385610000000003], [72.83250000000001, 20.387410000000003], [72.83431, 20.38785], [72.83500000000001, 20.38897], [72.83898, 20.389200000000002], [72.84089, 20.39194], [72.84446000000001, 20.389380000000003], [72.84573, 20.388800000000003]]]}}, {"id": "13", "type": "Feature", "properties": {"village_name": "Dholar", "vil_lgd": 524919, "district_name": "Daman", "dist_lgd": 463, "subdistrict_name": "Daman", "sdcode": 3948, "block_name": "Daman", "block_lgd": 2.0, "gp_name": "DAMANWADA", "state_name": "DADRA & NAGAR HAVELLI AND DAMAN & DIU", "state_lgd": 38, "population": 1184, "households": 266}, "geometry": {"type": "Polygon", "coordinates": [[[72.83431, 20.38785], [72.83250000000001, 20.387410000000003], [72.83715000000001, 20.385610000000003], [72.83811, 20.38446], [72.83766, 20.382830000000002], [72.83832000000001, 20.381580000000003], [72.83666000000001, 20.379340000000003], [72.83537000000001, 20.37928], [72.83326000000001, 20.381330000000002], [72.83176, 20.38034], [72.82987, 20.38119], [72.82923000000001, 20.385540000000002], [72.83004000000001, 20.386580000000002], [72.8292, 20.38625], [72.82816000000001, 20.38868], [72.82844, 20.390900000000002], [72.83056, 20.39095], [72.83500000000001, 20.38897], [72.83431, 20.38785]]]}}, {"id": "14", "type": "Feature", "properties": {"village_name": "Bhamati", "vil_lgd": 524918, "district_name": "Daman", "dist_lgd": 463, "subdistrict_name": "Daman", "sdcode": 3948, "block_name": "Daman", "block_lgd": 2.0, "gp_name": "DAMANWADA", "state_name": "DADRA & NAGAR HAVELLI AND DAMAN & DIU", "state_lgd": 38, "population": 939, "households": 193}, "geometry": {"type": "Polygon", "coordinates": [[[72.84593000000001, 20.387420000000002], [72.84719000000001, 20.38407], [72.84549000000001, 20.38399], [72.84532, 20.3824], [72.84336, 20.381980000000002], [72.8429, 20.379910000000002], [72.84229, 20.378680000000003], [72.84141000000001, 20.37922], [72.84115, 20.382430000000003], [72.83983, 20.38286], [72.83811, 20.38446], [72.83715000000001, 20.385610000000003], [72.83900000000001, 20.388830000000002], [72.84056000000001, 20.38903], [72.84121, 20.38782], [72.84593000000001, 20.387420000000002]]]}}, {"id": "15", "type": "Feature", "properties": {"village_name": "Deva Pardi", "vil_lgd": 524922, "district_name": "Daman", "dist_lgd": 463, "subdistrict_name": "Daman", "sdcode": 3948, "block_name": "Daman", "block_lgd": 2.0, "gp_name": "PARIARI", "state_name": "DADRA & NAGAR HAVELLI AND DAMAN & DIU", "state_lgd": 38, "population": 255, "households": 52}, "geometry": {"type": "Polygon", "coordinates": [[[72.8429, 20.379910000000002], [72.84442, 20.379070000000002], [72.84473000000001, 20.37611], [72.84125, 20.375], [72.84014, 20.37611], [72.83983, 20.38286], [72.84115, 20.382430000000003], [72.84141000000001, 20.37922], [72.84229, 20.378680000000003], [72.8429, 20.379910000000002]]]}}, {"id": "16", "type": "Feature", "properties": {"village_name": "Naila Pardi", "vil_lgd": 524923, "district_name": "Daman", "dist_lgd": 463, "subdistrict_name": "Daman", "sdcode": 3948, "block_name": "Daman", "block_lgd": 2.0, "gp_name": "PARIARI", "state_name": "DADRA & NAGAR HAVELLI AND DAMAN & DIU", "state_lgd": 38, "population": 827, "households": 177}, "geometry": {"type": "Polygon", "coordinates": [[[72.84821000000001, 20.37763], [72.84846, 20.37553], [72.84473000000001, 20.37611], [72.84442, 20.379070000000002], [72.8429, 20.379910000000002], [72.84336, 20.381980000000002], [72.84532, 20.3824], [72.84549000000001, 20.38399], [72.84719000000001, 20.38407], [72.84821000000001, 20.37763]]]}}, {"id": "17", "type": "Feature", "properties": {"village_name": "River Kalai", "vil_lgd": 999999, "district_name": "Daman", "dist_lgd": 463, "subdistrict_name": "Daman", "sdcode": 3948, "block_name": "", "block_lgd": null, "gp_name": "", "state_name": "DADRA & NAGAR HAVELLI AND DAMAN & DIU", "state_lgd": 38, "population": 0, "households": 0}, "geometry": {"type": "Polygon", "coordinates": [[[72.8284, 20.368530000000003], [72.83245000000001, 20.371850000000002], [72.83619, 20.3747], [72.84125, 20.375], [72.84473000000001, 20.37611], [72.84846, 20.37553], [72.85643, 20.37256], [72.85539, 20.372200000000003], [72.84424, 20.374930000000003], [72.84087000000001, 20.373450000000002], [72.83595000000001, 20.37331], [72.83040000000001, 20.36793], [72.82762000000001, 20.366600000000002], [72.82617, 20.366410000000002], [72.82062, 20.368340000000003], [72.82133, 20.37431], [72.82485000000001, 20.38473], [72.82621, 20.38492], [72.82179000000001, 20.37111], [72.82248000000001, 20.36924], [72.82578000000001, 20.36786], [72.8284, 20.368530000000003]]]}}, {"id": "18", "type": "Feature", "properties": {"village_name": "Dabhel CT", "vil_lgd": 524930, "district_name": "Daman", "dist_lgd": 463, "subdistrict_name": "Daman", "sdcode": 3948, "block_name": "", "block_lgd": null, "gp_name": "", "state_name": "DADRA & NAGAR HAVELLI AND DAMAN & DIU", "state_lgd": 38, "population": 52578, "households": 15129}, "geometry": {"type": "Polygon", "coordinates": [[[72.8979, 20.4206], [72.90042000000001, 20.416860000000003], [72.90405000000001, 20.414900000000003], [72.90177, 20.410130000000002], [72.90326, 20.409860000000002], [72.9026, 20.405790000000003], [72.90042000000001, 20.405250000000002], [72.89794, 20.402340000000002], [72.89483, 20.40152], [72.89196000000001, 20.399220000000003], [72.89008000000001, 20.39898], [72.88771000000001, 20.40002], [72.88520000000001, 20.397940000000002], [72.88281, 20.39789], [72.88316, 20.394170000000003], [72.87981, 20.395180000000003], [72.87826000000001, 20.397930000000002], [72.87719000000001, 20.40361], [72.87606000000001, 20.40426], [72.87446, 20.40726], [72.87597000000001, 20.414250000000003], [72.87485000000001, 20.415830000000003], [72.87533, 20.41681], [72.88008, 20.416970000000003], [72.88157000000001, 20.419420000000002], [72.88273000000001, 20.41984], [72.8892, 20.419030000000003], [72.89111000000001, 20.419600000000003], [72.89172, 20.42136], [72.8947, 20.421200000000002], [72.8979, 20.4206]]]}}, {"id": "19", "type": "Feature", "properties": {"village_name": "Kachigam CT", "vil_lgd": 524931, "district_name": "Daman", "dist_lgd": 463, "subdistrict_name": "Daman", "sdcode": 3948, "block_name": "", "block_lgd": null, "gp_name": "", "state_name": "DADRA & NAGAR HAVELLI AND DAMAN & DIU", "state_lgd": 38, "population": 18434, "households": 5369}, "geometry": {"type": "Polygon", "coordinates": [[[72.87192, 20.40051], [72.87318, 20.3978], [72.87826000000001, 20.397930000000002], [72.87981, 20.395180000000003], [72.88316, 20.394170000000003], [72.88376000000001, 20.39095], [72.88705, 20.388250000000003], [72.88690000000001, 20.385450000000002], [72.89655, 20.380020000000002], [72.89548, 20.378120000000003], [72.89150000000001, 20.37564], [72.89068, 20.37264], [72.88207000000001, 20.372010000000003], [72.8789, 20.37637], [72.86886000000001, 20.37921], [72.86532000000001, 20.382150000000003], [72.86441, 20.383860000000002], [72.86589000000001, 20.39471], [72.86472, 20.397270000000002], [72.86824, 20.400740000000003], [72.87100000000001, 20.4003], [72.87192, 20.40051]]]}}, {"id": "20", "type": "Feature", "properties": {"village_name": "Dunetha CT", "vil_lgd": 524929, "district_name": "Daman", "dist_lgd": 463, "subdistrict_name": "Daman", "sdcode": 3948, "block_name": "", "block_lgd": null, "gp_name": "", "state_name": "DADRA & NAGAR HAVELLI AND DAMAN & DIU", "state_lgd": 38, "population": 12470, "households": 3189}, "geometry": {"type": "Polygon", "coordinates": [[[72.86935000000001, 20.43853], [72.86832000000001, 20.43447], [72.86501000000001, 20.42902], [72.86109, 20.427590000000002], [72.86027, 20.424970000000002], [72.85842000000001, 20.42319], [72.85742, 20.42095], [72.85764, 20.418550000000003], [72.8554, 20.41759], [72.85445, 20.412480000000002], [72.8538, 20.41243], [72.8533, 20.410290000000003], [72.85255000000001, 20.410230000000002], [72.84385, 20.412300000000002], [72.84606000000001, 20.415370000000003], [72.85148000000001, 20.419520000000002], [72.85106, 20.424190000000003], [72.84421, 20.42312], [72.84872, 20.428240000000002], [72.84535000000001, 20.43044], [72.84612, 20.43457], [72.85084, 20.434720000000002], [72.85444000000001, 20.43599], [72.85526, 20.43692], [72.85494, 20.43916], [72.85801000000001, 20.438840000000003], [72.86510000000001, 20.441670000000002], [72.86714, 20.4402], [72.86935000000001, 20.43853]]]}}, {"id": "21", "type": "Feature", "properties": {"village_name": "Bhimpore CT", "vil_lgd": 524928, "district_name": "Daman", "dist_lgd": 463, "subdistrict_name": "Daman", "sdcode": 3948, "block_name": "", "block_lgd": null, "gp_name": "", "state_name": "DADRA & NAGAR HAVELLI AND DAMAN & DIU", "state_lgd": 38, "population": 10936, "households": 3230}, "geometry": {"type": "Polygon", "coordinates": [[[72.87162000000001, 20.46263], [72.87628000000001, 20.461160000000003], [72.87954, 20.46178], [72.87855, 20.459190000000003], [72.88040000000001, 20.455550000000002], [72.87631, 20.445020000000003], [72.87492, 20.44553], [72.86935000000001, 20.43853], [72.86714, 20.4402], [72.86510000000001, 20.441670000000002], [72.86498, 20.44396], [72.86106000000001, 20.44995], [72.85928000000001, 20.45073], [72.85761000000001, 20.454680000000003], [72.8592, 20.4631], [72.86097000000001, 20.46347], [72.86729000000001, 20.462490000000003], [72.87162000000001, 20.46263]]]}}, {"id": "22", "type": "Feature", "properties": {"village_name": "Kadaiya CT", "vil_lgd": 524927, "district_name": "Daman", "dist_lgd": 463, "subdistrict_name": "Daman", "sdcode": 3948, "block_name": "", "block_lgd": null, "gp_name": "", "state_name": "DADRA & NAGAR HAVELLI AND DAMAN & DIU", "state_lgd": 38, "population": 12717, "households": 3785}, "geometry": {"type": "Polygon", "coordinates": [[[72.85801000000001, 20.438840000000003], [72.85494, 20.43916], [72.85340000000001, 20.442860000000003], [72.848, 20.447090000000003], [72.85009000000001, 20.45247], [72.84913, 20.458250000000003], [72.85189000000001, 20.45737], [72.85061, 20.45889], [72.85227, 20.461560000000002], [72.85375, 20.462490000000003], [72.8592, 20.4631], [72.85761000000001, 20.454680000000003], [72.85928000000001, 20.45073], [72.86106000000001, 20.44995], [72.86498, 20.44396], [72.86510000000001, 20.441670000000002], [72.85801000000001, 20.438840000000003]]]}}, {"id": "23", "type": "Feature", "properties": {"village_name": "Marwad CT", "vil_lgd": 524926, "district_name": "Daman", "dist_lgd": 463, "subdistrict_name": "Daman", "sdcode": 3948, "block_name": "", "block_lgd": null, "gp_name": "", "state_name": "DADRA & NAGAR HAVELLI AND DAMAN & DIU", "state_lgd": 38, "population": 7443, "households": 2039}, "geometry": {"type": "Polygon", "coordinates": [[[72.848, 20.447090000000003], [72.85340000000001, 20.442860000000003], [72.85494, 20.43916], [72.85526, 20.43692], [72.85444000000001, 20.43599], [72.85084, 20.434720000000002], [72.84612, 20.43457], [72.84756, 20.437160000000002], [72.84655000000001, 20.438270000000003], [72.84578, 20.438940000000002], [72.84192, 20.43794], [72.83467, 20.438270000000003], [72.83229, 20.435160000000003], [72.82799, 20.43608], [72.83287, 20.448990000000002], [72.84254, 20.447840000000003], [72.848, 20.447090000000003]]]}}, {"id": "24", "type": "Feature", "properties": {"village_name": "River Daman Ganga", "vil_lgd": 999999, "district_name": "Daman", "dist_lgd": 463, "subdistrict_name": "Daman", "sdcode": 3948, "block_name": "", "block_lgd": null, "gp_name": "", "state_name": "DADRA & NAGAR HAVELLI AND DAMAN & DIU", "state_lgd": 38, "population": 0, "households": 0}, "geometry": {"type": "Polygon", "coordinates": [[[72.83114, 20.412770000000002], [72.83661000000001, 20.413420000000002], [72.84385, 20.412300000000002], [72.85255000000001, 20.410230000000002], [72.8533, 20.410290000000003], [72.8538, 20.41243], [72.85445, 20.412480000000002], [72.8546, 20.410770000000003], [72.85826, 20.40529], [72.85925, 20.402220000000003], [72.86472, 20.397270000000002], [72.86589000000001, 20.39471], [72.86441, 20.383860000000002], [72.86532000000001, 20.382150000000003], [72.86886000000001, 20.37921], [72.8789, 20.37637], [72.88207000000001, 20.372010000000003], [72.87983000000001, 20.371100000000002], [72.87591, 20.374560000000002], [72.87239000000001, 20.376160000000002], [72.86868000000001, 20.377540000000003], [72.86438000000001, 20.380370000000003], [72.86307000000001, 20.38204], [72.86402000000001, 20.39082], [72.86345, 20.395370000000003], [72.86012000000001, 20.398490000000002], [72.85494, 20.405790000000003], [72.84382000000001, 20.41052], [72.84163000000001, 20.410870000000003], [72.83986, 20.409850000000002], [72.83940000000001, 20.411360000000002], [72.83227000000001, 20.410780000000003], [72.82951, 20.408240000000003], [72.82851000000001, 20.404500000000002], [72.82908, 20.395190000000003], [72.82844, 20.390900000000002], [72.82816000000001, 20.38868], [72.82772, 20.38513], [72.82621, 20.38492], [72.82485000000001, 20.38473], [72.8258, 20.38719], [72.82678, 20.39581], [72.82597000000001, 20.40688], [72.82845, 20.4146], [72.82834000000001, 20.416600000000003], [72.82941000000001, 20.41738], [72.83014, 20.41337], [72.83114, 20.412770000000002]]]}}]}