{"type": "FeatureCollection", "metadata": {"source": "Survey of India (per src_agency attribute in the source data)", "hosted_via": "National Water Data Portal (NWDP), NWIC, Ministry of Jal Shakti -- https://nwdp.nwic.gov.in/", "access": "public, no login required", "crs_original": "EPSG:7755 (WGS 84 / India NSF LCC)", "fetch_date": "2026-08-02", "quality": "verified-official -- Survey of India source", "state": "Dadra and Nagar Haveli and Daman and Diu", "district": "Diu", "processing": "reprojected to EPSG:4326, topology-preserving simplify (shared-arc, tolerance 0.0005 deg) so adjacent polygons never overlap/gap at shared borders, coords rounded 5dp, 0 feature(s) needed the per-feature fallback", "feature_count": 5}, "features": [{"id": "0", "type": "Feature", "properties": {"village_name": "Zolawadi", "vil_lgd": 524908, "district_name": "Diu", "dist_lgd": 464, "subdistrict_name": "Diu", "sdcode": 3947, "block_name": "Diu", "block_lgd": 1, "gp_name": "ZOLAWADI", "state_name": "DADRA & NAGAR HAVELLI AND DAMAN & DIU", "state_lgd": 38, "population": 4427, "households": 1044}, "geometry": {"type": "Polygon", "coordinates": [[[70.95861000000001, 20.719700000000003], [70.95709000000001, 20.71374], [70.95795000000001, 20.712410000000002], [70.95700000000001, 20.70841], [70.9574, 20.70577], [70.95332, 20.703940000000003], [70.94873000000001, 20.705820000000003], [70.94809000000001, 20.704900000000002], [70.94615, 20.70595], [70.94433000000001, 20.705260000000003], [70.94228000000001, 20.706950000000003], [70.93821000000001, 20.70795], [70.93733, 20.709880000000002], [70.93148000000001, 20.711280000000002], [70.9272, 20.71139], [70.92030000000001, 20.709950000000003], [70.91659, 20.70738], [70.91546000000001, 20.704530000000002], [70.91730000000001, 20.70157], [70.91332, 20.69951], [70.91137, 20.700000000000003], [70.91183000000001, 20.70139], [70.91053000000001, 20.702260000000003], [70.90955000000001, 20.70191], [70.91021, 20.701330000000002], [70.90975, 20.700830000000003], [70.90664000000001, 20.70088], [70.89989, 20.699270000000002], [70.89753, 20.69957], [70.89701000000001, 20.70041], [70.89858000000001, 20.70248], [70.89800000000001, 20.704060000000002], [70.8957, 20.70605], [70.89862000000001, 20.709650000000003], [70.90537, 20.71374], [70.92229, 20.71739], [70.92296, 20.72361], [70.92562000000001, 20.72406], [70.92885000000001, 20.72344], [70.93056, 20.729390000000002], [70.92991, 20.733790000000003], [70.93169, 20.736900000000002], [70.93773, 20.732740000000003], [70.93950000000001, 20.732400000000002], [70.94695, 20.7346], [70.95414000000001, 20.734920000000002], [70.96041000000001, 20.736720000000002], [70.9633, 20.73357], [70.96381000000001, 20.73038], [70.95861000000001, 20.719700000000003]]]}}, {"id": "1", "type": "Feature", "properties": {"village_name": "Diu", "vil_lgd": 251271, "district_name": "Diu", "dist_lgd": 464, "subdistrict_name": "Diu", "sdcode": 3947, "block_name": "", "block_lgd": 0, "gp_name": "", "state_name": "DADRA & NAGAR HAVELLI AND DAMAN & DIU", "state_lgd": 38, "population": 23991, "households": 5249}, "geometry": {"type": "MultiPolygon", "coordinates": [[[[71.00212, 20.741760000000003], [71.00667, 20.737710000000003], [71.01311000000001, 20.739900000000002], [71.01345, 20.73789], [71.00837, 20.73701], [70.99847000000001, 20.733210000000003], [70.99274000000001, 20.728520000000003], [70.98998, 20.723380000000002], [70.99048, 20.720630000000003], [70.99309000000001, 20.71647], [70.99823, 20.716340000000002], [70.99602, 20.71226], [70.99305000000001, 20.71018], [70.9876, 20.70926], [70.98194000000001, 20.707060000000002], [70.97922000000001, 20.705540000000003], [70.97714, 20.701900000000002], [70.97563000000001, 20.702250000000003], [70.97582, 20.704020000000003], [70.97407000000001, 20.70417], [70.97355, 20.70305], [70.97304000000001, 20.70514], [70.97083, 20.7043], [70.97, 20.705060000000003], [70.97043000000001, 20.706760000000003], [70.96937000000001, 20.707430000000002], [70.96604, 20.707240000000002], [70.96332000000001, 20.705840000000002], [70.96167000000001, 20.706210000000002], [70.96100000000001, 20.70728], [70.95968, 20.707140000000003], [70.9574, 20.70577], [70.95700000000001, 20.70841], [70.95795000000001, 20.712410000000002], [70.95709000000001, 20.71374], [70.95861000000001, 20.719700000000003], [70.96381000000001, 20.73038], [70.96514, 20.729300000000002], [70.96887000000001, 20.729190000000003], [70.97483000000001, 20.72753], [70.98114000000001, 20.72269], [70.98448, 20.73225], [70.98870000000001, 20.733420000000002], [70.99051, 20.73541], [70.99307, 20.735780000000002], [70.99561, 20.73874], [70.9992, 20.740470000000002], [70.99938, 20.741840000000003], [71.00052000000001, 20.741690000000002], [71.00212, 20.741760000000003]]], [[[71.15338000000001, 20.76143], [71.15507000000001, 20.76116], [71.15524, 20.75991], [71.14991, 20.759430000000002], [71.15144000000001, 20.761840000000003], [71.15017, 20.762300000000003], [71.15159, 20.763930000000002], [71.15208000000001, 20.762870000000003], [71.15338000000001, 20.76143]]], [[[71.14961000000001, 20.761830000000003], [71.14858000000001, 20.760610000000003], [71.14826000000001, 20.75796], [71.14603000000001, 20.75796], [71.14562000000001, 20.76066], [71.14637, 20.763440000000003], [71.14779, 20.767180000000003], [71.14882, 20.767180000000003], [71.14973, 20.771430000000002], [71.14961000000001, 20.761830000000003]]]]}}, {"id": "2", "type": "Feature", "properties": {"village_name": "Vanakbara", "vil_lgd": 524907, "district_name": "Diu", "dist_lgd": 464, "subdistrict_name": "Diu", "sdcode": 3947, "block_name": "Diu", "block_lgd": 1, "gp_name": "VANAKBARA", "state_name": "DADRA & NAGAR HAVELLI AND DAMAN & DIU", "state_lgd": 38, "population": 9696, "households": 1642}, "geometry": {"type": "Polygon", "coordinates": [[[70.89178000000001, 20.72379], [70.89026000000001, 20.71899], [70.88455, 20.71837], [70.88398000000001, 20.71525], [70.88274000000001, 20.714630000000003], [70.87509, 20.71402], [70.87286, 20.714840000000002], [70.87305, 20.717460000000003], [70.87522, 20.720650000000003], [70.87597000000001, 20.72575], [70.87807000000001, 20.728540000000002], [70.88405, 20.731440000000003], [70.89066000000001, 20.73206], [70.89178000000001, 20.72379]]]}}, {"id": "3", "type": "Feature", "properties": {"village_name": "Saudwadi", "vil_lgd": 524910, "district_name": "Diu", "dist_lgd": 464, "subdistrict_name": "Diu", "sdcode": 3947, "block_name": "Diu", "block_lgd": 1, "gp_name": "SAUDWADI", "state_name": "DADRA & NAGAR HAVELLI AND DAMAN & DIU", "state_lgd": 38, "population": 7772, "households": 1340}, "geometry": {"type": "Polygon", "coordinates": [[[70.90632000000001, 20.72406], [70.90765, 20.724770000000003], [70.91089000000001, 20.724680000000003], [70.91003, 20.72015], [70.89853000000001, 20.710720000000002], [70.8957, 20.70605], [70.88871, 20.7081], [70.87825000000001, 20.708630000000003], [70.87486000000001, 20.707520000000002], [70.87392000000001, 20.70561], [70.87171000000001, 20.706780000000002], [70.8708, 20.708660000000002], [70.87209, 20.710630000000002], [70.87286, 20.714840000000002], [70.87509, 20.71402], [70.88274000000001, 20.714630000000003], [70.88398000000001, 20.71525], [70.88455, 20.71837], [70.89026000000001, 20.71899], [70.89178000000001, 20.72379], [70.89066000000001, 20.73206], [70.89736, 20.73336], [70.90542, 20.73657], [70.90594, 20.72895], [70.90452, 20.726550000000003], [70.90480000000001, 20.72575], [70.90632000000001, 20.72406]]]}}, {"id": "4", "type": "Feature", "properties": {"village_name": "Bhucharvada", "vil_lgd": 524909, "district_name": "Diu", "dist_lgd": 464, "subdistrict_name": "Diu", "sdcode": 3947, "block_name": "Diu", "block_lgd": 1, "gp_name": "BHUCHARWADA", "state_name": "DADRA & NAGAR HAVELLI AND DAMAN & DIU", "state_lgd": 38, "population": 6188, "households": 1305}, "geometry": {"type": "Polygon", "coordinates": [[[70.92991, 20.733790000000003], [70.93056, 20.729390000000002], [70.92885000000001, 20.72344], [70.92562000000001, 20.72406], [70.92296, 20.72361], [70.92229, 20.71739], [70.90537, 20.71374], [70.89862000000001, 20.709650000000003], [70.8957, 20.70605], [70.89853000000001, 20.710720000000002], [70.91003, 20.72015], [70.91089000000001, 20.724680000000003], [70.90765, 20.724770000000003], [70.90632000000001, 20.72406], [70.90480000000001, 20.72575], [70.90452, 20.726550000000003], [70.90594, 20.72895], [70.90542, 20.73657], [70.91113, 20.73721], [70.91586000000001, 20.742030000000003], [70.91994000000001, 20.74313], [70.92429, 20.740660000000002], [70.92502, 20.738490000000002], [70.92660000000001, 20.737060000000003], [70.93169, 20.736900000000002], [70.92991, 20.733790000000003]]]}}]}