{"type": "FeatureCollection", "metadata": {"source": "Survey of India (per src_agency attribute in the source data)", "hosted_via": "National Water Data Portal (NWDP), NWIC, Ministry of Jal Shakti -- https://nwdp.nwic.gov.in/", "access": "public, no login required", "crs_original": "EPSG:7755 (WGS 84 / India NSF LCC)", "fetch_date": "2026-08-02", "quality": "verified-official -- Survey of India source", "state": "Maharashtra", "district": "Mumbai", "processing": "reprojected to EPSG:4326, topology-preserving simplify (shared-arc, tolerance 0.0005 deg) so adjacent polygons never overlap/gap at shared borders, coords rounded 5dp, 0 feature(s) needed the per-feature fallback", "feature_count": 1}, "features": [{"id": "6682", "type": "Feature", "properties": {"village_name": "Greater Mumbai", "vil_lgd": 251488, "district_name": "Mumbai", "dist_lgd": 482, "subdistrict_name": "Mumbai", "sdcode": 999, "block_name": "", "block_lgd": 0, "gp_name": "", "state_name": "MAHARASHTRA", "state_lgd": 27, "population": 3085411, "households": 674339}, "geometry": {"type": "Polygon", "coordinates": [[[72.87501, 19.050140000000003], [72.87974000000001, 19.046780000000002], [72.88148000000001, 19.03648], [72.87739, 19.02483], [72.87962, 19.01969], [72.88128, 19.01783], [72.88507, 19.015810000000002], [72.88541000000001, 19.011020000000002], [72.88441, 19.00841], [72.88123, 19.01159], [72.87464, 19.011490000000002], [72.86911, 19.007360000000002], [72.86277000000001, 19.00399], [72.86114, 18.99859], [72.86272000000001, 18.99341], [72.85801000000001, 18.99114], [72.8619, 18.98148], [72.85736, 18.977320000000002], [72.85650000000001, 18.97349], [72.85526, 18.973570000000002], [72.85437, 18.97163], [72.85092, 18.971680000000003], [72.85152000000001, 18.96894], [72.85294, 18.96835], [72.85363000000001, 18.96685], [72.85333, 18.965230000000002], [72.85078, 18.965700000000002], [72.84898000000001, 18.959190000000003], [72.8491, 18.958250000000003], [72.85119, 18.957910000000002], [72.848, 18.95447], [72.84370000000001, 18.933110000000003], [72.84484, 18.92463], [72.84233, 18.92145], [72.8395, 18.91985], [72.83460000000001, 18.92122], [72.83126, 18.916240000000002], [72.83118, 18.91347], [72.82572, 18.90678], [72.82278000000001, 18.90868], [72.82149000000001, 18.908330000000003], [72.81924000000001, 18.90603], [72.81761, 18.89931], [72.81328, 18.8929], [72.81030000000001, 18.889840000000003], [72.80741, 18.88941], [72.80725000000001, 18.89392], [72.80394000000001, 18.899890000000003], [72.80339000000001, 18.90584], [72.80521, 18.910220000000002], [72.82236, 18.930680000000002], [72.82409000000001, 18.93608], [72.82389, 18.939860000000003], [72.82074, 18.94666], [72.81697000000001, 18.95072], [72.80995, 18.95496], [72.80763, 18.95383], [72.80432, 18.949800000000003], [72.79854, 18.946160000000003], [72.79615000000001, 18.94357], [72.79446, 18.93925], [72.79334, 18.938840000000003], [72.79179, 18.939120000000003], [72.79247000000001, 18.943610000000003], [72.79127000000001, 18.94734], [72.79400000000001, 18.9536], [72.79948, 18.96007], [72.80205000000001, 18.9664], [72.80284, 18.97315], [72.80563000000001, 18.978170000000002], [72.807, 18.98269], [72.8087, 18.98386], [72.81022, 18.981240000000003], [72.81253000000001, 18.98047], [72.81376, 18.982960000000002], [72.81361000000001, 18.98534], [72.81069000000001, 18.986810000000002], [72.80963000000001, 18.98938], [72.81004, 18.991880000000002], [72.81194, 18.994960000000003], [72.81111, 19.001520000000003], [72.81471, 19.01056], [72.81447, 19.01216], [72.81215, 19.015400000000003], [72.81477000000001, 19.02662], [72.81916000000001, 19.02286], [72.82238000000001, 19.02203], [72.82984, 19.023120000000002], [72.83435, 19.02618], [72.83638, 19.029850000000003], [72.83777, 19.03552], [72.83746000000001, 19.042240000000003], [72.83515000000001, 19.048180000000002], [72.83846000000001, 19.04791], [72.84283, 19.050620000000002], [72.86762, 19.05283], [72.87501, 19.050140000000003]]]}}]}