{"type": "FeatureCollection", "metadata": {"source": "Survey of India (per src_agency attribute in the source data)", "hosted_via": "National Water Data Portal (NWDP), NWIC, Ministry of Jal Shakti -- https://nwdp.nwic.gov.in/", "access": "public, no login required", "crs_original": "EPSG:7755 (WGS 84 / India NSF LCC)", "fetch_date": "2026-08-02", "quality": "verified-official -- Survey of India source", "state": "Maharashtra", "district": "Mumbai Suburban", "processing": "reprojected to EPSG:4326, topology-preserving simplify (shared-arc, tolerance 0.0005 deg) so adjacent polygons never overlap/gap at shared borders, coords rounded 5dp, 0 feature(s) needed the per-feature fallback", "feature_count": 1}, "features": [{"id": "42687", "type": "Feature", "properties": {"village_name": "Greater Mumbai", "vil_lgd": 251488, "district_name": "Mumbai Suburban", "dist_lgd": 483, "subdistrict_name": "Mumbai Suburban", "sdcode": 999, "block_name": "", "block_lgd": 0, "gp_name": "", "state_name": "MAHARASHTRA", "state_lgd": 27, "population": 9356962, "households": 2105604}, "geometry": {"type": "Polygon", "coordinates": [[[72.86013000000001, 19.268780000000003], [72.86223000000001, 19.26694], [72.86347, 19.26808], [72.86706000000001, 19.2661], [72.86881000000001, 19.260330000000003], [72.87671, 19.26003], [72.88074, 19.255670000000002], [72.88470000000001, 19.25399], [72.88835, 19.25092], [72.8991, 19.249450000000003], [72.90487, 19.247590000000002], [72.90581, 19.23852], [72.90982000000001, 19.23377], [72.91318000000001, 19.23142], [72.91552, 19.23084], [72.91485, 19.230120000000003], [72.91577000000001, 19.22755], [72.91916, 19.222420000000003], [72.91995, 19.21685], [72.92603000000001, 19.21327], [72.92892, 19.21039], [72.93166000000001, 19.209480000000003], [72.93486, 19.20522], [72.93492, 19.191560000000003], [72.94087, 19.18783], [72.94745, 19.18802], [72.95115000000001, 19.18502], [72.95538, 19.18418], [72.96039, 19.179180000000002], [72.96211000000001, 19.17893], [72.96366, 19.17657], [72.96485000000001, 19.177380000000003], [72.96672000000001, 19.17715], [72.96655000000001, 19.174490000000002], [72.96751, 19.17153], [72.97098000000001, 19.16972], [72.97293, 19.16713], [72.97319, 19.16184], [72.97583, 19.158510000000003], [72.97888, 19.15658], [72.98012, 19.15435], [72.97961000000001, 19.14619], [72.96772, 19.10999], [72.96600000000001, 19.093950000000003], [72.96656, 19.068330000000003], [72.97046, 19.05742], [72.97596, 19.047040000000003], [72.97678, 19.04371], [72.97691, 19.041510000000002], [72.97673, 19.042630000000003], [72.96689, 19.042350000000003], [72.96474, 19.039330000000003], [72.96462000000001, 19.036890000000003], [72.96282000000001, 19.03219], [72.95953, 19.026680000000002], [72.95445000000001, 19.02109], [72.92417, 18.99897], [72.91422, 18.992600000000003], [72.90871, 18.99051], [72.90462000000001, 18.990440000000003], [72.90243000000001, 18.99556], [72.90126000000001, 18.995990000000003], [72.88747000000001, 18.993260000000003], [72.88565000000001, 18.993910000000003], [72.88601000000001, 18.99915], [72.88333, 19.00456], [72.88572, 19.01207], [72.88523, 19.015240000000002], [72.87962, 19.01969], [72.87739, 19.02483], [72.88148000000001, 19.03648], [72.87974000000001, 19.046780000000002], [72.87501, 19.050140000000003], [72.86679000000001, 19.05299], [72.84283, 19.050620000000002], [72.83846000000001, 19.04791], [72.83285000000001, 19.04755], [72.82958, 19.0441], [72.82222, 19.04071], [72.81908, 19.03958], [72.81672, 19.04081], [72.82111, 19.05196], [72.82088, 19.05609], [72.81917, 19.059410000000003], [72.82029, 19.06238], [72.81821000000001, 19.065440000000002], [72.82079, 19.06982], [72.82026, 19.07721], [72.82219, 19.079500000000003], [72.82321, 19.084290000000003], [72.82543000000001, 19.08585], [72.82628000000001, 19.09149], [72.8259, 19.096210000000003], [72.82137, 19.11476], [72.81085, 19.132360000000002], [72.80392, 19.139000000000003], [72.80083, 19.13926], [72.79834000000001, 19.13784], [72.79643, 19.132140000000003], [72.7929, 19.129530000000003], [72.79013, 19.13005], [72.78890000000001, 19.12918], [72.786, 19.12904], [72.78187000000001, 19.13127], [72.78032, 19.13298], [72.78083000000001, 19.13463], [72.78192, 19.13509], [72.78401000000001, 19.134300000000003], [72.78461, 19.1327], [72.78613, 19.133020000000002], [72.78774, 19.134800000000002], [72.78790000000001, 19.136680000000002], [72.78447, 19.13838], [72.78424000000001, 19.139590000000002], [72.78531000000001, 19.141910000000003], [72.78855, 19.14524], [72.78818000000001, 19.14879], [72.78652000000001, 19.15123], [72.78511, 19.151970000000002], [72.78187000000001, 19.15181], [72.78016000000001, 19.153350000000003], [72.78154, 19.15472], [72.78119000000001, 19.156570000000002], [72.77911, 19.15866], [72.77919, 19.16037], [72.78046, 19.16206], [72.77985000000001, 19.163890000000002], [72.78058, 19.16775], [72.78188, 19.168760000000002], [72.78579, 19.16747], [72.78638000000001, 19.16787], [72.78983000000001, 19.17218], [72.79281, 19.174030000000002], [72.79243000000001, 19.17782], [72.79476000000001, 19.179070000000003], [72.79567, 19.181150000000002], [72.79484000000001, 19.19329], [72.79201, 19.19347], [72.78944, 19.192130000000002], [72.78665000000001, 19.193050000000003], [72.78387000000001, 19.19227], [72.78161, 19.19313], [72.78163, 19.199060000000003], [72.78253000000001, 19.201330000000002], [72.78426, 19.201510000000003], [72.78464000000001, 19.20335], [72.78219, 19.20445], [72.77765000000001, 19.204710000000002], [72.77675, 19.205560000000002], [72.77672000000001, 19.207590000000003], [72.78053000000001, 19.21151], [72.77938, 19.216900000000003], [72.77572, 19.22305], [72.77571, 19.22547], [72.77825, 19.23], [72.77604000000001, 19.23768], [72.77924, 19.24003], [72.77886000000001, 19.24237], [72.78107, 19.248890000000003], [72.78105000000001, 19.25571], [72.77977, 19.25719], [72.77968, 19.25889], [72.78215, 19.260720000000003], [72.78369, 19.26386], [72.79020000000001, 19.26069], [72.80009000000001, 19.26192], [72.80401, 19.256210000000003], [72.80848, 19.2527], [72.81275000000001, 19.24988], [72.82362, 19.245140000000003], [72.83472, 19.250700000000002], [72.83713, 19.25288], [72.83739, 19.25477], [72.83549000000001, 19.26078], [72.83911, 19.26605], [72.84522000000001, 19.266430000000003], [72.84830000000001, 19.268600000000003], [72.85281, 19.26867], [72.86013000000001, 19.268780000000003]]]}}]}