{"type": "FeatureCollection", "metadata": {"source": "Survey of India (per src_agency attribute in the source data)", "hosted_via": "National Water Data Portal (NWDP), NWIC, Ministry of Jal Shakti -- https://nwdp.nwic.gov.in/", "access": "public, no login required", "crs_original": "EPSG:7755 (WGS 84 / India NSF LCC)", "fetch_date": "2026-08-02", "quality": "verified-official -- Survey of India source", "state": "Tamil Nadu", "district": "Chennai", "processing": "reprojected to EPSG:4326, topology-preserving simplify (shared-arc, tolerance 0.0005 deg) so adjacent polygons never overlap/gap at shared borders, coords rounded 5dp, 0 feature(s) needed the per-feature fallback", "feature_count": 1}, "features": [{"id": "16827", "type": "Feature", "properties": {"village_name": "Chennai M Corp", "vil_lgd": 252294, "district_name": "Chennai", "dist_lgd": 568, "subdistrict_name": "Chennai", "sdcode": 999, "block_name": "", "block_lgd": 0, "gp_name": "", "state_name": "TAMIL NADU", "state_lgd": 33, "population": 4646732, "households": 1154982}, "geometry": {"type": "Polygon", "coordinates": [[[80.29657, 13.144200000000001], [80.30106, 13.143040000000001], [80.29795, 13.134950000000002], [80.30272000000001, 13.13367], [80.30421000000001, 13.13029], [80.30318000000001, 13.129430000000001], [80.30108000000001, 13.13221], [80.29797, 13.132800000000001], [80.29763000000001, 13.130040000000001], [80.29913, 13.129180000000002], [80.29686000000001, 13.123930000000001], [80.29814, 13.12282], [80.29961, 13.12293], [80.30501000000001, 13.130600000000001], [80.30554000000001, 13.129890000000001], [80.30042, 13.121410000000001], [80.30208, 13.114830000000001], [80.30497000000001, 13.110220000000002], [80.30412000000001, 13.106230000000002], [80.30279, 13.10682], [80.3035, 13.109890000000002], [80.30146, 13.11204], [80.30016, 13.10842], [80.29931, 13.10814], [80.29968000000001, 13.10682], [80.29828, 13.1019], [80.29844000000001, 13.100480000000001], [80.30139000000001, 13.099440000000001], [80.30170000000001, 13.09866], [80.3005, 13.09871], [80.29986000000001, 13.09763], [80.29961, 13.09895], [80.29859, 13.098680000000002], [80.29872, 13.099470000000002], [80.29691000000001, 13.099240000000002], [80.29492, 13.093000000000002], [80.30077, 13.091180000000001], [80.30305000000001, 13.09448], [80.30329, 13.097470000000001], [80.30207, 13.098350000000002], [80.30289, 13.098360000000001], [80.30398000000001, 13.10044], [80.30382, 13.102590000000001], [80.30473, 13.101210000000002], [80.30982, 13.108310000000001], [80.31071, 13.10791], [80.30599000000001, 13.099240000000002], [80.30319, 13.090190000000002], [80.29539000000001, 13.080000000000002], [80.28585000000001, 13.055050000000001], [80.28007000000001, 13.031270000000001], [80.27893, 13.01744], [80.27076000000001, 12.990290000000002], [80.26778, 12.97503], [80.25418, 12.97661], [80.25396, 12.98027], [80.24415, 12.983860000000002], [80.24466000000001, 12.979840000000001], [80.23018, 12.972500000000002], [80.22296, 12.96503], [80.21788000000001, 12.96733], [80.21010000000001, 12.975600000000002], [80.21025, 12.976890000000001], [80.20863000000001, 12.97722], [80.20864, 12.980220000000001], [80.20743, 12.98051], [80.20655000000001, 12.982870000000002], [80.20501, 12.982990000000001], [80.2055, 12.988760000000001], [80.21063000000001, 13.008270000000001], [80.20955000000001, 13.008080000000001], [80.19903000000001, 13.015830000000001], [80.20041, 13.028220000000001], [80.19592, 13.027840000000001], [80.19582000000001, 13.02969], [80.19245000000001, 13.027970000000002], [80.18851000000001, 13.02298], [80.18722000000001, 13.023370000000002], [80.18699000000001, 13.04283], [80.18585, 13.04335], [80.18506000000001, 13.055700000000002], [80.18395000000001, 13.055700000000002], [80.18697, 13.059730000000002], [80.18924000000001, 13.06057], [80.18974, 13.062510000000001], [80.19096, 13.068810000000001], [80.19005000000001, 13.071460000000002], [80.19132, 13.07826], [80.19599000000001, 13.088560000000001], [80.19591000000001, 13.098740000000001], [80.19429000000001, 13.099470000000002], [80.19522, 13.1079], [80.19728, 13.108080000000001], [80.20244000000001, 13.118350000000001], [80.20186000000001, 13.12598], [80.20411, 13.126130000000002], [80.2043, 13.127160000000002], [80.21383, 13.13113], [80.22228000000001, 13.129880000000002], [80.22629, 13.12663], [80.23458000000001, 13.12668], [80.23542, 13.127490000000002], [80.24139000000001, 13.128020000000001], [80.24308, 13.126600000000002], [80.245, 13.123180000000001], [80.24852000000001, 13.121360000000001], [80.25483000000001, 13.123730000000002], [80.26892000000001, 13.12597], [80.27143000000001, 13.130400000000002], [80.27409, 13.13911], [80.28630000000001, 13.14591], [80.29111, 13.14398], [80.29657, 13.144200000000001]]]}}]}