{"type": "FeatureCollection", "metadata": {"source": "Survey of India (per src_agency attribute in the source data)", "hosted_via": "National Water Data Portal (NWDP), NWIC, Ministry of Jal Shakti -- https://nwdp.nwic.gov.in/", "access": "public, no login required", "crs_original": "EPSG:7755 (WGS 84 / India NSF LCC)", "fetch_date": "2026-08-02", "quality": "verified-official -- Survey of India source", "state": "West Bengal", "district": "Kolkata", "processing": "reprojected to EPSG:4326, topology-preserving simplify (shared-arc, tolerance 0.0005 deg) so adjacent polygons never overlap/gap at shared borders, coords rounded 5dp, 0 feature(s) needed the per-feature fallback", "feature_count": 1}, "features": [{"id": "34743", "type": "Feature", "properties": {"village_name": "Kolkata M Corp", "vil_lgd": 250299, "district_name": "Kolkata", "dist_lgd": 315, "subdistrict_name": "Kolkata", "sdcode": 999, "block_name": "", "block_lgd": 0, "gp_name": "", "state_name": "WEST BENGAL", "state_lgd": 19, "population": 4496694, "households": 1024928}, "geometry": {"type": "Polygon", "coordinates": [[[88.38601000000001, 22.630390000000002], [88.38768, 22.629140000000003], [88.39155000000001, 22.628940000000004], [88.39255000000001, 22.614150000000002], [88.39113, 22.59692], [88.39612000000001, 22.59155], [88.39854000000001, 22.58734], [88.40886, 22.56152], [88.41372000000001, 22.55767], [88.41657000000001, 22.5529], [88.4261, 22.542270000000002], [88.43501, 22.535300000000003], [88.44669, 22.521890000000003], [88.44858, 22.520290000000003], [88.45325000000001, 22.51838], [88.45691000000001, 22.51892], [88.45705000000001, 22.517490000000002], [88.45433000000001, 22.516630000000003], [88.45567000000001, 22.51619], [88.45637, 22.51386], [88.45383000000001, 22.513], [88.45274, 22.508360000000003], [88.44679000000001, 22.50721], [88.44221, 22.5104], [88.43902000000001, 22.507360000000002], [88.4346, 22.511670000000002], [88.43365000000001, 22.514570000000003], [88.43141000000001, 22.51545], [88.42838, 22.51516], [88.41859000000001, 22.52211], [88.41769000000001, 22.52082], [88.41801000000001, 22.5166], [88.41717000000001, 22.514300000000002], [88.41678, 22.51351], [88.41492000000001, 22.51347], [88.41420000000001, 22.51227], [88.41344000000001, 22.507550000000002], [88.41391, 22.50383], [88.41212, 22.503410000000002], [88.41141, 22.501910000000002], [88.40871000000001, 22.501], [88.40823, 22.50007], [88.40928000000001, 22.496810000000004], [88.41192000000001, 22.49613], [88.41156000000001, 22.494400000000002], [88.40851, 22.492], [88.40557000000001, 22.49209], [88.40478, 22.48973], [88.40543000000001, 22.488470000000003], [88.41142, 22.48956], [88.41476, 22.486800000000002], [88.41493000000001, 22.481890000000003], [88.41312, 22.48034], [88.41306, 22.477490000000003], [88.41205000000001, 22.47672], [88.4054, 22.477890000000002], [88.4047, 22.477420000000002], [88.40415, 22.472880000000004], [88.40141000000001, 22.472140000000003], [88.3974, 22.472600000000003], [88.39608000000001, 22.471580000000003], [88.39477000000001, 22.471980000000002], [88.39454, 22.46996], [88.39193, 22.465380000000003], [88.38647, 22.464060000000003], [88.37607000000001, 22.463890000000003], [88.37909, 22.46236], [88.38126000000001, 22.459750000000003], [88.37924000000001, 22.45804], [88.37857000000001, 22.45559], [88.37309, 22.455150000000003], [88.37122000000001, 22.45373], [88.37067, 22.45153], [88.36745, 22.451980000000002], [88.36738000000001, 22.45362], [88.36846000000001, 22.454600000000003], [88.36736, 22.456270000000004], [88.36420000000001, 22.453930000000003], [88.36239, 22.45388], [88.36033, 22.455090000000002], [88.35967000000001, 22.456960000000002], [88.36076000000001, 22.45802], [88.36082, 22.459460000000004], [88.35886, 22.45992], [88.35812000000001, 22.46298], [88.35716000000001, 22.463340000000002], [88.35402, 22.461730000000003], [88.35257000000001, 22.462190000000003], [88.35050000000001, 22.457960000000003], [88.34825000000001, 22.45636], [88.34602000000001, 22.456090000000003], [88.34305, 22.457320000000003], [88.34074000000001, 22.45726], [88.34150000000001, 22.458720000000003], [88.34385, 22.45998], [88.34059, 22.46274], [88.33842000000001, 22.461850000000002], [88.33419, 22.462390000000003], [88.33324, 22.46104], [88.33263000000001, 22.455810000000003], [88.33159, 22.45513], [88.33092, 22.456760000000003], [88.33177, 22.46066], [88.33277000000001, 22.464080000000003], [88.33459, 22.46611], [88.33376000000001, 22.46696], [88.32479000000001, 22.46649], [88.32217000000001, 22.462600000000002], [88.32393, 22.46008], [88.32315000000001, 22.459220000000002], [88.31455000000001, 22.459780000000002], [88.30706, 22.45758], [88.30057000000001, 22.45869], [88.29729, 22.45812], [88.29414000000001, 22.455330000000004], [88.28959, 22.454710000000002], [88.28953000000001, 22.45307], [88.2866, 22.453950000000003], [88.28902000000001, 22.462780000000002], [88.28855, 22.46629], [88.28578, 22.47041], [88.28376, 22.47193], [88.27610000000001, 22.475600000000004], [88.27588, 22.483020000000003], [88.27312, 22.48629], [88.27046000000001, 22.48777], [88.26933000000001, 22.49022], [88.27010000000001, 22.491490000000002], [88.27202000000001, 22.4918], [88.27348, 22.48935], [88.27856000000001, 22.487830000000002], [88.28027, 22.486310000000003], [88.28469000000001, 22.485590000000002], [88.28711000000001, 22.48992], [88.2903, 22.49052], [88.29282, 22.49284], [88.29313, 22.495520000000003], [88.29547000000001, 22.497410000000002], [88.29827, 22.501700000000003], [88.2997, 22.506680000000003], [88.29750000000001, 22.50796], [88.29887000000001, 22.514310000000002], [88.29839000000001, 22.51669], [88.29732000000001, 22.51752], [88.29515, 22.517550000000004], [88.29206, 22.516610000000004], [88.29126000000001, 22.51732], [88.29149000000001, 22.5194], [88.28995, 22.520190000000003], [88.29036, 22.52276], [88.28951, 22.523320000000002], [88.29029000000001, 22.52589], [88.28874, 22.52674], [88.29077000000001, 22.53084], [88.28932, 22.53122], [88.29176000000001, 22.53452], [88.29106, 22.53696], [88.28826000000001, 22.538110000000003], [88.28200000000001, 22.53882], [88.27996, 22.540670000000002], [88.27904000000001, 22.54004], [88.27649000000001, 22.540650000000003], [88.27634, 22.542350000000003], [88.27535, 22.542710000000003], [88.27346000000001, 22.540170000000003], [88.27077000000001, 22.53937], [88.27044000000001, 22.538330000000002], [88.26820000000001, 22.539], [88.26745000000001, 22.53761], [88.26534000000001, 22.537730000000003], [88.26397, 22.5347], [88.26140000000001, 22.535800000000002], [88.26072, 22.533910000000002], [88.25941, 22.53415], [88.25840000000001, 22.53611], [88.25562000000001, 22.536920000000002], [88.25562000000001, 22.537950000000002], [88.25706000000001, 22.538600000000002], [88.25812, 22.541890000000002], [88.25257, 22.543590000000002], [88.25193, 22.54173], [88.24676000000001, 22.54585], [88.23379000000001, 22.545180000000002], [88.23369000000001, 22.55065], [88.23582, 22.55799], [88.23856, 22.561190000000003], [88.24687, 22.563000000000002], [88.2561, 22.561870000000003], [88.27235, 22.55581], [88.29188, 22.552190000000003], [88.30479000000001, 22.5484], [88.31612000000001, 22.55008], [88.32090000000001, 22.551940000000002], [88.32286, 22.55376], [88.32159, 22.555180000000004], [88.32644, 22.559780000000003], [88.33104, 22.566630000000004], [88.34296, 22.579050000000002], [88.34596, 22.586570000000002], [88.34591, 22.58959], [88.34839000000001, 22.5958], [88.35736000000001, 22.60856], [88.36132, 22.619020000000003], [88.36172, 22.622850000000003], [88.35942000000001, 22.62753], [88.36033, 22.63144], [88.37131000000001, 22.63285], [88.38601000000001, 22.630390000000002]]]}}]}