{"type": "FeatureCollection", "metadata": {"source": "Survey of India (per src_agency attribute in the source data)", "hosted_via": "National Water Data Portal (NWDP), NWIC, Ministry of Jal Shakti -- https://nwdp.nwic.gov.in/", "access": "public, no login required", "crs_original": "EPSG:7755 (WGS 84 / India NSF LCC)", "fetch_date": "2026-08-02", "quality": "verified-official -- Survey of India source", "state": "Jammu and Kashmir", "district": "Mirpur", "processing": "reprojected to EPSG:4326, topology-preserving simplify (shared-arc, tolerance 0.0005 deg) so adjacent polygons never overlap/gap at shared borders, coords rounded 5dp, 0 feature(s) needed the per-feature fallback", "feature_count": 1}, "features": [{"id": "840", "type": "Feature", "properties": {"village_name": "Data Not Available", "vil_lgd": 999999, "district_name": "Mirpur", "dist_lgd": 999, "subdistrict_name": "Data Not Available", "sdcode": 9999, "block_name": "", "block_lgd": null, "gp_name": "", "state_name": "JAMMU & KASHMIR", "state_lgd": 1, "population": 0, "households": 0}, "geometry": {"type": "Polygon", "coordinates": [[[73.71122000000001, 33.611200000000004], [73.71139000000001, 33.6058], [73.72606, 33.595490000000005], [73.72677, 33.59019], [73.73177000000001, 33.581830000000004], [73.73673000000001, 33.578430000000004], [73.74092, 33.578880000000005], [73.74398000000001, 33.584360000000004], [73.74781, 33.595980000000004], [73.74501000000001, 33.61952], [73.7492, 33.619980000000005], [73.76162000000001, 33.615840000000006], [73.77288, 33.61077], [73.77975, 33.61182], [73.79177, 33.6201], [73.80028, 33.620290000000004], [73.81200000000001, 33.61784], [73.81845000000001, 33.614830000000005], [73.83019, 33.59778], [73.83836000000001, 33.59129], [73.85175000000001, 33.586710000000004], [73.85910000000001, 33.58948], [73.86958, 33.59592], [73.87392000000001, 33.602050000000006], [73.88026, 33.60264], [73.88735000000001, 33.596120000000006], [73.91661, 33.59763], [73.92761, 33.601020000000005], [73.93441, 33.607820000000004], [73.93897000000001, 33.614140000000006], [73.95205, 33.62017], [73.96609000000001, 33.6156], [73.97529, 33.606860000000005], [73.98933000000001, 33.60183], [74.00538, 33.59855], [74.02015, 33.60401], [74.02526, 33.58941], [74.03071, 33.5842], [74.03472000000001, 33.574310000000004], [74.03954, 33.5703], [74.05141, 33.56655], [74.06569, 33.564280000000004], [74.07258, 33.564150000000005], [74.08136, 33.5653], [74.08017000000001, 33.56308], [74.07516000000001, 33.55928], [74.0668, 33.55516], [74.05929, 33.55453], [74.05513, 33.552400000000006], [74.05542000000001, 33.546600000000005], [74.04951000000001, 33.543490000000006], [74.04864, 33.54218], [74.04145000000001, 33.53866], [74.03154, 33.537580000000005], [74.03206, 33.53578], [74.03144, 33.53233], [74.03552, 33.52884], [74.03608000000001, 33.526320000000005], [74.03784, 33.524370000000005], [74.03842, 33.52149], [74.03719000000001, 33.51999], [74.03242, 33.52147], [74.02565000000001, 33.518330000000006], [74.02851000000001, 33.511700000000005], [74.03077, 33.50997], [74.03428000000001, 33.509], [74.03649, 33.509640000000005], [74.03912000000001, 33.50901], [74.04525000000001, 33.497780000000006], [74.04637000000001, 33.49273], [74.04860000000001, 33.49136], [74.05340000000001, 33.49081], [74.05662000000001, 33.47986], [74.0605, 33.47872], [74.0647, 33.474340000000005], [74.06619, 33.470400000000005], [74.06585000000001, 33.46857], [74.05951, 33.465450000000004], [74.05659, 33.46188], [74.05373, 33.4598], [74.0557, 33.45515], [74.06479, 33.44511], [74.07424, 33.439460000000004], [74.07875, 33.42728], [74.09079000000001, 33.411730000000006], [74.08921000000001, 33.407120000000006], [74.08903000000001, 33.40368], [74.09048, 33.39918], [74.09029000000001, 33.39574], [74.09384, 33.39405], [74.09975, 33.39551], [74.10894, 33.394940000000005], [74.11319, 33.39654], [74.11788, 33.39651], [74.11899000000001, 33.39311], [74.12243000000001, 33.39195], [74.13836, 33.391020000000005], [74.14253000000001, 33.38392], [74.14443, 33.376160000000006], [74.14434, 33.372710000000005], [74.14542, 33.370630000000006], [74.14782000000001, 33.36779], [74.15534000000001, 33.36525], [74.16656, 33.35736], [74.16572000000001, 33.35242], [74.16390000000001, 33.348020000000005], [74.15996000000001, 33.34978], [74.14875, 33.34226], [74.1457, 33.337120000000006], [74.14073, 33.33431], [74.14191000000001, 33.33234], [74.14741000000001, 33.32791], [74.15061, 33.320750000000004], [74.13706, 33.30736], [74.11492000000001, 33.29735], [74.09172000000001, 33.28482], [74.08205000000001, 33.28475], [74.07156, 33.28311], [74.0545, 33.27648], [74.05012, 33.2746], [74.03789, 33.26664], [74.02102000000001, 33.26147], [74.00995, 33.253370000000004], [74.00586000000001, 33.24958], [74.00632, 33.248900000000006], [74.0056, 33.24636], [74.00277000000001, 33.24208], [74.00309, 33.240080000000006], [74.00207, 33.23789], [74.00246, 33.23443], [74.00707000000001, 33.230740000000004], [74.006, 33.22833], [74.00813000000001, 33.22493], [74.00550000000001, 33.22339], [74.00558000000001, 33.2213], [74.00710000000001, 33.21871], [74.00628, 33.2158], [74.00661000000001, 33.213730000000005], [74.00746000000001, 33.213240000000006], [74.00885000000001, 33.21477], [74.01647000000001, 33.21193], [74.0172, 33.20734], [74.01657, 33.20501], [74.01735000000001, 33.204080000000005], [74.02418, 33.20338], [74.02829000000001, 33.199780000000004], [74.0306, 33.19942], [74.03221, 33.19785], [74.03593000000001, 33.19624], [74.03983000000001, 33.197050000000004], [74.04494000000001, 33.199400000000004], [74.04585, 33.20055], [74.04854, 33.200540000000004], [74.05009000000001, 33.20044], [74.05219000000001, 33.19413], [74.05432, 33.19399], [74.06213000000001, 33.19773], [74.06962, 33.195130000000006], [74.07337000000001, 33.18657], [74.08679000000001, 33.17336], [74.09975, 33.16651], [74.10325, 33.166380000000004], [74.1071, 33.16761], [74.11647, 33.159440000000004], [74.11922000000001, 33.16151], [74.12132000000001, 33.16151], [74.12492, 33.16004], [74.13052, 33.15964], [74.13082, 33.156890000000004], [74.12999, 33.156580000000005], [74.13337, 33.15494], [74.13377000000001, 33.149370000000005], [74.13511000000001, 33.148030000000006], [74.13736, 33.14753], [74.14213000000001, 33.14773], [74.15303, 33.136230000000005], [74.1543, 33.129400000000004], [74.15607, 33.12567], [74.16272000000001, 33.123090000000005], [74.16302, 33.122], [74.15895, 33.111540000000005], [74.15951000000001, 33.11045], [74.16335000000001, 33.10549], [74.16452000000001, 33.10596], [74.16791, 33.10399], [74.16659, 33.103], [74.17748, 33.0989], [74.17846, 33.09595], [74.18207000000001, 33.090740000000004], [74.18033000000001, 33.08773], [74.17588, 33.08731], [74.17608000000001, 33.086090000000006], [74.17427, 33.084880000000005], [74.17352000000001, 33.08144], [74.17075000000001, 33.08111], [74.17069000000001, 33.07415], [74.17288, 33.07457], [74.18094, 33.07258], [74.18326, 33.07282], [74.18764, 33.07074], [74.18900000000001, 33.07068], [74.19170000000001, 33.07251], [74.20243, 33.06656], [74.20835000000001, 33.067170000000004], [74.21439000000001, 33.061220000000006], [74.21767000000001, 33.062180000000005], [74.23060000000001, 33.056290000000004], [74.23552000000001, 33.051230000000004], [74.24379, 33.04994], [74.24917, 33.04562], [74.25633, 33.045390000000005], [74.25936, 33.04305], [74.26417000000001, 33.04458], [74.26734, 33.04459], [74.27092, 33.041560000000004], [74.27497000000001, 33.04032], [74.27741, 33.03822], [74.287, 33.03667], [74.30213, 33.031400000000005], [74.30977, 33.032140000000005], [74.31372, 33.029920000000004], [74.3185, 33.032000000000004], [74.32458000000001, 33.03161], [74.32566, 33.028740000000006], [74.32026, 33.02179], [74.32056, 33.007380000000005], [74.32161, 33.00515], [74.32689, 32.99965], [74.34045, 32.95228], [74.31261, 32.936440000000005], [74.31261, 32.92907], [74.31637, 32.928490000000004], [74.32305000000001, 32.92331], [74.32544, 32.9232], [74.32551000000001, 32.920660000000005], [74.33008000000001, 32.92004], [74.33676000000001, 32.92137], [74.34345, 32.92092], [74.34925000000001, 32.92271], [74.35996, 32.92076], [74.37129, 32.92031], [74.37285, 32.919790000000006], [74.37756, 32.915150000000004], [74.37701000000001, 32.91461], [74.37227, 32.91528], [74.37313, 32.9142], [74.39250000000001, 32.91058], [74.39976, 32.90457], [74.40652, 32.903020000000005], [74.41516, 32.89858], [74.41617000000001, 32.89612], [74.41657000000001, 32.89128], [74.41882000000001, 32.886950000000006], [74.41757000000001, 32.88009], [74.41631000000001, 32.8774], [74.41273000000001, 32.87317], [74.41216, 32.8701], [74.41235, 32.86804], [74.41922000000001, 32.859080000000006], [74.42150000000001, 32.854440000000004], [74.41929, 32.845650000000006], [74.41916, 32.84104], [74.42386, 32.835820000000005], [74.43203000000001, 32.830580000000005], [74.43843000000001, 32.822680000000005], [74.43904, 32.81701], [74.43773, 32.80715], [74.44028, 32.802170000000004], [74.45031, 32.793870000000005], [74.45868, 32.78905], [74.45898000000001, 32.78765], [74.45375, 32.78558], [74.44447000000001, 32.78351], [74.42620000000001, 32.78522], [74.4261, 32.78374], [74.42463000000001, 32.78347], [74.41526, 32.784560000000006], [74.41002, 32.77948], [74.4076, 32.778980000000004], [74.40705000000001, 32.774280000000005], [74.40293000000001, 32.76738], [74.40117000000001, 32.76747], [74.39423000000001, 32.77212], [74.39203, 32.76451], [74.391, 32.76316], [74.3862, 32.7642], [74.38499, 32.763290000000005], [74.38219000000001, 32.76475], [74.37997, 32.764250000000004], [74.37623, 32.76558], [74.37450000000001, 32.764700000000005], [74.37056000000001, 32.766130000000004], [74.3649, 32.76536], [74.36145, 32.7665], [74.35505, 32.767], [74.35313000000001, 32.77078], [74.35271, 32.773610000000005], [74.35133, 32.774640000000005], [74.34740000000001, 32.774840000000005], [74.34215, 32.7781], [74.33367000000001, 32.780350000000006], [74.32780000000001, 32.788450000000005], [74.32723, 32.79059], [74.31834, 32.7941], [74.31449, 32.79695], [74.31513000000001, 32.804680000000005], [74.30995, 32.806270000000005], [74.30828000000001, 32.807590000000005], [74.30914, 32.812540000000006], [74.31281000000001, 32.822120000000005], [74.30892, 32.82571], [74.30442000000001, 32.828120000000006], [74.30340000000001, 32.829840000000004], [74.2943, 32.830470000000005], [74.29400000000001, 32.832060000000006], [74.28478000000001, 32.83252], [74.28088000000001, 32.83307], [74.28052000000001, 32.83388], [74.27666, 32.83363], [74.27663000000001, 32.831610000000005], [74.27164, 32.831430000000005], [74.27023000000001, 32.832370000000004], [74.26773, 32.83223], [74.2663, 32.838530000000006], [74.26343, 32.842090000000006], [74.24411, 32.84507], [74.24409, 32.84629], [74.24095000000001, 32.84601], [74.23445000000001, 32.848090000000006], [74.21973000000001, 32.84882], [74.21820000000001, 32.85047], [74.21806000000001, 32.852340000000005], [74.21971, 32.855830000000005], [74.21985000000001, 32.86231], [74.21416, 32.862680000000005], [74.21294, 32.864580000000004], [74.21260000000001, 32.871700000000004], [74.21126000000001, 32.873430000000006], [74.19996, 32.8753], [74.19757000000001, 32.875330000000005], [74.19548, 32.8736], [74.19426, 32.873920000000005], [74.19246000000001, 32.874970000000005], [74.19183000000001, 32.880970000000005], [74.19072000000001, 32.88295], [74.17880000000001, 32.889500000000005], [74.17441000000001, 32.889010000000006], [74.17277, 32.88637], [74.17120000000001, 32.88618], [74.16871, 32.887800000000006], [74.16563000000001, 32.886900000000004], [74.15631, 32.89191], [74.14426, 32.89495], [74.13706, 32.89618], [74.11679000000001, 32.897600000000004], [74.10613000000001, 32.90294], [74.09047000000001, 32.907990000000005], [74.08338, 32.90921], [74.07354000000001, 32.908280000000005], [74.06895, 32.909560000000006], [74.06790000000001, 32.910830000000004], [74.06343000000001, 32.91245], [74.06292, 32.91414], [74.06352000000001, 32.916920000000005], [74.06202, 32.919270000000004], [74.05968, 32.92009], [74.0592, 32.92212], [74.05996, 32.93182], [74.05954000000001, 32.933420000000005], [74.05816, 32.934540000000005], [74.04996000000001, 32.934670000000004], [74.03917000000001, 32.93045], [74.02446, 32.929750000000006], [74.01954, 32.93068], [74.00510000000001, 32.93558], [73.99968000000001, 32.9354], [73.99815000000001, 32.937310000000004], [73.99871, 32.93948], [74.00621000000001, 32.950700000000005], [74.00680000000001, 32.953210000000006], [74.00618, 32.954910000000005], [73.99834000000001, 32.962030000000006], [73.99509, 32.963150000000006], [73.98951000000001, 32.96219], [73.97929, 32.966440000000006], [73.97237000000001, 32.96721], [73.9701, 32.96898], [73.96949000000001, 32.970850000000006], [73.97024, 32.97739], [73.96898, 32.97887], [73.96779000000001, 32.98434], [73.96464, 32.987120000000004], [73.95798, 32.987], [73.95386, 32.98456], [73.94927000000001, 32.98434], [73.94145, 32.98243], [73.93230000000001, 32.98724], [73.92499000000001, 32.98838], [73.92326, 32.99065], [73.91628, 32.993610000000004], [73.90826000000001, 33.00143], [73.89874, 33.002230000000004], [73.88801000000001, 32.997510000000005], [73.88065, 32.99747], [73.86944000000001, 33.0028], [73.8656, 33.00298], [73.85677000000001, 33.00164], [73.84565, 33.0018], [73.82566, 33.00401], [73.82541, 32.998490000000004], [73.82773, 32.987860000000005], [73.82713000000001, 32.9802], [73.82597000000001, 32.97724], [73.82355000000001, 32.974810000000005], [73.81474, 32.971590000000006], [73.80931000000001, 32.967580000000005], [73.79758000000001, 32.96594], [73.79338, 32.965770000000006], [73.79043, 32.96681], [73.78949, 32.97393], [73.78994, 32.977630000000005], [73.79338, 32.98255], [73.79787, 32.98697], [73.79831, 32.988960000000006], [73.79792, 32.99286], [73.79577, 32.99604], [73.79451, 33.00359], [73.79334, 33.004580000000004], [73.78746000000001, 33.005410000000005], [73.78435, 33.00726], [73.78078000000001, 33.012530000000005], [73.77303, 33.017880000000005], [73.76443, 33.020320000000005], [73.76277, 33.02176], [73.76274000000001, 33.02335], [73.75814000000001, 33.025220000000004], [73.75791000000001, 33.028000000000006], [73.75601, 33.029790000000006], [73.74911, 33.033620000000006], [73.74764, 33.03596], [73.74986000000001, 33.058], [73.74929, 33.05962], [73.74283000000001, 33.06615], [73.74061, 33.067280000000004], [73.73711, 33.06732], [73.72906, 33.07072], [73.71869000000001, 33.076130000000006], [73.71572, 33.07882], [73.70969000000001, 33.07943], [73.69973, 33.08489], [73.69134000000001, 33.08495], [73.68877, 33.086670000000005], [73.68539000000001, 33.08746], [73.68157000000001, 33.08747], [73.67284000000001, 33.082240000000006], [73.66679, 33.08316], [73.65687000000001, 33.08312], [73.65568, 33.08542], [73.64944000000001, 33.08634], [73.6443, 33.08489], [73.64194, 33.08319], [73.63990000000001, 33.0831], [73.63774000000001, 33.08464], [73.63304000000001, 33.09181], [73.63186, 33.0953], [73.63301000000001, 33.10681], [73.63194, 33.1103], [73.63132, 33.11755], [73.63893, 33.125800000000005], [73.63929, 33.128130000000006], [73.63127, 33.137260000000005], [73.6312, 33.139520000000005], [73.63361, 33.141940000000005], [73.6363, 33.142], [73.64403, 33.13678], [73.64869, 33.13747], [73.64995, 33.14383], [73.64919, 33.15399], [73.64989, 33.156580000000005], [73.65185000000001, 33.158660000000005], [73.66024, 33.158820000000006], [73.66276, 33.159620000000004], [73.66448000000001, 33.161350000000006], [73.66441, 33.163700000000006], [73.66185, 33.169050000000006], [73.66191, 33.173300000000005], [73.66642, 33.18186], [73.66311, 33.188970000000005], [73.66264000000001, 33.19171], [73.66801000000001, 33.20186], [73.66418, 33.20763], [73.66212, 33.208980000000004], [73.65839000000001, 33.20951], [73.65563, 33.211710000000004], [73.65382000000001, 33.21378], [73.64953000000001, 33.22238], [73.64762, 33.222820000000006], [73.64531000000001, 33.22193], [73.64267000000001, 33.21925], [73.64121, 33.214980000000004], [73.64095, 33.20731], [73.63951, 33.205020000000005], [73.63807, 33.20436], [73.63531, 33.20485], [73.63355, 33.207640000000005], [73.63451, 33.21791], [73.63173, 33.22316], [73.63234, 33.224320000000006], [73.63780000000001, 33.2257], [73.63831, 33.226940000000006], [73.63756000000001, 33.230410000000006], [73.63631000000001, 33.23272], [73.62373000000001, 33.234370000000006], [73.62178, 33.23599], [73.61941, 33.246120000000005], [73.6132, 33.24821], [73.61295000000001, 33.249480000000005], [73.61535, 33.25507], [73.61521, 33.25797], [73.61032, 33.26577], [73.60651, 33.27371], [73.60553, 33.285410000000006], [73.60707000000001, 33.287780000000005], [73.61377, 33.29164], [73.61417, 33.29289], [73.6132, 33.294470000000004], [73.60828000000001, 33.29677], [73.60109, 33.29871], [73.59564, 33.30284], [73.59421, 33.31759], [73.58930000000001, 33.32354], [73.58902, 33.325990000000004], [73.59015000000001, 33.326930000000004], [73.59763000000001, 33.327780000000004], [73.59936, 33.329510000000006], [73.59803000000001, 33.337520000000005], [73.5955, 33.340160000000004], [73.59356000000001, 33.34006], [73.58746000000001, 33.33554], [73.58307, 33.32896], [73.58027000000001, 33.32719], [73.57841, 33.328680000000006], [73.57722000000001, 33.334900000000005], [73.57532, 33.337520000000005], [73.5711, 33.33907], [73.57056, 33.34308], [73.57301000000001, 33.34655], [73.58040000000001, 33.351760000000006], [73.58313000000001, 33.35408], [73.58377, 33.35568], [73.58291000000001, 33.35752], [73.58147000000001, 33.35849], [73.57435000000001, 33.356320000000004], [73.57188000000001, 33.35665], [73.56518000000001, 33.36621], [73.56513000000001, 33.36932], [73.57114, 33.379360000000005], [73.57059000000001, 33.384350000000005], [73.57109000000001, 33.38722], [73.57332000000001, 33.39182], [73.57603, 33.393910000000005], [73.58097000000001, 33.39551], [73.58191000000001, 33.40323], [73.58850000000001, 33.40574], [73.58909000000001, 33.41131], [73.59088000000001, 33.413230000000006], [73.596, 33.415200000000006], [73.59912, 33.41546], [73.60158000000001, 33.41675], [73.60316, 33.41908], [73.60173, 33.422940000000004], [73.59411, 33.423080000000006], [73.58905, 33.4221], [73.58671000000001, 33.422810000000005], [73.58614, 33.425230000000006], [73.58940000000001, 33.42768], [73.59594000000001, 33.429390000000005], [73.59524, 33.43722], [73.59606000000001, 33.43898], [73.604, 33.44003], [73.60721000000001, 33.43809], [73.60937000000001, 33.4382], [73.61131, 33.43871], [73.61313000000001, 33.441230000000004], [73.61592, 33.447700000000005], [73.61978, 33.448330000000006], [73.62644, 33.448040000000006], [73.63089000000001, 33.44684], [73.63189000000001, 33.447590000000005], [73.63248, 33.44937], [73.63207000000001, 33.457980000000006], [73.63053000000001, 33.46005], [73.62824, 33.46155], [73.61995, 33.462520000000005], [73.61915, 33.46495], [73.62013, 33.4729], [73.61867000000001, 33.47616], [73.61634000000001, 33.477070000000005], [73.61437000000001, 33.476150000000004], [73.61311, 33.475010000000005], [73.61266, 33.471630000000005], [73.61047, 33.47093], [73.60987, 33.472640000000006], [73.61094, 33.4823], [73.60425000000001, 33.485800000000005], [73.60508, 33.49156], [73.60207000000001, 33.496680000000005], [73.60294, 33.49924], [73.6054, 33.500330000000005], [73.6113, 33.49927], [73.61633, 33.495850000000004], [73.61868000000001, 33.49535], [73.61999, 33.49709], [73.61941, 33.499320000000004], [73.61213000000001, 33.50883], [73.61145, 33.51306], [73.62045, 33.51586], [73.62274000000001, 33.51816], [73.62570000000001, 33.51962], [73.62779, 33.52253], [73.6303, 33.52442], [73.64111000000001, 33.52554], [73.64177000000001, 33.528510000000004], [73.64102000000001, 33.53174], [73.63755, 33.53349], [73.63074, 33.53519], [73.62661, 33.53777], [73.62441000000001, 33.540870000000005], [73.62409000000001, 33.54328], [73.62736000000001, 33.549730000000004], [73.62527, 33.558220000000006], [73.62575000000001, 33.562000000000005], [73.62785000000001, 33.5651], [73.62876, 33.56806], [73.62869, 33.57108], [73.62194000000001, 33.58072], [73.61079000000001, 33.586040000000004], [73.60605000000001, 33.586650000000006], [73.60498000000001, 33.5887], [73.60594, 33.59245], [73.61172, 33.60079], [73.6119, 33.60378], [73.60915, 33.6055], [73.60296000000001, 33.60217], [73.60090000000001, 33.59967], [73.59854, 33.600170000000006], [73.59538, 33.606910000000006], [73.58827000000001, 33.615410000000004], [73.58549000000001, 33.616730000000004], [73.57542000000001, 33.616170000000004], [73.56995, 33.61661], [73.56716, 33.617740000000005], [73.56902000000001, 33.62465], [73.57601000000001, 33.633340000000004], [73.57774, 33.63806], [73.57729, 33.64228], [73.57358, 33.647830000000006], [73.56789, 33.660070000000005], [73.56746000000001, 33.668490000000006], [73.56881, 33.671020000000006], [73.57754, 33.680640000000004], [73.57868, 33.683580000000006], [73.58842, 33.69015], [73.59819, 33.70149], [73.59998, 33.69829], [73.60187, 33.69032], [73.61342, 33.68032], [73.61793, 33.67114], [73.62938000000001, 33.66429], [73.63372000000001, 33.66033], [73.63614000000001, 33.652370000000005], [73.63956, 33.64668], [73.64873, 33.64338], [73.65949, 33.63741], [73.67071, 33.63722], [73.68976, 33.631620000000005], [73.69526, 33.62814], [73.70021000000001, 33.62158], [73.71122000000001, 33.611200000000004]]]}}]}