{"type": "FeatureCollection", "metadata": {"source": "Survey of India (per src_agency attribute in the source data)", "hosted_via": "National Water Data Portal (NWDP), NWIC, Ministry of Jal Shakti -- https://nwdp.nwic.gov.in/", "access": "public, no login required", "crs_original": "EPSG:7755 (WGS 84 / India NSF LCC)", "fetch_date": "2026-08-02", "quality": "verified-official -- Survey of India source", "state": "Jammu and Kashmir", "district": "Muzaffarabad", "processing": "reprojected to EPSG:4326, topology-preserving simplify (shared-arc, tolerance 0.0005 deg) so adjacent polygons never overlap/gap at shared borders, coords rounded 5dp, 0 feature(s) needed the per-feature fallback", "feature_count": 1}, "features": [{"id": "19", "type": "Feature", "properties": {"village_name": "Data Not Available", "vil_lgd": 999999, "district_name": "Muzaffarabad", "dist_lgd": 999, "subdistrict_name": "Data Not Available", "sdcode": 9999, "block_name": "", "block_lgd": null, "gp_name": "", "state_name": "JAMMU & KASHMIR", "state_lgd": 1, "population": 0, "households": 0}, "geometry": {"type": "Polygon", "coordinates": [[[74.53885000000001, 35.068560000000005], [74.53007000000001, 35.06013], [74.52907, 35.05129], [74.53073, 35.04618], [74.55552, 35.03135], [74.56047000000001, 35.02602], [74.56883, 35.024710000000006], [74.57837, 35.02432], [74.58509000000001, 35.01812], [74.58778000000001, 35.00636], [74.58502, 34.99794], [74.581, 34.99148], [74.5763, 34.98653], [74.57053, 34.97563], [74.56975, 34.96228], [74.57701, 34.913920000000005], [74.57284, 34.90043], [74.57137, 34.888600000000004], [74.56788, 34.883140000000004], [74.55485, 34.878960000000006], [74.54486, 34.87142], [74.53908000000001, 34.86592], [74.52359000000001, 34.86422], [74.50908000000001, 34.87183], [74.50143, 34.871700000000004], [74.4902, 34.865660000000005], [74.4783, 34.864920000000005], [74.46228, 34.86267], [74.45631, 34.86068], [74.44644000000001, 34.853120000000004], [74.43403, 34.846520000000005], [74.42993000000001, 34.822390000000006], [74.42525, 34.817350000000005], [74.41820000000001, 34.814800000000005], [74.41352, 34.809850000000004], [74.39136, 34.80434], [74.34688000000001, 34.796170000000004], [74.33019, 34.79113], [74.32530000000001, 34.793910000000004], [74.31847, 34.79366], [74.31307000000001, 34.791610000000006], [74.30456000000001, 34.785470000000004], [74.29569000000001, 34.777750000000005], [74.28647000000001, 34.766420000000004], [74.27599000000001, 34.75001], [74.27038, 34.74635], [74.26106, 34.74147], [74.24041000000001, 34.73525], [74.23577, 34.73274], [74.22757, 34.72486], [74.22172, 34.72189], [74.20756, 34.720040000000004], [74.20202, 34.717380000000006], [74.17477000000001, 34.6968], [74.16368, 34.690360000000005], [74.14748, 34.68507], [74.14616000000001, 34.68334], [74.14512, 34.67929], [74.14540000000001, 34.67506], [74.14437000000001, 34.67266], [74.13739000000001, 34.668330000000005], [74.13654000000001, 34.66573], [74.13729000000001, 34.657740000000004], [74.13494, 34.65283], [74.13296000000001, 34.651770000000006], [74.11947, 34.651680000000006], [74.11683000000001, 34.652350000000006], [74.11278, 34.65485], [74.10138, 34.66611], [74.09959, 34.67112], [74.09911000000001, 34.67804], [74.10062, 34.68911], [74.09543000000001, 34.691810000000004], [74.09326, 34.689980000000006], [74.09204000000001, 34.686220000000006], [74.08704, 34.6843], [74.07743, 34.685550000000006], [74.07149000000001, 34.68516], [74.06537, 34.68314], [74.05142000000001, 34.68072], [74.04439, 34.6811], [74.04137, 34.682640000000006], [74.03401000000001, 34.69283], [74.02995, 34.694370000000006], [74.01725, 34.694300000000005], [74.00745, 34.687340000000006], [73.99992, 34.685570000000006], [73.99680000000001, 34.683170000000004], [73.99515000000001, 34.68287], [73.98782, 34.682550000000006], [73.98196, 34.685210000000005], [73.97043000000001, 34.688570000000006], [73.9684, 34.684340000000006], [73.96221000000001, 34.676640000000006], [73.95609, 34.67414], [73.95382000000001, 34.672320000000006], [73.95396000000001, 34.66924], [73.95626, 34.6677], [73.95704, 34.66537], [73.95075, 34.66048], [73.9483, 34.656490000000005], [73.94957000000001, 34.653940000000006], [73.95331, 34.652080000000005], [73.95285000000001, 34.64983], [73.95132000000001, 34.64857], [73.94748000000001, 34.64761], [73.93557000000001, 34.6475], [73.93217, 34.64461], [73.93165, 34.64077], [73.93251000000001, 34.6343], [73.93162000000001, 34.63145], [73.93213, 34.626470000000005], [73.93417000000001, 34.62033], [73.93413000000001, 34.61632], [73.93393, 34.614900000000006], [73.9308, 34.61061], [73.92991, 34.604470000000006], [73.93663000000001, 34.601780000000005], [73.94572000000001, 34.59957], [73.95413, 34.59908], [73.95539000000001, 34.59749], [73.95274, 34.58281], [73.96090000000001, 34.582330000000006], [73.95214, 34.56953], [73.95672, 34.5668], [73.95692000000001, 34.5651], [73.9551, 34.56185], [73.94547, 34.554390000000005], [73.94041, 34.55268], [73.93879000000001, 34.554790000000004], [73.90544000000001, 34.52933], [73.90519, 34.52816], [73.90945, 34.524420000000006], [73.91152000000001, 34.519800000000004], [73.90962, 34.51822], [73.90391000000001, 34.51503], [73.89544000000001, 34.514500000000005], [73.88887000000001, 34.500060000000005], [73.88652, 34.488170000000004], [73.88395000000001, 34.483990000000006], [73.88001000000001, 34.48044], [73.87897000000001, 34.47663], [73.87893000000001, 34.47151], [73.88337, 34.46661], [73.88291000000001, 34.46009], [73.88518, 34.462270000000004], [73.88476, 34.44953], [73.87610000000001, 34.450160000000004], [73.8482, 34.42804], [73.84602000000001, 34.429840000000006], [73.83914, 34.43094], [73.8365, 34.428000000000004], [73.83891000000001, 34.42201], [73.83307, 34.42152], [73.80321, 34.42392], [73.80261, 34.4208], [73.80114, 34.41879], [73.79416, 34.41436], [73.79105000000001, 34.4106], [73.78580000000001, 34.40813], [73.78171, 34.40276], [73.77423, 34.398270000000004], [73.76781000000001, 34.386390000000006], [73.76365000000001, 34.384460000000004], [73.76021, 34.38492], [73.75716, 34.38204], [73.75404, 34.38127], [73.75638000000001, 34.378420000000006], [73.75630000000001, 34.376850000000005], [73.75538, 34.37559], [73.75223000000001, 34.37436], [73.74988, 34.368880000000004], [73.74997, 34.36654], [73.75197, 34.3639], [73.7565, 34.362190000000005], [73.75471, 34.352160000000005], [73.75269, 34.346000000000004], [73.76114000000001, 34.344950000000004], [73.76781000000001, 34.337720000000004], [73.77248, 34.335440000000006], [73.77968, 34.333580000000005], [73.78596, 34.334160000000004], [73.79714000000001, 34.338390000000004], [73.79741, 34.34301], [73.79937000000001, 34.34485], [73.80715000000001, 34.344930000000005], [73.81098, 34.34283], [73.80839, 34.337700000000005], [73.80905, 34.3342], [73.81393, 34.333380000000005], [73.82348, 34.32943], [73.83461000000001, 34.33155], [73.83901, 34.328230000000005], [73.84314, 34.32831], [73.85212, 34.32115], [73.85897, 34.323], [73.85919000000001, 34.32529], [73.86152000000001, 34.3286], [73.86280000000001, 34.33458], [73.87059, 34.33379], [73.87063, 34.32999], [73.87599, 34.332080000000005], [73.88403000000001, 34.331360000000004], [73.89143, 34.33686], [73.89376, 34.33963], [73.89890000000001, 34.34002], [73.89903000000001, 34.34673], [73.90023000000001, 34.348780000000005], [73.91163, 34.34799], [73.91281000000001, 34.342090000000006], [73.91769000000001, 34.34037], [73.92235000000001, 34.33646], [73.93334, 34.33502], [73.93356, 34.334430000000005], [73.93074, 34.327490000000004], [73.92463000000001, 34.320260000000005], [73.92572000000001, 34.317260000000005], [73.91934, 34.31293], [73.9145, 34.308170000000004], [73.91468, 34.30379], [73.92707, 34.3035], [73.92699, 34.31006], [73.93855, 34.30932], [73.9385, 34.298390000000005], [73.93374, 34.292550000000006], [73.93379, 34.28277], [73.93805, 34.28249], [73.93950000000001, 34.27772], [73.94192000000001, 34.27441], [73.96821, 34.27414], [73.97972, 34.27158], [73.98214, 34.26908], [73.98394, 34.26395], [73.98248000000001, 34.259460000000004], [73.98414000000001, 34.25652], [73.99274000000001, 34.24604], [74.00011, 34.233990000000006], [74.00432, 34.232040000000005], [74.00616000000001, 34.22974], [74.00782000000001, 34.22238], [74.00713, 34.21571], [74.00011, 34.21347], [73.99816000000001, 34.210620000000006], [73.99788000000001, 34.20835], [73.99856000000001, 34.20167], [74.00029, 34.19856], [74.00307000000001, 34.19655], [74.00517, 34.193740000000005], [74.00526, 34.19232], [74.00423, 34.189420000000005], [73.99996, 34.18522], [73.99866, 34.182210000000005], [73.99255000000001, 34.17551], [73.98542, 34.169450000000005], [73.96910000000001, 34.15892], [73.96031, 34.151070000000004], [73.95429, 34.148160000000004], [73.95004, 34.14753], [73.94385000000001, 34.14502], [73.93629, 34.14387], [73.93152, 34.1415], [73.92876000000001, 34.13799], [73.93097, 34.132000000000005], [73.93058, 34.130100000000006], [73.92761, 34.1281], [73.92797, 34.125930000000004], [73.92677, 34.121460000000006], [73.92848000000001, 34.11793], [73.92838, 34.115120000000005], [73.92614, 34.10653], [73.92592, 34.10459], [73.92659, 34.10361], [73.92158, 34.10331], [73.91874, 34.105720000000005], [73.91208, 34.10537], [73.90773, 34.106100000000005], [73.90570000000001, 34.107420000000005], [73.90526000000001, 34.106950000000005], [73.90364000000001, 34.10152], [73.90437, 34.09687], [73.90346000000001, 34.09302], [73.90151, 34.089270000000006], [73.90230000000001, 34.086960000000005], [73.90073000000001, 34.084880000000005], [73.90003, 34.07974], [73.89630000000001, 34.076800000000006], [73.89536000000001, 34.07446], [73.89171, 34.07229], [73.89235000000001, 34.07063], [73.89048000000001, 34.06861], [73.89025000000001, 34.063750000000006], [73.89501, 34.060230000000004], [73.89713, 34.05331], [73.90152, 34.04704], [73.90575000000001, 34.04388], [73.91039, 34.041360000000005], [73.9144, 34.04012], [73.91808, 34.04003], [73.92284000000001, 34.034240000000004], [73.93226, 34.02756], [73.93695000000001, 34.02181], [73.94105, 34.01932], [73.95258000000001, 34.01534], [73.95880000000001, 34.01483], [73.96045000000001, 34.013670000000005], [73.96417000000001, 34.012910000000005], [73.96652, 34.01097], [73.96932000000001, 34.01283], [73.97395, 34.01305], [73.97797, 34.01456], [73.98231000000001, 34.012710000000006], [73.98721, 34.012420000000006], [73.99512, 34.01836], [73.99845, 34.01923], [74.00421, 34.01672], [74.01326, 34.00851], [74.01665000000001, 34.003170000000004], [74.02463, 34.0], [74.02881000000001, 34.01192], [74.03199000000001, 34.01462], [74.04152, 34.01861], [74.04587000000001, 34.018550000000005], [74.04981000000001, 34.016560000000005], [74.05134000000001, 34.01393], [74.05279, 34.01343], [74.05514000000001, 34.01357], [74.06795000000001, 34.02183], [74.07327000000001, 34.021330000000006], [74.07707, 34.019270000000006], [74.08253, 34.01764], [74.09179, 34.017500000000005], [74.09576000000001, 34.02015], [74.10094000000001, 34.03296], [74.10343, 34.037020000000005], [74.10543000000001, 34.03866], [74.11227000000001, 34.035030000000006], [74.1205, 34.036590000000004], [74.12119000000001, 34.04805], [74.12341, 34.04797], [74.13614000000001, 34.042840000000005], [74.15051000000001, 34.03857], [74.15148, 34.03622], [74.15694, 34.033590000000004], [74.1653, 34.033930000000005], [74.16793000000001, 34.033010000000004], [74.17504000000001, 34.026740000000004], [74.18562, 34.025740000000006], [74.1915, 34.02895], [74.19365, 34.0323], [74.19814000000001, 34.03421], [74.21183, 34.034560000000006], [74.22346, 34.030210000000004], [74.22996, 34.026430000000005], [74.23514, 34.025000000000006], [74.24464, 34.0245], [74.25118, 34.019270000000006], [74.25561, 34.003220000000006], [74.21827, 34.002230000000004], [74.20532, 34.000730000000004], [74.19869, 33.99772], [74.19126, 33.99226], [74.18549, 33.989450000000005], [74.17508000000001, 33.99025], [74.16483000000001, 33.992940000000004], [74.15559, 33.99808], [74.14435, 34.001380000000005], [74.13008, 34.00083], [74.11410000000001, 33.991600000000005], [74.11016000000001, 33.985490000000006], [74.10269000000001, 33.98147], [74.09062, 33.97979], [74.08482000000001, 33.977970000000006], [74.07876, 33.97424], [74.05507, 33.9626], [74.03708, 33.956120000000006], [74.0284, 33.95684], [74.02040000000001, 33.96038], [74.00935000000001, 33.9606], [74.00576000000001, 33.96513], [74.00522000000001, 33.97233], [74.00187000000001, 33.97983], [73.9941, 33.986160000000005], [73.9786, 33.99071], [73.95812000000001, 33.99488], [73.93594, 34.012620000000005], [73.92465, 34.020680000000006], [73.91852, 34.022980000000004], [73.89602000000001, 34.02557], [73.88282000000001, 34.028710000000004], [73.87387000000001, 34.034560000000006], [73.84882, 34.070420000000006], [73.84085, 34.07584], [73.82726000000001, 34.08059], [73.80887000000001, 34.08307], [73.79364000000001, 34.08301], [73.79097, 34.087180000000004], [73.78839, 34.0826], [73.76425, 34.07875], [73.75289000000001, 34.078230000000005], [73.74266, 34.0762], [73.69726, 34.07616], [73.69055, 34.065830000000005], [73.68433, 34.06082], [73.66617000000001, 34.05626], [73.65309, 34.055240000000005], [73.64208, 34.057320000000004], [73.63538000000001, 34.060050000000004], [73.62444, 34.072860000000006], [73.62169, 34.07712], [73.62091000000001, 34.080980000000004], [73.61821, 34.084070000000004], [73.6148, 34.08227], [73.61165000000001, 34.07932], [73.6117, 34.0713], [73.60856000000001, 34.068070000000006], [73.60482, 34.06654], [73.60081000000001, 34.066720000000004], [73.59266000000001, 34.073550000000004], [73.59016000000001, 34.08025], [73.57978, 34.09208], [73.5694, 34.09769], [73.55695, 34.10658], [73.54653, 34.116330000000005], [73.54075, 34.123490000000004], [73.53749, 34.133050000000004], [73.52876, 34.14401], [73.51642000000001, 34.146330000000006], [73.50838, 34.14352], [73.49334, 34.14647], [73.49317, 34.149150000000006], [73.49130000000001, 34.15375], [73.49108000000001, 34.156290000000006], [73.49245, 34.16002], [73.49237000000001, 34.16286], [73.49084, 34.170820000000006], [73.49357, 34.17607], [73.49111, 34.18533], [73.49386000000001, 34.191], [73.49438, 34.195310000000006], [73.49275, 34.20156], [73.49336000000001, 34.203230000000005], [73.49861, 34.208270000000006], [73.49854, 34.211220000000004], [73.48202, 34.23087], [73.47737000000001, 34.24369], [73.47374, 34.248580000000004], [73.47283, 34.252300000000005], [73.47304000000001, 34.25976], [73.47594000000001, 34.26774], [73.48448, 34.274640000000005], [73.48439, 34.277170000000005], [73.48208000000001, 34.28085], [73.48081, 34.289440000000006], [73.47856, 34.291290000000004], [73.47550000000001, 34.29133], [73.47199, 34.2838], [73.45986, 34.276210000000006], [73.45671, 34.276450000000004], [73.45542, 34.278090000000006], [73.45558000000001, 34.280820000000006], [73.45895, 34.284040000000005], [73.46065, 34.286910000000006], [73.46041000000001, 34.28914], [73.45224, 34.30053], [73.44555000000001, 34.30313], [73.44662000000001, 34.30613], [73.44720000000001, 34.313370000000006], [73.44452000000001, 34.321380000000005], [73.4418, 34.324650000000005], [73.43311, 34.327650000000006], [73.42856, 34.33205], [73.42507, 34.337250000000004], [73.42467, 34.33894], [73.43072000000001, 34.34458], [73.42994, 34.3463], [73.42884000000001, 34.34698], [73.42134, 34.34666], [73.41662000000001, 34.350440000000006], [73.40786, 34.350280000000005], [73.4043, 34.35432], [73.40301000000001, 34.36227], [73.40084, 34.366150000000005], [73.3961, 34.371610000000004], [73.39606, 34.37308], [73.39913, 34.37548], [73.40915000000001, 34.37758], [73.41046, 34.38026], [73.41072000000001, 34.384570000000004], [73.41391, 34.39106], [73.41401, 34.394740000000006], [73.41617000000001, 34.40106], [73.41799, 34.403830000000006], [73.42323, 34.41886], [73.42774, 34.42604], [73.42601, 34.439260000000004], [73.42578, 34.456210000000006], [73.42451000000001, 34.460260000000005], [73.4218, 34.46374], [73.42194, 34.46605], [73.42699, 34.47373], [73.43352, 34.48071], [73.43517, 34.48485], [73.43727000000001, 34.50654], [73.43118000000001, 34.51921], [73.43081000000001, 34.521330000000006], [73.43127000000001, 34.52268], [73.44087, 34.52785], [73.44630000000001, 34.53961], [73.44653000000001, 34.543530000000004], [73.44348000000001, 34.555580000000006], [73.44825, 34.56709], [73.45046, 34.56994], [73.45384, 34.57106], [73.46394000000001, 34.5719], [73.47021000000001, 34.56848], [73.49324, 34.57475], [73.49958000000001, 34.574380000000005], [73.51716, 34.570890000000006], [73.52718, 34.57036], [73.53218000000001, 34.570980000000006], [73.53871000000001, 34.573750000000004], [73.54475000000001, 34.57875], [73.55497000000001, 34.58957], [73.55613000000001, 34.58984], [73.57228, 34.583670000000005], [73.57698, 34.58357], [73.58496000000001, 34.58512], [73.61115000000001, 34.58482], [73.61563000000001, 34.58126], [73.62519, 34.57558], [73.63301000000001, 34.56261], [73.63733, 34.56053], [73.646, 34.56089], [73.65026, 34.561960000000006], [73.65516000000001, 34.572900000000004], [73.65858, 34.576640000000005], [73.6598, 34.579750000000004], [73.65986000000001, 34.58458], [73.65413000000001, 34.596410000000006], [73.65376, 34.600530000000006], [73.66773, 34.618010000000005], [73.67787000000001, 34.62724], [73.69048000000001, 34.6411], [73.69468, 34.647020000000005], [73.69500000000001, 34.65005], [73.69292, 34.6533], [73.68772000000001, 34.655530000000006], [73.66351, 34.66322], [73.66026000000001, 34.6661], [73.65885, 34.66995], [73.65905000000001, 34.673100000000005], [73.66648, 34.68327], [73.66828000000001, 34.68827], [73.67047000000001, 34.690160000000006], [73.67536000000001, 34.691], [73.67897, 34.693580000000004], [73.68135000000001, 34.696940000000005], [73.68458000000001, 34.707530000000006], [73.68798000000001, 34.71085], [73.69777, 34.71642], [73.70463000000001, 34.722010000000004], [73.70766, 34.72755], [73.71185000000001, 34.742940000000004], [73.71922, 34.752390000000005], [73.72085000000001, 34.755900000000004], [73.72236000000001, 34.76341], [73.72994, 34.772220000000004], [73.73139, 34.772890000000004], [73.73551, 34.771660000000004], [73.73710000000001, 34.77254], [73.74699000000001, 34.77946], [73.75630000000001, 34.78735], [73.76708, 34.79424], [73.77231, 34.796110000000006], [73.77634, 34.7954], [73.78373, 34.79139], [73.80078, 34.79473], [73.80460000000001, 34.794560000000004], [73.81803000000001, 34.791320000000006], [73.82178, 34.792100000000005], [73.82418000000001, 34.793670000000006], [73.83433000000001, 34.81026], [73.83771, 34.81316], [73.84314, 34.814280000000004], [73.85314000000001, 34.8093], [73.85666, 34.808510000000005], [73.86299000000001, 34.80959], [73.87094, 34.81407], [73.87678000000001, 34.81559], [73.88224000000001, 34.81524], [73.88884, 34.81662], [73.89499, 34.81897], [73.89932, 34.81877], [73.90188, 34.817080000000004], [73.90491, 34.81284], [73.91937, 34.81165], [73.92271000000001, 34.813810000000004], [73.92577, 34.81756], [73.92893000000001, 34.83046], [73.93047, 34.832390000000004], [73.93269000000001, 34.833130000000004], [73.93828, 34.832770000000004], [73.95135, 34.83364], [73.95799000000001, 34.83554], [73.96100000000001, 34.83856], [73.96118000000001, 34.843070000000004], [73.96415, 34.84736], [73.96523, 34.850150000000006], [73.96469, 34.85164], [73.96641000000001, 34.8543], [73.96743000000001, 34.863760000000006], [73.97661000000001, 34.86361], [73.99272, 34.86592], [73.99909000000001, 34.86885], [73.99963000000001, 34.874700000000004], [74.00051, 34.87523], [74.00568000000001, 34.87326], [74.01504, 34.87525], [74.01686000000001, 34.87332], [74.02043, 34.872460000000004], [74.02627000000001, 34.874030000000005], [74.02992, 34.87628], [74.0308, 34.883030000000005], [74.03839, 34.88774], [74.04197, 34.89103], [74.04165, 34.892540000000004], [74.03593000000001, 34.898790000000005], [74.03472000000001, 34.901500000000006], [74.03435, 34.906240000000004], [74.0365, 34.91109], [74.03720000000001, 34.919230000000006], [74.03887, 34.921110000000006], [74.04793000000001, 34.92287], [74.05367000000001, 34.9249], [74.06438, 34.932230000000004], [74.06993, 34.9337], [74.07117000000001, 34.935480000000005], [74.06684, 34.951690000000006], [74.06415000000001, 34.95722], [74.06496, 34.96087], [74.06442000000001, 34.9632], [74.06096000000001, 34.96773], [74.06222000000001, 34.973890000000004], [74.06103, 34.976940000000006], [74.06155000000001, 34.98037], [74.06329000000001, 34.98328], [74.05977, 34.98702], [74.05900000000001, 34.99004], [74.05932, 34.99268], [74.06555, 34.99779], [74.08961000000001, 35.001780000000004], [74.09482000000001, 35.00426], [74.09515, 35.00728], [74.09750000000001, 35.01048], [74.10361, 35.0142], [74.10974, 35.01608], [74.10588, 35.018370000000004], [74.10344, 35.0219], [74.1019, 35.02667], [74.09829, 35.03208], [74.09488, 35.03399], [74.09188, 35.03266], [74.08943000000001, 35.03296], [74.07796, 35.03866], [74.07672000000001, 35.04166], [74.07342000000001, 35.045770000000005], [74.06674000000001, 35.04627], [74.07148000000001, 35.051750000000006], [74.07159, 35.05322], [74.07358, 35.0546], [74.07117000000001, 35.058490000000006], [74.07294, 35.06145], [74.07990000000001, 35.06812], [74.08083, 35.070190000000004], [74.08191000000001, 35.079370000000004], [74.08840000000001, 35.0841], [74.09387000000001, 35.091950000000004], [74.10029, 35.097260000000006], [74.10143000000001, 35.099140000000006], [74.1114, 35.1007], [74.11915, 35.104200000000006], [74.13239, 35.10293], [74.13355, 35.10352], [74.13374, 35.10465], [74.14467, 35.09579], [74.15611000000001, 35.090880000000006], [74.19131, 35.090920000000004], [74.21514, 35.093720000000005], [74.22022000000001, 35.08858], [74.21755, 35.08223], [74.21993, 35.07533], [74.22349000000001, 35.073600000000006], [74.22698000000001, 35.0743], [74.23523, 35.081390000000006], [74.24022000000001, 35.07914], [74.2425, 35.07224], [74.24141, 35.06006], [74.24513, 35.052110000000006], [74.25587, 35.044200000000004], [74.26517000000001, 35.04086], [74.27769, 35.04397], [74.28823000000001, 35.04768], [74.29155, 35.05467], [74.29271, 35.06452], [74.30523000000001, 35.06763], [74.33124000000001, 35.06692], [74.34752, 35.064870000000006], [74.37566000000001, 35.066], [74.38198000000001, 35.067820000000005], [74.39956000000001, 35.091820000000006], [74.41062000000001, 35.101290000000006], [74.41529000000001, 35.111740000000005], [74.42705000000001, 35.119510000000005], [74.43874000000001, 35.13007], [74.43994, 35.12594], [74.4585, 35.12527], [74.49944, 35.115590000000005], [74.51224, 35.10354], [74.51974000000001, 35.092850000000006], [74.5398, 35.074980000000004], [74.53885000000001, 35.068560000000005]]]}}]}