{"type": "FeatureCollection", "metadata": {"source": "Survey of India (per src_agency attribute in the source data)", "hosted_via": "National Water Data Portal (NWDP), NWIC, Ministry of Jal Shakti -- https://nwdp.nwic.gov.in/", "access": "public, no login required", "crs_original": "EPSG:7755 (WGS 84 / India NSF LCC)", "fetch_date": "2026-08-02", "quality": "verified-official -- Survey of India source", "state": "Jammu and Kashmir", "district": "Srinagar", "processing": "reprojected to EPSG:4326, topology-preserving simplify (shared-arc, tolerance 0.0005 deg) so adjacent polygons never overlap/gap at shared borders, coords rounded 5dp, 0 feature(s) needed the per-feature fallback", "feature_count": 19}, "features": [{"id": "0", "type": "Feature", "properties": {"village_name": "Badamibagh", "vil_lgd": 277283, "district_name": "Srinagar", "dist_lgd": 13, "subdistrict_name": "Srinagar (North)", "sdcode": 43, "block_name": "", "block_lgd": 0.0, "gp_name": "", "state_name": "JAMMU & KASHMIR", "state_lgd": 1, "population": 22214, "households": 3324}, "geometry": {"type": "Polygon", "coordinates": [[[74.87557000000001, 34.19671], [74.8746, 34.19511], [74.87639, 34.19388], [74.87815, 34.19023], [74.88567, 34.19093], [74.90198000000001, 34.18005], [74.90574000000001, 34.17831], [74.908, 34.175810000000006], [74.91096, 34.17483], [74.91188000000001, 34.17353], [74.91896000000001, 34.174400000000006], [74.91839, 34.16261], [74.91654000000001, 34.15704], [74.90502000000001, 34.15782], [74.90267, 34.15375], [74.9007, 34.152210000000004], [74.88998000000001, 34.14896], [74.88806000000001, 34.147310000000004], [74.88786, 34.145830000000004], [74.8889, 34.14298], [74.88813, 34.139610000000005], [74.89222000000001, 34.137010000000004], [74.89266, 34.135960000000004], [74.89252, 34.13201], [74.89142000000001, 34.131], [74.88940000000001, 34.13073], [74.8891, 34.12912], [74.89372, 34.12471], [74.89497, 34.121610000000004], [74.89109, 34.119260000000004], [74.89353000000001, 34.11867], [74.89578, 34.11439], [74.89798, 34.106100000000005], [74.90181000000001, 34.104000000000006], [74.90309, 34.101040000000005], [74.90294, 34.09872], [74.90756, 34.097730000000006], [74.91094000000001, 34.095600000000005], [74.91189, 34.093210000000006], [74.91031000000001, 34.0921], [74.90297000000001, 34.09394], [74.90213, 34.095000000000006], [74.90119, 34.09404], [74.9003, 34.095090000000006], [74.89849000000001, 34.094930000000005], [74.89592, 34.09302], [74.89186000000001, 34.09512], [74.88863, 34.09487], [74.88828000000001, 34.090210000000006], [74.89041, 34.08662], [74.88793000000001, 34.081950000000006], [74.88623000000001, 34.080740000000006], [74.88481, 34.07976], [74.88178, 34.07972], [74.8784, 34.083760000000005], [74.87093, 34.082640000000005], [74.87079, 34.081410000000005], [74.86834, 34.080780000000004], [74.86763, 34.079950000000004], [74.86728000000001, 34.073730000000005], [74.86196000000001, 34.07437], [74.85983, 34.07005], [74.86862, 34.057], [74.86958, 34.05422], [74.8669, 34.05227], [74.86670000000001, 34.05098], [74.86715000000001, 34.0501], [74.87165, 34.048860000000005], [74.87313, 34.04647], [74.87543000000001, 34.044810000000005], [74.88260000000001, 34.04348], [74.88817, 34.044270000000004], [74.89077, 34.04768], [74.89500000000001, 34.04932], [74.89641, 34.04887], [74.89786000000001, 34.04603], [74.89837, 34.04679], [74.90326, 34.04731], [74.91131, 34.050340000000006], [74.91629, 34.05095], [74.92099, 34.05379], [74.92264, 34.05391], [74.92263000000001, 34.055710000000005], [74.91904000000001, 34.06101], [74.91669, 34.06212], [74.91742, 34.06264], [74.92153, 34.060930000000006], [74.92739, 34.062490000000004], [74.92987000000001, 34.065340000000006], [74.93050000000001, 34.069160000000004], [74.93196, 34.06913], [74.93274000000001, 34.06593], [74.93576, 34.065760000000004], [74.94103000000001, 34.06946], [74.94347, 34.07316], [74.94427, 34.07609], [74.94465000000001, 34.076530000000005], [74.94556, 34.075190000000006], [74.94644000000001, 34.0752], [74.94788000000001, 34.0784], [74.94935000000001, 34.078720000000004], [74.94986, 34.07437], [74.95488, 34.07448], [74.95783, 34.0722], [74.95970000000001, 34.07289], [74.96775000000001, 34.06843], [74.97831000000001, 34.06671], [74.97691, 34.064350000000005], [74.97702000000001, 34.05731], [74.97516, 34.05438], [74.97908000000001, 34.052310000000006], [74.97304000000001, 34.0523], [74.97216, 34.049890000000005], [74.97003000000001, 34.04872], [74.96509, 34.05002], [74.96305000000001, 34.04883], [74.95904, 34.04596], [74.95992000000001, 34.043290000000006], [74.9576, 34.04139], [74.95886, 34.040200000000006], [74.95661000000001, 34.04037], [74.95678000000001, 34.03947], [74.95582, 34.039300000000004], [74.95637, 34.038230000000006], [74.95471, 34.03752], [74.95523, 34.03701], [74.95456, 34.03665], [74.95546, 34.03589], [74.95441000000001, 34.03546], [74.95496, 34.03426], [74.95204000000001, 34.03208], [74.95166, 34.02969], [74.94553, 34.02875], [74.94322000000001, 34.026830000000004], [74.9407, 34.02694], [74.93686000000001, 34.02841], [74.93533000000001, 34.027840000000005], [74.93115, 34.02877], [74.93046000000001, 34.03016], [74.93093, 34.03087], [74.92882, 34.03099], [74.92935, 34.03381], [74.92801, 34.03571], [74.92845000000001, 34.03683], [74.92711000000001, 34.03775], [74.92278, 34.036440000000006], [74.92152, 34.034470000000006], [74.92205000000001, 34.031890000000004], [74.91948000000001, 34.029700000000005], [74.91822, 34.03058], [74.9167, 34.02939], [74.91472, 34.032790000000006], [74.91609000000001, 34.03571], [74.91557, 34.037150000000004], [74.91285, 34.03569], [74.90305000000001, 34.034960000000005], [74.90144000000001, 34.033590000000004], [74.88334, 34.03878], [74.87679, 34.03549], [74.8712, 34.035340000000005], [74.86477000000001, 34.03849], [74.8618, 34.04079], [74.85715, 34.04749], [74.84923, 34.05143], [74.84674000000001, 34.05174], [74.83905, 34.04594], [74.83935000000001, 34.044790000000006], [74.83797000000001, 34.044940000000004], [74.83672, 34.04354], [74.83739, 34.0424], [74.83703000000001, 34.039550000000006], [74.83033, 34.0306], [74.82668000000001, 34.028740000000006], [74.8229, 34.030240000000006], [74.82140000000001, 34.03168], [74.82235, 34.03378], [74.83223000000001, 34.04544], [74.82045000000001, 34.05281], [74.81036, 34.062670000000004], [74.80029, 34.070910000000005], [74.83988000000001, 34.07464], [74.85129, 34.077000000000005], [74.8589, 34.08113], [74.86935000000001, 34.089600000000004], [74.87648, 34.099630000000005], [74.88076000000001, 34.11144], [74.881, 34.11695], [74.87839000000001, 34.126000000000005], [74.87458000000001, 34.131510000000006], [74.86888, 34.13702], [74.85818, 34.146460000000005], [74.85153000000001, 34.146660000000004], [74.84202, 34.145680000000006], [74.83941, 34.1736], [74.82514, 34.17105], [74.82522, 34.17526], [74.82933000000001, 34.17515], [74.84016000000001, 34.177330000000005], [74.84826000000001, 34.17768], [74.85443000000001, 34.18054], [74.85539, 34.18226], [74.85538000000001, 34.18694], [74.85768, 34.19957], [74.85978, 34.2014], [74.86435, 34.203430000000004], [74.87246, 34.20098], [74.87557000000001, 34.19671]], [[74.8699, 34.174440000000004], [74.87171000000001, 34.170460000000006], [74.87502, 34.167590000000004], [74.87577, 34.16796], [74.87833, 34.17494], [74.87653, 34.17992], [74.87126, 34.18092], [74.86915, 34.180170000000004], [74.8699, 34.174440000000004]]]}}, {"id": "1", "type": "Feature", "properties": {"village_name": "Srinagar Municipal Corporation", "vil_lgd": 248156, "district_name": "Srinagar", "dist_lgd": 13, "subdistrict_name": "Srinagar (South)", "sdcode": 44, "block_name": "", "block_lgd": 0.0, "gp_name": "", "state_name": "JAMMU & KASHMIR", "state_lgd": 1, "population": 6297, "households": 1169}, "geometry": {"type": "Polygon", "coordinates": [[[74.77341000000001, 34.09642], [74.77678, 34.09373], [74.78054, 34.09086], [74.78355, 34.08986], [74.78627, 34.090360000000004], [74.79651000000001, 34.09485], [74.79831, 34.09485], [74.80087, 34.0931], [74.80298, 34.08899], [74.80404, 34.084250000000004], [74.80328, 34.081010000000006], [74.79545, 34.07976], [74.79199000000001, 34.07627], [74.80029, 34.070910000000005], [74.81036, 34.062670000000004], [74.82045000000001, 34.05281], [74.83223000000001, 34.04544], [74.82593, 34.04603], [74.81498, 34.04496], [74.81311000000001, 34.04784], [74.80807, 34.05107], [74.79277, 34.05118], [74.78745, 34.053380000000004], [74.78669000000001, 34.036680000000004], [74.79276, 34.03571], [74.79115, 34.03271], [74.78734, 34.03201], [74.7844, 34.03011], [74.78276000000001, 34.02639], [74.77688, 34.02958], [74.78214000000001, 34.034850000000006], [74.77968, 34.03976], [74.77602, 34.039750000000005], [74.77254, 34.04103], [74.77368000000001, 34.043780000000005], [74.77145, 34.047520000000006], [74.76766, 34.04952], [74.76662, 34.05548], [74.76458000000001, 34.05773], [74.75905, 34.05962], [74.75869, 34.06036], [74.76031, 34.06197], [74.76197, 34.06777], [74.76491, 34.069770000000005], [74.76647000000001, 34.069030000000005], [74.7715, 34.07193], [74.76582, 34.0741], [74.75311, 34.08449], [74.74356, 34.090920000000004], [74.72043000000001, 34.0953], [74.71806000000001, 34.09496], [74.71749000000001, 34.09348], [74.71698, 34.0944], [74.71506000000001, 34.094570000000004], [74.71458000000001, 34.093700000000005], [74.71388, 34.094620000000006], [74.71016, 34.09535], [74.70928, 34.09595], [74.70836000000001, 34.100460000000005], [74.71211000000001, 34.10598], [74.71154, 34.1071], [74.70627, 34.108380000000004], [74.70542, 34.107380000000006], [74.70756, 34.104980000000005], [74.70314, 34.10383], [74.70094, 34.1], [74.69243, 34.09729], [74.69176, 34.09608], [74.6881, 34.09479], [74.68545, 34.09741], [74.68621, 34.100460000000005], [74.68416, 34.09996], [74.68169, 34.100660000000005], [74.68262, 34.10314], [74.68449000000001, 34.10506], [74.68338, 34.10598], [74.68167000000001, 34.10584], [74.67972, 34.10441], [74.67614, 34.10582], [74.67511, 34.107380000000006], [74.67711000000001, 34.109120000000004], [74.68565000000001, 34.111450000000005], [74.68650000000001, 34.11428], [74.68605000000001, 34.11903], [74.69174000000001, 34.12379], [74.68451, 34.128060000000005], [74.69068, 34.13335], [74.70565, 34.12371], [74.70339000000001, 34.11554], [74.70755000000001, 34.114760000000004], [74.71154, 34.12764], [74.70498, 34.1304], [74.68638, 34.14426], [74.69275, 34.15251], [74.69806000000001, 34.155010000000004], [74.70234, 34.15551], [74.71293, 34.144220000000004], [74.72588, 34.13313], [74.73858000000001, 34.12397], [74.77341000000001, 34.09642]]]}}, {"id": "2", "type": "Feature", "properties": {"village_name": "Soitengo", "vil_lgd": 2832, "district_name": "Srinagar", "dist_lgd": 13, "subdistrict_name": "Panthachowk", "sdcode": 6804, "block_name": "Srinagar", "block_lgd": 77.0, "gp_name": "Soiteng", "state_name": "JAMMU & KASHMIR", "state_lgd": 1, "population": 2362, "households": 425}, "geometry": {"type": "Polygon", "coordinates": [[[74.79258, 34.04314], [74.79365, 34.040670000000006], [74.79276, 34.03571], [74.78669000000001, 34.036680000000004], [74.78745, 34.053380000000004], [74.79277, 34.05118], [74.79258, 34.04314]]]}}, {"id": "3", "type": "Feature", "properties": {"village_name": "Kursu Padshahi Bagh Partly", "vil_lgd": 2833, "district_name": "Srinagar", "dist_lgd": 13, "subdistrict_name": "Srinagar (South)", "sdcode": 44, "block_name": "Ganderbal", "block_lgd": 81.0, "gp_name": "NA", "state_name": "JAMMU & KASHMIR", "state_lgd": 1, "population": 1411, "households": 248}, "geometry": {"type": "Polygon", "coordinates": [[[74.80293, 34.04627], [74.79704000000001, 34.044140000000006], [74.79457000000001, 34.042480000000005], [74.79365, 34.040670000000006], [74.79258, 34.04314], [74.79277, 34.05118], [74.80807, 34.05107], [74.80293, 34.04627]]]}}, {"id": "4", "type": "Feature", "properties": {"village_name": "Khonmoh", "vil_lgd": 2830, "district_name": "Srinagar", "dist_lgd": 13, "subdistrict_name": "Srinagar (North)", "sdcode": 43, "block_name": "", "block_lgd": null, "gp_name": "", "state_name": "JAMMU & KASHMIR", "state_lgd": 1, "population": 2664, "households": 216}, "geometry": {"type": "Polygon", "coordinates": [[[75.0, 34.08285], [75.00174000000001, 34.08171], [75.00174000000001, 34.08059], [75.00136, 34.079460000000005], [74.99647, 34.076980000000006], [74.99058000000001, 34.07535], [74.98756, 34.07245], [74.983, 34.071270000000005], [74.97831000000001, 34.06671], [74.96775000000001, 34.06843], [74.95970000000001, 34.07289], [74.96285, 34.07688], [74.96728, 34.07594], [74.97170000000001, 34.07667], [74.97333, 34.0808], [74.97921000000001, 34.081540000000004], [74.98052000000001, 34.08243], [74.98205, 34.08733], [74.97836000000001, 34.09056], [74.97632, 34.098060000000004], [74.97936, 34.098150000000004], [74.98282, 34.096790000000006], [74.98656000000001, 34.093270000000004], [74.99087, 34.09113], [74.99144000000001, 34.090610000000005], [74.99084, 34.08791], [74.99138, 34.085730000000005], [74.99333, 34.08505], [74.99555000000001, 34.081920000000004], [75.0, 34.08285]]]}}, {"id": "5", "type": "Feature", "properties": {"village_name": "Lasjan", "vil_lgd": 2835, "district_name": "Srinagar", "dist_lgd": 13, "subdistrict_name": "Panthachowk", "sdcode": 6804, "block_name": "", "block_lgd": null, "gp_name": "", "state_name": "JAMMU & KASHMIR", "state_lgd": 1, "population": 5281, "households": 876}, "geometry": {"type": "Polygon", "coordinates": [[[74.79999000000001, 34.029880000000006], [74.80040000000001, 34.02828], [74.79895, 34.02812], [74.79463000000001, 34.02996], [74.79343, 34.029160000000005], [74.79867, 34.022270000000006], [74.79873, 34.020970000000005], [74.79777, 34.020270000000004], [74.79549, 34.020410000000005], [74.7869, 34.025400000000005], [74.78276000000001, 34.02639], [74.7844, 34.03011], [74.78734, 34.03201], [74.79115, 34.03271], [74.79276, 34.03571], [74.7959, 34.035000000000004], [74.79818, 34.03161], [74.79999000000001, 34.029880000000006]]]}}, {"id": "6", "type": "Feature", "properties": {"village_name": "Now Gam CT", "vil_lgd": 2834, "district_name": "Srinagar", "dist_lgd": 13, "subdistrict_name": "Srinagar (South)", "sdcode": 44, "block_name": "", "block_lgd": null, "gp_name": "", "state_name": "JAMMU & KASHMIR", "state_lgd": 1, "population": 2490, "households": 420}, "geometry": {"type": "Polygon", "coordinates": [[[74.79856000000001, 34.03835], [74.80024, 34.0368], [74.80207, 34.028470000000006], [74.80040000000001, 34.02828], [74.79999000000001, 34.029880000000006], [74.79818, 34.03161], [74.7959, 34.035000000000004], [74.79276, 34.03571], [74.79365, 34.040670000000006], [74.79457000000001, 34.042480000000005], [74.79704000000001, 34.044140000000006], [74.79987000000001, 34.0413], [74.79856000000001, 34.03835]]]}}, {"id": "7", "type": "Feature", "properties": {"village_name": "Bagi I Mehtab Joo", "vil_lgd": 2836, "district_name": "Srinagar", "dist_lgd": 13, "subdistrict_name": "Channapora", "sdcode": 6802, "block_name": "", "block_lgd": null, "gp_name": "", "state_name": "JAMMU & KASHMIR", "state_lgd": 1, "population": 0, "households": 0}, "geometry": {"type": "Polygon", "coordinates": [[[74.80838, 34.04466], [74.79987000000001, 34.0413], [74.79704000000001, 34.044140000000006], [74.80293, 34.04627], [74.80807, 34.05107], [74.81311000000001, 34.04784], [74.81498, 34.04496], [74.80838, 34.04466]]]}}, {"id": "8", "type": "Feature", "properties": {"village_name": "Abdullah Pora Panji Nara", "vil_lgd": 2831, "district_name": "Srinagar", "dist_lgd": 13, "subdistrict_name": "Srinagar (South)", "sdcode": 44, "block_name": "Srinagar", "block_lgd": 77.0, "gp_name": "Panji Nara", "state_name": "JAMMU & KASHMIR", "state_lgd": 1, "population": 2630, "households": 461}, "geometry": {"type": "Polygon", "coordinates": [[[74.67683000000001, 34.13045], [74.67471, 34.12868], [74.67563000000001, 34.13219], [74.68638, 34.14426], [74.70498, 34.1304], [74.71154, 34.12764], [74.70755000000001, 34.114760000000004], [74.70339000000001, 34.11554], [74.70565, 34.12371], [74.69068, 34.13335], [74.68451, 34.128060000000005], [74.67683000000001, 34.13045]]]}}, {"id": "9", "type": "Feature", "properties": {"village_name": "Takiya Sangreshi", "vil_lgd": 2822, "district_name": "Srinagar", "dist_lgd": 13, "subdistrict_name": "Srinagar (North)", "sdcode": 43, "block_name": "Srinagar", "block_lgd": 77.0, "gp_name": "CHATTERHAME", "state_name": "JAMMU & KASHMIR", "state_lgd": 1, "population": 254, "households": 39}, "geometry": {"type": "Polygon", "coordinates": [[[74.88130000000001, 34.208740000000006], [74.88152000000001, 34.20631], [74.8841, 34.20331], [74.87823, 34.20311], [74.87609, 34.2021], [74.87496, 34.20056], [74.876, 34.19848], [74.87557000000001, 34.19671], [74.87246, 34.20098], [74.86435, 34.203430000000004], [74.86656, 34.20512], [74.87065000000001, 34.205940000000005], [74.87288000000001, 34.21201], [74.87361, 34.21222], [74.87543000000001, 34.20996], [74.87666, 34.207240000000006], [74.88130000000001, 34.208740000000006]]]}}, {"id": "10", "type": "Feature", "properties": {"village_name": "Faquir Gujree", "vil_lgd": 2823, "district_name": "Srinagar", "dist_lgd": 13, "subdistrict_name": "Srinagar (North)", "sdcode": 43, "block_name": "Srinagar", "block_lgd": 77.0, "gp_name": "DARA", "state_name": "JAMMU & KASHMIR", "state_lgd": 1, "population": 1900, "households": 309}, "geometry": {"type": "Polygon", "coordinates": [[[74.92674000000001, 34.20286], [74.92625000000001, 34.19919], [74.92343000000001, 34.197], [74.92204000000001, 34.192800000000005], [74.92046, 34.19084], [74.91652, 34.19005], [74.91885, 34.187780000000004], [74.91986, 34.18529], [74.90526000000001, 34.193360000000006], [74.90609, 34.19395], [74.90637000000001, 34.1963], [74.90868, 34.19671], [74.90917, 34.19899], [74.91155, 34.19778], [74.91438000000001, 34.199070000000006], [74.91587000000001, 34.202670000000005], [74.91741, 34.19971], [74.92020000000001, 34.200100000000006], [74.92025000000001, 34.20411], [74.92344, 34.205850000000005], [74.92674000000001, 34.20286]]]}}, {"id": "11", "type": "Feature", "properties": {"village_name": "Mulinar", "vil_lgd": 2825, "district_name": "Srinagar", "dist_lgd": 13, "subdistrict_name": "Srinagar (North)", "sdcode": 43, "block_name": "Ganderbal", "block_lgd": 81.0, "gp_name": "HARWAN", "state_name": "JAMMU & KASHMIR", "state_lgd": 1, "population": 399, "households": 69}, "geometry": {"type": "Polygon", "coordinates": [[[74.93211000000001, 34.16192], [74.93366, 34.159560000000006], [74.93372000000001, 34.15777], [74.93015000000001, 34.153420000000004], [74.92659, 34.15265], [74.92402000000001, 34.155530000000006], [74.91816, 34.15348], [74.91654000000001, 34.15704], [74.91839, 34.16261], [74.91896000000001, 34.174400000000006], [74.92412, 34.172990000000006], [74.92324, 34.168350000000004], [74.92593000000001, 34.16107], [74.93211000000001, 34.16192]]]}}, {"id": "12", "type": "Feature", "properties": {"village_name": "Dara", "vil_lgd": 2824, "district_name": "Srinagar", "dist_lgd": 13, "subdistrict_name": "Srinagar (North)", "sdcode": 43, "block_name": "Srinagar", "block_lgd": 77.0, "gp_name": "DARA", "state_name": "JAMMU & KASHMIR", "state_lgd": 1, "population": 3177, "households": 510}, "geometry": {"type": "Polygon", "coordinates": [[[74.89638000000001, 34.191210000000005], [74.90526000000001, 34.193360000000006], [74.91986, 34.18529], [74.92663, 34.185050000000004], [74.92791000000001, 34.184400000000004], [74.9248, 34.182390000000005], [74.92485, 34.179950000000005], [74.92374000000001, 34.178940000000004], [74.92021000000001, 34.178020000000004], [74.91706, 34.17913], [74.91039, 34.17566], [74.91096, 34.17483], [74.908, 34.175810000000006], [74.90574000000001, 34.17831], [74.90198000000001, 34.18005], [74.88567, 34.19093], [74.88733, 34.192440000000005], [74.89094, 34.19323], [74.89244000000001, 34.19265], [74.89638000000001, 34.191210000000005]]]}}, {"id": "13", "type": "Feature", "properties": {"village_name": "Inder Hama", "vil_lgd": 2826, "district_name": "Srinagar", "dist_lgd": 13, "subdistrict_name": "Srinagar (North)", "sdcode": 43, "block_name": "Ganderbal", "block_lgd": 81.0, "gp_name": "BURZATHMA", "state_name": "JAMMU & KASHMIR", "state_lgd": 1, "population": 294, "households": 50}, "geometry": {"type": "Polygon", "coordinates": [[[74.87502, 34.167590000000004], [74.87171000000001, 34.170460000000006], [74.8699, 34.174440000000004], [74.86915, 34.180170000000004], [74.87126, 34.18092], [74.87653, 34.17992], [74.87833, 34.17494], [74.87577, 34.16796], [74.87502, 34.167590000000004]]]}}, {"id": "14", "type": "Feature", "properties": {"village_name": "Srinagar Municipal Corporation", "vil_lgd": 248156, "district_name": "Srinagar", "dist_lgd": 13, "subdistrict_name": "Srinagar (North)", "sdcode": 43, "block_name": "", "block_lgd": 0.0, "gp_name": "", "state_name": "JAMMU & KASHMIR", "state_lgd": 1, "population": 1180570, "households": 182829}, "geometry": {"type": "Polygon", "coordinates": [[[74.82305000000001, 34.176370000000006], [74.82522, 34.17526], [74.82514, 34.17105], [74.83941, 34.1736], [74.84202, 34.145680000000006], [74.85153000000001, 34.146660000000004], [74.85818, 34.146460000000005], [74.86888, 34.13702], [74.87458000000001, 34.131510000000006], [74.87839000000001, 34.126000000000005], [74.881, 34.11695], [74.88076000000001, 34.11144], [74.87648, 34.099630000000005], [74.86935000000001, 34.089600000000004], [74.8589, 34.08113], [74.85129, 34.077000000000005], [74.83988000000001, 34.07464], [74.80029, 34.070910000000005], [74.79199000000001, 34.07627], [74.79545, 34.07976], [74.80328, 34.081010000000006], [74.80404, 34.084250000000004], [74.80298, 34.08899], [74.80087, 34.0931], [74.79831, 34.09485], [74.79651000000001, 34.09485], [74.78627, 34.090360000000004], [74.78355, 34.08986], [74.78054, 34.09086], [74.77678, 34.09373], [74.7903, 34.0992], [74.78654, 34.10119], [74.78262000000001, 34.100950000000005], [74.77976000000001, 34.101440000000004], [74.77735000000001, 34.1007], [74.77341000000001, 34.09642], [74.73858000000001, 34.12397], [74.74196, 34.126870000000004], [74.76737, 34.13808], [74.76934, 34.131600000000006], [74.77372000000001, 34.12514], [74.77298, 34.12364], [74.7775, 34.11466], [74.79497, 34.11591], [74.79748000000001, 34.12467], [74.80015, 34.12798], [74.80072000000001, 34.131280000000004], [74.80015, 34.13364], [74.79596000000001, 34.137730000000005], [74.80091, 34.14356], [74.80262, 34.149060000000006], [74.80281000000001, 34.152530000000006], [74.799, 34.16322], [74.79154000000001, 34.176320000000004], [74.79903, 34.17428], [74.80234, 34.16926], [74.80414, 34.163560000000004], [74.81759000000001, 34.162890000000004], [74.81758, 34.166320000000006], [74.80946, 34.17578], [74.80726, 34.179770000000005], [74.80711000000001, 34.182860000000005], [74.80999, 34.183780000000006], [74.81384000000001, 34.183780000000006], [74.81755000000001, 34.183220000000006], [74.81975, 34.18151], [74.82305000000001, 34.176370000000006]]]}}, {"id": "15", "type": "Feature", "properties": {"village_name": "Aanchar Lake", "vil_lgd": 999999, "district_name": "Srinagar", "dist_lgd": 13, "subdistrict_name": "Srinagar (North)", "sdcode": 43, "block_name": "", "block_lgd": null, "gp_name": "", "state_name": "JAMMU & KASHMIR", "state_lgd": 1, "population": 0, "households": 0}, "geometry": {"type": "Polygon", "coordinates": [[[74.79154000000001, 34.176320000000004], [74.799, 34.16322], [74.80281000000001, 34.152530000000006], [74.80262, 34.149060000000006], [74.80091, 34.14356], [74.79596000000001, 34.137730000000005], [74.80015, 34.13364], [74.80072000000001, 34.131280000000004], [74.80015, 34.12798], [74.79748000000001, 34.12467], [74.79254, 34.12357], [74.78113, 34.12357], [74.77372000000001, 34.12514], [74.76934, 34.131600000000006], [74.76737, 34.13808], [74.76991000000001, 34.14938], [74.76687000000001, 34.165110000000006], [74.76706, 34.169200000000004], [74.77067000000001, 34.174080000000004], [74.77428, 34.175900000000006], [74.78071, 34.17607], [74.79154000000001, 34.176320000000004]]]}}, {"id": "16", "type": "Feature", "properties": {"village_name": "Sangam", "vil_lgd": 2827, "district_name": "Srinagar", "dist_lgd": 13, "subdistrict_name": "Srinagar (North)", "sdcode": 43, "block_name": "Ganderbal", "block_lgd": 81.0, "gp_name": "SANGAM", "state_name": "JAMMU & KASHMIR", "state_lgd": 1, "population": 1819, "households": 276}, "geometry": {"type": "Polygon", "coordinates": [[[74.79254, 34.12357], [74.79748000000001, 34.12467], [74.79497, 34.11591], [74.7775, 34.11466], [74.77298, 34.12364], [74.77372000000001, 34.12514], [74.78113, 34.12357], [74.79254, 34.12357]]]}}, {"id": "17", "type": "Feature", "properties": {"village_name": "Gagarzoo", "vil_lgd": 2829, "district_name": "Srinagar", "dist_lgd": 13, "subdistrict_name": "Srinagar (North)", "sdcode": 43, "block_name": "Ganderbal", "block_lgd": 81.0, "gp_name": "DADERMARBAGH", "state_name": "JAMMU & KASHMIR", "state_lgd": 1, "population": 1187, "households": 200}, "geometry": {"type": "Polygon", "coordinates": [[[74.78654, 34.10119], [74.7903, 34.0992], [74.77678, 34.09373], [74.77341000000001, 34.09642], [74.77735000000001, 34.1007], [74.77976000000001, 34.101440000000004], [74.78262000000001, 34.100950000000005], [74.78654, 34.10119]]]}}, {"id": "18", "type": "Feature", "properties": {"village_name": "Takan Wari Pora", "vil_lgd": 2828, "district_name": "Srinagar", "dist_lgd": 13, "subdistrict_name": "Srinagar (North)", "sdcode": 43, "block_name": "Ganderbal", "block_lgd": 81.0, "gp_name": "BAKSHIPORA", "state_name": "JAMMU & KASHMIR", "state_lgd": 1, "population": 1880, "households": 257}, "geometry": {"type": "Polygon", "coordinates": [[[74.70973000000001, 34.176260000000006], [74.72379000000001, 34.16557], [74.73479, 34.165690000000005], [74.73676, 34.16518], [74.74365, 34.160650000000004], [74.74663000000001, 34.16131], [74.74990000000001, 34.160270000000004], [74.75103, 34.160610000000005], [74.75815, 34.16644], [74.76102, 34.17033], [74.76226000000001, 34.17033], [74.76691000000001, 34.17537], [74.77428, 34.175900000000006], [74.77067000000001, 34.174080000000004], [74.76706, 34.169200000000004], [74.76687000000001, 34.165110000000006], [74.76991000000001, 34.14938], [74.76737, 34.13808], [74.74196, 34.126870000000004], [74.73858000000001, 34.12397], [74.72588, 34.13313], [74.71293, 34.144220000000004], [74.70234, 34.15551], [74.70115000000001, 34.15964], [74.69688000000001, 34.165020000000005], [74.69639000000001, 34.17024], [74.69485, 34.172830000000005], [74.68389, 34.175650000000005], [74.67592, 34.18408], [74.68402, 34.18386], [74.69082, 34.18587], [74.69546000000001, 34.18459], [74.70973000000001, 34.176260000000006]]]}}]}