{"type":"FeatureCollection","name":"mp_districts","crs":{"type":"name","properties":{"name":"urn:ogc:def:crs:OGC:1.3:CRS84"}},"features":[{"type":"Feature","properties":{"District":"BHOPAL","Dist_LGD":"444","STATE_UT":"MADHYA PRADESH","STATE_LGD":"23"},"geometry":{"type":"Polygon","coordinates":[[[77.24462,23.15165,0.0],[77.23778,23.15014,0.0],[77.2377,23.15902,0.0],[77.23132,23.16403,0.0],[77.23156,23.17185,0.0],[77.22214,23.17461,0.0],[77.22592,23.1786,0.0],[77.22608,23.18212,0.0],[77.22758,23.18222,0.0],[77.22822,23.18801,0.0],[77.2203,23.18832,0.0],[77.20323,23.19222,0.0],[77.2038,23.19461,0.0],[77.2117,23.20041,0.0],[77.21465,23.20801,0.0],[77.20689,23.21109,0.0],[77.20804,23.21853,0.0],[77.19666,23.21603,0.0],[77.19793,23.21452,0.0],[77.19218,23.21228,0.0],[77.18365,23.21236,0.0],[77.17759,23.22158,0.0],[77.17623,23.22963,0.0],[77.18286,23.23082,0.0],[77.18659,23.23341,0.0],[77.18782,23.24068,0.0],[77.20589,23.24829,0.0],[77.2028,23.25765,0.0],[77.20317,23.26417,0.0],[77.20426,23.26913,0.0],[77.21261,23.27196,0.0],[77.21327,23.27496,0.0],[77.21081,23.2799,0.0],[77.21227,23.28163,0.0],[77.21128,23.28703,0.0],[77.21234,23.29084,0.0],[77.19446,23.29483,0.0],[77.18712,23.29227,0.0],[77.18402,23.30178,0.0],[77.1696,23.30265,0.0],[77.17194,23.30934,0.0],[77.16908,23.31625,0.0],[77.17697,23.32527,0.0],[77.17516,23.34472,0.0],[77.17801,23.35242,0.0],[77.18192,23.35431,0.0],[77.18514,23.35211,0.0],[77.1932,23.35338,0.0],[77.1973,23.34382,0.0],[77.19618,23.34005,0.0],[77.19853,23.33039,0.0],[77.2,23.32681,0.0],[77.20509,23.32214,0.0],[77.20621,23.31839,0.0],[77.21768,23.32053,0.0],[77.21771,23.33015,0.0],[77.22034,23.33968,0.0],[77.22341,23.34439,0.0],[77.22141,23.34937,0.0],[77.22415,23.358,0.0],[77.23404,23.36333,0.0],[77.23203,23.36958,0.0],[77.23398,23.37163,0.0],[77.24207,23.37601,0.0],[77.24647,23.37428,0.0],[77.25433,23.37716,0.0],[77.24668,23.38761,0.0],[77.23851,23.39021,0.0],[77.23643,23.38917,0.0],[77.22725,23.39083,0.0],[77.23087,23.39357,0.0],[77.23316,23.39802,0.0],[77.23358,23.40364,0.0],[77.24074,23.40335,0.0],[77.24323,23.40155,0.0],[77.24536,23.40442,0.0],[77.2484,23.40522,0.0],[77.25309,23.40319,0.0],[77.25856,23.40353,0.0],[77.27147,23.40036,0.0],[77.27216,23.40451,0.0],[77.28106,23.41567,0.0],[77.28326,23.42124,0.0],[77.28834,23.42618,0.0],[77.28411,23.43262,0.0],[77.28346,23.44026,0.0],[77.28726,23.45139,0.0],[77.29176,23.45408,0.0],[77.2933,23.46247,0.0],[77.29872,23.46758,0.0],[77.28454,23.46907,0.0],[77.28286,23.47037,0.0],[77.28315,23.47597,0.0],[77.28891,23.4908,0.0],[77.29661,23.50038,0.0],[77.29738,23.50535,0.0],[77.29488,23.5085,0.0],[77.28847,23.51036,0.0],[77.29025,23.52097,0.0],[77.28829,23.52978,0.0],[77.2912,23.53553,0.0],[77.28867,23.54133,0.0],[77.28707,23.54175,0.0],[77.28785,23.54562,0.0],[77.28312,23.55265,0.0],[77.28349,23.55556,0.0],[77.28203,23.55708,0.0],[77.29104,23.56554,0.0],[77.29546,23.57467,0.0],[77.2836,23.58134,0.0],[77.27374,23.58161,0.0],[77.2727,23.59408,0.0],[77.27726,23.60018,0.0],[77.26656,23.60192,0.0],[77.25606,23.60705,0.0],[77.25783,23.6193,0.0],[77.25296,23.61474,0.0],[77.24493,23.61435,0.0],[77.22859,23.61554,0.0],[77.22211,23.6217,0.0],[77.22126,23.62304,0.0],[77.22291,23.62817,0.0],[77.22887,23.63751,0.0],[77.22617,23.64498,0.0],[77.22564,23.65282,0.0],[77.21868,23.65593,0.0],[77.21672,23.65914,0.0],[77.20568,23.66024,0.0],[77.20311,23.6541,0.0],[77.20492,23.65337,0.0],[77.20028,23.64776,0.0],[77.1953,23.65416,0.0],[77.19077,23.65561,0.0],[77.19057,23.66025,0.0],[77.18778,23.66252,0.0],[77.18667,23.66703,0.0],[77.17902,23.6692,0.0],[77.17587,23.66343,0.0],[77.17679,23.65825,0.0],[77.17332,23.65904,0.0],[77.17209,23.67333,0.0],[77.17054,23.67221,0.0],[77.16822,23.67336,0.0],[77.17014,23.67747,0.0],[77.16641,23.68393,0.0],[77.17666,23.69376,0.0],[77.17777,23.69968,0.0],[77.18601,23.7177,0.0],[77.19037,23.73902,0.0],[77.20425,23.76076,0.0],[77.20429,23.76897,0.0],[77.20629,23.77521,0.0],[77.20857,23.77836,0.0],[77.21557,23.78197,0.0],[77.21769,23.78579,0.0],[77.21463,23.79973,0.0],[77.21666,23.80542,0.0],[77.22361,23.81319,0.0],[77.2253,23.82985,0.0],[77.22348,23.83438,0.0],[77.21379,23.83918,0.0],[77.22232,23.84623,0.0],[77.22329,23.85626,0.0],[77.21974,23.86458,0.0],[77.2252,23.88131,0.0],[77.22612,23.89245,0.0],[77.23233,23.89282,0.0],[77.23952,23.89034,0.0],[77.24994,23.89257,0.0],[77.25417,23.88863,0.0],[77.26232,23.8884,0.0],[77.26853,23.88613,0.0],[77.273,23.88759,0.0],[77.28083,23.88714,0.0],[77.28923,23.89105,0.0],[77.29311,23.89526,0.0],[77.29868,23.89327,0.0],[77.30076,23.8901,0.0],[77.31131,23.8889,0.0],[77.31767,23.88488,0.0],[77.31616,23.89078,0.0],[77.32271,23.89002,0.0],[77.32602,23.89266,0.0],[77.32794,23.89168,0.0],[77.3324,23.8932,0.0],[77.33437,23.89079,0.0],[77.34606,23.89019,0.0],[77.38,23.88283,0.0],[77.38033,23.87265,0.0],[77.38534,23.85948,0.0],[77.39019,23.85452,0.0],[77.39744,23.85129,0.0],[77.40081,23.8472,0.0],[77.39857,23.83624,0.0],[77.39141,23.83903,0.0],[77.38964,23.83734,0.0],[77.38932,23.83362,0.0],[77.39353,23.82923,0.0],[77.40755,23.82635,0.0],[77.40519,23.82116,0.0],[77.40817,23.80928,0.0],[77.41412,23.80088,0.0],[77.41969,23.80481,0.0],[77.42505,23.804,0.0],[77.44034,23.79442,0.0],[77.44511,23.79494,0.0],[77.44627,23.79113,0.0],[77.43715,23.78959,0.0],[77.43534,23.78728,0.0],[77.43385,23.78031,0.0],[77.43569,23.77559,0.0],[77.43811,23.77662,0.0],[77.4372,23.77453,0.0],[77.44019,23.77472,0.0],[77.44576,23.77804,0.0],[77.45503,23.77238,0.0],[77.4541,23.76294,0.0],[77.46301,23.75756,0.0],[77.46766,23.75595,0.0],[77.4739,23.75699,0.0],[77.47885,23.76031,0.0],[77.4816,23.76438,0.0],[77.48933,23.76631,0.0],[77.49118,23.76943,0.0],[77.49451,23.77004,0.0],[77.49748,23.77413,0.0],[77.50019,23.77523,0.0],[77.50658,23.77254,0.0],[77.51082,23.7645,0.0],[77.51539,23.76171,0.0],[77.526,23.76308,0.0],[77.52767,23.75943,0.0],[77.53554,23.7599,0.0],[77.54086,23.75524,0.0],[77.54523,23.75787,0.0],[77.5551,23.75545,0.0],[77.56225,23.75999,0.0],[77.56221,23.7655,0.0],[77.57338,23.76704,0.0],[77.57667,23.76324,0.0],[77.57604,23.76084,0.0],[77.57936,23.76061,0.0],[77.58237,23.75599,0.0],[77.58823,23.7548,0.0],[77.5901,23.75165,0.0],[77.60991,23.7473,0.0],[77.61071,23.74537,0.0],[77.60649,23.73286,0.0],[77.60156,23.73309,0.0],[77.60228,23.72931,0.0],[77.60087,23.72734,0.0],[77.61681,23.72479,0.0],[77.61437,23.71341,0.0],[77.61858,23.71049,0.0],[77.62203,23.71109,0.0],[77.62794,23.70844,0.0],[77.63189,23.71358,0.0],[77.63468,23.71428,0.0],[77.63909,23.70714,0.0],[77.64305,23.71252,0.0],[77.64754,23.71283,0.0],[77.64616,23.70111,0.0],[77.64787,23.69258,0.0],[77.64331,23.68629,0.0],[77.64121,23.67937,0.0],[77.63236,23.66684,0.0],[77.62976,23.65796,0.0],[77.6239,23.6571,0.0],[77.61967,23.65924,0.0],[77.61188,23.65828,0.0],[77.60697,23.65949,0.0],[77.59007,23.65603,0.0],[77.58901,23.65241,0.0],[77.58549,23.65267,0.0],[77.58773,23.65029,0.0],[77.58111,23.64894,0.0],[77.57774,23.64986,0.0],[77.57633,23.64821,0.0],[77.57227,23.64764,0.0],[77.5729,23.64525,0.0],[77.56989,23.64541,0.0],[77.56955,23.6436,0.0],[77.57099,23.64306,0.0],[77.5722,23.63838,0.0],[77.57402,23.6379,0.0],[77.57031,23.63452,0.0],[77.57095,23.63024,0.0],[77.56628,23.62528,0.0],[77.56769,23.62192,0.0],[77.56241,23.61404,0.0],[77.5655,23.61264,0.0],[77.56474,23.61041,0.0],[77.55889,23.60975,0.0],[77.56159,23.6047,0.0],[77.5558,23.59269,0.0],[77.55006,23.58748,0.0],[77.5453,23.59051,0.0],[77.53388,23.58013,0.0],[77.52873,23.58049,0.0],[77.52136,23.5759,0.0],[77.51507,23.57717,0.0],[77.50586,23.56913,0.0],[77.50587,23.56386,0.0],[77.50781,23.56246,0.0],[77.509,23.55821,0.0],[77.50792,23.55722,0.0],[77.50967,23.55659,0.0],[77.51066,23.55192,0.0],[77.51021,23.54967,0.0],[77.50551,23.5489,0.0],[77.50342,23.54375,0.0],[77.50507,23.52566,0.0],[77.50735,23.52281,0.0],[77.51138,23.52202,0.0],[77.51127,23.51768,0.0],[77.51768,23.51404,0.0],[77.51843,23.5079,0.0],[77.51608,23.50716,0.0],[77.51077,23.49136,0.0],[77.50434,23.48832,0.0],[77.50126,23.48377,0.0],[77.50498,23.47631,0.0],[77.50155,23.47159,0.0],[77.50095,23.46436,0.0],[77.49755,23.4566,0.0],[77.49785,23.45125,0.0],[77.49367,23.4478,0.0],[77.49613,23.43797,0.0],[77.49212,23.43242,0.0],[77.48923,23.41841,0.0],[77.49017,23.41609,0.0],[77.50662,23.40654,0.0],[77.51041,23.40115,0.0],[77.51529,23.40513,0.0],[77.51731,23.41334,0.0],[77.52868,23.41724,0.0],[77.53583,23.41817,0.0],[77.55464,23.41544,0.0],[77.55848,23.41053,0.0],[77.55783,23.40463,0.0],[77.55977,23.40225,0.0],[77.55746,23.39831,0.0],[77.55164,23.39763,0.0],[77.54851,23.39469,0.0],[77.5468,23.37793,0.0],[77.55234,23.37705,0.0],[77.55249,23.37591,0.0],[77.55453,23.37818,0.0],[77.55763,23.37756,0.0],[77.5579,23.37881,0.0],[77.55875,23.37697,0.0],[77.5557,23.3755,0.0],[77.55532,23.37169,0.0],[77.56209,23.36636,0.0],[77.56331,23.36274,0.0],[77.56908,23.36111,0.0],[77.56972,23.35937,0.0],[77.57638,23.35598,0.0],[77.58239,23.35515,0.0],[77.58166,23.35125,0.0],[77.58511,23.35125,0.0],[77.583,23.34887,0.0],[77.58231,23.34168,0.0],[77.61516,23.3437,0.0],[77.62496,23.34618,0.0],[77.62789,23.34143,0.0],[77.62414,23.33276,0.0],[77.61955,23.32916,0.0],[77.61855,23.32417,0.0],[77.6143,23.32155,0.0],[77.60974,23.3131,0.0],[77.58581,23.28781,0.0],[77.58856,23.28065,0.0],[77.5825,23.27242,0.0],[77.58413,23.26755,0.0],[77.5874,23.26696,0.0],[77.5919,23.26274,0.0],[77.59584,23.25605,0.0],[77.58629,23.24977,0.0],[77.58833,23.24271,0.0],[77.59129,23.2411,0.0],[77.59231,23.22688,0.0],[77.59436,23.22663,0.0],[77.59526,23.22402,0.0],[77.58834,23.21711,0.0],[77.58967,23.21574,0.0],[77.58652,23.21253,0.0],[77.58688,23.21037,0.0],[77.58474,23.2093,0.0],[77.58014,23.19569,0.0],[77.57735,23.19494,0.0],[77.5737,23.19675,0.0],[77.57297,23.18765,0.0],[77.57572,23.18535,0.0],[77.57887,23.18499,0.0],[77.58051,23.1869,0.0],[77.58223,23.18602,0.0],[77.57981,23.18294,0.0],[77.58025,23.17934,0.0],[77.57299,23.17697,0.0],[77.55855,23.17564,0.0],[77.55864,23.16555,0.0],[77.56215,23.16352,0.0],[77.56132,23.15592,0.0],[77.56289,23.15502,0.0],[77.5646,23.15733,0.0],[77.56773,23.1576,0.0],[77.5663,23.15671,0.0],[77.56621,23.15072,0.0],[77.56166,23.13772,0.0],[77.54201,23.13801,0.0],[77.53806,23.13501,0.0],[77.53775,23.13052,0.0],[77.53319,23.12576,0.0],[77.53317,23.12292,0.0],[77.53567,23.12133,0.0],[77.53508,23.11913,0.0],[77.53164,23.11935,0.0],[77.52465,23.11622,0.0],[77.52351,23.11807,0.0],[77.51657,23.11627,0.0],[77.51649,23.12048,0.0],[77.51509,23.12091,0.0],[77.51302,23.11755,0.0],[77.51004,23.1167,0.0],[77.51194,23.11246,0.0],[77.50872,23.11385,0.0],[77.50975,23.11099,0.0],[77.50557,23.11252,0.0],[77.50177,23.10979,0.0],[77.4997,23.10403,0.0],[77.49979,23.10182,0.0],[77.50219,23.1009,0.0],[77.501,23.09956,0.0],[77.49437,23.10058,0.0],[77.4887,23.09552,0.0],[77.48247,23.09695,0.0],[77.4817,23.09591,0.0],[77.48467,23.0937,0.0],[77.4831,23.09269,0.0],[77.47937,23.09429,0.0],[77.47416,23.09342,0.0],[77.47414,23.09797,0.0],[77.47264,23.09927,0.0],[77.46666,23.09383,0.0],[77.46398,23.09485,0.0],[77.46193,23.09315,0.0],[77.46148,23.09477,0.0],[77.45799,23.09498,0.0],[77.45343,23.0862,0.0],[77.45093,23.08809,0.0],[77.4472,23.08795,0.0],[77.44599,23.08593,0.0],[77.44161,23.08718,0.0],[77.44021,23.08599,0.0],[77.43973,23.08778,0.0],[77.43709,23.08801,0.0],[77.43449,23.08678,0.0],[77.43057,23.08957,0.0],[77.42789,23.08754,0.0],[77.41367,23.08515,0.0],[77.40928,23.08303,0.0],[77.40194,23.08455,0.0],[77.4022,23.07867,0.0],[77.37901,23.07195,0.0],[77.37502,23.07636,0.0],[77.36645,23.0763,0.0],[77.35865,23.08064,0.0],[77.33697,23.07975,0.0],[77.32157,23.08536,0.0],[77.31945,23.08966,0.0],[77.32142,23.10092,0.0],[77.30319,23.0995,0.0],[77.29336,23.10128,0.0],[77.28535,23.09475,0.0],[77.27119,23.09418,0.0],[77.2755,23.1043,0.0],[77.27425,23.11219,0.0],[77.27143,23.1164,0.0],[77.27254,23.1252,0.0],[77.26566,23.13122,0.0],[77.25899,23.13364,0.0],[77.24654,23.13514,0.0],[77.24759,23.1459,0.0],[77.24672,23.1503,0.0],[77.24462,23.15165,0.0]]]}},{"type":"Feature","properties":{"District":"INDORE","Dist_LGD":"439","STATE_UT":"MADHYA PRADESH","STATE_LGD":"23"},"geometry":{"type":"Polygon","coordinates":[[[75.55608,22.38669,0.0],[75.55086,22.38911,0.0],[75.54766,22.39313,0.0],[75.54609,22.40678,0.0],[75.54195,22.40985,0.0],[75.56096,22.42341,0.0],[75.5644,22.42817,0.0],[75.5664,22.43769,0.0],[75.56564,22.44347,0.0],[75.57457,22.45311,0.0],[75.56425,22.47223,0.0],[75.56621,22.47742,0.0],[75.56497,22.49088,0.0],[75.56283,22.49163,0.0],[75.56124,22.48965,0.0],[75.55309,22.48778,0.0],[75.5537,22.49803,0.0],[75.55756,22.50727,0.0],[75.5569,22.51566,0.0],[75.56531,22.5166,0.0],[75.57202,22.51384,0.0],[75.57723,22.51421,0.0],[75.57839,22.51847,0.0],[75.59389,22.51975,0.0],[75.59547,22.51872,0.0],[75.59598,22.52018,0.0],[75.5969,22.51917,0.0],[75.59869,22.52025,0.0],[75.59943,22.52469,0.0],[75.59728,22.52673,0.0],[75.59699,22.53961,0.0],[75.59763,22.54183,0.0],[75.60177,22.54045,0.0],[75.6003,22.54359,0.0],[75.59768,22.54407,0.0],[75.59498,22.55017,0.0],[75.59575,22.56665,0.0],[75.60967,22.56811,0.0],[75.61539,22.55848,0.0],[75.6183,22.55837,0.0],[75.62011,22.5608,0.0],[75.6308,22.55972,0.0],[75.63424,22.56104,0.0],[75.63506,22.5655,0.0],[75.65009,22.56825,0.0],[75.65632,22.56793,0.0],[75.66336,22.57186,0.0],[75.66537,22.57673,0.0],[75.68081,22.58079,0.0],[75.68368,22.58362,0.0],[75.6839,22.58508,0.0],[75.68222,22.58513,0.0],[75.68656,22.59546,0.0],[75.69653,22.59514,0.0],[75.69884,22.61046,0.0],[75.70629,22.61522,0.0],[75.70969,22.61521,0.0],[75.71107,22.61829,0.0],[75.71351,22.61919,0.0],[75.71401,22.63334,0.0],[75.70914,22.64774,0.0],[75.70881,22.65433,0.0],[75.70702,22.65475,0.0],[75.70755,22.6614,0.0],[75.69163,22.66153,0.0],[75.68888,22.65993,0.0],[75.6792,22.65916,0.0],[75.68197,22.65153,0.0],[75.68,22.64856,0.0],[75.67903,22.64191,0.0],[75.68304,22.63734,0.0],[75.68771,22.63872,0.0],[75.69357,22.64423,0.0],[75.70481,22.6463,0.0],[75.70602,22.63049,0.0],[75.69777,22.62686,0.0],[75.68848,22.6296,0.0],[75.68527,22.63394,0.0],[75.67983,22.6351,0.0],[75.67683,22.63774,0.0],[75.66002,22.63639,0.0],[75.6556,22.63785,0.0],[75.64546,22.63181,0.0],[75.64492,22.63669,0.0],[75.64158,22.6356,0.0],[75.64004,22.63776,0.0],[75.64005,22.63642,0.0],[75.63742,22.63699,0.0],[75.62588,22.63327,0.0],[75.61645,22.63443,0.0],[75.61583,22.63173,0.0],[75.60425,22.63089,0.0],[75.60313,22.63698,0.0],[75.59958,22.64347,0.0],[75.59865,22.65099,0.0],[75.59185,22.65248,0.0],[75.58964,22.65891,0.0],[75.5856,22.66033,0.0],[75.5754,22.6607,0.0],[75.56778,22.65806,0.0],[75.56432,22.63542,0.0],[75.55415,22.63753,0.0],[75.543,22.63625,0.0],[75.53721,22.63493,0.0],[75.53568,22.63012,0.0],[75.52813,22.63002,0.0],[75.52815,22.63448,0.0],[75.52344,22.64026,0.0],[75.5247,22.64019,0.0],[75.52509,22.64357,0.0],[75.52263,22.64758,0.0],[75.52099,22.64752,0.0],[75.51883,22.6533,0.0],[75.51522,22.65325,0.0],[75.50906,22.64354,0.0],[75.496,22.64494,0.0],[75.49907,22.65988,0.0],[75.50135,22.66076,0.0],[75.50198,22.65957,0.0],[75.50637,22.66279,0.0],[75.5192,22.66219,0.0],[75.5185,22.66403,0.0],[75.52122,22.66737,0.0],[75.51683,22.68471,0.0],[75.50709,22.69398,0.0],[75.5076,22.6963,0.0],[75.51185,22.69765,0.0],[75.51529,22.70778,0.0],[75.51356,22.71122,0.0],[75.50663,22.71606,0.0],[75.51031,22.72435,0.0],[75.50924,22.73255,0.0],[75.4963,22.7315,0.0],[75.49806,22.73266,0.0],[75.49722,22.73491,0.0],[75.49296,22.73248,0.0],[75.47805,22.73329,0.0],[75.47794,22.74054,0.0],[75.48183,22.74304,0.0],[75.48302,22.74187,0.0],[75.48216,22.74383,0.0],[75.48561,22.74738,0.0],[75.484,22.75116,0.0],[75.48512,22.7547,0.0],[75.48673,22.75495,0.0],[75.4849,22.75522,0.0],[75.48538,22.75816,0.0],[75.4898,22.75666,0.0],[75.48742,22.75956,0.0],[75.49089,22.76155,0.0],[75.49071,22.76324,0.0],[75.48499,22.76628,0.0],[75.4845,22.76954,0.0],[75.47844,22.7715,0.0],[75.47584,22.77086,0.0],[75.4748,22.77302,0.0],[75.47133,22.77309,0.0],[75.46588,22.7694,0.0],[75.46281,22.76944,0.0],[75.43836,22.77346,0.0],[75.43945,22.78677,0.0],[75.44406,22.79666,0.0],[75.43495,22.79905,0.0],[75.43647,22.80955,0.0],[75.42544,22.8099,0.0],[75.42625,22.82478,0.0],[75.42398,22.8249,0.0],[75.42439,22.83062,0.0],[75.43231,22.82992,0.0],[75.43562,22.8315,0.0],[75.43357,22.84533,0.0],[75.43795,22.84441,0.0],[75.44199,22.85339,0.0],[75.44265,22.86743,0.0],[75.43737,22.86817,0.0],[75.4409,22.88249,0.0],[75.43922,22.90747,0.0],[75.44949,22.91134,0.0],[75.4511,22.91384,0.0],[75.45686,22.9153,0.0],[75.45986,22.92642,0.0],[75.47657,22.92662,0.0],[75.47686,22.93964,0.0],[75.45661,22.94223,0.0],[75.45893,22.95185,0.0],[75.46423,22.96967,0.0],[75.47177,22.96956,0.0],[75.47315,22.96697,0.0],[75.47461,22.96905,0.0],[75.47793,22.96987,0.0],[75.48673,22.96669,0.0],[75.49353,22.98512,0.0],[75.48981,22.98556,0.0],[75.48764,22.98807,0.0],[75.48344,22.98558,0.0],[75.4738,22.98687,0.0],[75.47423,23.00284,0.0],[75.45978,23.00542,0.0],[75.46019,23.00699,0.0],[75.47567,23.01675,0.0],[75.48412,23.01758,0.0],[75.48778,23.01471,0.0],[75.48768,23.00383,0.0],[75.49425,23.00299,0.0],[75.49726,22.99953,0.0],[75.50294,23.00108,0.0],[75.50665,23.0075,0.0],[75.50738,23.01243,0.0],[75.50978,23.01255,0.0],[75.51198,23.0165,0.0],[75.50672,23.01904,0.0],[75.50719,23.02237,0.0],[75.51675,23.02241,0.0],[75.51505,23.02778,0.0],[75.51834,23.03213,0.0],[75.51673,23.03962,0.0],[75.52038,23.04138,0.0],[75.52116,23.03864,0.0],[75.5194,23.03711,0.0],[75.52539,23.03627,0.0],[75.52715,23.03311,0.0],[75.53292,23.03499,0.0],[75.53748,23.04475,0.0],[75.54507,23.04871,0.0],[75.54492,23.06209,0.0],[75.55332,23.06457,0.0],[75.56414,23.06483,0.0],[75.56767,23.07111,0.0],[75.56514,23.0714,0.0],[75.56608,23.07483,0.0],[75.5639,23.07521,0.0],[75.56601,23.08678,0.0],[75.5814,23.0852,0.0],[75.6064,23.08897,0.0],[75.60682,23.08267,0.0],[75.62008,23.08285,0.0],[75.62238,23.08508,0.0],[75.62691,23.08231,0.0],[75.62554,23.07486,0.0],[75.62806,23.07302,0.0],[75.6276,23.06987,0.0],[75.63006,23.0656,0.0],[75.62682,23.06273,0.0],[75.62133,23.06321,0.0],[75.6206,23.05966,0.0],[75.61693,23.05719,0.0],[75.61552,23.05289,0.0],[75.62,23.04929,0.0],[75.62428,23.05196,0.0],[75.62674,23.0475,0.0],[75.6266,23.04577,0.0],[75.62028,23.04346,0.0],[75.62486,23.03837,0.0],[75.62838,23.03053,0.0],[75.63277,23.0293,0.0],[75.63069,23.01537,0.0],[75.63175,23.00718,0.0],[75.64554,23.00817,0.0],[75.6451,23.01084,0.0],[75.6404,23.0134,0.0],[75.64116,23.01735,0.0],[75.63941,23.01884,0.0],[75.63585,23.01816,0.0],[75.63511,23.02051,0.0],[75.63645,23.02238,0.0],[75.64098,23.02058,0.0],[75.64101,23.02404,0.0],[75.64272,23.02033,0.0],[75.64441,23.01993,0.0],[75.649,23.02624,0.0],[75.64816,23.02358,0.0],[75.65037,23.02383,0.0],[75.64973,23.0199,0.0],[75.65223,23.02152,0.0],[75.65568,23.01917,0.0],[75.65821,23.02063,0.0],[75.65836,23.01931,0.0],[75.67043,23.0157,0.0],[75.6717,23.0138,0.0],[75.67859,23.01587,0.0],[75.67927,23.02086,0.0],[75.69827,23.0181,0.0],[75.70895,23.01894,0.0],[75.71643,23.01503,0.0],[75.72229,23.01485,0.0],[75.73134,23.01557,0.0],[75.73262,23.03371,0.0],[75.73594,23.03476,0.0],[75.75718,23.03523,0.0],[75.76037,23.03464,0.0],[75.76058,23.02821,0.0],[75.77833,23.02713,0.0],[75.77946,23.02727,0.0],[75.77817,23.03226,0.0],[75.79373,23.03477,0.0],[75.80502,23.03445,0.0],[75.80795,23.04014,0.0],[75.81771,23.04067,0.0],[75.81505,23.0376,0.0],[75.84268,23.02863,0.0],[75.84722,23.03587,0.0],[75.86456,23.03609,0.0],[75.86762,23.03675,0.0],[75.86711,23.03872,0.0],[75.86888,23.03954,0.0],[75.87095,23.03826,0.0],[75.87418,23.03932,0.0],[75.87226,23.03258,0.0],[75.87705,23.03022,0.0],[75.87758,23.02616,0.0],[75.88036,23.02823,0.0],[75.88293,23.02804,0.0],[75.8865,23.02267,0.0],[75.88327,23.01901,0.0],[75.88438,23.01617,0.0],[75.8892,23.01304,0.0],[75.88711,23.01071,0.0],[75.8875,23.00821,0.0],[75.89223,23.0049,0.0],[75.89593,23.00583,0.0],[75.90155,22.99529,0.0],[75.90763,22.9924,0.0],[75.90982,22.9894,0.0],[75.91362,22.9889,0.0],[75.91418,22.98692,0.0],[75.91219,22.98361,0.0],[75.91461,22.98107,0.0],[75.91568,22.97677,0.0],[75.9174,22.97589,0.0],[75.91978,22.97972,0.0],[75.92632,22.97997,0.0],[75.92664,22.97829,0.0],[75.92406,22.97514,0.0],[75.92897,22.97374,0.0],[75.93237,22.96913,0.0],[75.93694,22.96833,0.0],[75.93755,22.96311,0.0],[75.94289,22.96311,0.0],[75.94151,22.95937,0.0],[75.94229,22.95801,0.0],[75.9472,22.95755,0.0],[75.94803,22.95288,0.0],[75.95123,22.95102,0.0],[75.95121,22.94682,0.0],[75.95964,22.94298,0.0],[75.96582,22.94455,0.0],[75.96689,22.93841,0.0],[75.96467,22.93471,0.0],[75.96627,22.92955,0.0],[75.97073,22.92974,0.0],[75.97738,22.92188,0.0],[75.97693,22.91771,0.0],[75.98238,22.9098,0.0],[75.97884,22.90578,0.0],[75.98283,22.90232,0.0],[75.98353,22.8971,0.0],[75.98106,22.89239,0.0],[75.98671,22.88546,0.0],[75.98083,22.88272,0.0],[75.97974,22.88029,0.0],[75.98384,22.87635,0.0],[75.98486,22.87279,0.0],[75.99143,22.87198,0.0],[75.99681,22.87439,0.0],[75.99752,22.87075,0.0],[76.00344,22.86639,0.0],[76.00599,22.86054,0.0],[76.01039,22.86048,0.0],[76.01087,22.86259,0.0],[76.01293,22.86313,0.0],[76.02303,22.85954,0.0],[76.02095,22.8569,0.0],[76.02235,22.85091,0.0],[76.02665,22.85251,0.0],[76.03237,22.84779,0.0],[76.03406,22.84241,0.0],[76.03734,22.84169,0.0],[76.03658,22.83866,0.0],[76.03925,22.83772,0.0],[76.03659,22.83425,0.0],[76.0364,22.83011,0.0],[76.0391,22.82758,0.0],[76.04179,22.82742,0.0],[76.04217,22.82332,0.0],[76.04827,22.81722,0.0],[76.05105,22.81954,0.0],[76.05336,22.81771,0.0],[76.05309,22.81577,0.0],[76.05101,22.81546,0.0],[76.05117,22.81109,0.0],[76.04885,22.80911,0.0],[76.04995,22.80629,0.0],[76.05221,22.80655,0.0],[76.05233,22.80387,0.0],[76.05386,22.8031,0.0],[76.06045,22.80738,0.0],[76.06003,22.80459,0.0],[76.06322,22.80193,0.0],[76.06254,22.79582,0.0],[76.0685,22.78963,0.0],[76.06868,22.78125,0.0],[76.07304,22.77337,0.0],[76.07628,22.77402,0.0],[76.08288,22.76646,0.0],[76.08303,22.76412,0.0],[76.07905,22.76477,0.0],[76.08305,22.75958,0.0],[76.08294,22.75775,0.0],[76.07945,22.75578,0.0],[76.08215,22.7553,0.0],[76.08236,22.75282,0.0],[76.08648,22.75123,0.0],[76.08436,22.74646,0.0],[76.08574,22.74649,0.0],[76.08587,22.74851,0.0],[76.08981,22.74533,0.0],[76.08987,22.7405,0.0],[76.08752,22.73883,0.0],[76.08714,22.73587,0.0],[76.08958,22.73024,0.0],[76.09935,22.72627,0.0],[76.09487,22.71765,0.0],[76.09553,22.71569,0.0],[76.09739,22.71801,0.0],[76.0994,22.71634,0.0],[76.10224,22.71663,0.0],[76.10388,22.70201,0.0],[76.12015,22.69989,0.0],[76.1206,22.70369,0.0],[76.12362,22.70342,0.0],[76.12883,22.70003,0.0],[76.1359,22.69829,0.0],[76.14032,22.69317,0.0],[76.15677,22.68969,0.0],[76.17208,22.69058,0.0],[76.17677,22.69471,0.0],[76.18428,22.6937,0.0],[76.19267,22.68953,0.0],[76.19779,22.68451,0.0],[76.19867,22.68159,0.0],[76.20093,22.6812,0.0],[76.20207,22.67805,0.0],[76.20427,22.67888,0.0],[76.20521,22.67668,0.0],[76.19586,22.66845,0.0],[76.19534,22.66329,0.0],[76.19967,22.66127,0.0],[76.21274,22.66188,0.0],[76.22195,22.67044,0.0],[76.22351,22.6697,0.0],[76.22316,22.666,0.0],[76.23199,22.66566,0.0],[76.23296,22.66701,0.0],[76.23404,22.66563,0.0],[76.23215,22.65065,0.0],[76.2496,22.64967,0.0],[76.24973,22.65122,0.0],[76.25514,22.64985,0.0],[76.25502,22.64428,0.0],[76.24754,22.64453,0.0],[76.23744,22.63623,0.0],[76.23551,22.63062,0.0],[76.23548,22.62381,0.0],[76.2311,22.6174,0.0],[76.21622,22.61586,0.0],[76.2141,22.61709,0.0],[76.21231,22.62314,0.0],[76.19877,22.6252,0.0],[76.19209,22.61251,0.0],[76.19242,22.60076,0.0],[76.18734,22.59746,0.0],[76.18379,22.59722,0.0],[76.18309,22.59895,0.0],[76.17543,22.60016,0.0],[76.17843,22.60516,0.0],[76.18068,22.60424,0.0],[76.18851,22.60819,0.0],[76.18563,22.61128,0.0],[76.18175,22.6117,0.0],[76.18251,22.61741,0.0],[76.17441,22.61474,0.0],[76.1718,22.62153,0.0],[76.17497,22.62444,0.0],[76.17961,22.63371,0.0],[76.18173,22.63413,0.0],[76.18463,22.63218,0.0],[76.18811,22.63691,0.0],[76.18895,22.63609,0.0],[76.18822,22.63981,0.0],[76.18424,22.63659,0.0],[76.18258,22.63893,0.0],[76.17839,22.63841,0.0],[76.17309,22.63248,0.0],[76.17149,22.63262,0.0],[76.16948,22.62769,0.0],[76.16485,22.62864,0.0],[76.16125,22.63315,0.0],[76.15845,22.63412,0.0],[76.15941,22.62865,0.0],[76.15213,22.63269,0.0],[76.15061,22.6321,0.0],[76.15413,22.62668,0.0],[76.15016,22.62372,0.0],[76.1341,22.62515,0.0],[76.13532,22.62075,0.0],[76.13891,22.61666,0.0],[76.14286,22.6143,0.0],[76.14526,22.61534,0.0],[76.14499,22.61152,0.0],[76.13964,22.60541,0.0],[76.131,22.6021,0.0],[76.12979,22.6037,0.0],[76.12822,22.60321,0.0],[76.1249,22.60035,0.0],[76.12604,22.59743,0.0],[76.12487,22.59635,0.0],[76.12081,22.59896,0.0],[76.11914,22.60395,0.0],[76.11656,22.60295,0.0],[76.116,22.59997,0.0],[76.11349,22.6013,0.0],[76.11252,22.59992,0.0],[76.10867,22.59986,0.0],[76.12022,22.593,0.0],[76.1196,22.5891,0.0],[76.11791,22.58983,0.0],[76.11785,22.58809,0.0],[76.11528,22.58797,0.0],[76.11465,22.58638,0.0],[76.11244,22.58603,0.0],[76.11153,22.58998,0.0],[76.10823,22.5898,0.0],[76.10775,22.59253,0.0],[76.10577,22.59008,0.0],[76.1077,22.58643,0.0],[76.09969,22.58626,0.0],[76.10027,22.58809,0.0],[76.0979,22.58906,0.0],[76.09903,22.59502,0.0],[76.09704,22.59604,0.0],[76.0936,22.59131,0.0],[76.08956,22.59895,0.0],[76.08713,22.59742,0.0],[76.08211,22.60292,0.0],[76.08504,22.59454,0.0],[76.0873,22.59315,0.0],[76.08492,22.59372,0.0],[76.08497,22.59148,0.0],[76.09043,22.58641,0.0],[76.08815,22.58555,0.0],[76.08355,22.58807,0.0],[76.08523,22.58397,0.0],[76.07579,22.58052,0.0],[76.07246,22.57765,0.0],[76.0833,22.57895,0.0],[76.0743,22.57592,0.0],[76.07763,22.57281,0.0],[76.08069,22.5728,0.0],[76.07967,22.56934,0.0],[76.08461,22.57061,0.0],[76.08522,22.5717,0.0],[76.08305,22.57186,0.0],[76.08296,22.57332,0.0],[76.08447,22.57404,0.0],[76.08553,22.57411,0.0],[76.08468,22.5729,0.0],[76.08851,22.57341,0.0],[76.09038,22.57186,0.0],[76.09134,22.57376,0.0],[76.09581,22.57494,0.0],[76.09597,22.57322,0.0],[76.09345,22.57122,0.0],[76.09501,22.57096,0.0],[76.09166,22.57005,0.0],[76.09531,22.5689,0.0],[76.08935,22.56938,0.0],[76.0909,22.57017,0.0],[76.08633,22.57136,0.0],[76.08563,22.56832,0.0],[76.09428,22.5642,0.0],[76.09831,22.56533,0.0],[76.10314,22.5642,0.0],[76.1037,22.56774,0.0],[76.10709,22.56792,0.0],[76.10919,22.56676,0.0],[76.10535,22.56669,0.0],[76.1039,22.56461,0.0],[76.10591,22.56487,0.0],[76.10444,22.56258,0.0],[76.1075,22.56125,0.0],[76.10425,22.56128,0.0],[76.10377,22.55883,0.0],[76.09657,22.5544,0.0],[76.09008,22.5569,0.0],[76.08512,22.54489,0.0],[76.08712,22.54003,0.0],[76.08039,22.53844,0.0],[76.08158,22.53643,0.0],[76.08079,22.53361,0.0],[76.07642,22.52583,0.0],[76.06975,22.53074,0.0],[76.06004,22.53376,0.0],[76.05202,22.53095,0.0],[76.04286,22.53455,0.0],[76.04069,22.53005,0.0],[76.03827,22.5288,0.0],[76.03202,22.52817,0.0],[76.0296,22.53037,0.0],[76.02732,22.5291,0.0],[76.0277,22.51928,0.0],[76.03004,22.51259,0.0],[76.02923,22.50749,0.0],[76.02537,22.50176,0.0],[76.02649,22.49668,0.0],[76.02409,22.497,0.0],[76.025,22.4958,0.0],[76.02391,22.49504,0.0],[76.03411,22.48585,0.0],[76.0341,22.48192,0.0],[76.03883,22.48342,0.0],[76.04003,22.48153,0.0],[76.04824,22.48013,0.0],[76.05095,22.47824,0.0],[76.05024,22.47135,0.0],[76.05301,22.46618,0.0],[76.05573,22.46435,0.0],[76.05574,22.46015,0.0],[76.05367,22.45387,0.0],[76.04654,22.45585,0.0],[76.03442,22.45186,0.0],[76.03152,22.44874,0.0],[76.03093,22.44498,0.0],[76.03243,22.43602,0.0],[76.01847,22.44164,0.0],[76.01282,22.44215,0.0],[76.00842,22.43611,0.0],[76.00766,22.42208,0.0],[76.00013,22.41817,0.0],[75.99704,22.41271,0.0],[75.98255,22.41907,0.0],[75.96941,22.41987,0.0],[75.96701,22.42448,0.0],[75.96828,22.42826,0.0],[75.96008,22.43079,0.0],[75.93738,22.42517,0.0],[75.93639,22.42379,0.0],[75.93543,22.4252,0.0],[75.92877,22.42464,0.0],[75.92884,22.42208,0.0],[75.92405,22.42275,0.0],[75.92223,22.42078,0.0],[75.9198,22.42176,0.0],[75.91378,22.42018,0.0],[75.91227,22.41406,0.0],[75.90844,22.41019,0.0],[75.90867,22.40578,0.0],[75.91093,22.40224,0.0],[75.90844,22.38813,0.0],[75.90301,22.38699,0.0],[75.89935,22.39051,0.0],[75.89348,22.39152,0.0],[75.88667,22.39006,0.0],[75.88073,22.38404,0.0],[75.878,22.38444,0.0],[75.87359,22.38165,0.0],[75.86423,22.38005,0.0],[75.85864,22.38037,0.0],[75.85548,22.38366,0.0],[75.8488,22.38392,0.0],[75.84904,22.39172,0.0],[75.83746,22.40022,0.0],[75.83366,22.40872,0.0],[75.82203,22.40611,0.0],[75.81523,22.39216,0.0],[75.80847,22.38712,0.0],[75.80265,22.38764,0.0],[75.79954,22.38519,0.0],[75.79325,22.38442,0.0],[75.7927,22.38135,0.0],[75.78793,22.38333,0.0],[75.77548,22.38032,0.0],[75.77695,22.37394,0.0],[75.774,22.36929,0.0],[75.76919,22.37135,0.0],[75.77052,22.37257,0.0],[75.76974,22.37457,0.0],[75.76603,22.37602,0.0],[75.76176,22.37522,0.0],[75.76092,22.36438,0.0],[75.75419,22.36122,0.0],[75.75148,22.35779,0.0],[75.73468,22.35811,0.0],[75.72518,22.36517,0.0],[75.72437,22.36876,0.0],[75.72155,22.36958,0.0],[75.71336,22.36289,0.0],[75.70221,22.36125,0.0],[75.70338,22.35949,0.0],[75.70174,22.35872,0.0],[75.69158,22.35961,0.0],[75.68744,22.35391,0.0],[75.67556,22.34786,0.0],[75.67546,22.34331,0.0],[75.6637,22.34449,0.0],[75.65406,22.34243,0.0],[75.65144,22.33974,0.0],[75.65385,22.33175,0.0],[75.64508,22.33457,0.0],[75.64617,22.34015,0.0],[75.64193,22.34381,0.0],[75.64187,22.35431,0.0],[75.63853,22.35538,0.0],[75.6339,22.35468,0.0],[75.63443,22.35096,0.0],[75.62762,22.34192,0.0],[75.62444,22.3423,0.0],[75.61556,22.33787,0.0],[75.60057,22.3409,0.0],[75.59887,22.34728,0.0],[75.60186,22.34428,0.0],[75.60427,22.3458,0.0],[75.60834,22.34464,0.0],[75.6113,22.34658,0.0],[75.61175,22.34787,0.0],[75.60999,22.34888,0.0],[75.60482,22.35026,0.0],[75.60742,22.35347,0.0],[75.60634,22.35482,0.0],[75.60994,22.356,0.0],[75.61434,22.36214,0.0],[75.61334,22.36579,0.0],[75.60815,22.36715,0.0],[75.59727,22.36627,0.0],[75.59321,22.36428,0.0],[75.59329,22.37211,0.0],[75.59201,22.37338,0.0],[75.58784,22.37435,0.0],[75.5798,22.37329,0.0],[75.57744,22.37821,0.0],[75.57395,22.37959,0.0],[75.56984,22.37949,0.0],[75.56455,22.37694,0.0],[75.5601,22.37815,0.0],[75.55695,22.37696,0.0],[75.55466,22.37999,0.0],[75.55608,22.38669,0.0]]]}},{"type":"Feature","properties":{"District":"JABALPUR","Dist_LGD":"451","STATE_UT":"MADHYA PRADESH","STATE_LGD":"23"},"geometry":{"type":"Polygon","coordinates":[[[79.63828,22.94396,0.0],[79.63135,22.94416,0.0],[79.62857,22.94883,0.0],[79.62721,22.94872,0.0],[79.62625,22.95214,0.0],[79.62212,22.95419,0.0],[79.62411,22.96112,0.0],[79.62188,22.96697,0.0],[79.63699,22.96994,0.0],[79.63793,22.97275,0.0],[79.64015,22.97215,0.0],[79.64287,22.97943,0.0],[79.63502,22.98413,0.0],[79.63331,22.98753,0.0],[79.6294,22.9889,0.0],[79.62781,22.99219,0.0],[79.62415,22.99369,0.0],[79.61646,22.99214,0.0],[79.61733,22.99862,0.0],[79.61545,23.00443,0.0],[79.60837,23.00554,0.0],[79.60575,23.00987,0.0],[79.6065,23.01421,0.0],[79.60955,23.0171,0.0],[79.60876,23.01953,0.0],[79.60436,23.01917,0.0],[79.60115,23.02202,0.0],[79.59338,23.02032,0.0],[79.59024,23.02277,0.0],[79.59232,23.02682,0.0],[79.59749,23.03078,0.0],[79.59914,23.035,0.0],[79.59805,23.0391,0.0],[79.59401,23.04321,0.0],[79.59458,23.04693,0.0],[79.59988,23.05271,0.0],[79.59583,23.05946,0.0],[79.60131,23.0647,0.0],[79.60803,23.06763,0.0],[79.60629,23.07549,0.0],[79.60846,23.08792,0.0],[79.60559,23.08722,0.0],[79.60593,23.08512,0.0],[79.60272,23.08348,0.0],[79.6,23.0914,0.0],[79.60193,23.09261,0.0],[79.6133,23.0902,0.0],[79.61346,23.09484,0.0],[79.60793,23.09719,0.0],[79.60747,23.09905,0.0],[79.61497,23.10342,0.0],[79.61599,23.10585,0.0],[79.60543,23.10735,0.0],[79.59517,23.11104,0.0],[79.58101,23.11207,0.0],[79.57918,23.11444,0.0],[79.57611,23.13001,0.0],[79.56965,23.13514,0.0],[79.55647,23.13614,0.0],[79.54637,23.13947,0.0],[79.53472,23.13997,0.0],[79.51905,23.14362,0.0],[79.512,23.14212,0.0],[79.50793,23.13951,0.0],[79.49605,23.1279,0.0],[79.47991,23.11814,0.0],[79.45945,23.09849,0.0],[79.45257,23.09825,0.0],[79.43956,23.10709,0.0],[79.43481,23.10833,0.0],[79.4153,23.10416,0.0],[79.40475,23.09966,0.0],[79.39898,23.1013,0.0],[79.38859,23.1107,0.0],[79.38311,23.11292,0.0],[79.37784,23.11289,0.0],[79.36322,23.10593,0.0],[79.34724,23.10715,0.0],[79.35194,23.11356,0.0],[79.35295,23.1258,0.0],[79.35787,23.1305,0.0],[79.35212,23.13495,0.0],[79.35135,23.13899,0.0],[79.35429,23.14256,0.0],[79.36448,23.14776,0.0],[79.37303,23.15577,0.0],[79.37362,23.1643,0.0],[79.37098,23.16724,0.0],[79.38839,23.17439,0.0],[79.40293,23.18346,0.0],[79.4203,23.19176,0.0],[79.42668,23.19713,0.0],[79.42885,23.20158,0.0],[79.45196,23.21962,0.0],[79.45626,23.22512,0.0],[79.47541,23.23725,0.0],[79.4796,23.2449,0.0],[79.48933,23.25221,0.0],[79.49008,23.25694,0.0],[79.49343,23.26224,0.0],[79.48971,23.26283,0.0],[79.49901,23.26206,0.0],[79.51269,23.2686,0.0],[79.53129,23.26488,0.0],[79.52902,23.2603,0.0],[79.53055,23.25818,0.0],[79.56226,23.27622,0.0],[79.56619,23.27596,0.0],[79.56803,23.28017,0.0],[79.57674,23.28657,0.0],[79.59487,23.29542,0.0],[79.61065,23.3064,0.0],[79.65461,23.33136,0.0],[79.66449,23.33638,0.0],[79.66815,23.33536,0.0],[79.67361,23.338,0.0],[79.67417,23.34307,0.0],[79.70331,23.36194,0.0],[79.70628,23.36757,0.0],[79.70395,23.3742,0.0],[79.71297,23.37092,0.0],[79.71995,23.38486,0.0],[79.71823,23.39222,0.0],[79.72331,23.39331,0.0],[79.72097,23.39642,0.0],[79.72099,23.39983,0.0],[79.72606,23.39971,0.0],[79.73412,23.41048,0.0],[79.73091,23.41421,0.0],[79.73407,23.41927,0.0],[79.73129,23.42173,0.0],[79.72461,23.41927,0.0],[79.72448,23.42473,0.0],[79.72967,23.42728,0.0],[79.73585,23.42603,0.0],[79.73582,23.43061,0.0],[79.73931,23.43277,0.0],[79.73804,23.43625,0.0],[79.74009,23.43434,0.0],[79.74076,23.42987,0.0],[79.74298,23.4289,0.0],[79.74526,23.43122,0.0],[79.74913,23.43032,0.0],[79.76132,23.43382,0.0],[79.76323,23.43651,0.0],[79.76712,23.43814,0.0],[79.76576,23.44174,0.0],[79.76912,23.44608,0.0],[79.77095,23.4457,0.0],[79.7709,23.44286,0.0],[79.77305,23.43986,0.0],[79.77599,23.43897,0.0],[79.78228,23.44097,0.0],[79.78617,23.44564,0.0],[79.78976,23.44621,0.0],[79.78633,23.44646,0.0],[79.78554,23.44937,0.0],[79.79051,23.45182,0.0],[79.79243,23.45497,0.0],[79.78703,23.45896,0.0],[79.79298,23.464,0.0],[79.79657,23.46257,0.0],[79.80277,23.46569,0.0],[79.80798,23.48149,0.0],[79.8143,23.48971,0.0],[79.81437,23.49298,0.0],[79.81001,23.4988,0.0],[79.8119,23.50243,0.0],[79.81576,23.50305,0.0],[79.81882,23.50664,0.0],[79.82024,23.5104,0.0],[79.81744,23.51309,0.0],[79.82793,23.51127,0.0],[79.83611,23.51183,0.0],[79.84088,23.50638,0.0],[79.84609,23.50419,0.0],[79.87187,23.53919,0.0],[79.87456,23.54659,0.0],[79.87421,23.54988,0.0],[79.87644,23.55194,0.0],[79.87531,23.55322,0.0],[79.87812,23.55434,0.0],[79.87653,23.55654,0.0],[79.87911,23.55871,0.0],[79.87989,23.557,0.0],[79.88329,23.56,0.0],[79.88461,23.55909,0.0],[79.88574,23.56243,0.0],[79.88724,23.56151,0.0],[79.88786,23.56426,0.0],[79.89258,23.56599,0.0],[79.8919,23.56764,0.0],[79.89375,23.56779,0.0],[79.89167,23.56917,0.0],[79.89261,23.57296,0.0],[79.89555,23.57244,0.0],[79.89826,23.57471,0.0],[79.9011,23.57471,0.0],[79.90107,23.57961,0.0],[79.9034,23.58109,0.0],[79.90315,23.5857,0.0],[79.90629,23.58642,0.0],[79.90893,23.58483,0.0],[79.90997,23.58644,0.0],[79.91126,23.58515,0.0],[79.91252,23.58719,0.0],[79.91745,23.58649,0.0],[79.93253,23.59867,0.0],[79.96361,23.61482,0.0],[79.96858,23.61621,0.0],[79.97135,23.61281,0.0],[79.97022,23.61184,0.0],[79.97251,23.60643,0.0],[79.96989,23.60621,0.0],[79.97207,23.59771,0.0],[79.96695,23.59603,0.0],[79.96738,23.58835,0.0],[79.96515,23.58567,0.0],[79.9634,23.58543,0.0],[79.96435,23.58701,0.0],[79.96071,23.58668,0.0],[79.96167,23.58414,0.0],[79.95907,23.58349,0.0],[79.96025,23.58133,0.0],[79.95764,23.58225,0.0],[79.95614,23.57988,0.0],[79.95385,23.57949,0.0],[79.95526,23.57845,0.0],[79.95584,23.5746,0.0],[79.95412,23.57374,0.0],[79.95645,23.57055,0.0],[79.9567,23.56589,0.0],[79.98001,23.57971,0.0],[79.99331,23.58342,0.0],[79.99663,23.58334,0.0],[79.99904,23.57163,0.0],[80.00385,23.57081,0.0],[80.01063,23.57036,0.0],[80.01081,23.5722,0.0],[80.01459,23.57465,0.0],[80.02532,23.57468,0.0],[80.02621,23.57329,0.0],[80.03419,23.57432,0.0],[80.04334,23.57192,0.0],[80.04346,23.56826,0.0],[80.04656,23.56801,0.0],[80.05483,23.57513,0.0],[80.05873,23.57392,0.0],[80.06539,23.57647,0.0],[80.06827,23.57561,0.0],[80.07036,23.57285,0.0],[80.07877,23.57276,0.0],[80.08232,23.57421,0.0],[80.08449,23.58134,0.0],[80.08971,23.5822,0.0],[80.092,23.58419,0.0],[80.08973,23.59283,0.0],[80.10044,23.59374,0.0],[80.10212,23.59188,0.0],[80.11049,23.59048,0.0],[80.11036,23.58856,0.0],[80.11255,23.58724,0.0],[80.11442,23.58276,0.0],[80.11117,23.57542,0.0],[80.12705,23.5819,0.0],[80.14149,23.58539,0.0],[80.13766,23.57424,0.0],[80.13967,23.57245,0.0],[80.14133,23.57499,0.0],[80.14502,23.57548,0.0],[80.14517,23.57734,0.0],[80.14914,23.58045,0.0],[80.15718,23.57971,0.0],[80.16355,23.57766,0.0],[80.16921,23.57355,0.0],[80.17096,23.57137,0.0],[80.17029,23.56931,0.0],[80.17426,23.56457,0.0],[80.17788,23.56821,0.0],[80.17978,23.56826,0.0],[80.17934,23.57098,0.0],[80.18209,23.57232,0.0],[80.18358,23.57704,0.0],[80.19264,23.58111,0.0],[80.19231,23.58607,0.0],[80.19475,23.58937,0.0],[80.19727,23.58999,0.0],[80.20573,23.58351,0.0],[80.20829,23.5778,0.0],[80.22752,23.578,0.0],[80.23697,23.5748,0.0],[80.23815,23.56916,0.0],[80.23699,23.56211,0.0],[80.23334,23.55606,0.0],[80.22517,23.55706,0.0],[80.22139,23.55996,0.0],[80.22161,23.55734,0.0],[80.22682,23.55252,0.0],[80.23543,23.55116,0.0],[80.23264,23.54048,0.0],[80.23002,23.53874,0.0],[80.2266,23.53901,0.0],[80.22553,23.52964,0.0],[80.22042,23.5307,0.0],[80.2188,23.52614,0.0],[80.21067,23.52536,0.0],[80.20895,23.5357,0.0],[80.20676,23.53677,0.0],[80.20613,23.53963,0.0],[80.19421,23.5364,0.0],[80.1935,23.53426,0.0],[80.19613,23.52927,0.0],[80.19656,23.52347,0.0],[80.20042,23.51618,0.0],[80.19191,23.51182,0.0],[80.18967,23.50762,0.0],[80.19961,23.49496,0.0],[80.20113,23.48772,0.0],[80.20348,23.48661,0.0],[80.20823,23.49107,0.0],[80.21486,23.48927,0.0],[80.21831,23.49106,0.0],[80.22032,23.48964,0.0],[80.22586,23.49316,0.0],[80.22665,23.48987,0.0],[80.22819,23.49098,0.0],[80.2308,23.4896,0.0],[80.22849,23.48752,0.0],[80.22898,23.4862,0.0],[80.23635,23.48691,0.0],[80.23752,23.48434,0.0],[80.24249,23.48726,0.0],[80.24535,23.48169,0.0],[80.24498,23.48641,0.0],[80.24708,23.48773,0.0],[80.25105,23.48502,0.0],[80.25402,23.48516,0.0],[80.25618,23.4831,0.0],[80.25561,23.4768,0.0],[80.26003,23.47692,0.0],[80.26284,23.47317,0.0],[80.26673,23.4735,0.0],[80.26418,23.45457,0.0],[80.26283,23.45346,0.0],[80.2615,23.45774,0.0],[80.2577,23.45771,0.0],[80.25608,23.45685,0.0],[80.25432,23.45024,0.0],[80.25804,23.44893,0.0],[80.25962,23.4449,0.0],[80.26316,23.44788,0.0],[80.26348,23.44214,0.0],[80.26583,23.43873,0.0],[80.27081,23.43886,0.0],[80.27357,23.43551,0.0],[80.27716,23.43671,0.0],[80.2776,23.43831,0.0],[80.28108,23.43721,0.0],[80.28285,23.43817,0.0],[80.28213,23.4365,0.0],[80.28655,23.43374,0.0],[80.29062,23.44786,0.0],[80.29195,23.44567,0.0],[80.29362,23.44625,0.0],[80.29686,23.44188,0.0],[80.29706,23.43921,0.0],[80.29532,23.43781,0.0],[80.29701,23.43752,0.0],[80.29877,23.43283,0.0],[80.2975,23.42968,0.0],[80.30001,23.42835,0.0],[80.29845,23.42745,0.0],[80.30007,23.42503,0.0],[80.29868,23.42235,0.0],[80.30118,23.42197,0.0],[80.30074,23.41961,0.0],[80.30302,23.41934,0.0],[80.30352,23.41717,0.0],[80.31026,23.41747,0.0],[80.30946,23.41607,0.0],[80.3115,23.41368,0.0],[80.31486,23.41344,0.0],[80.31446,23.40798,0.0],[80.31321,23.40574,0.0],[80.31165,23.40637,0.0],[80.30494,23.39551,0.0],[80.30491,23.38882,0.0],[80.30332,23.38663,0.0],[80.30117,23.38469,0.0],[80.29931,23.38662,0.0],[80.29158,23.38597,0.0],[80.2913,23.38244,0.0],[80.29401,23.37568,0.0],[80.29198,23.36358,0.0],[80.29584,23.36182,0.0],[80.29247,23.35885,0.0],[80.29641,23.3578,0.0],[80.29733,23.35281,0.0],[80.30165,23.35387,0.0],[80.29952,23.35108,0.0],[80.30111,23.35112,0.0],[80.30107,23.34937,0.0],[80.29788,23.3466,0.0],[80.29881,23.34456,0.0],[80.29695,23.34396,0.0],[80.29865,23.34088,0.0],[80.29629,23.33894,0.0],[80.29781,23.3372,0.0],[80.30211,23.33736,0.0],[80.30051,23.33456,0.0],[80.30397,23.3324,0.0],[80.30154,23.32884,0.0],[80.30207,23.32422,0.0],[80.30349,23.31992,0.0],[80.30758,23.31588,0.0],[80.30198,23.30798,0.0],[80.30299,23.3059,0.0],[80.29792,23.3026,0.0],[80.29683,23.3002,0.0],[80.2984,23.29858,0.0],[80.29965,23.30201,0.0],[80.30967,23.30782,0.0],[80.34242,23.30358,0.0],[80.35322,23.30711,0.0],[80.36715,23.30628,0.0],[80.36784,23.30772,0.0],[80.3654,23.30939,0.0],[80.3695,23.31146,0.0],[80.36774,23.31314,0.0],[80.36859,23.31743,0.0],[80.36432,23.32263,0.0],[80.36517,23.32909,0.0],[80.37236,23.33123,0.0],[80.37639,23.33005,0.0],[80.37695,23.33577,0.0],[80.3794,23.33699,0.0],[80.38171,23.33582,0.0],[80.38579,23.33918,0.0],[80.39108,23.33857,0.0],[80.39228,23.34122,0.0],[80.39053,23.34868,0.0],[80.39612,23.35324,0.0],[80.39567,23.35184,0.0],[80.39731,23.35087,0.0],[80.40354,23.35006,0.0],[80.40653,23.3464,0.0],[80.40604,23.34278,0.0],[80.4102,23.34132,0.0],[80.4215,23.34736,0.0],[80.43277,23.3461,0.0],[80.43824,23.34856,0.0],[80.43947,23.34466,0.0],[80.44216,23.34379,0.0],[80.44568,23.34566,0.0],[80.45084,23.34602,0.0],[80.45278,23.34419,0.0],[80.45884,23.3453,0.0],[80.46263,23.34796,0.0],[80.46182,23.35494,0.0],[80.46383,23.3611,0.0],[80.46357,23.36616,0.0],[80.46861,23.37041,0.0],[80.4783,23.37099,0.0],[80.48172,23.37398,0.0],[80.48141,23.38303,0.0],[80.4841,23.39258,0.0],[80.48892,23.39246,0.0],[80.50104,23.38782,0.0],[80.51126,23.38,0.0],[80.52265,23.37844,0.0],[80.52918,23.38125,0.0],[80.53474,23.38707,0.0],[80.54409,23.39263,0.0],[80.54506,23.38695,0.0],[80.55494,23.38029,0.0],[80.55523,23.37863,0.0],[80.55309,23.37062,0.0],[80.54521,23.36749,0.0],[80.54008,23.36273,0.0],[80.54281,23.35359,0.0],[80.54904,23.35487,0.0],[80.56101,23.35358,0.0],[80.56722,23.35445,0.0],[80.57587,23.35176,0.0],[80.57235,23.34629,0.0],[80.57361,23.33677,0.0],[80.56768,23.31691,0.0],[80.58299,23.31396,0.0],[80.58461,23.28953,0.0],[80.5825,23.28197,0.0],[80.57159,23.28175,0.0],[80.56949,23.27746,0.0],[80.56849,23.26914,0.0],[80.56228,23.27062,0.0],[80.54298,23.27086,0.0],[80.54298,23.26289,0.0],[80.5353,23.25844,0.0],[80.52868,23.25673,0.0],[80.52271,23.2593,0.0],[80.52283,23.25624,0.0],[80.52036,23.25175,0.0],[80.52109,23.24006,0.0],[80.50377,23.21125,0.0],[80.50309,23.20238,0.0],[80.48542,23.20186,0.0],[80.47751,23.19994,0.0],[80.47929,23.19284,0.0],[80.49273,23.18935,0.0],[80.50077,23.18556,0.0],[80.5089,23.17554,0.0],[80.50959,23.17099,0.0],[80.51474,23.17009,0.0],[80.52244,23.15423,0.0],[80.54283,23.16686,0.0],[80.55212,23.16741,0.0],[80.55475,23.16404,0.0],[80.55628,23.15794,0.0],[80.55536,23.15407,0.0],[80.56731,23.14415,0.0],[80.57194,23.14339,0.0],[80.5817,23.1384,0.0],[80.5782,23.12798,0.0],[80.57481,23.12726,0.0],[80.56613,23.11979,0.0],[80.5571,23.12264,0.0],[80.55388,23.11987,0.0],[80.55038,23.11082,0.0],[80.54187,23.10397,0.0],[80.52571,23.10595,0.0],[80.5249,23.09482,0.0],[80.52757,23.08891,0.0],[80.52892,23.07781,0.0],[80.52216,23.07711,0.0],[80.52125,23.07834,0.0],[80.51826,23.07715,0.0],[80.5072,23.07901,0.0],[80.50518,23.08416,0.0],[80.51211,23.09046,0.0],[80.51216,23.10705,0.0],[80.49074,23.10726,0.0],[80.48812,23.11616,0.0],[80.4804,23.12016,0.0],[80.47787,23.12663,0.0],[80.47378,23.12588,0.0],[80.46984,23.1221,0.0],[80.45891,23.1253,0.0],[80.45796,23.12609,0.0],[80.46163,23.13086,0.0],[80.46142,23.14155,0.0],[80.45534,23.14348,0.0],[80.43151,23.13987,0.0],[80.42367,23.14168,0.0],[80.42214,23.14486,0.0],[80.4235,23.15347,0.0],[80.41901,23.15448,0.0],[80.41138,23.17137,0.0],[80.4025,23.17221,0.0],[80.3908,23.1708,0.0],[80.39425,23.16709,0.0],[80.38881,23.15612,0.0],[80.39042,23.15158,0.0],[80.38934,23.14463,0.0],[80.39239,23.14134,0.0],[80.35782,23.13919,0.0],[80.35612,23.13177,0.0],[80.35042,23.12177,0.0],[80.33671,23.11684,0.0],[80.33722,23.11029,0.0],[80.3301,23.10079,0.0],[80.32977,23.09757,0.0],[80.31831,23.09831,0.0],[80.30888,23.09671,0.0],[80.30159,23.09858,0.0],[80.29971,23.10684,0.0],[80.28736,23.11125,0.0],[80.28351,23.11482,0.0],[80.28047,23.12068,0.0],[80.27374,23.12614,0.0],[80.27099,23.13273,0.0],[80.27429,23.14665,0.0],[80.26085,23.14776,0.0],[80.25157,23.15058,0.0],[80.24426,23.14248,0.0],[80.23864,23.13979,0.0],[80.23217,23.14237,0.0],[80.22716,23.14238,0.0],[80.21723,23.13198,0.0],[80.20905,23.13045,0.0],[80.20613,23.13188,0.0],[80.19192,23.13106,0.0],[80.18552,23.12819,0.0],[80.17898,23.1221,0.0],[80.18087,23.11136,0.0],[80.18988,23.10481,0.0],[80.18801,23.09204,0.0],[80.20239,23.08641,0.0],[80.20413,23.06787,0.0],[80.1879,23.06753,0.0],[80.18121,23.0623,0.0],[80.18069,23.0564,0.0],[80.18524,23.05408,0.0],[80.18704,23.04316,0.0],[80.1889,23.04125,0.0],[80.18797,23.03997,0.0],[80.19089,23.03363,0.0],[80.19121,23.02911,0.0],[80.18651,23.02245,0.0],[80.17654,23.02408,0.0],[80.16804,23.04333,0.0],[80.16295,23.04755,0.0],[80.15838,23.04832,0.0],[80.1488,23.04557,0.0],[80.14444,23.049,0.0],[80.14282,23.04835,0.0],[80.14266,23.04521,0.0],[80.14057,23.04533,0.0],[80.14034,23.0556,0.0],[80.13795,23.05593,0.0],[80.13434,23.05968,0.0],[80.1284,23.05917,0.0],[80.12547,23.05485,0.0],[80.12057,23.05303,0.0],[80.11201,23.05148,0.0],[80.10819,23.05292,0.0],[80.1073,23.06005,0.0],[80.10895,23.07604,0.0],[80.09745,23.07959,0.0],[80.08272,23.07726,0.0],[80.08101,23.0681,0.0],[80.07859,23.06555,0.0],[80.07082,23.06627,0.0],[80.05742,23.05902,0.0],[80.05353,23.05382,0.0],[80.04886,23.05231,0.0],[80.04282,23.04745,0.0],[80.03709,23.0386,0.0],[80.0208,23.03477,0.0],[80.0143,23.03159,0.0],[80.00106,23.03146,0.0],[79.99261,23.02918,0.0],[79.99231,23.02653,0.0],[79.99517,23.02104,0.0],[79.99341,23.01616,0.0],[79.99017,23.01346,0.0],[79.99705,23.01643,0.0],[80.00017,23.01522,0.0],[80.00099,23.01104,0.0],[80.00477,23.00812,0.0],[80.00562,23.00546,0.0],[80.00494,23.00295,0.0],[79.99559,23.00248,0.0],[79.99249,22.99991,0.0],[79.99168,22.99559,0.0],[79.9931,22.99539,0.0],[79.99472,22.99159,0.0],[80.00177,22.98878,0.0],[80.00628,22.98014,0.0],[80.00507,22.97886,0.0],[79.99842,22.97909,0.0],[79.99703,22.97578,0.0],[79.99245,22.97375,0.0],[79.98839,22.96925,0.0],[79.98447,22.96944,0.0],[79.98128,22.96566,0.0],[79.97088,22.96196,0.0],[79.9666,22.95829,0.0],[79.95605,22.95537,0.0],[79.9541,22.94839,0.0],[79.95755,22.94481,0.0],[79.96125,22.94443,0.0],[79.96157,22.94279,0.0],[79.95495,22.94321,0.0],[79.95322,22.93949,0.0],[79.96257,22.93046,0.0],[79.9711,22.92475,0.0],[79.97477,22.91868,0.0],[79.96973,22.91612,0.0],[79.97069,22.91543,0.0],[79.96744,22.90784,0.0],[79.97016,22.90222,0.0],[79.96836,22.88905,0.0],[79.97509,22.88513,0.0],[79.96186,22.87095,0.0],[79.96455,22.87159,0.0],[79.96633,22.86547,0.0],[79.96436,22.852,0.0],[79.96206,22.85338,0.0],[79.95265,22.85299,0.0],[79.94526,22.85709,0.0],[79.94287,22.86049,0.0],[79.94037,22.86081,0.0],[79.9306,22.85721,0.0],[79.92452,22.85716,0.0],[79.90604,22.84528,0.0],[79.90339,22.86051,0.0],[79.90187,22.8638,0.0],[79.89973,22.8636,0.0],[79.8857,22.86038,0.0],[79.88215,22.8506,0.0],[79.88121,22.85208,0.0],[79.87624,22.85256,0.0],[79.8697,22.85573,0.0],[79.86471,22.85283,0.0],[79.85528,22.83438,0.0],[79.84853,22.83092,0.0],[79.83377,22.83264,0.0],[79.82772,22.83826,0.0],[79.82657,22.84415,0.0],[79.81707,22.8474,0.0],[79.81854,22.85546,0.0],[79.81765,22.86104,0.0],[79.82036,22.87108,0.0],[79.81335,22.86937,0.0],[79.80003,22.86277,0.0],[79.79533,22.85885,0.0],[79.79498,22.85577,0.0],[79.79321,22.8555,0.0],[79.79029,22.84928,0.0],[79.78778,22.84934,0.0],[79.78481,22.8466,0.0],[79.76511,22.84477,0.0],[79.76024,22.85369,0.0],[79.75919,22.86023,0.0],[79.76467,22.86391,0.0],[79.7704,22.87296,0.0],[79.78117,22.87902,0.0],[79.77234,22.88338,0.0],[79.76771,22.8878,0.0],[79.75498,22.89287,0.0],[79.75039,22.89853,0.0],[79.74731,22.89967,0.0],[79.74281,22.89777,0.0],[79.75126,22.913,0.0],[79.75079,22.91691,0.0],[79.74812,22.91985,0.0],[79.74456,22.91864,0.0],[79.73971,22.92007,0.0],[79.72693,22.91893,0.0],[79.71524,22.92412,0.0],[79.6863,22.92429,0.0],[79.68491,22.92522,0.0],[79.68587,22.92903,0.0],[79.67729,22.92673,0.0],[79.67237,22.92725,0.0],[79.6713,22.9249,0.0],[79.66729,22.9233,0.0],[79.65701,22.92266,0.0],[79.64858,22.92607,0.0],[79.64307,22.93767,0.0],[79.63828,22.94396,0.0]]]}},{"type":"Feature","properties":{"District":"REWA","Dist_LGD":"430","STATE_UT":"MADHYA PRADESH","STATE_LGD":"23"},"geometry":{"type":"MultiPolygon","coordinates":[[[[81.17023,24.49679,0.0],[81.15641,24.49758,0.0],[81.15617,24.50425,0.0],[81.15386,24.50778,0.0],[81.14352,24.50799,0.0],[81.14051,24.51021,0.0],[81.14635,24.51808,0.0],[81.14829,24.51722,0.0],[81.14842,24.51859,0.0],[81.15142,24.51875,0.0],[81.15331,24.52,0.0],[81.15265,24.52104,0.0],[81.15713,24.52268,0.0],[81.15587,24.54715,0.0],[81.15951,24.55181,0.0],[81.15847,24.55525,0.0],[81.1597,24.55966,0.0],[81.15771,24.56156,0.0],[81.1617,24.56269,0.0],[81.16116,24.56456,0.0],[81.15926,24.56416,0.0],[81.16063,24.56575,0.0],[81.15822,24.56853,0.0],[81.16058,24.56821,0.0],[81.16063,24.56634,0.0],[81.16573,24.56296,0.0],[81.16836,24.56996,0.0],[81.16833,24.57252,0.0],[81.15909,24.57388,0.0],[81.16073,24.57483,0.0],[81.15933,24.57819,0.0],[81.16114,24.58624,0.0],[81.16012,24.58917,0.0],[81.16379,24.5936,0.0],[81.16104,24.6011,0.0],[81.16293,24.60424,0.0],[81.16325,24.60986,0.0],[81.16678,24.61454,0.0],[81.16608,24.61586,0.0],[81.16424,24.61537,0.0],[81.16837,24.62414,0.0],[81.16689,24.63107,0.0],[81.16181,24.63733,0.0],[81.16548,24.63816,0.0],[81.16481,24.6401,0.0],[81.16656,24.64276,0.0],[81.1642,24.64591,0.0],[81.16763,24.64775,0.0],[81.16564,24.65126,0.0],[81.16843,24.65535,0.0],[81.16774,24.65966,0.0],[81.16952,24.66042,0.0],[81.16886,24.66313,0.0],[81.17052,24.66749,0.0],[81.17471,24.67202,0.0],[81.17323,24.67956,0.0],[81.17638,24.68904,0.0],[81.17545,24.69177,0.0],[81.17921,24.69252,0.0],[81.17985,24.69023,0.0],[81.18144,24.69015,0.0],[81.18026,24.69652,0.0],[81.18352,24.69946,0.0],[81.15758,24.70805,0.0],[81.15432,24.71093,0.0],[81.15244,24.71539,0.0],[81.14883,24.71706,0.0],[81.14821,24.7198,0.0],[81.14079,24.72545,0.0],[81.14037,24.72856,0.0],[81.13166,24.73173,0.0],[81.12467,24.74011,0.0],[81.12271,24.73897,0.0],[81.12133,24.73994,0.0],[81.11861,24.74394,0.0],[81.11991,24.74773,0.0],[81.1188,24.74985,0.0],[81.11158,24.74871,0.0],[81.10749,24.7533,0.0],[81.1069,24.75697,0.0],[81.09958,24.76452,0.0],[81.09467,24.76807,0.0],[81.08777,24.76994,0.0],[81.08634,24.77582,0.0],[81.0922,24.78312,0.0],[81.0908,24.78649,0.0],[81.09157,24.7895,0.0],[81.08885,24.79176,0.0],[81.08373,24.793,0.0],[81.08688,24.78732,0.0],[81.08544,24.78705,0.0],[81.08474,24.78281,0.0],[81.0769,24.78606,0.0],[81.07578,24.78381,0.0],[81.07823,24.77574,0.0],[81.07574,24.77404,0.0],[81.07388,24.77604,0.0],[81.07244,24.77431,0.0],[81.06952,24.7748,0.0],[81.06871,24.77884,0.0],[81.06152,24.77823,0.0],[81.05784,24.78113,0.0],[81.05223,24.78779,0.0],[81.0528,24.79464,0.0],[81.04512,24.79671,0.0],[81.05017,24.8017,0.0],[81.05284,24.80072,0.0],[81.05523,24.80761,0.0],[81.06273,24.80608,0.0],[81.06836,24.80037,0.0],[81.071,24.80181,0.0],[81.06833,24.81095,0.0],[81.07023,24.8195,0.0],[81.06616,24.82024,0.0],[81.06659,24.82189,0.0],[81.06458,24.82348,0.0],[81.06927,24.82765,0.0],[81.07168,24.83337,0.0],[81.08396,24.83134,0.0],[81.09269,24.83212,0.0],[81.09613,24.83065,0.0],[81.09661,24.84095,0.0],[81.09514,24.84483,0.0],[81.09642,24.84654,0.0],[81.10024,24.84611,0.0],[81.10383,24.84878,0.0],[81.10517,24.85676,0.0],[81.10811,24.8591,0.0],[81.10854,24.86322,0.0],[81.10666,24.86666,0.0],[81.11015,24.86756,0.0],[81.112,24.8713,0.0],[81.10962,24.87709,0.0],[81.11082,24.87986,0.0],[81.11442,24.88265,0.0],[81.12197,24.88034,0.0],[81.12479,24.8856,0.0],[81.12324,24.88929,0.0],[81.12528,24.89038,0.0],[81.11992,24.89254,0.0],[81.11875,24.89633,0.0],[81.12258,24.8996,0.0],[81.1396,24.88753,0.0],[81.14124,24.89025,0.0],[81.13991,24.89675,0.0],[81.14165,24.90324,0.0],[81.14511,24.90672,0.0],[81.14546,24.9103,0.0],[81.1504,24.9137,0.0],[81.1602,24.91356,0.0],[81.16079,24.91912,0.0],[81.15852,24.92344,0.0],[81.16132,24.92792,0.0],[81.16378,24.92831,0.0],[81.16371,24.93764,0.0],[81.16606,24.93816,0.0],[81.16402,24.94265,0.0],[81.16801,24.95523,0.0],[81.17221,24.9573,0.0],[81.17937,24.94988,0.0],[81.18515,24.95204,0.0],[81.18881,24.94472,0.0],[81.19223,24.94501,0.0],[81.19715,24.94147,0.0],[81.19737,24.93867,0.0],[81.20097,24.938,0.0],[81.20354,24.93266,0.0],[81.20719,24.93043,0.0],[81.2007,24.93178,0.0],[81.19759,24.92795,0.0],[81.19162,24.92718,0.0],[81.19291,24.92535,0.0],[81.19639,24.92468,0.0],[81.20162,24.9269,0.0],[81.2035,24.92476,0.0],[81.21017,24.92262,0.0],[81.21387,24.92756,0.0],[81.21964,24.92862,0.0],[81.22061,24.93453,0.0],[81.21935,24.93511,0.0],[81.2173,24.93239,0.0],[81.21523,24.93288,0.0],[81.21318,24.94532,0.0],[81.21114,24.94614,0.0],[81.21463,24.94852,0.0],[81.21443,24.95796,0.0],[81.20714,24.96448,0.0],[81.22028,24.97382,0.0],[81.22087,24.97761,0.0],[81.21643,24.98627,0.0],[81.20892,24.99262,0.0],[81.21208,24.9957,0.0],[81.21304,25.0,0.0],[81.2208,24.99739,0.0],[81.22666,25.00196,0.0],[81.23935,25.01922,0.0],[81.24183,25.02587,0.0],[81.2451,25.02752,0.0],[81.25373,25.0389,0.0],[81.25857,25.049,0.0],[81.26382,25.05276,0.0],[81.26204,25.05808,0.0],[81.2689,25.06745,0.0],[81.26506,25.07355,0.0],[81.25949,25.07574,0.0],[81.26667,25.08439,0.0],[81.26156,25.08837,0.0],[81.25849,25.09752,0.0],[81.255,25.09854,0.0],[81.25214,25.10208,0.0],[81.25327,25.10776,0.0],[81.2572,25.11106,0.0],[81.26133,25.11018,0.0],[81.26472,25.11669,0.0],[81.26479,25.12228,0.0],[81.26276,25.12538,0.0],[81.26818,25.12809,0.0],[81.26851,25.13156,0.0],[81.26615,25.13969,0.0],[81.27755,25.14651,0.0],[81.28167,25.15206,0.0],[81.2751,25.16346,0.0],[81.27752,25.166,0.0],[81.28897,25.16188,0.0],[81.29658,25.16269,0.0],[81.29921,25.16447,0.0],[81.31343,25.16374,0.0],[81.3155,25.15888,0.0],[81.31229,25.15591,0.0],[81.31322,25.14945,0.0],[81.31192,25.13756,0.0],[81.31432,25.13539,0.0],[81.31569,25.12709,0.0],[81.3179,25.1254,0.0],[81.31624,25.12349,0.0],[81.31857,25.12282,0.0],[81.32127,25.11877,0.0],[81.32147,25.11277,0.0],[81.33108,25.11463,0.0],[81.32629,25.11921,0.0],[81.3252,25.12239,0.0],[81.32401,25.12763,0.0],[81.32503,25.13651,0.0],[81.31867,25.14397,0.0],[81.31956,25.15678,0.0],[81.32232,25.16193,0.0],[81.33452,25.16929,0.0],[81.34528,25.1619,0.0],[81.35273,25.16202,0.0],[81.35402,25.16391,0.0],[81.35728,25.1631,0.0],[81.3617,25.15923,0.0],[81.36268,25.15306,0.0],[81.36882,25.1439,0.0],[81.37573,25.14173,0.0],[81.37541,25.13904,0.0],[81.3709,25.13484,0.0],[81.38228,25.13608,0.0],[81.38538,25.13216,0.0],[81.39261,25.13096,0.0],[81.39405,25.12924,0.0],[81.39326,25.12623,0.0],[81.3954,25.12616,0.0],[81.39521,25.12274,0.0],[81.39992,25.11922,0.0],[81.41429,25.12093,0.0],[81.40853,25.12523,0.0],[81.4057,25.12911,0.0],[81.40619,25.13129,0.0],[81.4154,25.12844,0.0],[81.42187,25.12855,0.0],[81.42561,25.1326,0.0],[81.42892,25.13049,0.0],[81.43852,25.13033,0.0],[81.43693,25.12815,0.0],[81.4379,25.12389,0.0],[81.44513,25.11608,0.0],[81.44668,25.11109,0.0],[81.4457,25.10926,0.0],[81.44766,25.10717,0.0],[81.4445,25.10594,0.0],[81.43426,25.10723,0.0],[81.43069,25.10558,0.0],[81.42717,25.10712,0.0],[81.41371,25.10792,0.0],[81.40727,25.10491,0.0],[81.41759,25.10235,0.0],[81.42407,25.09809,0.0],[81.42993,25.09762,0.0],[81.43677,25.09408,0.0],[81.45451,25.09039,0.0],[81.46481,25.09011,0.0],[81.46733,25.0884,0.0],[81.46506,25.08381,0.0],[81.46927,25.07979,0.0],[81.48205,25.07675,0.0],[81.48647,25.07346,0.0],[81.49113,25.07232,0.0],[81.49364,25.08027,0.0],[81.49844,25.07874,0.0],[81.49947,25.07682,0.0],[81.50108,25.07743,0.0],[81.50298,25.08971,0.0],[81.50024,25.09638,0.0],[81.50665,25.09553,0.0],[81.5181,25.10074,0.0],[81.50307,25.10687,0.0],[81.49826,25.10506,0.0],[81.49583,25.10853,0.0],[81.49032,25.10945,0.0],[81.48866,25.11421,0.0],[81.48414,25.11595,0.0],[81.48744,25.12377,0.0],[81.48076,25.12764,0.0],[81.48005,25.13255,0.0],[81.48519,25.13483,0.0],[81.49388,25.13208,0.0],[81.49638,25.12898,0.0],[81.49618,25.14047,0.0],[81.49951,25.14868,0.0],[81.5088,25.14782,0.0],[81.50998,25.14601,0.0],[81.5139,25.14564,0.0],[81.51548,25.14304,0.0],[81.51916,25.14315,0.0],[81.52724,25.13809,0.0],[81.5309,25.14521,0.0],[81.52658,25.1478,0.0],[81.5227,25.14667,0.0],[81.52992,25.15161,0.0],[81.5365,25.16055,0.0],[81.53099,25.1647,0.0],[81.52496,25.16457,0.0],[81.52533,25.16563,0.0],[81.51792,25.1705,0.0],[81.51617,25.17407,0.0],[81.51464,25.17358,0.0],[81.51248,25.17734,0.0],[81.51441,25.17953,0.0],[81.5146,25.18434,0.0],[81.51858,25.18605,0.0],[81.52496,25.18386,0.0],[81.52746,25.18085,0.0],[81.53284,25.18239,0.0],[81.53443,25.18066,0.0],[81.5398,25.18036,0.0],[81.53991,25.18608,0.0],[81.54546,25.18506,0.0],[81.55411,25.18609,0.0],[81.55594,25.18358,0.0],[81.56291,25.18651,0.0],[81.57017,25.19208,0.0],[81.57857,25.19085,0.0],[81.59562,25.18182,0.0],[81.59508,25.17749,0.0],[81.58846,25.16577,0.0],[81.59436,25.16373,0.0],[81.60463,25.16303,0.0],[81.60894,25.16469,0.0],[81.61182,25.16392,0.0],[81.6154,25.16901,0.0],[81.61876,25.1674,0.0],[81.62042,25.16242,0.0],[81.62621,25.16047,0.0],[81.62418,25.15614,0.0],[81.62571,25.14485,0.0],[81.62332,25.14104,0.0],[81.62061,25.14029,0.0],[81.61459,25.14439,0.0],[81.61046,25.1391,0.0],[81.60258,25.13615,0.0],[81.59806,25.13134,0.0],[81.60233,25.12725,0.0],[81.60059,25.12403,0.0],[81.5983,25.12378,0.0],[81.6,25.12313,0.0],[81.59804,25.12229,0.0],[81.59696,25.11909,0.0],[81.60061,25.11627,0.0],[81.60639,25.11627,0.0],[81.61011,25.11252,0.0],[81.60849,25.11174,0.0],[81.61023,25.10876,0.0],[81.60832,25.09605,0.0],[81.61147,25.09506,0.0],[81.61466,25.10004,0.0],[81.61632,25.10773,0.0],[81.61897,25.11013,0.0],[81.62314,25.11099,0.0],[81.62365,25.11223,0.0],[81.6205,25.11565,0.0],[81.62408,25.12004,0.0],[81.63294,25.11712,0.0],[81.63171,25.11178,0.0],[81.62834,25.10679,0.0],[81.63206,25.10643,0.0],[81.63357,25.1027,0.0],[81.64086,25.09849,0.0],[81.62861,25.09474,0.0],[81.62879,25.09128,0.0],[81.62143,25.09016,0.0],[81.61579,25.08034,0.0],[81.60543,25.07848,0.0],[81.60035,25.07385,0.0],[81.61054,25.06865,0.0],[81.60914,25.06562,0.0],[81.61745,25.06092,0.0],[81.61692,25.05879,0.0],[81.61032,25.06107,0.0],[81.61143,25.0565,0.0],[81.62765,25.05263,0.0],[81.63331,25.05934,0.0],[81.64122,25.05676,0.0],[81.65148,25.06716,0.0],[81.6527,25.07082,0.0],[81.66051,25.07161,0.0],[81.66267,25.07417,0.0],[81.66416,25.07259,0.0],[81.66654,25.07511,0.0],[81.66856,25.07171,0.0],[81.6672,25.06136,0.0],[81.67088,25.05991,0.0],[81.67797,25.06204,0.0],[81.68232,25.06119,0.0],[81.68574,25.05839,0.0],[81.68862,25.05174,0.0],[81.69151,25.05148,0.0],[81.69344,25.0488,0.0],[81.68872,25.03954,0.0],[81.68975,25.03895,0.0],[81.7071,25.03523,0.0],[81.71331,25.03607,0.0],[81.72141,25.03825,0.0],[81.72168,25.04232,0.0],[81.71909,25.04184,0.0],[81.72388,25.05017,0.0],[81.73044,25.04746,0.0],[81.73151,25.04864,0.0],[81.74041,25.04483,0.0],[81.74256,25.04144,0.0],[81.74188,25.03894,0.0],[81.7467,25.03742,0.0],[81.74565,25.03349,0.0],[81.755,25.03484,0.0],[81.75517,25.03169,0.0],[81.758,25.02739,0.0],[81.78089,25.01888,0.0],[81.79221,25.00441,0.0],[81.80377,25.0017,0.0],[81.80559,25.00524,0.0],[81.80464,25.0059,0.0],[81.81038,25.01269,0.0],[81.81401,25.01069,0.0],[81.81772,25.0152,0.0],[81.81949,25.01414,0.0],[81.82305,25.01712,0.0],[81.82568,25.01679,0.0],[81.8319,25.01213,0.0],[81.83482,25.01697,0.0],[81.84874,25.01164,0.0],[81.84865,25.00822,0.0],[81.85347,25.00268,0.0],[81.85955,25.00314,0.0],[81.86521,25.00087,0.0],[81.86642,25.00235,0.0],[81.87255,24.99976,0.0],[81.87419,24.99517,0.0],[81.87688,24.99579,0.0],[81.87688,24.9994,0.0],[81.8909,24.99576,0.0],[81.88991,24.99186,0.0],[81.89131,24.98887,0.0],[81.89548,24.98968,0.0],[81.90169,24.9994,0.0],[81.8974,25.00352,0.0],[81.89484,25.00782,0.0],[81.89556,25.00952,0.0],[81.89812,25.01064,0.0],[81.90727,25.00567,0.0],[81.90634,24.99503,0.0],[81.90146,24.9865,0.0],[81.90299,24.98374,0.0],[81.90593,24.98272,0.0],[81.90517,24.98137,0.0],[81.90786,24.98012,0.0],[81.90408,24.9722,0.0],[81.90751,24.97076,0.0],[81.90805,24.96847,0.0],[81.90939,24.9607,0.0],[81.9075,24.95951,0.0],[81.91006,24.95243,0.0],[81.90907,24.94264,0.0],[81.91036,24.93738,0.0],[81.91406,24.93626,0.0],[81.91965,24.92812,0.0],[81.91755,24.92328,0.0],[81.91902,24.9219,0.0],[81.91835,24.91952,0.0],[81.90671,24.9044,0.0],[81.90643,24.90026,0.0],[81.90353,24.89875,0.0],[81.90786,24.89654,0.0],[81.90479,24.89507,0.0],[81.90574,24.89269,0.0],[81.90284,24.89168,0.0],[81.90442,24.89139,0.0],[81.90355,24.89001,0.0],[81.90495,24.88678,0.0],[81.90891,24.88574,0.0],[81.90657,24.88345,0.0],[81.90789,24.88135,0.0],[81.91463,24.88072,0.0],[81.9165,24.8772,0.0],[81.92057,24.87739,0.0],[81.92006,24.87432,0.0],[81.9255,24.8722,0.0],[81.92801,24.87403,0.0],[81.93372,24.8707,0.0],[81.93463,24.86808,0.0],[81.93272,24.85874,0.0],[81.93768,24.85285,0.0],[81.9365,24.85201,0.0],[81.93794,24.84973,0.0],[81.94357,24.84658,0.0],[81.94284,24.8442,0.0],[81.92374,24.85015,0.0],[81.91923,24.84946,0.0],[81.91609,24.84281,0.0],[81.92179,24.83616,0.0],[81.92133,24.82835,0.0],[81.91139,24.83313,0.0],[81.90563,24.83378,0.0],[81.89988,24.84131,0.0],[81.89847,24.84887,0.0],[81.88442,24.84834,0.0],[81.88349,24.83785,0.0],[81.88138,24.8353,0.0],[81.8771,24.83479,0.0],[81.8747,24.82399,0.0],[81.85776,24.83509,0.0],[81.85041,24.83382,0.0],[81.84704,24.82681,0.0],[81.84786,24.82262,0.0],[81.84442,24.82063,0.0],[81.84375,24.81825,0.0],[81.84621,24.81136,0.0],[81.84346,24.81136,0.0],[81.8376,24.81623,0.0],[81.83248,24.81179,0.0],[81.83257,24.80339,0.0],[81.83659,24.7959,0.0],[81.83635,24.7927,0.0],[81.84043,24.78191,0.0],[81.84079,24.77496,0.0],[81.83405,24.76827,0.0],[81.8306,24.76978,0.0],[81.83215,24.77171,0.0],[81.83158,24.78133,0.0],[81.82898,24.78333,0.0],[81.82932,24.78735,0.0],[81.82777,24.78988,0.0],[81.81904,24.7822,0.0],[81.81219,24.78317,0.0],[81.81952,24.78615,0.0],[81.82677,24.79676,0.0],[81.82368,24.80316,0.0],[81.82368,24.8083,0.0],[81.81999,24.81308,0.0],[81.82397,24.8141,0.0],[81.82803,24.82236,0.0],[81.83329,24.82605,0.0],[81.83256,24.829,0.0],[81.8356,24.83074,0.0],[81.83903,24.84042,0.0],[81.84124,24.84278,0.0],[81.82975,24.84278,0.0],[81.82142,24.84744,0.0],[81.81901,24.84584,0.0],[81.81498,24.8528,0.0],[81.80107,24.85503,0.0],[81.79351,24.859,0.0],[81.79137,24.86283,0.0],[81.78528,24.86209,0.0],[81.76877,24.86971,0.0],[81.76082,24.86725,0.0],[81.75838,24.86852,0.0],[81.75881,24.87059,0.0],[81.7549,24.87176,0.0],[81.75408,24.87467,0.0],[81.75562,24.87648,0.0],[81.75181,24.879,0.0],[81.753,24.8813,0.0],[81.74955,24.88557,0.0],[81.75061,24.88618,0.0],[81.7501,24.89394,0.0],[81.7471,24.90554,0.0],[81.74831,24.92396,0.0],[81.75,24.92621,0.0],[81.74762,24.92909,0.0],[81.74544,24.92795,0.0],[81.72585,24.93326,0.0],[81.71745,24.91829,0.0],[81.71767,24.91544,0.0],[81.72123,24.91041,0.0],[81.72087,24.9072,0.0],[81.71355,24.90758,0.0],[81.71385,24.91189,0.0],[81.71172,24.91273,0.0],[81.70847,24.90861,0.0],[81.70122,24.91018,0.0],[81.69784,24.90738,0.0],[81.69011,24.88853,0.0],[81.68496,24.86735,0.0],[81.68199,24.86561,0.0],[81.68239,24.85913,0.0],[81.66952,24.86134,0.0],[81.66391,24.8461,0.0],[81.66535,24.84567,0.0],[81.66476,24.84273,0.0],[81.66035,24.83953,0.0],[81.65638,24.83291,0.0],[81.66048,24.8317,0.0],[81.65988,24.82915,0.0],[81.66341,24.8272,0.0],[81.669,24.8261,0.0],[81.67021,24.82804,0.0],[81.67318,24.82628,0.0],[81.66628,24.82074,0.0],[81.67656,24.81734,0.0],[81.67657,24.81389,0.0],[81.67248,24.803,0.0],[81.66931,24.80006,0.0],[81.66524,24.80042,0.0],[81.66329,24.79516,0.0],[81.65801,24.79699,0.0],[81.65558,24.79586,0.0],[81.64822,24.79737,0.0],[81.64787,24.7961,0.0],[81.65061,24.79465,0.0],[81.64706,24.78494,0.0],[81.64519,24.78573,0.0],[81.64185,24.78333,0.0],[81.64114,24.77998,0.0],[81.63837,24.77808,0.0],[81.64216,24.77842,0.0],[81.64335,24.77631,0.0],[81.64602,24.77658,0.0],[81.64253,24.7664,0.0],[81.65498,24.76138,0.0],[81.65456,24.7568,0.0],[81.6585,24.75288,0.0],[81.65537,24.74962,0.0],[81.65608,24.74248,0.0],[81.65353,24.74303,0.0],[81.65212,24.73795,0.0],[81.64856,24.73791,0.0],[81.64296,24.73417,0.0],[81.63827,24.72684,0.0],[81.62883,24.72895,0.0],[81.62733,24.72691,0.0],[81.62294,24.72797,0.0],[81.62055,24.7256,0.0],[81.60944,24.72896,0.0],[81.6077,24.72528,0.0],[81.60588,24.71407,0.0],[81.60637,24.71061,0.0],[81.60937,24.7084,0.0],[81.60852,24.70704,0.0],[81.61011,24.70359,0.0],[81.61239,24.7039,0.0],[81.61599,24.71901,0.0],[81.61543,24.72175,0.0],[81.62036,24.72092,0.0],[81.62113,24.72233,0.0],[81.62656,24.7184,0.0],[81.62342,24.71465,0.0],[81.62117,24.70782,0.0],[81.62215,24.70644,0.0],[81.62685,24.70621,0.0],[81.628,24.70771,0.0],[81.62886,24.70567,0.0],[81.63447,24.70574,0.0],[81.63576,24.70256,0.0],[81.64097,24.70249,0.0],[81.6405,24.70053,0.0],[81.6474,24.70118,0.0],[81.64411,24.69004,0.0],[81.64616,24.68749,0.0],[81.65388,24.6851,0.0],[81.65075,24.6718,0.0],[81.64955,24.67189,0.0],[81.64789,24.66534,0.0],[81.64619,24.66441,0.0],[81.64899,24.66161,0.0],[81.65249,24.6609,0.0],[81.65297,24.65914,0.0],[81.66264,24.65792,0.0],[81.66789,24.65251,0.0],[81.66677,24.64827,0.0],[81.66235,24.64932,0.0],[81.65931,24.64836,0.0],[81.65847,24.6463,0.0],[81.65597,24.64704,0.0],[81.65551,24.64574,0.0],[81.65897,24.64531,0.0],[81.65642,24.63771,0.0],[81.6582,24.63914,0.0],[81.6597,24.63812,0.0],[81.65458,24.63204,0.0],[81.65336,24.63268,0.0],[81.65112,24.62838,0.0],[81.65157,24.62558,0.0],[81.64421,24.62547,0.0],[81.64563,24.62465,0.0],[81.64467,24.62266,0.0],[81.64731,24.62179,0.0],[81.64528,24.61652,0.0],[81.65377,24.61313,0.0],[81.65889,24.61309,0.0],[81.66083,24.60663,0.0],[81.66399,24.60574,0.0],[81.66396,24.60303,0.0],[81.66616,24.60231,0.0],[81.66502,24.60023,0.0],[81.66684,24.59968,0.0],[81.66664,24.59708,0.0],[81.67299,24.5946,0.0],[81.67211,24.59293,0.0],[81.66675,24.59155,0.0],[81.66568,24.59184,0.0],[81.66661,24.59434,0.0],[81.66471,24.59538,0.0],[81.66234,24.59251,0.0],[81.66796,24.58807,0.0],[81.66443,24.58291,0.0],[81.66387,24.5742,0.0],[81.66874,24.57311,0.0],[81.67409,24.57569,0.0],[81.67976,24.57374,0.0],[81.67975,24.56636,0.0],[81.6788,24.56422,0.0],[81.67578,24.56356,0.0],[81.67608,24.55069,0.0],[81.6777,24.54911,0.0],[81.67712,24.54766,0.0],[81.68054,24.54526,0.0],[81.6832,24.53427,0.0],[81.68311,24.52501,0.0],[81.68599,24.51678,0.0],[81.68449,24.51444,0.0],[81.69069,24.5072,0.0],[81.69509,24.49792,0.0],[81.69181,24.49749,0.0],[81.68533,24.49289,0.0],[81.68221,24.49378,0.0],[81.68084,24.49044,0.0],[81.67914,24.49089,0.0],[81.67891,24.48924,0.0],[81.66656,24.48243,0.0],[81.66733,24.48034,0.0],[81.66141,24.47684,0.0],[81.63046,24.46349,0.0],[81.61224,24.45976,0.0],[81.60255,24.4553,0.0],[81.59163,24.45301,0.0],[81.59038,24.45391,0.0],[81.58401,24.44976,0.0],[81.57731,24.44902,0.0],[81.57629,24.44713,0.0],[81.562,24.44423,0.0],[81.53889,24.43621,0.0],[81.53637,24.43684,0.0],[81.53177,24.43371,0.0],[81.52443,24.4312,0.0],[81.52414,24.43257,0.0],[81.50708,24.42597,0.0],[81.50388,24.42647,0.0],[81.49405,24.42104,0.0],[81.48699,24.41144,0.0],[81.47905,24.40442,0.0],[81.45941,24.39121,0.0],[81.43743,24.38067,0.0],[81.42767,24.37795,0.0],[81.42596,24.37987,0.0],[81.42261,24.38001,0.0],[81.41822,24.37663,0.0],[81.38246,24.3615,0.0],[81.37288,24.35812,0.0],[81.3715,24.35982,0.0],[81.35797,24.35217,0.0],[81.34932,24.3494,0.0],[81.34643,24.34619,0.0],[81.34314,24.34581,0.0],[81.34088,24.34152,0.0],[81.33757,24.3417,0.0],[81.3386,24.33964,0.0],[81.33645,24.33623,0.0],[81.32306,24.3365,0.0],[81.31544,24.3348,0.0],[81.30833,24.32259,0.0],[81.309,24.32025,0.0],[81.29593,24.31539,0.0],[81.28976,24.31938,0.0],[81.28861,24.31871,0.0],[81.28806,24.32128,0.0],[81.27177,24.32157,0.0],[81.26338,24.32906,0.0],[81.26607,24.33562,0.0],[81.26441,24.33827,0.0],[81.26935,24.34292,0.0],[81.2659,24.34799,0.0],[81.26508,24.35876,0.0],[81.26529,24.36199,0.0],[81.27035,24.36385,0.0],[81.26701,24.37132,0.0],[81.26894,24.37805,0.0],[81.27311,24.38332,0.0],[81.28421,24.37861,0.0],[81.28476,24.38523,0.0],[81.28932,24.38195,0.0],[81.29124,24.39661,0.0],[81.28539,24.40129,0.0],[81.27913,24.40199,0.0],[81.28073,24.40382,0.0],[81.27917,24.40385,0.0],[81.27706,24.41147,0.0],[81.26917,24.41201,0.0],[81.2671,24.41627,0.0],[81.26428,24.41662,0.0],[81.26323,24.42063,0.0],[81.26011,24.42039,0.0],[81.25899,24.426,0.0],[81.26098,24.42702,0.0],[81.26018,24.42905,0.0],[81.26204,24.42982,0.0],[81.26148,24.43095,0.0],[81.2627,24.43089,0.0],[81.26052,24.43416,0.0],[81.25711,24.43325,0.0],[81.25716,24.43028,0.0],[81.25512,24.43159,0.0],[81.25345,24.42921,0.0],[81.24941,24.42958,0.0],[81.24983,24.4346,0.0],[81.24792,24.43397,0.0],[81.24373,24.43658,0.0],[81.24359,24.43881,0.0],[81.23876,24.44138,0.0],[81.23229,24.45083,0.0],[81.2273,24.45211,0.0],[81.23275,24.46134,0.0],[81.23304,24.47182,0.0],[81.23155,24.47292,0.0],[81.22768,24.46958,0.0],[81.22216,24.46871,0.0],[81.22085,24.47124,0.0],[81.22307,24.48429,0.0],[81.22158,24.48625,0.0],[81.22214,24.49109,0.0],[81.19716,24.50016,0.0],[81.18875,24.4992,0.0],[81.18692,24.49726,0.0],[81.17271,24.50122,0.0],[81.16993,24.49911,0.0],[81.17023,24.49679,0.0]]],[[[81.04447,24.79359,0.0],[81.0522,24.77757,0.0],[81.04536,24.77653,0.0],[81.04165,24.77412,0.0],[81.04019,24.7759,0.0],[81.03897,24.79021,0.0],[81.04023,24.7939,0.0],[81.04447,24.79359,0.0]]]]}},{"type":"Feature","properties":{"District":"SIDHI","Dist_LGD":"462","STATE_UT":"MADHYA PRADESH","STATE_LGD":"23"},"geometry":{"type":"Polygon","coordinates":[[[81.51042,24.02371,0.0],[81.48383,24.03228,0.0],[81.48132,24.03518,0.0],[81.48225,24.03936,0.0],[81.49489,24.04116,0.0],[81.5069,24.03901,0.0],[81.51197,24.04014,0.0],[81.5265,24.05099,0.0],[81.53629,24.06737,0.0],[81.54151,24.06836,0.0],[81.55189,24.06701,0.0],[81.55596,24.06874,0.0],[81.5589,24.07338,0.0],[81.55402,24.08014,0.0],[81.54377,24.08477,0.0],[81.53522,24.08409,0.0],[81.52574,24.07638,0.0],[81.52185,24.07559,0.0],[81.51785,24.07603,0.0],[81.50973,24.08164,0.0],[81.50709,24.09137,0.0],[81.50981,24.10859,0.0],[81.50919,24.1136,0.0],[81.49701,24.12544,0.0],[81.49464,24.13587,0.0],[81.48785,24.14038,0.0],[81.48472,24.14482,0.0],[81.48601,24.15162,0.0],[81.49354,24.15275,0.0],[81.49918,24.15605,0.0],[81.50034,24.15933,0.0],[81.49931,24.16433,0.0],[81.49538,24.16623,0.0],[81.48438,24.1643,0.0],[81.47881,24.16527,0.0],[81.47197,24.16937,0.0],[81.46934,24.17409,0.0],[81.46883,24.17829,0.0],[81.47102,24.18809,0.0],[81.47311,24.19036,0.0],[81.47923,24.19248,0.0],[81.4826,24.19796,0.0],[81.48086,24.20631,0.0],[81.48164,24.23372,0.0],[81.48071,24.2387,0.0],[81.47047,24.25657,0.0],[81.465,24.27323,0.0],[81.45935,24.28058,0.0],[81.45502,24.28262,0.0],[81.45233,24.27571,0.0],[81.4573,24.26641,0.0],[81.4533,24.26253,0.0],[81.44581,24.25927,0.0],[81.43942,24.25801,0.0],[81.42843,24.25906,0.0],[81.39857,24.26453,0.0],[81.39008,24.26303,0.0],[81.38847,24.26593,0.0],[81.38581,24.26481,0.0],[81.38036,24.2668,0.0],[81.37997,24.26484,0.0],[81.37221,24.26357,0.0],[81.35747,24.25693,0.0],[81.35224,24.25237,0.0],[81.34102,24.26472,0.0],[81.34223,24.26561,0.0],[81.34096,24.26991,0.0],[81.34967,24.27413,0.0],[81.34694,24.27506,0.0],[81.34686,24.27723,0.0],[81.345,24.27848,0.0],[81.34497,24.28174,0.0],[81.34725,24.2825,0.0],[81.34643,24.28711,0.0],[81.34825,24.28775,0.0],[81.34535,24.28844,0.0],[81.34593,24.29209,0.0],[81.32487,24.29043,0.0],[81.32381,24.29393,0.0],[81.32111,24.29451,0.0],[81.3203,24.297,0.0],[81.31447,24.30221,0.0],[81.31395,24.30537,0.0],[81.31103,24.30657,0.0],[81.31169,24.30892,0.0],[81.30825,24.31135,0.0],[81.30988,24.31486,0.0],[81.30833,24.32259,0.0],[81.31544,24.3348,0.0],[81.32306,24.3365,0.0],[81.33645,24.33623,0.0],[81.3386,24.33964,0.0],[81.33757,24.3417,0.0],[81.34088,24.34152,0.0],[81.34314,24.34581,0.0],[81.34643,24.34619,0.0],[81.34932,24.3494,0.0],[81.35797,24.35217,0.0],[81.3715,24.35982,0.0],[81.37288,24.35812,0.0],[81.38246,24.3615,0.0],[81.41822,24.37663,0.0],[81.42249,24.37997,0.0],[81.42596,24.37987,0.0],[81.42767,24.37795,0.0],[81.45122,24.38708,0.0],[81.46565,24.3946,0.0],[81.47905,24.40442,0.0],[81.48699,24.41144,0.0],[81.49405,24.42104,0.0],[81.50388,24.42647,0.0],[81.50708,24.42597,0.0],[81.52414,24.43257,0.0],[81.52443,24.4312,0.0],[81.53177,24.43371,0.0],[81.53637,24.43684,0.0],[81.53889,24.43621,0.0],[81.562,24.44423,0.0],[81.57629,24.44713,0.0],[81.57731,24.44902,0.0],[81.58401,24.44976,0.0],[81.59038,24.45391,0.0],[81.59163,24.45301,0.0],[81.60255,24.4553,0.0],[81.61224,24.45976,0.0],[81.63046,24.46349,0.0],[81.66673,24.47977,0.0],[81.66656,24.48243,0.0],[81.67891,24.48924,0.0],[81.67914,24.49089,0.0],[81.68084,24.49044,0.0],[81.68221,24.49378,0.0],[81.68573,24.49305,0.0],[81.69181,24.49749,0.0],[81.69509,24.49792,0.0],[81.69478,24.49951,0.0],[81.69692,24.49812,0.0],[81.70393,24.50083,0.0],[81.70392,24.50202,0.0],[81.71369,24.50321,0.0],[81.71719,24.5077,0.0],[81.72005,24.50633,0.0],[81.72652,24.50823,0.0],[81.72822,24.51056,0.0],[81.73603,24.51106,0.0],[81.73887,24.50389,0.0],[81.75854,24.50194,0.0],[81.7803,24.5065,0.0],[81.78955,24.50539,0.0],[81.78576,24.50735,0.0],[81.7857,24.50962,0.0],[81.79561,24.51503,0.0],[81.8007,24.51208,0.0],[81.80588,24.5061,0.0],[81.81458,24.5096,0.0],[81.81753,24.50878,0.0],[81.82277,24.51046,0.0],[81.82644,24.51258,0.0],[81.82611,24.51416,0.0],[81.82832,24.51631,0.0],[81.83258,24.51448,0.0],[81.83703,24.51786,0.0],[81.84268,24.51707,0.0],[81.87069,24.52622,0.0],[81.88019,24.52739,0.0],[81.88059,24.52881,0.0],[81.88194,24.52754,0.0],[81.88687,24.52951,0.0],[81.88757,24.53234,0.0],[81.89298,24.52894,0.0],[81.89773,24.52836,0.0],[81.89669,24.54143,0.0],[81.89142,24.55271,0.0],[81.89655,24.55537,0.0],[81.90322,24.55565,0.0],[81.92278,24.56094,0.0],[81.92219,24.5622,0.0],[81.92503,24.56349,0.0],[81.92311,24.56454,0.0],[81.92678,24.56908,0.0],[81.93253,24.56883,0.0],[81.93302,24.56992,0.0],[81.93995,24.56805,0.0],[81.9463,24.56993,0.0],[81.94877,24.57353,0.0],[81.95124,24.57417,0.0],[81.94949,24.57067,0.0],[81.95022,24.56648,0.0],[81.95232,24.56418,0.0],[81.95136,24.5475,0.0],[81.95311,24.54624,0.0],[81.95507,24.55089,0.0],[81.96108,24.55411,0.0],[81.97272,24.5534,0.0],[81.97867,24.55549,0.0],[81.98452,24.55517,0.0],[81.99391,24.56015,0.0],[81.99716,24.56028,0.0],[81.99705,24.56165,0.0],[82.00314,24.5663,0.0],[82.01055,24.56609,0.0],[82.01465,24.56999,0.0],[82.01477,24.57205,0.0],[82.01755,24.57154,0.0],[82.01833,24.56956,0.0],[82.02959,24.56956,0.0],[82.0321,24.5713,0.0],[82.03662,24.57036,0.0],[82.05028,24.57549,0.0],[82.05947,24.57563,0.0],[82.06775,24.57941,0.0],[82.0661,24.581,0.0],[82.06328,24.59423,0.0],[82.07107,24.60265,0.0],[82.07695,24.6035,0.0],[82.07859,24.60029,0.0],[82.08317,24.60031,0.0],[82.08328,24.59679,0.0],[82.08787,24.59632,0.0],[82.11524,24.59817,0.0],[82.11636,24.59383,0.0],[82.12177,24.58829,0.0],[82.13991,24.59516,0.0],[82.1487,24.59325,0.0],[82.1557,24.5944,0.0],[82.15737,24.59536,0.0],[82.1584,24.60118,0.0],[82.16661,24.60272,0.0],[82.1872,24.60402,0.0],[82.18988,24.60249,0.0],[82.18873,24.60064,0.0],[82.20519,24.60362,0.0],[82.19981,24.61173,0.0],[82.20215,24.61336,0.0],[82.21194,24.61402,0.0],[82.21709,24.61112,0.0],[82.23279,24.60942,0.0],[82.23605,24.6011,0.0],[82.24779,24.60212,0.0],[82.25274,24.60934,0.0],[82.25235,24.61134,0.0],[82.27121,24.59065,0.0],[82.27234,24.59168,0.0],[82.27738,24.58873,0.0],[82.28274,24.58862,0.0],[82.2851,24.59075,0.0],[82.28908,24.58934,0.0],[82.29716,24.59289,0.0],[82.30334,24.59194,0.0],[82.30649,24.58985,0.0],[82.30749,24.59194,0.0],[82.31858,24.58687,0.0],[82.31965,24.5913,0.0],[82.32248,24.58494,0.0],[82.34414,24.57349,0.0],[82.34504,24.56829,0.0],[82.34832,24.56793,0.0],[82.34961,24.56611,0.0],[82.35545,24.5678,0.0],[82.35997,24.56634,0.0],[82.36155,24.56228,0.0],[82.36406,24.56096,0.0],[82.36252,24.55849,0.0],[82.3805,24.55605,0.0],[82.37703,24.55363,0.0],[82.36784,24.5405,0.0],[82.35686,24.53615,0.0],[82.35184,24.53214,0.0],[82.3379,24.50977,0.0],[82.31845,24.50037,0.0],[82.30341,24.50216,0.0],[82.29251,24.5007,0.0],[82.2786,24.48711,0.0],[82.27759,24.48082,0.0],[82.26842,24.47872,0.0],[82.2636,24.48074,0.0],[82.25978,24.47887,0.0],[82.25655,24.46614,0.0],[82.2482,24.46348,0.0],[82.24255,24.46788,0.0],[82.23959,24.46724,0.0],[82.23812,24.46307,0.0],[82.23787,24.44589,0.0],[82.233,24.43938,0.0],[82.22546,24.43627,0.0],[82.21601,24.43581,0.0],[82.20428,24.42648,0.0],[82.1984,24.42426,0.0],[82.18943,24.42444,0.0],[82.18776,24.41946,0.0],[82.18926,24.41677,0.0],[82.19671,24.41203,0.0],[82.20488,24.4005,0.0],[82.20488,24.39465,0.0],[82.20264,24.39041,0.0],[82.1933,24.38382,0.0],[82.18295,24.38171,0.0],[82.16459,24.38198,0.0],[82.16024,24.3881,0.0],[82.15531,24.38917,0.0],[82.15055,24.38806,0.0],[82.14994,24.38611,0.0],[82.15744,24.37772,0.0],[82.16638,24.36043,0.0],[82.16562,24.35738,0.0],[82.16109,24.35632,0.0],[82.15426,24.36092,0.0],[82.14815,24.36032,0.0],[82.14106,24.35698,0.0],[82.13224,24.36221,0.0],[82.11869,24.35975,0.0],[82.11547,24.35778,0.0],[82.11113,24.35096,0.0],[82.10714,24.33745,0.0],[82.10777,24.335,0.0],[82.11644,24.32691,0.0],[82.11762,24.3222,0.0],[82.11644,24.32004,0.0],[82.0988,24.31489,0.0],[82.0907,24.30921,0.0],[82.06907,24.30164,0.0],[82.06551,24.30137,0.0],[82.05904,24.30771,0.0],[82.05429,24.30888,0.0],[82.04236,24.30709,0.0],[82.03286,24.30319,0.0],[82.03284,24.29809,0.0],[82.03996,24.29196,0.0],[82.04264,24.28673,0.0],[82.04129,24.2811,0.0],[82.0322,24.26947,0.0],[82.02039,24.2614,0.0],[82.01466,24.25196,0.0],[82.00135,24.23573,0.0],[81.99159,24.23423,0.0],[81.98546,24.23149,0.0],[81.97958,24.23154,0.0],[81.97354,24.23871,0.0],[81.96602,24.24172,0.0],[81.96415,24.25071,0.0],[81.96153,24.25469,0.0],[81.95771,24.25555,0.0],[81.95406,24.25441,0.0],[81.95276,24.25048,0.0],[81.95693,24.2385,0.0],[81.95612,24.23375,0.0],[81.95267,24.23135,0.0],[81.94951,24.23139,0.0],[81.94394,24.23768,0.0],[81.94013,24.23801,0.0],[81.93815,24.23458,0.0],[81.93583,24.21749,0.0],[81.93065,24.21378,0.0],[81.91916,24.21509,0.0],[81.9118,24.19401,0.0],[81.90901,24.19133,0.0],[81.8993,24.18804,0.0],[81.89658,24.18516,0.0],[81.89542,24.18042,0.0],[81.89718,24.16503,0.0],[81.89248,24.16222,0.0],[81.88991,24.14548,0.0],[81.87778,24.13007,0.0],[81.87803,24.12505,0.0],[81.88224,24.12034,0.0],[81.90351,24.11639,0.0],[81.90708,24.11316,0.0],[81.90873,24.10543,0.0],[81.90725,24.08506,0.0],[81.91884,24.07846,0.0],[81.9455,24.06758,0.0],[81.94964,24.06442,0.0],[81.95469,24.05141,0.0],[81.96249,24.04291,0.0],[81.96222,24.03595,0.0],[81.95816,24.02655,0.0],[81.95832,24.02281,0.0],[81.96281,24.0172,0.0],[81.96898,24.01324,0.0],[81.97892,24.012,0.0],[81.99286,24.01916,0.0],[82.001,24.01242,0.0],[82.00414,24.01154,0.0],[82.01399,24.02376,0.0],[82.01667,24.03021,0.0],[82.01867,24.03069,0.0],[82.02256,24.02909,0.0],[82.04019,24.00787,0.0],[82.04806,24.00285,0.0],[82.06959,24.00396,0.0],[82.07483,24.00229,0.0],[82.07754,24.00495,0.0],[82.0802,24.01641,0.0],[82.08553,24.01786,0.0],[82.0886,24.01388,0.0],[82.09146,23.99115,0.0],[82.09455,23.98822,0.0],[82.09962,23.9888,0.0],[82.10777,23.99504,0.0],[82.12219,23.9965,0.0],[82.13336,23.99112,0.0],[82.15453,23.9736,0.0],[82.16033,23.97365,0.0],[82.167,23.98055,0.0],[82.16796,23.99662,0.0],[82.17044,24.00141,0.0],[82.17543,23.99823,0.0],[82.18115,23.98606,0.0],[82.18682,23.98235,0.0],[82.20017,23.97992,0.0],[82.20742,23.98757,0.0],[82.21789,23.98598,0.0],[82.21747,23.9786,0.0],[82.21574,23.97508,0.0],[82.21552,23.96248,0.0],[82.20347,23.95191,0.0],[82.20312,23.94906,0.0],[82.2136,23.94184,0.0],[82.21286,23.92986,0.0],[82.21469,23.92574,0.0],[82.22997,23.92189,0.0],[82.23558,23.91826,0.0],[82.23597,23.90929,0.0],[82.22681,23.90397,0.0],[82.2255,23.89781,0.0],[82.22981,23.89434,0.0],[82.2412,23.89273,0.0],[82.24251,23.88942,0.0],[82.23864,23.882,0.0],[82.22286,23.87243,0.0],[82.21801,23.86028,0.0],[82.21186,23.85193,0.0],[82.20128,23.84864,0.0],[82.19714,23.84165,0.0],[82.18887,23.84259,0.0],[82.18622,23.83867,0.0],[82.18085,23.83628,0.0],[82.17816,23.82114,0.0],[82.17146,23.81824,0.0],[82.16272,23.82051,0.0],[82.14555,23.81542,0.0],[82.12929,23.81904,0.0],[82.12337,23.82205,0.0],[82.11659,23.81701,0.0],[82.10665,23.81868,0.0],[82.09544,23.81553,0.0],[82.09418,23.81668,0.0],[82.08327,23.81542,0.0],[82.07764,23.81864,0.0],[82.07233,23.81704,0.0],[82.06173,23.81916,0.0],[82.05358,23.81838,0.0],[82.05244,23.82165,0.0],[82.04924,23.82422,0.0],[82.03842,23.82684,0.0],[82.03876,23.83313,0.0],[82.04087,23.83292,0.0],[82.04127,23.83688,0.0],[82.04405,23.83883,0.0],[82.04418,23.84165,0.0],[82.03475,23.84641,0.0],[82.02047,23.84907,0.0],[82.00881,23.86108,0.0],[82.00093,23.86218,0.0],[81.98907,23.86043,0.0],[81.98599,23.86192,0.0],[81.98171,23.86089,0.0],[81.97721,23.85624,0.0],[81.97033,23.85723,0.0],[81.9654,23.85591,0.0],[81.96359,23.85361,0.0],[81.96027,23.85553,0.0],[81.9578,23.85228,0.0],[81.95556,23.85341,0.0],[81.95417,23.85712,0.0],[81.94993,23.85665,0.0],[81.94608,23.85877,0.0],[81.94692,23.86189,0.0],[81.93848,23.86235,0.0],[81.93823,23.86409,0.0],[81.94046,23.86559,0.0],[81.93965,23.86775,0.0],[81.93131,23.87055,0.0],[81.92147,23.87091,0.0],[81.91576,23.85893,0.0],[81.91044,23.85722,0.0],[81.90866,23.85108,0.0],[81.90629,23.84992,0.0],[81.90609,23.84606,0.0],[81.902,23.84486,0.0],[81.89875,23.84073,0.0],[81.89223,23.84052,0.0],[81.88816,23.83555,0.0],[81.86771,23.83414,0.0],[81.86628,23.82869,0.0],[81.86307,23.82446,0.0],[81.8382,23.8211,0.0],[81.83653,23.81998,0.0],[81.83688,23.8162,0.0],[81.82916,23.81503,0.0],[81.82751,23.81381,0.0],[81.82738,23.8106,0.0],[81.82282,23.80772,0.0],[81.815,23.80645,0.0],[81.80874,23.81342,0.0],[81.7959,23.81489,0.0],[81.79313,23.80991,0.0],[81.79112,23.80935,0.0],[81.77316,23.8164,0.0],[81.76212,23.82361,0.0],[81.75451,23.83075,0.0],[81.74285,23.83377,0.0],[81.73736,23.83918,0.0],[81.73223,23.84086,0.0],[81.72846,23.83902,0.0],[81.72547,23.83982,0.0],[81.72504,23.84463,0.0],[81.72969,23.84894,0.0],[81.73198,23.85668,0.0],[81.7202,23.86221,0.0],[81.70749,23.86113,0.0],[81.70728,23.86505,0.0],[81.70974,23.87125,0.0],[81.7077,23.87419,0.0],[81.70384,23.87593,0.0],[81.70731,23.88236,0.0],[81.70265,23.88619,0.0],[81.69044,23.88476,0.0],[81.68754,23.90648,0.0],[81.68256,23.9114,0.0],[81.67231,23.91339,0.0],[81.67172,23.91955,0.0],[81.66791,23.92525,0.0],[81.66238,23.92427,0.0],[81.65778,23.91634,0.0],[81.63847,23.91083,0.0],[81.63645,23.90759,0.0],[81.63218,23.90582,0.0],[81.62076,23.90673,0.0],[81.60981,23.90393,0.0],[81.60836,23.90149,0.0],[81.61047,23.89877,0.0],[81.61157,23.89229,0.0],[81.60401,23.88484,0.0],[81.60032,23.8891,0.0],[81.59118,23.8916,0.0],[81.586,23.89908,0.0],[81.56652,23.91356,0.0],[81.56145,23.91407,0.0],[81.55217,23.90835,0.0],[81.54415,23.91234,0.0],[81.54072,23.91921,0.0],[81.53903,23.9424,0.0],[81.54503,23.95266,0.0],[81.54895,23.95492,0.0],[81.55663,23.95537,0.0],[81.55667,23.95827,0.0],[81.5531,23.96437,0.0],[81.54651,23.96759,0.0],[81.54208,23.97873,0.0],[81.5383,23.98212,0.0],[81.5302,23.98313,0.0],[81.51568,23.97897,0.0],[81.50953,23.98034,0.0],[81.50649,23.98301,0.0],[81.50269,23.99321,0.0],[81.50254,23.9987,0.0],[81.50599,24.00881,0.0],[81.51279,24.01486,0.0],[81.51376,24.01809,0.0],[81.51042,24.02371,0.0]]]}}]}