{"type": "FeatureCollection", "metadata": {"source": "Survey of India (per src_agency attribute in the source data)", "hosted_via": "National Water Data Portal (NWDP), NWIC, Ministry of Jal Shakti -- https://nwdp.nwic.gov.in/", "access": "public, no login required", "crs_original": "EPSG:7755 (WGS 84 / India NSF LCC)", "fetch_date": "2026-08-02", "quality": "verified-official -- Survey of India source", "state": "Mizoram", "district": "Kolasib", "processing": "reprojected to EPSG:4326, topology-preserving simplify (shared-arc, tolerance 0.0005 deg) so adjacent polygons never overlap/gap at shared borders, coords rounded 5dp, 0 feature(s) needed the per-feature fallback", "feature_count": 55}, "features": [{"id": "0", "type": "Feature", "properties": {"village_name": "Mualkhang", "vil_lgd": 271181, "district_name": "Kolasib", "dist_lgd": 263, "subdistrict_name": "'N' Thingdawl", "sdcode": 1899, "block_name": "Tlangnuam Part", "block_lgd": 6.0, "gp_name": "", "state_name": "MIZORAM", "state_lgd": 15, "population": 388, "households": 106}, "geometry": {"type": "Polygon", "coordinates": [[[92.66923000000001, 23.8851], [92.66865000000001, 23.88614], [92.66950000000001, 23.88669], [92.67039000000001, 23.885820000000002], [92.66963000000001, 23.885080000000002], [92.66923000000001, 23.8851]]]}}, {"id": "1", "type": "Feature", "properties": {"village_name": "Khamrang", "vil_lgd": 271177, "district_name": "Kolasib", "dist_lgd": 263, "subdistrict_name": "'N' Thingdawl", "sdcode": 1899, "block_name": "Tlangnuam Part", "block_lgd": 6.0, "gp_name": "", "state_name": "MIZORAM", "state_lgd": 15, "population": 633, "households": 163}, "geometry": {"type": "Polygon", "coordinates": [[[92.66155, 23.959370000000003], [92.66088, 23.96018], [92.66182, 23.960970000000003], [92.66266, 23.9601], [92.66199, 23.959370000000003], [92.66155, 23.959370000000003]]]}}, {"id": "2", "type": "Feature", "properties": {"village_name": "N Mualvum", "vil_lgd": 271153, "district_name": "Kolasib", "dist_lgd": 263, "subdistrict_name": "'N' Thingdawl", "sdcode": 1899, "block_name": "N' Thingdawl", "block_lgd": 4.0, "gp_name": "", "state_name": "MIZORAM", "state_lgd": 15, "population": 986, "households": 199}, "geometry": {"type": "Polygon", "coordinates": [[[92.66452000000001, 24.014020000000002], [92.66541000000001, 24.0149], [92.6663, 24.014020000000002], [92.66528000000001, 24.01328], [92.66452000000001, 24.014020000000002]]]}}, {"id": "3", "type": "Feature", "properties": {"village_name": "Sairang Dinthar", "vil_lgd": 271182, "district_name": "Kolasib", "dist_lgd": 263, "subdistrict_name": "'N' Thingdawl", "sdcode": 1899, "block_name": "Tlangnuam Part", "block_lgd": 6.0, "gp_name": "", "state_name": "MIZORAM", "state_lgd": 15, "population": 0, "households": 0}, "geometry": {"type": "Polygon", "coordinates": [[[92.64814000000001, 23.939420000000002], [92.64756000000001, 23.94046], [92.64840000000001, 23.941010000000002], [92.64929000000001, 23.940140000000003], [92.64853000000001, 23.939400000000003], [92.64814000000001, 23.939420000000002]]]}}, {"id": "4", "type": "Feature", "properties": {"village_name": "Sethawn", "vil_lgd": 271149, "district_name": "Kolasib", "dist_lgd": 263, "subdistrict_name": "'N' Thingdawl", "sdcode": 1899, "block_name": "N' Thingdawl", "block_lgd": 4.0, "gp_name": "", "state_name": "MIZORAM", "state_lgd": 15, "population": 168, "households": 43}, "geometry": {"type": "Polygon", "coordinates": [[[92.69464, 24.1277], [92.69406000000001, 24.12874], [92.6949, 24.12929], [92.6958, 24.128420000000002], [92.69504, 24.12768], [92.69464, 24.1277]]]}}, {"id": "5", "type": "Feature", "properties": {"village_name": "Thingdawl", "vil_lgd": 271142, "district_name": "Kolasib", "dist_lgd": 263, "subdistrict_name": "'N' Thingdawl", "sdcode": 1899, "block_name": "N' Thingdawl", "block_lgd": 4.0, "gp_name": "", "state_name": "MIZORAM", "state_lgd": 15, "population": 3111, "households": 688}, "geometry": {"type": "Polygon", "coordinates": [[[92.70104, 24.18736], [92.70045, 24.1884], [92.7013, 24.188950000000002], [92.70219, 24.188080000000003], [92.70143, 24.187340000000003], [92.70104, 24.18736]]]}}, {"id": "6", "type": "Feature", "properties": {"village_name": "Rajtali", "vil_lgd": 271145, "district_name": "Kolasib", "dist_lgd": 263, "subdistrict_name": "'N' Thingdawl", "sdcode": 1899, "block_name": "N' Thingdawl", "block_lgd": 4.0, "gp_name": "", "state_name": "MIZORAM", "state_lgd": 15, "population": 405, "households": 90}, "geometry": {"type": "Polygon", "coordinates": [[[92.54889000000001, 24.11063], [92.54821000000001, 24.109820000000003], [92.54710000000001, 24.11054], [92.54830000000001, 24.11137], [92.54889000000001, 24.11063]]]}}, {"id": "7", "type": "Feature", "properties": {"village_name": "Dilzau H", "vil_lgd": 271146, "district_name": "Kolasib", "dist_lgd": 263, "subdistrict_name": "'N' Thingdawl", "sdcode": 1899, "block_name": "N' Thingdawl", "block_lgd": 4.0, "gp_name": "", "state_name": "MIZORAM", "state_lgd": 15, "population": 164, "households": 35}, "geometry": {"type": "Polygon", "coordinates": [[[92.58404, 24.094780000000004], [92.58445, 24.09588], [92.58568000000001, 24.09541], [92.58497000000001, 24.094350000000002], [92.58404, 24.094780000000004]]]}}, {"id": "8", "type": "Feature", "properties": {"village_name": "Hortoki", "vil_lgd": 271147, "district_name": "Kolasib", "dist_lgd": 263, "subdistrict_name": "'N' Thingdawl", "sdcode": 1899, "block_name": "N' Thingdawl", "block_lgd": 4.0, "gp_name": "", "state_name": "MIZORAM", "state_lgd": 15, "population": 2544, "households": 490}, "geometry": {"type": "Polygon", "coordinates": [[[92.59434, 24.07122], [92.59523, 24.072090000000003], [92.59612000000001, 24.07122], [92.5951, 24.070480000000003], [92.59434, 24.07122]]]}}, {"id": "9", "type": "Feature", "properties": {"village_name": "S Chhimluang", "vil_lgd": 271170, "district_name": "Kolasib", "dist_lgd": 263, "subdistrict_name": "Bilkhawthlir", "sdcode": 1900, "block_name": "Bilkhawthlir", "block_lgd": 5.0, "gp_name": "", "state_name": "MIZORAM", "state_lgd": 15, "population": 359, "households": 86}, "geometry": {"type": "Polygon", "coordinates": [[[92.59874, 24.197650000000003], [92.59815, 24.198690000000003], [92.599, 24.199240000000003], [92.59989, 24.19837], [92.59913, 24.197630000000004], [92.59874, 24.197650000000003]]]}}, {"id": "10", "type": "Feature", "properties": {"village_name": "Pangbalkawn", "vil_lgd": 271169, "district_name": "Kolasib", "dist_lgd": 263, "subdistrict_name": "Bilkhawthlir", "sdcode": 1900, "block_name": "Bilkhawthlir", "block_lgd": 5.0, "gp_name": "", "state_name": "MIZORAM", "state_lgd": 15, "population": 792, "households": 162}, "geometry": {"type": "Polygon", "coordinates": [[[92.62873, 24.189410000000002], [92.62805, 24.19021], [92.62899, 24.191000000000003], [92.62984, 24.190130000000003], [92.62917, 24.189400000000003], [92.62873, 24.189410000000002]]]}}, {"id": "11", "type": "Feature", "properties": {"village_name": "Chemphai", "vil_lgd": 271175, "district_name": "Kolasib", "dist_lgd": 263, "subdistrict_name": "Bilkhawthlir", "sdcode": 1900, "block_name": "Bilkhawthlir", "block_lgd": 5.0, "gp_name": "", "state_name": "MIZORAM", "state_lgd": 15, "population": 0, "households": 0}, "geometry": {"type": "Polygon", "coordinates": [[[92.73240000000001, 24.3244], [92.73262000000001, 24.325300000000002], [92.73362, 24.32543], [92.73412, 24.324640000000002], [92.73345, 24.32392], [92.73240000000001, 24.3244]]]}}, {"id": "12", "type": "Feature", "properties": {"village_name": "Meidum", "vil_lgd": 271171, "district_name": "Kolasib", "dist_lgd": 263, "subdistrict_name": "Bilkhawthlir", "sdcode": 1900, "block_name": "Bilkhawthlir", "block_lgd": 5.0, "gp_name": "", "state_name": "MIZORAM", "state_lgd": 15, "population": 1073, "households": 217}, "geometry": {"type": "Polygon", "coordinates": [[[92.55738000000001, 24.148210000000002], [92.55680000000001, 24.149250000000002], [92.55764, 24.149800000000003], [92.55853, 24.148930000000004], [92.55777, 24.148190000000003], [92.55738000000001, 24.148210000000002]]]}}, {"id": "13", "type": "Feature", "properties": {"village_name": "Lelhchhun", "vil_lgd": 271148, "district_name": "Kolasib", "dist_lgd": 263, "subdistrict_name": "'N' Thingdawl", "sdcode": 1899, "block_name": "N' Thingdawl", "block_lgd": 4.0, "gp_name": "", "state_name": "MIZORAM", "state_lgd": 15, "population": 0, "households": 0}, "geometry": {"type": "Polygon", "coordinates": [[[92.6991, 24.158330000000003], [92.69852, 24.159370000000003], [92.69936000000001, 24.159920000000003], [92.70025000000001, 24.15905], [92.69949000000001, 24.158310000000004], [92.6991, 24.158330000000003]]]}}, {"id": "14", "type": "Feature", "properties": {"village_name": "Hmaibialaveng", "vil_lgd": 271143, "district_name": "Kolasib", "dist_lgd": 263, "subdistrict_name": "'N' Thingdawl", "sdcode": 1899, "block_name": "N' Thingdawl", "block_lgd": 4.0, "gp_name": "", "state_name": "MIZORAM", "state_lgd": 15, "population": 0, "households": 0}, "geometry": {"type": "Polygon", "coordinates": [[[92.62631, 24.157790000000002], [92.62573, 24.158830000000002], [92.62657, 24.159380000000002], [92.62746000000001, 24.158510000000003], [92.62670000000001, 24.157770000000003], [92.62631, 24.157790000000002]]]}}, {"id": "15", "type": "Feature", "properties": {"village_name": "Asproveng", "vil_lgd": 271144, "district_name": "Kolasib", "dist_lgd": 263, "subdistrict_name": "'N' Thingdawl", "sdcode": 1899, "block_name": "N' Thingdawl", "block_lgd": 4.0, "gp_name": "", "state_name": "MIZORAM", "state_lgd": 15, "population": 0, "households": 0}, "geometry": {"type": "Polygon", "coordinates": [[[92.5776, 24.14365], [92.57883000000001, 24.14412], [92.57924000000001, 24.143020000000003], [92.57831, 24.142590000000002], [92.5776, 24.14365]]]}}, {"id": "16", "type": "Feature", "properties": {"village_name": "Dumkhel", "vil_lgd": 271155, "district_name": "Kolasib", "dist_lgd": 263, "subdistrict_name": "'N' Thingdawl", "sdcode": 1899, "block_name": "N' Thingdawl", "block_lgd": 4.0, "gp_name": "", "state_name": "MIZORAM", "state_lgd": 15, "population": 0, "households": 0}, "geometry": {"type": "Polygon", "coordinates": [[[92.57258, 24.120910000000002], [92.57191, 24.121640000000003], [92.57275000000001, 24.122510000000002], [92.57369000000001, 24.121720000000003], [92.57301000000001, 24.120910000000002], [92.57258, 24.120910000000002]]]}}, {"id": "17", "type": "Feature", "properties": {"village_name": "Bairabi", "vil_lgd": 249765, "district_name": "Kolasib", "dist_lgd": 263, "subdistrict_name": "Bilkhawthlir", "sdcode": 1900, "block_name": "", "block_lgd": 0.0, "gp_name": "", "state_name": "MIZORAM", "state_lgd": 15, "population": 4320, "households": 863}, "geometry": {"type": "Polygon", "coordinates": [[[92.54525000000001, 24.15276], [92.54377000000001, 24.15371], [92.54362, 24.160480000000003], [92.54169, 24.1655], [92.53946, 24.17837], [92.53738000000001, 24.18569], [92.54198000000001, 24.19423], [92.55045000000001, 24.204800000000002], [92.55402000000001, 24.200460000000003], [92.55833000000001, 24.198290000000004], [92.56605, 24.187990000000003], [92.56694, 24.178510000000003], [92.56605, 24.176340000000003], [92.56352000000001, 24.17471], [92.55595000000001, 24.166040000000002], [92.55223000000001, 24.163330000000002], [92.54689, 24.15398], [92.54525000000001, 24.15276]]]}}, {"id": "18", "type": "Feature", "properties": {"village_name": "Kolasib", "vil_lgd": 249766, "district_name": "Kolasib", "dist_lgd": 263, "subdistrict_name": "Bilkhawthlir", "sdcode": 1900, "block_name": "", "block_lgd": 0.0, "gp_name": "", "state_name": "MIZORAM", "state_lgd": 15, "population": 24272, "households": 5142}, "geometry": {"type": "Polygon", "coordinates": [[[92.69449, 24.25505], [92.7009, 24.24292], [92.7009, 24.2375], [92.69663000000001, 24.234250000000003], [92.69377, 24.23035], [92.69282000000001, 24.224500000000003], [92.69781, 24.19697], [92.69163, 24.1935], [92.68736000000001, 24.192850000000004], [92.67595000000001, 24.19675], [92.67119000000001, 24.200000000000003], [92.66668000000001, 24.205420000000004], [92.66478000000001, 24.20932], [92.66335000000001, 24.21496], [92.66311, 24.22211], [92.66430000000001, 24.22775], [92.66549, 24.242050000000003], [92.67096000000001, 24.249640000000003], [92.68260000000001, 24.258740000000003], [92.68664000000001, 24.258300000000002], [92.69092, 24.25982], [92.69449, 24.25505]]]}}, {"id": "19", "type": "Feature", "properties": {"village_name": "N Kawnpui", "vil_lgd": 249767, "district_name": "Kolasib", "dist_lgd": 263, "subdistrict_name": "'N' Thingdawl", "sdcode": 1899, "block_name": "", "block_lgd": 0.0, "gp_name": "", "state_name": "MIZORAM", "state_lgd": 15, "population": 7732, "households": 1726}, "geometry": {"type": "Polygon", "coordinates": [[[92.68343, 24.008760000000002], [92.67155000000001, 24.010070000000002], [92.66989000000001, 24.01245], [92.67131, 24.02201], [92.6744, 24.03199], [92.6744, 24.043930000000003], [92.68129, 24.05695], [92.68367, 24.06802], [92.68320000000001, 24.078870000000002], [92.68771000000001, 24.094710000000003], [92.68866000000001, 24.10122], [92.69199, 24.10556], [92.69532000000001, 24.107080000000003], [92.70055, 24.105780000000003], [92.70150000000001, 24.102520000000002], [92.69413, 24.038290000000003], [92.68534000000001, 24.00963], [92.68343, 24.008760000000002]]]}}, {"id": "20", "type": "Feature", "properties": {"village_name": "Phaisen", "vil_lgd": 271163, "district_name": "Kolasib", "dist_lgd": 263, "subdistrict_name": "Bilkhawthlir", "sdcode": 1900, "block_name": "Bilkhawthlir", "block_lgd": 5.0, "gp_name": "", "state_name": "MIZORAM", "state_lgd": 15, "population": 602, "households": 113}, "geometry": {"type": "Polygon", "coordinates": [[[92.66447000000001, 24.338220000000003], [92.6657, 24.338700000000003], [92.66611, 24.337590000000002], [92.66518, 24.33717], [92.66447000000001, 24.338220000000003]]]}}, {"id": "21", "type": "Feature", "properties": {"village_name": "Buhchangphai", "vil_lgd": 271164, "district_name": "Kolasib", "dist_lgd": 263, "subdistrict_name": "Bilkhawthlir", "sdcode": 1900, "block_name": "Bilkhawthlir", "block_lgd": 5.0, "gp_name": "", "state_name": "MIZORAM", "state_lgd": 15, "population": 1401, "households": 282}, "geometry": {"type": "Polygon", "coordinates": [[[92.64165000000001, 24.323710000000002], [92.64288, 24.32419], [92.64329000000001, 24.32308], [92.64236000000001, 24.322660000000003], [92.64165000000001, 24.323710000000002]]]}}, {"id": "22", "type": "Feature", "properties": {"village_name": "Bilkhawthlir North", "vil_lgd": 271162, "district_name": "Kolasib", "dist_lgd": 263, "subdistrict_name": "Bilkhawthlir", "sdcode": 1900, "block_name": "Bilkhawthlir", "block_lgd": 5.0, "gp_name": "", "state_name": "MIZORAM", "state_lgd": 15, "population": 5385, "households": 1100}, "geometry": {"type": "Polygon", "coordinates": [[[92.69446, 24.286690000000004], [92.69459, 24.2876], [92.69611, 24.28732], [92.69539, 24.286270000000002], [92.69446, 24.286690000000004]]]}}, {"id": "23", "type": "Feature", "properties": {"village_name": "Bukvannei", "vil_lgd": 271166, "district_name": "Kolasib", "dist_lgd": 263, "subdistrict_name": "Bilkhawthlir", "sdcode": 1900, "block_name": "Bilkhawthlir", "block_lgd": 5.0, "gp_name": "", "state_name": "MIZORAM", "state_lgd": 15, "population": 543, "households": 107}, "geometry": {"type": "Polygon", "coordinates": [[[92.63333, 24.296640000000004], [92.63456000000001, 24.297110000000004], [92.63497000000001, 24.296010000000003], [92.63404000000001, 24.29558], [92.63333, 24.296640000000004]]]}}, {"id": "24", "type": "Feature", "properties": {"village_name": "N Thinglian", "vil_lgd": 271165, "district_name": "Kolasib", "dist_lgd": 263, "subdistrict_name": "Bilkhawthlir", "sdcode": 1900, "block_name": "Bilkhawthlir", "block_lgd": 5.0, "gp_name": "", "state_name": "MIZORAM", "state_lgd": 15, "population": 359, "households": 69}, "geometry": {"type": "Polygon", "coordinates": [[[92.61998000000001, 24.292640000000002], [92.62087000000001, 24.29351], [92.62176000000001, 24.292640000000002], [92.62073000000001, 24.291900000000002], [92.61998000000001, 24.292640000000002]]]}}, {"id": "25", "type": "Feature", "properties": {"village_name": "Saihapui K", "vil_lgd": 271167, "district_name": "Kolasib", "dist_lgd": 263, "subdistrict_name": "Bilkhawthlir", "sdcode": 1900, "block_name": "Bilkhawthlir", "block_lgd": 5.0, "gp_name": "", "state_name": "MIZORAM", "state_lgd": 15, "population": 1295, "households": 266}, "geometry": {"type": "Polygon", "coordinates": [[[92.62607000000001, 24.2787], [92.62549000000001, 24.27974], [92.62633000000001, 24.28029], [92.62722000000001, 24.279420000000002], [92.62646000000001, 24.27868], [92.62607000000001, 24.2787]]]}}, {"id": "26", "type": "Feature", "properties": {"village_name": "Zambira", "vil_lgd": 271176, "district_name": "Kolasib", "dist_lgd": 263, "subdistrict_name": "Bilkhawthlir", "sdcode": 1900, "block_name": "Bilkhawthlir", "block_lgd": 5.0, "gp_name": "", "state_name": "MIZORAM", "state_lgd": 15, "population": 0, "households": 0}, "geometry": {"type": "Polygon", "coordinates": [[[92.62417, 24.312070000000002], [92.62358, 24.313100000000002], [92.62443, 24.313650000000003], [92.62532, 24.312780000000004], [92.62456, 24.312050000000003], [92.62417, 24.312070000000002]]]}}, {"id": "27", "type": "Feature", "properties": {"village_name": "Lungmuat", "vil_lgd": 271178, "district_name": "Kolasib", "dist_lgd": 263, "subdistrict_name": "'N' Thingdawl", "sdcode": 1899, "block_name": "Tlangnuam Part", "block_lgd": 6.0, "gp_name": "", "state_name": "MIZORAM", "state_lgd": 15, "population": 645, "households": 164}, "geometry": {"type": "Polygon", "coordinates": [[[92.78019, 23.985180000000003], [92.7796, 23.986220000000003], [92.78045, 23.986770000000003], [92.78134000000001, 23.9859], [92.78058, 23.98516], [92.78019, 23.985180000000003]]]}}, {"id": "28", "type": "Feature", "properties": {"village_name": "Nisapui", "vil_lgd": 271179, "district_name": "Kolasib", "dist_lgd": 263, "subdistrict_name": "'N' Thingdawl", "sdcode": 1899, "block_name": "Tlangnuam Part", "block_lgd": 6.0, "gp_name": "", "state_name": "MIZORAM", "state_lgd": 15, "population": 822, "households": 181}, "geometry": {"type": "Polygon", "coordinates": [[[92.74938, 23.92836], [92.7488, 23.9294], [92.74965, 23.92995], [92.75054, 23.929080000000003], [92.74978, 23.928340000000002], [92.74938, 23.92836]]]}}, {"id": "29", "type": "Feature", "properties": {"village_name": "Serkhan", "vil_lgd": 271180, "district_name": "Kolasib", "dist_lgd": 263, "subdistrict_name": "'N' Thingdawl", "sdcode": 1899, "block_name": "Tlangnuam Part", "block_lgd": 6.0, "gp_name": "", "state_name": "MIZORAM", "state_lgd": 15, "population": 802, "households": 167}, "geometry": {"type": "Polygon", "coordinates": [[[92.72756000000001, 23.911320000000003], [92.72689000000001, 23.91213], [92.72783000000001, 23.912920000000003], [92.72867000000001, 23.91205], [92.72800000000001, 23.911320000000003], [92.72756000000001, 23.911320000000003]]]}}, {"id": "30", "type": "Feature", "properties": {"village_name": "Sentlang", "vil_lgd": 271183, "district_name": "Kolasib", "dist_lgd": 263, "subdistrict_name": "'N' Thingdawl", "sdcode": 1899, "block_name": "Tlangnuam Part", "block_lgd": 6.0, "gp_name": "", "state_name": "MIZORAM", "state_lgd": 15, "population": 470, "households": 101}, "geometry": {"type": "Polygon", "coordinates": [[[92.72471, 23.88062], [92.72483000000001, 23.88153], [92.72589, 23.88173], [92.72639000000001, 23.880930000000003], [92.72563000000001, 23.880190000000002], [92.72471, 23.88062]]]}}, {"id": "31", "type": "Feature", "properties": {"village_name": "Lungdai", "vil_lgd": 271184, "district_name": "Kolasib", "dist_lgd": 263, "subdistrict_name": "'N' Thingdawl", "sdcode": 1899, "block_name": "Tlangnuam Part", "block_lgd": 6.0, "gp_name": "", "state_name": "MIZORAM", "state_lgd": 15, "population": 1868, "households": 413}, "geometry": {"type": "Polygon", "coordinates": [[[92.72748000000001, 23.868620000000004], [92.72871, 23.869090000000003], [92.72912000000001, 23.867980000000003], [92.72819000000001, 23.86756], [92.72748000000001, 23.868620000000004]]]}}, {"id": "32", "type": "Feature", "properties": {"village_name": "Zanlawn", "vil_lgd": 271154, "district_name": "Kolasib", "dist_lgd": 263, "subdistrict_name": "'N' Thingdawl", "sdcode": 1899, "block_name": "N' Thingdawl", "block_lgd": 4.0, "gp_name": "", "state_name": "MIZORAM", "state_lgd": 15, "population": 1079, "households": 228}, "geometry": {"type": "Polygon", "coordinates": [[[92.72053000000001, 23.992680000000004], [92.71994000000001, 23.993720000000003], [92.72079000000001, 23.99427], [92.72168, 23.9934], [92.72092, 23.99266], [92.72053000000001, 23.992680000000004]]]}}, {"id": "33", "type": "Feature", "properties": {"village_name": "North Chaltlang I", "vil_lgd": 271152, "district_name": "Kolasib", "dist_lgd": 263, "subdistrict_name": "'N' Thingdawl", "sdcode": 1899, "block_name": "N' Thingdawl", "block_lgd": 4.0, "gp_name": "", "state_name": "MIZORAM", "state_lgd": 15, "population": 1053, "households": 218}, "geometry": {"type": "Polygon", "coordinates": [[[92.77638, 24.03545], [92.7758, 24.03649], [92.77664000000001, 24.03704], [92.77753000000001, 24.036160000000002], [92.77677000000001, 24.03543], [92.77638, 24.03545]]]}}, {"id": "34", "type": "Feature", "properties": {"village_name": "Bukpui", "vil_lgd": 271151, "district_name": "Kolasib", "dist_lgd": 263, "subdistrict_name": "'N' Thingdawl", "sdcode": 1899, "block_name": "N' Thingdawl", "block_lgd": 4.0, "gp_name": "", "state_name": "MIZORAM", "state_lgd": 15, "population": 1077, "households": 242}, "geometry": {"type": "Polygon", "coordinates": [[[92.7895, 24.0821], [92.78882, 24.082910000000002], [92.78976, 24.0837], [92.79061, 24.08283], [92.78993000000001, 24.0821], [92.7895, 24.0821]]]}}, {"id": "35", "type": "Feature", "properties": {"village_name": "Thingthelh", "vil_lgd": 271140, "district_name": "Kolasib", "dist_lgd": 263, "subdistrict_name": "'N' Thingdawl", "sdcode": 1899, "block_name": "N' Thingdawl", "block_lgd": 4.0, "gp_name": "", "state_name": "MIZORAM", "state_lgd": 15, "population": 456, "households": 107}, "geometry": {"type": "Polygon", "coordinates": [[[92.80754, 24.184630000000002], [92.80696, 24.185660000000002], [92.80780000000001, 24.186220000000002], [92.80869000000001, 24.185340000000004], [92.80793000000001, 24.184610000000003], [92.80754, 24.184630000000002]]]}}, {"id": "36", "type": "Feature", "properties": {"village_name": "N Hlimen", "vil_lgd": 271139, "district_name": "Kolasib", "dist_lgd": 263, "subdistrict_name": "'N' Thingdawl", "sdcode": 1899, "block_name": "N' Thingdawl", "block_lgd": 4.0, "gp_name": "", "state_name": "MIZORAM", "state_lgd": 15, "population": 1065, "households": 214}, "geometry": {"type": "Polygon", "coordinates": [[[92.81296, 24.23544], [92.81238, 24.23648], [92.81322, 24.23703], [92.81411000000001, 24.23616], [92.81336, 24.23542], [92.81296, 24.23544]]]}}, {"id": "37", "type": "Feature", "properties": {"village_name": "Builum", "vil_lgd": 271168, "district_name": "Kolasib", "dist_lgd": 263, "subdistrict_name": "Bilkhawthlir", "sdcode": 1900, "block_name": "Bilkhawthlir", "block_lgd": 5.0, "gp_name": "", "state_name": "MIZORAM", "state_lgd": 15, "population": 323, "households": 44}, "geometry": {"type": "Polygon", "coordinates": [[[92.73754000000001, 24.24707], [92.73696000000001, 24.24811], [92.73780000000001, 24.24866], [92.73869, 24.247790000000002], [92.73794000000001, 24.24705], [92.73754000000001, 24.24707]]]}}, {"id": "38", "type": "Feature", "properties": {"village_name": "Saizawl", "vil_lgd": 271150, "district_name": "Kolasib", "dist_lgd": 263, "subdistrict_name": "'N' Thingdawl", "sdcode": 1899, "block_name": "N' Thingdawl", "block_lgd": 4.0, "gp_name": "", "state_name": "MIZORAM", "state_lgd": 15, "population": 0, "households": 0}, "geometry": {"type": "Polygon", "coordinates": [[[92.76759000000001, 24.11878], [92.76700000000001, 24.11981], [92.76785000000001, 24.12037], [92.76874000000001, 24.119490000000003], [92.76798000000001, 24.11876], [92.76759000000001, 24.11878]]]}}, {"id": "39", "type": "Feature", "properties": {"village_name": "Dilzau T", "vil_lgd": 271141, "district_name": "Kolasib", "dist_lgd": 263, "subdistrict_name": "'N' Thingdawl", "sdcode": 1899, "block_name": "N' Thingdawl", "block_lgd": 4.0, "gp_name": "", "state_name": "MIZORAM", "state_lgd": 15, "population": 0, "households": 0}, "geometry": {"type": "Polygon", "coordinates": [[[92.74871, 24.21525], [92.74813, 24.21628], [92.74898, 24.21684], [92.74987, 24.215960000000003], [92.74911, 24.215230000000002], [92.74871, 24.21525]]]}}, {"id": "40", "type": "Feature", "properties": {"village_name": "N Chhimluang", "vil_lgd": 271158, "district_name": "Kolasib", "dist_lgd": 263, "subdistrict_name": "Bilkhawthlir", "sdcode": 1900, "block_name": "Bilkhawthlir", "block_lgd": 5.0, "gp_name": "", "state_name": "MIZORAM", "state_lgd": 15, "population": 314, "households": 65}, "geometry": {"type": "Polygon", "coordinates": [[[92.71453000000001, 24.38784], [92.71386000000001, 24.38857], [92.71470000000001, 24.38944], [92.71564000000001, 24.388650000000002], [92.71497000000001, 24.38785], [92.71453000000001, 24.38784]]]}}, {"id": "41", "type": "Feature", "properties": {"village_name": "Phainuam", "vil_lgd": 271156, "district_name": "Kolasib", "dist_lgd": 263, "subdistrict_name": "Bilkhawthlir", "sdcode": 1900, "block_name": "Bilkhawthlir", "block_lgd": 5.0, "gp_name": "", "state_name": "MIZORAM", "state_lgd": 15, "population": 1727, "households": 306}, "geometry": {"type": "Polygon", "coordinates": [[[92.77986000000001, 24.45089], [92.78109, 24.45137], [92.78150000000001, 24.450260000000004], [92.78057000000001, 24.449840000000002], [92.77986000000001, 24.45089]]]}}, {"id": "42", "type": "Feature", "properties": {"village_name": "Saihapui V", "vil_lgd": 271157, "district_name": "Kolasib", "dist_lgd": 263, "subdistrict_name": "Bilkhawthlir", "sdcode": 1900, "block_name": "Bilkhawthlir", "block_lgd": 5.0, "gp_name": "", "state_name": "MIZORAM", "state_lgd": 15, "population": 368, "households": 63}, "geometry": {"type": "Polygon", "coordinates": [[[92.77658000000001, 24.467440000000003], [92.77600000000001, 24.468470000000003], [92.77684, 24.46902], [92.77773, 24.46815], [92.77697, 24.46742], [92.77658000000001, 24.467440000000003]]]}}, {"id": "43", "type": "Feature", "properties": {"village_name": "Saiphai", "vil_lgd": 271159, "district_name": "Kolasib", "dist_lgd": 263, "subdistrict_name": "Bilkhawthlir", "sdcode": 1900, "block_name": "Bilkhawthlir", "block_lgd": 5.0, "gp_name": "", "state_name": "MIZORAM", "state_lgd": 15, "population": 2052, "households": 356}, "geometry": {"type": "Polygon", "coordinates": [[[92.79489000000001, 24.389270000000003], [92.79613, 24.389740000000003], [92.79653, 24.388640000000002], [92.79561000000001, 24.38821], [92.79489000000001, 24.389270000000003]]]}}, {"id": "44", "type": "Feature", "properties": {"village_name": "Saipum", "vil_lgd": 271160, "district_name": "Kolasib", "dist_lgd": 263, "subdistrict_name": "Bilkhawthlir", "sdcode": 1900, "block_name": "Bilkhawthlir", "block_lgd": 5.0, "gp_name": "", "state_name": "MIZORAM", "state_lgd": 15, "population": 2359, "households": 448}, "geometry": {"type": "Polygon", "coordinates": [[[92.8461, 24.368530000000003], [92.84552000000001, 24.369570000000003], [92.84636, 24.370120000000004], [92.84725, 24.36925], [92.8465, 24.36851], [92.8461, 24.368530000000003]]]}}, {"id": "45", "type": "Feature", "properties": {"village_name": "N Chawnpui", "vil_lgd": 271161, "district_name": "Kolasib", "dist_lgd": 263, "subdistrict_name": "Bilkhawthlir", "sdcode": 1900, "block_name": "Bilkhawthlir", "block_lgd": 5.0, "gp_name": "", "state_name": "MIZORAM", "state_lgd": 15, "population": 389, "households": 75}, "geometry": {"type": "Polygon", "coordinates": [[[92.76946000000001, 24.34965], [92.77069, 24.35012], [92.7711, 24.349020000000003], [92.77017000000001, 24.34859], [92.76946000000001, 24.34965]]]}}, {"id": "46", "type": "Feature", "properties": {"village_name": "Theichangbung", "vil_lgd": 271138, "district_name": "Kolasib", "dist_lgd": 263, "subdistrict_name": "'N' Thingdawl", "sdcode": 1899, "block_name": "N' Thingdawl", "block_lgd": 4.0, "gp_name": "", "state_name": "MIZORAM", "state_lgd": 15, "population": 0, "households": 0}, "geometry": {"type": "Polygon", "coordinates": [[[92.85578000000001, 24.259610000000002], [92.85520000000001, 24.260650000000002], [92.85605000000001, 24.261200000000002], [92.85694000000001, 24.260330000000003], [92.85618000000001, 24.259590000000003], [92.85578000000001, 24.259610000000002]]]}}, {"id": "47", "type": "Feature", "properties": {"village_name": "Pualrang", "vil_lgd": 271136, "district_name": "Kolasib", "dist_lgd": 263, "subdistrict_name": "'N' Thingdawl", "sdcode": 1899, "block_name": "N' Thingdawl", "block_lgd": 4.0, "gp_name": "", "state_name": "MIZORAM", "state_lgd": 15, "population": 0, "households": 0}, "geometry": {"type": "Polygon", "coordinates": [[[92.79614000000001, 24.255070000000003], [92.79547000000001, 24.2558], [92.79631, 24.256670000000003], [92.79725, 24.25588], [92.79658, 24.255080000000003], [92.79614000000001, 24.255070000000003]]]}}, {"id": "48", "type": "Feature", "properties": {"village_name": "Parsenchhip", "vil_lgd": 271137, "district_name": "Kolasib", "dist_lgd": 263, "subdistrict_name": "'N' Thingdawl", "sdcode": 1899, "block_name": "N' Thingdawl", "block_lgd": 4.0, "gp_name": "", "state_name": "MIZORAM", "state_lgd": 15, "population": 0, "households": 0}, "geometry": {"type": "Polygon", "coordinates": [[[92.83102000000001, 24.297410000000003], [92.83044000000001, 24.298450000000003], [92.83129000000001, 24.299000000000003], [92.83218000000001, 24.29813], [92.83142000000001, 24.297390000000004], [92.83102000000001, 24.297410000000003]]]}}, {"id": "49", "type": "Feature", "properties": {"village_name": "Vakultui", "vil_lgd": 271173, "district_name": "Kolasib", "dist_lgd": 263, "subdistrict_name": "Bilkhawthlir", "sdcode": 1900, "block_name": "Bilkhawthlir", "block_lgd": 5.0, "gp_name": "", "state_name": "MIZORAM", "state_lgd": 15, "population": 0, "households": 0}, "geometry": {"type": "Polygon", "coordinates": [[[92.75431, 24.407610000000002], [92.75554000000001, 24.40809], [92.75595000000001, 24.40698], [92.75502, 24.406560000000002], [92.75431, 24.407610000000002]]]}}, {"id": "50", "type": "Feature", "properties": {"village_name": "Chite", "vil_lgd": 271172, "district_name": "Kolasib", "dist_lgd": 263, "subdistrict_name": "Bilkhawthlir", "sdcode": 1900, "block_name": "Bilkhawthlir", "block_lgd": 5.0, "gp_name": "", "state_name": "MIZORAM", "state_lgd": 15, "population": 0, "households": 0}, "geometry": {"type": "Polygon", "coordinates": [[[92.76113000000001, 24.44012], [92.76055000000001, 24.441160000000004], [92.76139, 24.44171], [92.76228, 24.44084], [92.76153000000001, 24.4401], [92.76113000000001, 24.44012]]]}}, {"id": "51", "type": "Feature", "properties": {"village_name": "Phaizau", "vil_lgd": 271174, "district_name": "Kolasib", "dist_lgd": 263, "subdistrict_name": "Bilkhawthlir", "sdcode": 1900, "block_name": "Bilkhawthlir", "block_lgd": 5.0, "gp_name": "", "state_name": "MIZORAM", "state_lgd": 15, "population": 0, "households": 0}, "geometry": {"type": "Polygon", "coordinates": [[[92.80669, 24.40489], [92.80602, 24.405700000000003], [92.80695, 24.40649], [92.80780000000001, 24.405620000000003], [92.80713, 24.40489], [92.80669, 24.40489]]]}}, {"id": "52", "type": "Feature", "properties": {"village_name": "Vairengte", "vil_lgd": 249764, "district_name": "Kolasib", "dist_lgd": 263, "subdistrict_name": "Bilkhawthlir", "sdcode": 1900, "block_name": "", "block_lgd": 0.0, "gp_name": "", "state_name": "MIZORAM", "state_lgd": 15, "population": 10554, "households": 1931}, "geometry": {"type": "Polygon", "coordinates": [[[92.73323, 24.40211], [92.72729000000001, 24.40622], [92.72515000000001, 24.41553], [92.72800000000001, 24.425700000000003], [92.73442000000001, 24.435650000000003], [92.74963000000001, 24.46789], [92.75367000000001, 24.48346], [92.75082, 24.487140000000004], [92.75652000000001, 24.503580000000003], [92.76389, 24.51028], [92.76650000000001, 24.50834], [92.77031000000001, 24.497090000000004], [92.77316, 24.4919], [92.77672000000001, 24.4826], [92.77839, 24.477410000000003], [92.77791, 24.473300000000002], [92.77173, 24.46702], [92.76579000000001, 24.455560000000002], [92.76389, 24.44452], [92.75533, 24.4402], [92.74297000000001, 24.42245], [92.73893000000001, 24.41185], [92.73323, 24.40211]]]}}, {"id": "53", "type": "Feature", "properties": {"village_name": "Data Partially Available", "vil_lgd": 999999, "district_name": "Kolasib", "dist_lgd": 263, "subdistrict_name": "N Thingdawl", "sdcode": 1899, "block_name": "", "block_lgd": null, "gp_name": "", "state_name": "MIZORAM", "state_lgd": 15, "population": 0, "households": 0}, "geometry": {"type": "Polygon", "coordinates": [[[92.55804, 24.13885], [92.61879, 24.16373], [92.62828, 24.165650000000003], [92.63663000000001, 24.17866], [92.64949000000001, 24.18183], [92.65749000000001, 24.18627], [92.66096, 24.190350000000002], [92.68532, 24.188730000000003], [92.70434, 24.197400000000002], [92.71563, 24.204990000000002], [92.72201000000001, 24.21468], [92.72982, 24.22052], [92.74477, 24.23448], [92.75242, 24.245260000000002], [92.75625000000001, 24.26206], [92.76112, 24.278540000000003], [92.7719, 24.289], [92.77682, 24.306610000000003], [92.78927, 24.31418], [92.79784000000001, 24.33322], [92.80545000000001, 24.33417], [92.82258, 24.328460000000003], [92.84447, 24.33417], [92.87703, 24.349690000000002], [92.87844000000001, 24.34203], [92.87844000000001, 24.33282], [92.86299000000001, 24.31821], [92.86477000000001, 24.312790000000003], [92.86094000000001, 24.309260000000002], [92.86259000000001, 24.307450000000003], [92.86191000000001, 24.30345], [92.86259000000001, 24.3015], [92.86839, 24.29887], [92.87075, 24.2956], [92.87112, 24.292980000000004], [92.87016000000001, 24.28996], [92.87231000000001, 24.286350000000002], [92.86983000000001, 24.28488], [92.86889000000001, 24.28262], [92.87248000000001, 24.279010000000003], [92.87146000000001, 24.27711], [92.86890000000001, 24.27783], [92.86603000000001, 24.27672], [92.86545000000001, 24.274680000000004], [92.86222000000001, 24.272440000000003], [92.86055, 24.269090000000002], [92.86033, 24.265230000000003], [92.8645, 24.263440000000003], [92.86518000000001, 24.262400000000003], [92.86411000000001, 24.261460000000003], [92.86012000000001, 24.261270000000003], [92.85846000000001, 24.25869], [92.85898, 24.25804], [92.86212, 24.258370000000003], [92.86168, 24.255110000000002], [92.86451000000001, 24.25221], [92.86288, 24.25101], [92.85876, 24.250320000000002], [92.86143000000001, 24.246810000000004], [92.85895000000001, 24.24406], [92.86326000000001, 24.241960000000002], [92.86843, 24.24349], [92.87093, 24.242970000000003], [92.87584000000001, 24.238370000000003], [92.87751, 24.23402], [92.87917, 24.233230000000002], [92.88095000000001, 24.23385], [92.88273000000001, 24.236610000000002], [92.88583000000001, 24.23917], [92.8871, 24.24567], [92.88895000000001, 24.24492], [92.88995000000001, 24.24132], [92.89634000000001, 24.23937], [92.89718, 24.234370000000002], [92.89909, 24.23157], [92.90027, 24.226020000000002], [92.89846000000001, 24.223200000000002], [92.89903000000001, 24.21892], [92.89685, 24.21695], [92.89673, 24.21545], [92.89464000000001, 24.212120000000002], [92.89788, 24.212390000000003], [92.89835000000001, 24.21178], [92.89624, 24.208550000000002], [92.89683000000001, 24.20531], [92.89274, 24.20456], [92.8939, 24.202050000000003], [92.89184, 24.20014], [92.89368, 24.19799], [92.89151000000001, 24.18615], [92.89241000000001, 24.182630000000003], [92.89080000000001, 24.173840000000002], [92.8819, 24.170360000000002], [92.88243000000001, 24.169300000000003], [92.88505, 24.169500000000003], [92.88565000000001, 24.168590000000002], [92.88377000000001, 24.16071], [92.87991000000001, 24.158130000000003], [92.88009000000001, 24.157290000000003], [92.88188000000001, 24.15659], [92.88185000000001, 24.154600000000002], [92.87949, 24.15079], [92.87481000000001, 24.14797], [92.87149000000001, 24.140060000000002], [92.87136000000001, 24.135740000000002], [92.87581, 24.132510000000003], [92.87651000000001, 24.130270000000003], [92.8755, 24.129230000000003], [92.87207000000001, 24.128850000000003], [92.87065000000001, 24.1279], [92.87, 24.122100000000003], [92.86606, 24.11858], [92.86865, 24.114770000000004], [92.86766, 24.112830000000002], [92.86764000000001, 24.109740000000002], [92.8631, 24.107260000000004], [92.85873000000001, 24.10732], [92.85873000000001, 24.099320000000002], [92.85772000000001, 24.09869], [92.85543000000001, 24.09973], [92.8546, 24.09327], [92.85775000000001, 24.088350000000002], [92.85593, 24.08198], [92.85433, 24.07985], [92.85541, 24.077990000000003], [92.85401, 24.07522], [92.85434000000001, 24.073050000000002], [92.85108000000001, 24.070400000000003], [92.84878, 24.06979], [92.84757, 24.06829], [92.84594000000001, 24.06323], [92.84694, 24.05996], [92.84463000000001, 24.054660000000002], [92.84619, 24.05365], [92.84702, 24.05102], [92.84475, 24.04819], [92.84474, 24.04605], [92.84813000000001, 24.04426], [92.84687000000001, 24.042170000000002], [92.84774, 24.04013], [92.84751000000001, 24.034940000000002], [92.84662, 24.03413], [92.84435, 24.036220000000004], [92.84330000000001, 24.036240000000003], [92.84171, 24.033050000000003], [92.84469000000001, 24.030530000000002], [92.84581000000001, 24.026850000000003], [92.84101000000001, 24.026390000000003], [92.8412, 24.02295], [92.83934, 24.020360000000004], [92.84022, 24.016640000000002], [92.83888, 24.0151], [92.83728, 24.01519], [92.83577000000001, 24.016830000000002], [92.83345000000001, 24.023870000000002], [92.83130000000001, 24.023650000000004], [92.8289, 24.019060000000003], [92.83086, 24.01613], [92.82885, 24.0133], [92.82916, 24.00935], [92.82743, 24.00466], [92.82688, 24.000380000000003], [92.82461, 24.00052], [92.82520000000001, 23.996540000000003], [92.8208, 23.994090000000003], [92.82116, 23.99283], [92.82524000000001, 23.9906], [92.82487, 23.9891], [92.82213, 23.988030000000002], [92.82162000000001, 23.98695], [92.82647000000001, 23.986700000000003], [92.82669000000001, 23.98608], [92.82323000000001, 23.981520000000003], [92.82131000000001, 23.98216], [92.82053, 23.98167], [92.81995, 23.97951], [92.82090000000001, 23.9749], [92.82052, 23.97191], [92.81827000000001, 23.96693], [92.81692000000001, 23.96742], [92.81608000000001, 23.96637], [92.81768000000001, 23.95885], [92.8217, 23.956180000000003], [92.82247000000001, 23.953390000000002], [92.81894000000001, 23.94894], [92.81988000000001, 23.946160000000003], [92.81946, 23.944940000000003], [92.81609, 23.942500000000003], [92.81515, 23.939760000000003], [92.81527000000001, 23.936850000000003], [92.81615000000001, 23.935730000000003], [92.81826000000001, 23.935360000000003], [92.81833, 23.934600000000003], [92.81522000000001, 23.93269], [92.81248000000001, 23.929150000000003], [92.81112, 23.921840000000003], [92.80776, 23.921950000000002], [92.80665, 23.919620000000002], [92.81109000000001, 23.916200000000003], [92.81638000000001, 23.918540000000004], [92.81532000000001, 23.913870000000003], [92.81966000000001, 23.91627], [92.82088, 23.91552], [92.82195, 23.912090000000003], [92.81944000000001, 23.911330000000003], [92.81853000000001, 23.909850000000002], [92.81959, 23.9063], [92.81754000000001, 23.9003], [92.81744, 23.89627], [92.81499000000001, 23.89478], [92.81249000000001, 23.894830000000002], [92.81196000000001, 23.893890000000003], [92.81016000000001, 23.894330000000004], [92.81019, 23.892550000000004], [92.80928, 23.892200000000003], [92.81038000000001, 23.89122], [92.80903, 23.889840000000003], [92.81001, 23.889200000000002], [92.81044000000001, 23.886960000000002], [92.80941000000001, 23.88588], [92.80655, 23.88679], [92.80604000000001, 23.885980000000004], [92.80486, 23.881890000000002], [92.80509, 23.87835], [92.80386000000001, 23.877540000000003], [92.80276, 23.87516], [92.80301000000001, 23.873320000000003], [92.80222, 23.872030000000002], [92.80301000000001, 23.870910000000002], [92.80125000000001, 23.865630000000003], [92.80065, 23.8656], [92.80185, 23.86353], [92.80109, 23.862810000000003], [92.80186, 23.859360000000002], [92.80049000000001, 23.85826], [92.80183000000001, 23.857100000000003], [92.80078, 23.856040000000004], [92.80042, 23.85311], [92.79842000000001, 23.851300000000002], [92.79915000000001, 23.85019], [92.79726000000001, 23.848100000000002], [92.79284000000001, 23.84787], [92.79145000000001, 23.84964], [92.79008, 23.850520000000003], [92.78893000000001, 23.850130000000004], [92.78778000000001, 23.851360000000003], [92.78656000000001, 23.8505], [92.78226000000001, 23.85029], [92.77910000000001, 23.85219], [92.77696, 23.852210000000003], [92.75819000000001, 23.84729], [92.74888000000001, 23.845950000000002], [92.74521000000001, 23.848950000000002], [92.74377000000001, 23.849220000000003], [92.74354000000001, 23.850050000000003], [92.73568, 23.84909], [92.72867000000001, 23.852390000000003], [92.72561, 23.85132], [92.72288, 23.85489], [92.71902000000001, 23.85527], [92.71519, 23.857560000000003], [92.71285, 23.858030000000003], [92.71166000000001, 23.86026], [92.70867000000001, 23.861770000000003], [92.70783, 23.86166], [92.70701000000001, 23.859990000000003], [92.70360000000001, 23.85828], [92.70016000000001, 23.85734], [92.69846000000001, 23.858010000000004], [92.69850000000001, 23.856050000000003], [92.69738000000001, 23.85564], [92.69545000000001, 23.85592], [92.69584, 23.85704], [92.69417000000001, 23.857270000000003], [92.69291000000001, 23.85875], [92.69163, 23.85808], [92.68652, 23.859910000000003], [92.68503000000001, 23.862910000000003], [92.67977, 23.86727], [92.67247, 23.866960000000002], [92.67014, 23.86542], [92.66779000000001, 23.867520000000003], [92.66628000000001, 23.867150000000002], [92.66228000000001, 23.868060000000003], [92.66317000000001, 23.87282], [92.66176, 23.88154], [92.65513000000001, 23.885990000000003], [92.65081, 23.89111], [92.65313, 23.899690000000003], [92.65629000000001, 23.90079], [92.66097, 23.905340000000002], [92.66039, 23.913850000000004], [92.65914000000001, 23.916670000000003], [92.65328000000001, 23.92227], [92.64422, 23.922250000000002], [92.64417, 23.927570000000003], [92.64191000000001, 23.930500000000002], [92.63803, 23.930480000000003], [92.62545, 23.934030000000003], [92.62242, 23.93551], [92.62128000000001, 23.937420000000003], [92.62396000000001, 23.941000000000003], [92.62431000000001, 23.944100000000002], [92.62832, 23.943880000000004], [92.62909, 23.945480000000003], [92.62886, 23.947000000000003], [92.62627, 23.95051], [92.62568, 23.9557], [92.62405000000001, 23.95719], [92.62042000000001, 23.95812], [92.62039000000001, 23.96226], [92.62231000000001, 23.972], [92.62577, 23.981910000000003], [92.62781000000001, 23.98366], [92.63176000000001, 23.985190000000003], [92.63165000000001, 23.989230000000003], [92.62975, 23.99198], [92.62953, 23.99358], [92.63292000000001, 23.998310000000004], [92.63082000000001, 24.001410000000003], [92.62506, 24.004710000000003], [92.62140000000001, 24.005480000000002], [92.61945, 24.008940000000003], [92.61863000000001, 24.012410000000003], [92.62190000000001, 24.015430000000002], [92.62358, 24.023180000000004], [92.62870000000001, 24.03263], [92.63057, 24.03318], [92.63551000000001, 24.031740000000003], [92.63627000000001, 24.03506], [92.63289, 24.03524], [92.6302, 24.036700000000003], [92.62714000000001, 24.04175], [92.62449000000001, 24.04304], [92.62261000000001, 24.037850000000002], [92.62427000000001, 24.03292], [92.62298000000001, 24.03177], [92.62199000000001, 24.032010000000003], [92.61747000000001, 24.03639], [92.61557, 24.045740000000002], [92.61167, 24.051920000000003], [92.60961, 24.052470000000003], [92.60482, 24.05111], [92.60109000000001, 24.052290000000003], [92.59836000000001, 24.05386], [92.59320000000001, 24.062780000000004], [92.58942, 24.063840000000003], [92.58564000000001, 24.063750000000002], [92.58565, 24.06707], [92.58713, 24.070880000000002], [92.58616, 24.07571], [92.58082, 24.07748], [92.57853, 24.075660000000003], [92.57401, 24.077160000000003], [92.57157000000001, 24.07589], [92.57213, 24.073960000000003], [92.57404000000001, 24.07178], [92.57361, 24.069100000000002], [92.57542000000001, 24.06671], [92.57079, 24.0618], [92.57368000000001, 24.053300000000004], [92.56872000000001, 24.04719], [92.566, 24.041020000000003], [92.56384000000001, 24.043210000000002], [92.55895000000001, 24.040840000000003], [92.55822, 24.04277], [92.55879, 24.04567], [92.56361000000001, 24.054440000000003], [92.56229, 24.055380000000003], [92.55775000000001, 24.054660000000002], [92.55758, 24.062040000000003], [92.55414, 24.063380000000002], [92.55199, 24.063360000000003], [92.55114, 24.062530000000002], [92.54958, 24.05451], [92.55040000000001, 24.04989], [92.54971, 24.042330000000003], [92.54535000000001, 24.04155], [92.54194000000001, 24.037660000000002], [92.53822000000001, 24.03572], [92.53462, 24.043560000000003], [92.53397000000001, 24.04738], [92.53505000000001, 24.05243], [92.53794, 24.056250000000002], [92.53571000000001, 24.064470000000004], [92.53918, 24.079500000000003], [92.53592, 24.09261], [92.53714000000001, 24.096000000000004], [92.54009, 24.09936], [92.53658, 24.10967], [92.53883, 24.11719], [92.54365000000001, 24.124760000000002], [92.54316000000001, 24.125960000000003], [92.53749, 24.12544], [92.53605, 24.12655], [92.53953000000001, 24.13578], [92.55804, 24.13885]], [[92.83142000000001, 24.297390000000004], [92.83218000000001, 24.29813], [92.83129000000001, 24.299000000000003], [92.83044000000001, 24.298450000000003], [92.83102000000001, 24.297410000000003], [92.83142000000001, 24.297390000000004]], [[92.85618000000001, 24.259590000000003], [92.85694000000001, 24.260330000000003], [92.85605000000001, 24.261200000000002], [92.85520000000001, 24.260650000000002], [92.85578000000001, 24.259610000000002], [92.85618000000001, 24.259590000000003]], [[92.79658, 24.255080000000003], [92.79725, 24.25588], [92.79631, 24.256670000000003], [92.79547000000001, 24.2558], [92.79614000000001, 24.255070000000003], [92.79658, 24.255080000000003]], [[92.81336, 24.23542], [92.81411000000001, 24.23616], [92.81322, 24.23703], [92.81238, 24.23648], [92.81296, 24.23544], [92.81336, 24.23542]], [[92.74911, 24.215230000000002], [92.74987, 24.215960000000003], [92.74898, 24.21684], [92.74813, 24.21628], [92.74871, 24.21525], [92.74911, 24.215230000000002]], [[92.80793000000001, 24.184610000000003], [92.80869000000001, 24.185340000000004], [92.80780000000001, 24.186220000000002], [92.80696, 24.185660000000002], [92.80754, 24.184630000000002], [92.80793000000001, 24.184610000000003]], [[92.70143, 24.187340000000003], [92.70219, 24.188080000000003], [92.7013, 24.188950000000002], [92.70045, 24.1884], [92.70104, 24.18736], [92.70143, 24.187340000000003]], [[92.69949000000001, 24.158310000000004], [92.70025000000001, 24.15905], [92.69936000000001, 24.159920000000003], [92.69852, 24.159370000000003], [92.6991, 24.158330000000003], [92.69949000000001, 24.158310000000004]], [[92.62670000000001, 24.157770000000003], [92.62746000000001, 24.158510000000003], [92.62657, 24.159380000000002], [92.62573, 24.158830000000002], [92.62631, 24.157790000000002], [92.62670000000001, 24.157770000000003]], [[92.57924000000001, 24.143020000000003], [92.57883000000001, 24.14412], [92.5776, 24.14365], [92.57831, 24.142590000000002], [92.57924000000001, 24.143020000000003]], [[92.69504, 24.12768], [92.6958, 24.128420000000002], [92.6949, 24.12929], [92.69406000000001, 24.12874], [92.69464, 24.1277], [92.69504, 24.12768]], [[92.76798000000001, 24.11876], [92.76874000000001, 24.119490000000003], [92.76785000000001, 24.12037], [92.76700000000001, 24.11981], [92.76759000000001, 24.11878], [92.76798000000001, 24.11876]], [[92.57301000000001, 24.120910000000002], [92.57369000000001, 24.121720000000003], [92.57275000000001, 24.122510000000002], [92.57191, 24.121640000000003], [92.57258, 24.120910000000002], [92.57301000000001, 24.120910000000002]], [[92.68771000000001, 24.094710000000003], [92.68320000000001, 24.078870000000002], [92.68367, 24.06802], [92.68129, 24.05695], [92.6744, 24.043930000000003], [92.6744, 24.03199], [92.67131, 24.02201], [92.66989000000001, 24.01245], [92.67155000000001, 24.010070000000002], [92.68343, 24.008760000000002], [92.68534000000001, 24.00963], [92.69413, 24.038290000000003], [92.70150000000001, 24.102520000000002], [92.70055, 24.105780000000003], [92.69532000000001, 24.107080000000003], [92.69199, 24.10556], [92.68866000000001, 24.10122], [92.68771000000001, 24.094710000000003]], [[92.78993000000001, 24.0821], [92.79061, 24.08283], [92.78976, 24.0837], [92.78882, 24.082910000000002], [92.7895, 24.0821], [92.78993000000001, 24.0821]], [[92.77677000000001, 24.03543], [92.77753000000001, 24.036160000000002], [92.77664000000001, 24.03704], [92.7758, 24.03649], [92.77638, 24.03545], [92.77677000000001, 24.03543]], [[92.66452000000001, 24.014020000000002], [92.66528000000001, 24.01328], [92.6663, 24.014020000000002], [92.66541000000001, 24.0149], [92.66452000000001, 24.014020000000002]], [[92.59434, 24.07122], [92.5951, 24.070480000000003], [92.59612000000001, 24.07122], [92.59523, 24.072090000000003], [92.59434, 24.07122]], [[92.58568000000001, 24.09541], [92.58445, 24.09588], [92.58404, 24.094780000000004], [92.58497000000001, 24.094350000000002], [92.58568000000001, 24.09541]], [[92.54889000000001, 24.11063], [92.54830000000001, 24.11137], [92.54710000000001, 24.11054], [92.54821000000001, 24.109820000000003], [92.54889000000001, 24.11063]], [[92.72092, 23.99266], [92.72168, 23.9934], [92.72079000000001, 23.99427], [92.71994000000001, 23.993720000000003], [92.72053000000001, 23.992680000000004], [92.72092, 23.99266]], [[92.78058, 23.98516], [92.78134000000001, 23.9859], [92.78045, 23.986770000000003], [92.7796, 23.986220000000003], [92.78019, 23.985180000000003], [92.78058, 23.98516]], [[92.66199, 23.959370000000003], [92.66266, 23.9601], [92.66182, 23.960970000000003], [92.66088, 23.96018], [92.66155, 23.959370000000003], [92.66199, 23.959370000000003]], [[92.64853000000001, 23.939400000000003], [92.64929000000001, 23.940140000000003], [92.64840000000001, 23.941010000000002], [92.64756000000001, 23.94046], [92.64814000000001, 23.939420000000002], [92.64853000000001, 23.939400000000003]], [[92.74978, 23.928340000000002], [92.75054, 23.929080000000003], [92.74965, 23.92995], [92.7488, 23.9294], [92.74938, 23.92836], [92.74978, 23.928340000000002]], [[92.72800000000001, 23.911320000000003], [92.72867000000001, 23.91205], [92.72783000000001, 23.912920000000003], [92.72689000000001, 23.91213], [92.72756000000001, 23.911320000000003], [92.72800000000001, 23.911320000000003]], [[92.66963000000001, 23.885080000000002], [92.67039000000001, 23.885820000000002], [92.66950000000001, 23.88669], [92.66865000000001, 23.88614], [92.66923000000001, 23.8851], [92.66963000000001, 23.885080000000002]], [[92.72563000000001, 23.880190000000002], [92.72639000000001, 23.880930000000003], [92.72589, 23.88173], [92.72483000000001, 23.88153], [92.72471, 23.88062], [92.72563000000001, 23.880190000000002]], [[92.72912000000001, 23.867980000000003], [92.72871, 23.869090000000003], [92.72748000000001, 23.868620000000004], [92.72819000000001, 23.86756], [92.72912000000001, 23.867980000000003]]]}}, {"id": "54", "type": "Feature", "properties": {"village_name": "Data Partially Available", "vil_lgd": 999999, "district_name": "Kolasib", "dist_lgd": 263, "subdistrict_name": "Bilkhawthlir", "sdcode": 1900, "block_name": "", "block_lgd": null, "gp_name": "", "state_name": "MIZORAM", "state_lgd": 15, "population": 0, "households": 0}, "geometry": {"type": "Polygon", "coordinates": [[[92.84447, 24.33417], [92.82258, 24.328460000000003], [92.80545000000001, 24.33417], [92.79784000000001, 24.33322], [92.78927, 24.31418], [92.77682, 24.306610000000003], [92.7719, 24.289], [92.76112, 24.278540000000003], [92.75625000000001, 24.26206], [92.75242, 24.245260000000002], [92.74477, 24.23448], [92.72982, 24.22052], [92.72201000000001, 24.21468], [92.71563, 24.204990000000002], [92.70434, 24.197400000000002], [92.68532, 24.188730000000003], [92.66096, 24.190350000000002], [92.65749000000001, 24.18627], [92.64949000000001, 24.18183], [92.63663000000001, 24.17866], [92.62828, 24.165650000000003], [92.61879, 24.16373], [92.55804, 24.13885], [92.53953000000001, 24.13578], [92.54506, 24.13982], [92.54475000000001, 24.14307], [92.53744, 24.15641], [92.52732, 24.16438], [92.52685000000001, 24.165480000000002], [92.52837000000001, 24.167440000000003], [92.53433000000001, 24.17162], [92.53637, 24.175400000000003], [92.53630000000001, 24.17685], [92.53111000000001, 24.18512], [92.53384000000001, 24.190170000000002], [92.53476, 24.19384], [92.53784, 24.19677], [92.53808000000001, 24.198480000000004], [92.53679000000001, 24.201480000000004], [92.53962000000001, 24.202700000000004], [92.54153000000001, 24.2055], [92.542, 24.207620000000002], [92.54102, 24.210330000000003], [92.54331, 24.211570000000002], [92.54230000000001, 24.213440000000002], [92.54353, 24.21572], [92.54592000000001, 24.216910000000002], [92.54581, 24.218700000000002], [92.54712, 24.220160000000003], [92.54681000000001, 24.22165], [92.54773, 24.22302], [92.54677000000001, 24.229820000000004], [92.54848000000001, 24.23176], [92.54687000000001, 24.23297], [92.54705000000001, 24.23645], [92.55065, 24.247000000000003], [92.55289, 24.24742], [92.55590000000001, 24.2468], [92.56357000000001, 24.251420000000003], [92.57213, 24.251880000000003], [92.58042, 24.249760000000002], [92.58304000000001, 24.25044], [92.58891000000001, 24.248820000000002], [92.59091000000001, 24.248720000000002], [92.59571000000001, 24.250490000000003], [92.60100000000001, 24.25007], [92.60312, 24.24848], [92.60678, 24.24865], [92.6084, 24.251070000000002], [92.6123, 24.253470000000004], [92.61290000000001, 24.25569], [92.61407000000001, 24.25596], [92.61311, 24.258650000000003], [92.61438000000001, 24.26088], [92.61449, 24.263830000000002], [92.6153, 24.264450000000004], [92.61492000000001, 24.266170000000002], [92.61599000000001, 24.268890000000003], [92.6166, 24.275070000000003], [92.61787000000001, 24.277030000000003], [92.61710000000001, 24.280250000000002], [92.61831000000001, 24.28112], [92.61819000000001, 24.28415], [92.6192, 24.28478], [92.61971000000001, 24.28722], [92.61592, 24.28996], [92.61819000000001, 24.298180000000002], [92.61917000000001, 24.306060000000002], [92.61829, 24.307350000000003], [92.61945, 24.30805], [92.61875, 24.309310000000004], [92.61937, 24.313060000000004], [92.62164000000001, 24.316650000000003], [92.62184, 24.318910000000002], [92.62348, 24.3199], [92.62384, 24.322260000000004], [92.62318, 24.32327], [92.62157, 24.32337], [92.62191000000001, 24.325280000000003], [92.62308, 24.326030000000003], [92.62257000000001, 24.326880000000003], [92.62364000000001, 24.327240000000003], [92.62241, 24.328020000000002], [92.62241, 24.331270000000004], [92.62477000000001, 24.334080000000004], [92.63024, 24.333620000000003], [92.63539, 24.336750000000002], [92.63869000000001, 24.334360000000004], [92.63557, 24.333710000000004], [92.6363, 24.33134], [92.63713000000001, 24.331220000000002], [92.64030000000001, 24.333650000000002], [92.63874000000001, 24.328460000000003], [92.64034000000001, 24.328650000000003], [92.64133000000001, 24.32769], [92.64291, 24.328360000000004], [92.64583, 24.327820000000003], [92.64552, 24.330140000000004], [92.64630000000001, 24.33098], [92.64786000000001, 24.329050000000002], [92.64923, 24.3286], [92.65016000000001, 24.32916], [92.65004, 24.33151], [92.65101000000001, 24.331780000000002], [92.65169, 24.331080000000004], [92.65142, 24.334590000000002], [92.65202000000001, 24.33613], [92.65382000000001, 24.336640000000003], [92.65767000000001, 24.341350000000002], [92.65917, 24.342060000000004], [92.65769, 24.344330000000003], [92.66061, 24.344140000000003], [92.66016, 24.345190000000002], [92.66137, 24.348160000000004], [92.66331000000001, 24.348670000000002], [92.66424, 24.346190000000004], [92.66510000000001, 24.349600000000002], [92.66571, 24.349590000000003], [92.6663, 24.346320000000002], [92.66803, 24.34681], [92.66894, 24.34609], [92.66981000000001, 24.34748], [92.67166, 24.34758], [92.67339000000001, 24.34964], [92.67708, 24.350150000000003], [92.67945, 24.34766], [92.682, 24.347620000000003], [92.68424, 24.346420000000002], [92.68502000000001, 24.34692], [92.68376, 24.35046], [92.6898, 24.35367], [92.68931, 24.355330000000002], [92.69146, 24.357480000000002], [92.69117000000001, 24.362520000000004], [92.69394000000001, 24.364310000000003], [92.69342, 24.3652], [92.69475000000001, 24.36542], [92.69276, 24.368350000000003], [92.69541000000001, 24.369010000000003], [92.69771, 24.374340000000004], [92.70014, 24.373890000000003], [92.70046, 24.37499], [92.70190000000001, 24.374350000000003], [92.70361000000001, 24.37545], [92.70461, 24.378120000000003], [92.70322, 24.38033], [92.70444, 24.382720000000003], [92.70409000000001, 24.38464], [92.70587, 24.384570000000004], [92.70734, 24.38699], [92.70647000000001, 24.39215], [92.70919, 24.39327], [92.70998, 24.39627], [92.70921000000001, 24.397250000000003], [92.71327000000001, 24.40332], [92.71143000000001, 24.407310000000003], [92.71369000000001, 24.408], [92.71373000000001, 24.40903], [92.71502000000001, 24.40952], [92.7129, 24.4111], [92.71509, 24.414980000000003], [92.71739000000001, 24.4156], [92.71797000000001, 24.420150000000003], [92.72158, 24.42481], [92.72125000000001, 24.42657], [92.72286000000001, 24.428110000000004], [92.72171, 24.43195], [92.72390000000001, 24.436230000000002], [92.72612000000001, 24.43851], [92.7275, 24.446420000000003], [92.73061000000001, 24.44901], [92.73365000000001, 24.45474], [92.73692000000001, 24.46264], [92.74051000000001, 24.46855], [92.74067000000001, 24.47192], [92.74361, 24.47651], [92.74706, 24.487070000000003], [92.75085000000001, 24.49219], [92.74934, 24.495040000000003], [92.75420000000001, 24.502090000000003], [92.75189, 24.504040000000003], [92.75215000000001, 24.506230000000002], [92.75338, 24.506950000000003], [92.75397000000001, 24.50861], [92.75619, 24.509670000000003], [92.75601, 24.511200000000002], [92.75805000000001, 24.511020000000002], [92.75784, 24.51284], [92.76131000000001, 24.517000000000003], [92.76099, 24.518430000000002], [92.76280000000001, 24.521020000000004], [92.7638, 24.521], [92.77074, 24.50146], [92.77186, 24.50062], [92.79668000000001, 24.43286], [92.80127, 24.429650000000002], [92.80182, 24.427000000000003], [92.80116000000001, 24.42535], [92.8027, 24.424480000000003], [92.80191, 24.420790000000004], [92.80053000000001, 24.419710000000002], [92.79948, 24.42003], [92.79936000000001, 24.419150000000002], [92.80425000000001, 24.417600000000004], [92.80678, 24.418870000000002], [92.80782, 24.415740000000003], [92.80882000000001, 24.415770000000002], [92.80822, 24.41468], [92.80879, 24.41269], [92.81160000000001, 24.41318], [92.81017000000001, 24.411620000000003], [92.8121, 24.411540000000002], [92.81236000000001, 24.40941], [92.81481000000001, 24.40877], [92.81901, 24.40999], [92.81774, 24.407940000000004], [92.81913, 24.407120000000003], [92.81882, 24.40539], [92.82042000000001, 24.40349], [92.82374, 24.40189], [92.82768, 24.402120000000004], [92.82995000000001, 24.400290000000002], [92.82921, 24.39703], [92.82481000000001, 24.39159], [92.82319000000001, 24.386560000000003], [92.82542000000001, 24.38436], [92.82542000000001, 24.382740000000002], [92.82661, 24.381230000000002], [92.82556000000001, 24.37779], [92.82615000000001, 24.376420000000003], [92.82959000000001, 24.373590000000004], [92.83216, 24.37489], [92.8357, 24.37844], [92.83965, 24.376790000000003], [92.843, 24.377630000000003], [92.84517000000001, 24.379620000000003], [92.84624000000001, 24.386000000000003], [92.84787000000001, 24.38613], [92.84962, 24.38963], [92.85245, 24.392110000000002], [92.85646000000001, 24.393620000000002], [92.86094000000001, 24.398500000000002], [92.86880000000001, 24.394650000000002], [92.87051000000001, 24.395560000000003], [92.87334000000001, 24.39486], [92.88369, 24.402410000000003], [92.88855000000001, 24.39833], [92.88947, 24.399910000000002], [92.89137000000001, 24.4005], [92.89083000000001, 24.398580000000003], [92.89249000000001, 24.39757], [92.89183000000001, 24.395960000000002], [92.89295000000001, 24.39269], [92.89997000000001, 24.390620000000002], [92.90288000000001, 24.391070000000003], [92.90220000000001, 24.38371], [92.88913000000001, 24.377750000000002], [92.88319000000001, 24.36964], [92.87606000000001, 24.355020000000003], [92.87703, 24.349690000000002], [92.84447, 24.33417]], [[92.74297000000001, 24.42245], [92.75533, 24.4402], [92.76389, 24.44452], [92.76579000000001, 24.455560000000002], [92.77173, 24.46702], [92.77791, 24.473300000000002], [92.77839, 24.477410000000003], [92.77672000000001, 24.4826], [92.77316, 24.4919], [92.77031000000001, 24.497090000000004], [92.76650000000001, 24.50834], [92.76389, 24.51028], [92.75652000000001, 24.503580000000003], [92.75082, 24.487140000000004], [92.75367000000001, 24.48346], [92.74963000000001, 24.46789], [92.73442000000001, 24.435650000000003], [92.72800000000001, 24.425700000000003], [92.72515000000001, 24.41553], [92.72729000000001, 24.40622], [92.73323, 24.40211], [92.73893000000001, 24.41185], [92.74297000000001, 24.42245]], [[92.75595000000001, 24.40698], [92.75554000000001, 24.40809], [92.75431, 24.407610000000002], [92.75502, 24.406560000000002], [92.75595000000001, 24.40698]], [[92.77697, 24.46742], [92.77773, 24.46815], [92.77684, 24.46902], [92.77600000000001, 24.468470000000003], [92.77658000000001, 24.467440000000003], [92.77697, 24.46742]], [[92.78150000000001, 24.450260000000004], [92.78109, 24.45137], [92.77986000000001, 24.45089], [92.78057000000001, 24.449840000000002], [92.78150000000001, 24.450260000000004]], [[92.76153000000001, 24.4401], [92.76228, 24.44084], [92.76139, 24.44171], [92.76055000000001, 24.441160000000004], [92.76113000000001, 24.44012], [92.76153000000001, 24.4401]], [[92.80713, 24.40489], [92.80780000000001, 24.405620000000003], [92.80695, 24.40649], [92.80602, 24.405700000000003], [92.80669, 24.40489], [92.80713, 24.40489]], [[92.79653, 24.388640000000002], [92.79613, 24.389740000000003], [92.79489000000001, 24.389270000000003], [92.79561000000001, 24.38821], [92.79653, 24.388640000000002]], [[92.71497000000001, 24.38785], [92.71564000000001, 24.388650000000002], [92.71470000000001, 24.38944], [92.71386000000001, 24.38857], [92.71453000000001, 24.38784], [92.71497000000001, 24.38785]], [[92.8465, 24.36851], [92.84725, 24.36925], [92.84636, 24.370120000000004], [92.84552000000001, 24.369570000000003], [92.8461, 24.368530000000003], [92.8465, 24.36851]], [[92.7711, 24.349020000000003], [92.77069, 24.35012], [92.76946000000001, 24.34965], [92.77017000000001, 24.34859], [92.7711, 24.349020000000003]], [[92.66611, 24.337590000000002], [92.6657, 24.338700000000003], [92.66447000000001, 24.338220000000003], [92.66518, 24.33717], [92.66611, 24.337590000000002]], [[92.73345, 24.32392], [92.73412, 24.324640000000002], [92.73362, 24.32543], [92.73262000000001, 24.325300000000002], [92.73240000000001, 24.3244], [92.73345, 24.32392]], [[92.64329000000001, 24.32308], [92.64288, 24.32419], [92.64165000000001, 24.323710000000002], [92.64236000000001, 24.322660000000003], [92.64329000000001, 24.32308]], [[92.62456, 24.312050000000003], [92.62532, 24.312780000000004], [92.62443, 24.313650000000003], [92.62358, 24.313100000000002], [92.62417, 24.312070000000002], [92.62456, 24.312050000000003]], [[92.63497000000001, 24.296010000000003], [92.63456000000001, 24.297110000000004], [92.63333, 24.296640000000004], [92.63404000000001, 24.29558], [92.63497000000001, 24.296010000000003]], [[92.69446, 24.286690000000004], [92.69539, 24.286270000000002], [92.69611, 24.28732], [92.69459, 24.2876], [92.69446, 24.286690000000004]], [[92.61998000000001, 24.292640000000002], [92.62073000000001, 24.291900000000002], [92.62176000000001, 24.292640000000002], [92.62087000000001, 24.29351], [92.61998000000001, 24.292640000000002]], [[92.62646000000001, 24.27868], [92.62722000000001, 24.279420000000002], [92.62633000000001, 24.28029], [92.62549000000001, 24.27974], [92.62607000000001, 24.2787], [92.62646000000001, 24.27868]], [[92.68664000000001, 24.258300000000002], [92.68260000000001, 24.258740000000003], [92.67096000000001, 24.249640000000003], [92.66549, 24.242050000000003], [92.66430000000001, 24.22775], [92.66311, 24.22211], [92.66335000000001, 24.21496], [92.66478000000001, 24.20932], [92.66668000000001, 24.205420000000004], [92.67119000000001, 24.200000000000003], [92.67595000000001, 24.19675], [92.68736000000001, 24.192850000000004], [92.69163, 24.1935], [92.69781, 24.19697], [92.69282000000001, 24.224500000000003], [92.69377, 24.23035], [92.69663000000001, 24.234250000000003], [92.7009, 24.2375], [92.7009, 24.24292], [92.69449, 24.25505], [92.69092, 24.25982], [92.68664000000001, 24.258300000000002]], [[92.73794000000001, 24.24705], [92.73869, 24.247790000000002], [92.73780000000001, 24.24866], [92.73696000000001, 24.24811], [92.73754000000001, 24.24707], [92.73794000000001, 24.24705]], [[92.55223000000001, 24.163330000000002], [92.55595000000001, 24.166040000000002], [92.56352000000001, 24.17471], [92.56605, 24.176340000000003], [92.56694, 24.178510000000003], [92.56605, 24.187990000000003], [92.55833000000001, 24.198290000000004], [92.55402000000001, 24.200460000000003], [92.55045000000001, 24.204800000000002], [92.54198000000001, 24.19423], [92.53738000000001, 24.18569], [92.53946, 24.17837], [92.54169, 24.1655], [92.54362, 24.160480000000003], [92.54377000000001, 24.15371], [92.54525000000001, 24.15276], [92.54689, 24.15398], [92.55223000000001, 24.163330000000002]], [[92.59913, 24.197630000000004], [92.59989, 24.19837], [92.599, 24.199240000000003], [92.59815, 24.198690000000003], [92.59874, 24.197650000000003], [92.59913, 24.197630000000004]], [[92.62917, 24.189400000000003], [92.62984, 24.190130000000003], [92.62899, 24.191000000000003], [92.62805, 24.19021], [92.62873, 24.189410000000002], [92.62917, 24.189400000000003]], [[92.55777, 24.148190000000003], [92.55853, 24.148930000000004], [92.55764, 24.149800000000003], [92.55680000000001, 24.149250000000002], [92.55738000000001, 24.148210000000002], [92.55777, 24.148190000000003]]]}}]}