{"type": "FeatureCollection", "metadata": {"source": "Survey of India (per src_agency attribute in the source data)", "hosted_via": "National Water Data Portal (NWDP), NWIC, Ministry of Jal Shakti -- https://nwdp.nwic.gov.in/", "access": "public, no login required", "crs_original": "EPSG:7755 (WGS 84 / India NSF LCC)", "fetch_date": "2026-08-02", "quality": "verified-official -- Survey of India source", "state": "Mizoram", "district": "Saiha", "processing": "reprojected to EPSG:4326, topology-preserving simplify (shared-arc, tolerance 0.0005 deg) so adjacent polygons never overlap/gap at shared borders, coords rounded 5dp, 0 feature(s) needed the per-feature fallback", "feature_count": 64}, "features": [{"id": "0", "type": "Feature", "properties": {"village_name": "Isa", "vil_lgd": 271810, "district_name": "Saiha", "dist_lgd": 267, "subdistrict_name": "Tuipang", "sdcode": 1920, "block_name": "Tuipang", "block_lgd": 28.0, "gp_name": "", "state_name": "MIZORAM", "state_lgd": 15, "population": 0, "households": 0}, "geometry": {"type": "Polygon", "coordinates": [[[92.84316000000001, 22.215380000000003], [92.84258000000001, 22.216430000000003], [92.84343000000001, 22.216990000000003], [92.84432000000001, 22.21611], [92.84356000000001, 22.21536], [92.84316000000001, 22.215380000000003]]]}}, {"id": "1", "type": "Feature", "properties": {"village_name": "Data Partially Available", "vil_lgd": 999999, "district_name": "Saiha", "dist_lgd": 267, "subdistrict_name": "Saiha", "sdcode": 1921, "block_name": "", "block_lgd": null, "gp_name": "", "state_name": "MIZORAM", "state_lgd": 15, "population": 0, "households": 0}, "geometry": {"type": "Polygon", "coordinates": [[[93.10413000000001, 22.326590000000003], [93.09479, 22.327740000000002], [93.09048000000001, 22.329400000000003], [93.08653000000001, 22.331560000000003], [93.08181, 22.337860000000003], [93.07577, 22.37769], [93.07254, 22.37537], [93.06841000000001, 22.37404], [93.05907, 22.373880000000003], [93.04780000000001, 22.37722], [93.04780000000001, 22.3808], [93.04617, 22.38493], [93.04402, 22.386090000000003], [93.04079, 22.38625], [93.03487000000001, 22.38277], [93.02913000000001, 22.381110000000003], [93.018, 22.38293], [93.00688000000001, 22.38128], [92.96165, 22.38586], [92.96508000000001, 22.3914], [92.96503000000001, 22.394470000000002], [92.96303, 22.397730000000003], [92.95388000000001, 22.39993], [92.95014, 22.403550000000003], [92.9431, 22.42086], [92.94220000000001, 22.429060000000003], [92.93725, 22.44105], [92.93757000000001, 22.445400000000003], [92.93473, 22.458650000000002], [92.93568, 22.46007], [92.93793000000001, 22.46123], [92.94329, 22.46264], [92.94429000000001, 22.46628], [92.93911000000001, 22.47566], [92.93719, 22.477580000000003], [92.93520000000001, 22.47747], [92.93265000000001, 22.478720000000003], [92.93089, 22.48253], [92.9308, 22.48588], [92.93271000000001, 22.49301], [92.93444000000001, 22.507790000000004], [92.93624000000001, 22.51219], [92.93423000000001, 22.520470000000003], [92.93530000000001, 22.52383], [92.93782, 22.52776], [92.93777000000001, 22.53252], [92.93885, 22.536060000000003], [92.93501, 22.54427], [92.9312, 22.548560000000002], [92.93105000000001, 22.555560000000003], [92.93226000000001, 22.559980000000003], [92.9389, 22.564030000000002], [92.94047, 22.56584], [92.94218000000001, 22.570760000000003], [92.94500000000001, 22.574930000000002], [92.94467, 22.58106], [92.94723, 22.58526], [92.94793000000001, 22.588030000000003], [92.94615, 22.59062], [92.94603000000001, 22.592070000000003], [92.94734000000001, 22.59569], [92.95009, 22.59924], [92.95094, 22.602290000000004], [92.94913000000001, 22.60763], [92.94894000000001, 22.616670000000003], [92.94965, 22.619510000000002], [92.94945000000001, 22.623810000000002], [92.9513, 22.628890000000002], [92.95492, 22.62655], [92.95840000000001, 22.626880000000003], [92.96192, 22.630930000000003], [92.96222, 22.633560000000003], [92.96826, 22.633260000000003], [92.97248, 22.630670000000002], [92.97578000000001, 22.629700000000003], [92.97739000000001, 22.63134], [92.98123000000001, 22.630950000000002], [92.98736000000001, 22.634410000000003], [92.98863, 22.63416], [92.98921000000001, 22.631680000000003], [92.98758000000001, 22.62751], [92.98422000000001, 22.625000000000004], [92.97940000000001, 22.617140000000003], [92.98031, 22.614960000000004], [92.97908000000001, 22.61298], [92.97991, 22.610010000000003], [92.97927000000001, 22.608320000000003], [92.98132000000001, 22.604730000000004], [92.99053, 22.60225], [92.99584, 22.59833], [92.99577000000001, 22.596480000000003], [92.9928, 22.593940000000003], [92.99031000000001, 22.590120000000002], [92.99116000000001, 22.587020000000003], [92.99390000000001, 22.586090000000002], [92.99520000000001, 22.584000000000003], [92.99301000000001, 22.573790000000002], [93.00831000000001, 22.565050000000003], [93.01831000000001, 22.562050000000003], [93.02145, 22.56227], [93.02421000000001, 22.55797], [93.0276, 22.554730000000003], [93.02668000000001, 22.548920000000003], [93.02158000000001, 22.539800000000003], [93.02272, 22.53573], [93.02152000000001, 22.534000000000002], [93.02424, 22.52323], [93.02088, 22.516080000000002], [93.02779000000001, 22.51659], [93.03504000000001, 22.519520000000004], [93.04873, 22.519930000000002], [93.05173, 22.51855], [93.06158, 22.51734], [93.07013, 22.514860000000002], [93.07299, 22.51537], [93.07368000000001, 22.516540000000003], [93.0724, 22.51855], [93.07235000000001, 22.523280000000003], [93.07488000000001, 22.5255], [93.07543000000001, 22.53246], [93.07688, 22.53546], [93.07667000000001, 22.53669], [93.0741, 22.53629], [93.07381000000001, 22.538500000000003], [93.07477, 22.54035], [93.07752, 22.542650000000002], [93.07725, 22.544860000000003], [93.07924000000001, 22.54766], [93.08018000000001, 22.55339], [93.08108000000001, 22.554280000000002], [93.0891, 22.546400000000002], [93.09653, 22.544800000000002], [93.09937000000001, 22.54212], [93.10065, 22.541710000000002], [93.10162000000001, 22.542460000000002], [93.10602, 22.539420000000003], [93.10947, 22.54081], [93.10924000000001, 22.536640000000002], [93.11185, 22.53518], [93.11250000000001, 22.532750000000004], [93.10668000000001, 22.52785], [93.10679, 22.526410000000002], [93.10853, 22.524820000000002], [93.11500000000001, 22.525760000000002], [93.12509000000001, 22.52549], [93.12821000000001, 22.523650000000004], [93.12798000000001, 22.52006], [93.12650000000001, 22.51527], [93.12373000000001, 22.510360000000002], [93.12378000000001, 22.508380000000002], [93.12572, 22.501710000000003], [93.13402, 22.493160000000003], [93.13456000000001, 22.491750000000003], [93.13477, 22.49041], [93.13282000000001, 22.48789], [93.1341, 22.48328], [93.13181, 22.47772], [93.13247000000001, 22.473660000000002], [93.13091000000001, 22.4691], [93.13118, 22.466510000000003], [93.13631000000001, 22.46159], [93.13811000000001, 22.455440000000003], [93.13927000000001, 22.454030000000003], [93.14409, 22.45369], [93.15090000000001, 22.45455], [93.15462000000001, 22.45332], [93.15870000000001, 22.453390000000002], [93.16347, 22.451300000000003], [93.16657000000001, 22.447180000000003], [93.16832000000001, 22.443270000000002], [93.17266000000001, 22.441200000000002], [93.17694, 22.4403], [93.17859000000001, 22.437220000000003], [93.17764000000001, 22.43465], [93.17811, 22.4328], [93.18114000000001, 22.430930000000004], [93.18232, 22.429270000000002], [93.18422000000001, 22.429170000000003], [93.18529000000001, 22.428150000000002], [93.18573, 22.424010000000003], [93.18275000000001, 22.42255], [93.18154000000001, 22.418870000000002], [93.18301000000001, 22.410410000000002], [93.18636000000001, 22.407110000000003], [93.18746, 22.403380000000002], [93.18692, 22.40247], [93.18433, 22.401940000000003], [93.1834, 22.398120000000002], [93.18162000000001, 22.395310000000002], [93.18445000000001, 22.39189], [93.18506000000001, 22.38717], [93.18900000000001, 22.38444], [93.18977000000001, 22.38269], [93.18607, 22.381040000000002], [93.18354000000001, 22.374360000000003], [93.18361, 22.371010000000002], [93.18703000000001, 22.367710000000002], [93.18801, 22.36549], [93.18668000000001, 22.35988], [93.18730000000001, 22.356610000000003], [93.18691000000001, 22.350830000000002], [93.18813, 22.345110000000002], [93.18608, 22.341990000000003], [93.18583000000001, 22.339940000000002], [93.18761, 22.33782], [93.19434000000001, 22.3338], [93.19668, 22.328760000000003], [93.19635000000001, 22.327330000000003], [93.18974000000001, 22.324140000000003], [93.18903, 22.322200000000002], [93.10413000000001, 22.326590000000003]], [[92.96752000000001, 22.61279], [92.96828000000001, 22.61354], [92.96739000000001, 22.614420000000003], [92.96654000000001, 22.613870000000002], [92.96712000000001, 22.612820000000003], [92.96752000000001, 22.61279]], [[92.96381000000001, 22.589170000000003], [92.96341000000001, 22.590290000000003], [92.96217000000001, 22.589810000000003], [92.96289, 22.58874], [92.96381000000001, 22.589170000000003]], [[92.98832, 22.572570000000002], [92.98908, 22.573320000000002], [92.98819, 22.5742], [92.98734, 22.57364], [92.98792, 22.57259], [92.98832, 22.572570000000002]], [[92.97739000000001, 22.57147], [92.97814000000001, 22.57222], [92.97725000000001, 22.5731], [92.97641, 22.572540000000004], [92.97699, 22.57149], [92.97739000000001, 22.57147]], [[92.99373000000001, 22.564880000000002], [92.99333000000001, 22.566000000000003], [92.99209, 22.565520000000003], [92.99281, 22.56445], [92.99373000000001, 22.564880000000002]], [[92.95357000000001, 22.554570000000002], [92.95316000000001, 22.555680000000002], [92.95193, 22.555200000000003], [92.95264, 22.55413], [92.95357000000001, 22.554570000000002]], [[92.94470000000001, 22.53405], [92.94546000000001, 22.53479], [92.94457000000001, 22.535680000000003], [92.94373, 22.535120000000003], [92.94431, 22.534070000000003], [92.94470000000001, 22.53405]], [[92.96766000000001, 22.50908], [92.96136000000001, 22.508110000000002], [92.95936, 22.506850000000004], [92.95778000000001, 22.504230000000003], [92.95789, 22.50083], [92.95915000000001, 22.496270000000003], [92.96640000000001, 22.487820000000003], [92.96882000000001, 22.48607], [92.96924000000001, 22.48394], [92.96735000000001, 22.482090000000003], [92.96934, 22.47782], [92.97554000000001, 22.470250000000004], [92.97796000000001, 22.468890000000002], [92.98342000000001, 22.467920000000003], [92.98615000000001, 22.468210000000003], [93.01032000000001, 22.479180000000003], [93.01358, 22.48151], [93.01694, 22.488210000000002], [93.01589000000001, 22.49792], [93.01326, 22.50112], [93.01074000000001, 22.50277], [93.00791000000001, 22.507620000000003], [93.0057, 22.5086], [92.99193000000001, 22.509760000000004], [92.98069000000001, 22.51141], [92.97743000000001, 22.50918], [92.97523000000001, 22.50879], [92.96766000000001, 22.50908]], [[93.07166000000001, 22.480140000000002], [93.07126000000001, 22.481260000000002], [93.07002000000001, 22.480780000000003], [93.07074, 22.47971], [93.07166000000001, 22.480140000000002]], [[93.08357000000001, 22.475440000000003], [93.08424000000001, 22.47625], [93.08330000000001, 22.47706], [93.08246000000001, 22.476170000000003], [93.08313000000001, 22.475440000000003], [93.08357000000001, 22.475440000000003]], [[92.96097, 22.47249], [92.96173, 22.47174], [92.96275000000001, 22.47249], [92.96186, 22.473370000000003], [92.96097, 22.47249]], [[93.11153, 22.45466], [93.11240000000001, 22.455520000000003], [93.11163, 22.456290000000003], [93.11071000000001, 22.455830000000002], [93.11115000000001, 22.45473], [93.11153, 22.45466]], [[93.10282000000001, 22.42996], [93.10375, 22.430390000000003], [93.10363000000001, 22.431310000000003], [93.10257000000001, 22.431510000000003], [93.10207000000001, 22.4307], [93.10282000000001, 22.42996]], [[92.9681, 22.441190000000002], [92.96913, 22.440440000000002], [92.96988, 22.441190000000002], [92.96899, 22.44207], [92.9681, 22.441190000000002]], [[93.09667, 22.425340000000002], [93.09743, 22.426090000000002], [93.09654, 22.42697], [93.09569, 22.42641], [93.09628000000001, 22.42536], [93.09667, 22.425340000000002]], [[92.97233000000001, 22.42924], [92.97309000000001, 22.42998], [92.9722, 22.430870000000002], [92.97136, 22.430310000000002], [92.97194, 22.429260000000003], [92.97233000000001, 22.42924]], [[93.01236, 22.401960000000003], [93.01196, 22.403080000000003], [93.01072, 22.402600000000003], [93.01144000000001, 22.40152], [93.01236, 22.401960000000003]], [[93.1372, 22.38776], [93.13807000000001, 22.388620000000003], [93.13745, 22.389360000000003], [93.13638, 22.388930000000002], [93.13682000000001, 22.38783], [93.1372, 22.38776]], [[92.96963000000001, 22.396710000000002], [92.97055, 22.39628], [92.97127, 22.397350000000003], [92.97003000000001, 22.397830000000003], [92.96963000000001, 22.396710000000002]], [[93.16572000000001, 22.346880000000002], [93.16659000000001, 22.347730000000002], [93.16582000000001, 22.34851], [93.16491, 22.34805], [93.16534000000001, 22.346950000000003], [93.16572000000001, 22.346880000000002]], [[93.13577000000001, 22.34325], [93.13664000000001, 22.34411], [93.13587000000001, 22.344880000000003], [93.13496, 22.344420000000003], [93.13539, 22.343320000000002], [93.13577000000001, 22.34325]]]}}, {"id": "2", "type": "Feature", "properties": {"village_name": "Chapi I", "vil_lgd": 271800, "district_name": "Saiha", "dist_lgd": 267, "subdistrict_name": "Tuipang", "sdcode": 1920, "block_name": "Tuipang", "block_lgd": 28.0, "gp_name": "", "state_name": "MIZORAM", "state_lgd": 15, "population": 1045, "households": 205}, "geometry": {"type": "Polygon", "coordinates": [[[93.13612, 22.213440000000002], [93.13569000000001, 22.214540000000003], [93.1366, 22.215000000000003], [93.13737, 22.21423], [93.13650000000001, 22.21337], [93.13612, 22.213440000000002]]]}}, {"id": "3", "type": "Feature", "properties": {"village_name": "Khopai", "vil_lgd": 271801, "district_name": "Saiha", "dist_lgd": 267, "subdistrict_name": "Tuipang", "sdcode": 1920, "block_name": "Tuipang", "block_lgd": 28.0, "gp_name": "", "state_name": "MIZORAM", "state_lgd": 15, "population": 631, "households": 137}, "geometry": {"type": "Polygon", "coordinates": [[[93.03604000000001, 22.204810000000002], [93.03546000000001, 22.20587], [93.03630000000001, 22.20643], [93.03719000000001, 22.205540000000003], [93.03644000000001, 22.204790000000003], [93.03604000000001, 22.204810000000002]]]}}, {"id": "4", "type": "Feature", "properties": {"village_name": "Laki I", "vil_lgd": 271815, "district_name": "Saiha", "dist_lgd": 267, "subdistrict_name": "Tuipang", "sdcode": 1920, "block_name": "Tuipang", "block_lgd": 28.0, "gp_name": "", "state_name": "MIZORAM", "state_lgd": 15, "population": 1012, "households": 182}, "geometry": {"type": "Polygon", "coordinates": [[[92.99468, 22.161900000000003], [92.9941, 22.162950000000002], [92.99495, 22.163510000000002], [92.99584, 22.16263], [92.99508, 22.161880000000004], [92.99468, 22.161900000000003]]]}}, {"id": "5", "type": "Feature", "properties": {"village_name": "Tokalo", "vil_lgd": 271813, "district_name": "Saiha", "dist_lgd": 267, "subdistrict_name": "Tuipang", "sdcode": 1920, "block_name": "Tuipang", "block_lgd": 28.0, "gp_name": "", "state_name": "MIZORAM", "state_lgd": 15, "population": 478, "households": 107}, "geometry": {"type": "Polygon", "coordinates": [[[92.88251000000001, 22.17583], [92.88374, 22.17631], [92.88415, 22.17519], [92.88322000000001, 22.174750000000003], [92.88251000000001, 22.17583]]]}}, {"id": "6", "type": "Feature", "properties": {"village_name": "Miepu I", "vil_lgd": 271814, "district_name": "Saiha", "dist_lgd": 267, "subdistrict_name": "Tuipang", "sdcode": 1920, "block_name": "Tuipang", "block_lgd": 28.0, "gp_name": "", "state_name": "MIZORAM", "state_lgd": 15, "population": 423, "households": 95}, "geometry": {"type": "Polygon", "coordinates": [[[92.93336000000001, 22.15893], [92.93278000000001, 22.15998], [92.93363000000001, 22.16054], [92.93452, 22.159650000000003], [92.93376, 22.158910000000002], [92.93336000000001, 22.15893]]]}}, {"id": "7", "type": "Feature", "properties": {"village_name": "Supha", "vil_lgd": 271816, "district_name": "Saiha", "dist_lgd": 267, "subdistrict_name": "Tuipang", "sdcode": 1920, "block_name": "Tuipang", "block_lgd": 28.0, "gp_name": "", "state_name": "MIZORAM", "state_lgd": 15, "population": 58, "households": 15}, "geometry": {"type": "Polygon", "coordinates": [[[92.91661, 22.130860000000002], [92.91602, 22.13191], [92.91687, 22.13247], [92.91776, 22.131590000000003], [92.917, 22.130840000000003], [92.91661, 22.130860000000002]]]}}, {"id": "8", "type": "Feature", "properties": {"village_name": "Longmasu", "vil_lgd": 271817, "district_name": "Saiha", "dist_lgd": 267, "subdistrict_name": "Tuipang", "sdcode": 1920, "block_name": "Tuipang", "block_lgd": 28.0, "gp_name": "", "state_name": "MIZORAM", "state_lgd": 15, "population": 329, "households": 82}, "geometry": {"type": "Polygon", "coordinates": [[[92.85256000000001, 22.09558], [92.8538, 22.09606], [92.8542, 22.09494], [92.85328000000001, 22.094500000000004], [92.85256000000001, 22.09558]]]}}, {"id": "9", "type": "Feature", "properties": {"village_name": "Bymari", "vil_lgd": 271818, "district_name": "Saiha", "dist_lgd": 267, "subdistrict_name": "Tuipang", "sdcode": 1920, "block_name": "Tuipang", "block_lgd": 28.0, "gp_name": "", "state_name": "MIZORAM", "state_lgd": 15, "population": 455, "households": 113}, "geometry": {"type": "Polygon", "coordinates": [[[92.88501000000001, 22.073110000000003], [92.88624, 22.073600000000003], [92.88665, 22.072470000000003], [92.88572, 22.07204], [92.88501000000001, 22.073110000000003]]]}}, {"id": "10", "type": "Feature", "properties": {"village_name": "Lope Zyhne", "vil_lgd": 271819, "district_name": "Saiha", "dist_lgd": 267, "subdistrict_name": "Tuipang", "sdcode": 1920, "block_name": "Tuipang", "block_lgd": 28.0, "gp_name": "", "state_name": "MIZORAM", "state_lgd": 15, "population": 58, "households": 15}, "geometry": {"type": "Polygon", "coordinates": [[[92.97984000000001, 22.045360000000002], [92.98107, 22.045840000000002], [92.98148, 22.04472], [92.98055000000001, 22.04428], [92.97984000000001, 22.045360000000002]]]}}, {"id": "11", "type": "Feature", "properties": {"village_name": "Lopu I", "vil_lgd": 271820, "district_name": "Saiha", "dist_lgd": 267, "subdistrict_name": "Tuipang", "sdcode": 1920, "block_name": "Tuipang", "block_lgd": 28.0, "gp_name": "", "state_name": "MIZORAM", "state_lgd": 15, "population": 1074, "households": 223}, "geometry": {"type": "Polygon", "coordinates": [[[92.98403, 22.017860000000002], [92.98336, 22.018590000000003], [92.98421, 22.01948], [92.98514, 22.018680000000003], [92.98447, 22.017860000000002], [92.98403, 22.017860000000002]]]}}, {"id": "12", "type": "Feature", "properties": {"village_name": "Khaikhy", "vil_lgd": 271821, "district_name": "Saiha", "dist_lgd": 267, "subdistrict_name": "Tuipang", "sdcode": 1920, "block_name": "Tuipang", "block_lgd": 28.0, "gp_name": "", "state_name": "MIZORAM", "state_lgd": 15, "population": 151, "households": 36}, "geometry": {"type": "Polygon", "coordinates": [[[92.98684, 22.00167], [92.98626, 22.00272], [92.98710000000001, 22.00328], [92.98799000000001, 22.0024], [92.98724000000001, 22.00165], [92.98684, 22.00167]]]}}, {"id": "13", "type": "Feature", "properties": {"village_name": "Leisai", "vil_lgd": 271822, "district_name": "Saiha", "dist_lgd": 267, "subdistrict_name": "Tuipang", "sdcode": 1920, "block_name": "Tuipang", "block_lgd": 28.0, "gp_name": "", "state_name": "MIZORAM", "state_lgd": 15, "population": 0, "households": 0}, "geometry": {"type": "Polygon", "coordinates": [[[92.98475, 21.988110000000002], [92.98407, 21.988850000000003], [92.98492, 21.98973], [92.98586, 21.988930000000003], [92.98518000000001, 21.988110000000002], [92.98475, 21.988110000000002]]]}}, {"id": "14", "type": "Feature", "properties": {"village_name": "Kaisie", "vil_lgd": 271803, "district_name": "Saiha", "dist_lgd": 267, "subdistrict_name": "Tuipang", "sdcode": 1920, "block_name": "Tuipang", "block_lgd": 28.0, "gp_name": "", "state_name": "MIZORAM", "state_lgd": 15, "population": 442, "households": 96}, "geometry": {"type": "Polygon", "coordinates": [[[92.96367000000001, 22.24376], [92.96308, 22.24481], [92.96393, 22.24537], [92.96482, 22.244490000000003], [92.96406, 22.243740000000003], [92.96367000000001, 22.24376]]]}}, {"id": "15", "type": "Feature", "properties": {"village_name": "Maila", "vil_lgd": 271805, "district_name": "Saiha", "dist_lgd": 267, "subdistrict_name": "Tuipang", "sdcode": 1920, "block_name": "Tuipang", "block_lgd": 28.0, "gp_name": "", "state_name": "MIZORAM", "state_lgd": 15, "population": 244, "households": 52}, "geometry": {"type": "Polygon", "coordinates": [[[92.90983000000001, 22.252670000000002], [92.90925000000001, 22.25372], [92.91010000000001, 22.25428], [92.91099000000001, 22.253400000000003], [92.91023000000001, 22.252650000000003], [92.90983000000001, 22.252670000000002]]]}}, {"id": "16", "type": "Feature", "properties": {"village_name": "Lehri New Latawh", "vil_lgd": 271806, "district_name": "Saiha", "dist_lgd": 267, "subdistrict_name": "Tuipang", "sdcode": 1920, "block_name": "Tuipang", "block_lgd": 28.0, "gp_name": "", "state_name": "MIZORAM", "state_lgd": 15, "population": 269, "households": 55}, "geometry": {"type": "Polygon", "coordinates": [[[92.92195000000001, 22.284670000000002], [92.92137000000001, 22.28572], [92.92222000000001, 22.28628], [92.92311000000001, 22.285400000000003], [92.92235000000001, 22.284650000000003], [92.92195000000001, 22.284670000000002]]]}}, {"id": "17", "type": "Feature", "properties": {"village_name": "Pala", "vil_lgd": 271807, "district_name": "Saiha", "dist_lgd": 267, "subdistrict_name": "Tuipang", "sdcode": 1920, "block_name": "Tuipang", "block_lgd": 28.0, "gp_name": "", "state_name": "MIZORAM", "state_lgd": 15, "population": 607, "households": 119}, "geometry": {"type": "Polygon", "coordinates": [[[92.87351000000001, 22.282020000000003], [92.87284000000001, 22.282760000000003], [92.87369000000001, 22.28365], [92.87462000000001, 22.28284], [92.87395000000001, 22.282030000000002], [92.87351000000001, 22.282020000000003]]]}}, {"id": "18", "type": "Feature", "properties": {"village_name": "Data Partially Available", "vil_lgd": 999999, "district_name": "Saiha", "dist_lgd": 267, "subdistrict_name": "Tuipang", "sdcode": 1920, "block_name": "", "block_lgd": null, "gp_name": "", "state_name": "MIZORAM", "state_lgd": 15, "population": 0, "households": 0}, "geometry": {"type": "Polygon", "coordinates": [[[93.00688000000001, 22.38128], [93.018, 22.38293], [93.02913000000001, 22.381110000000003], [93.03487000000001, 22.38277], [93.04079, 22.38625], [93.04402, 22.386090000000003], [93.04617, 22.38493], [93.04780000000001, 22.3808], [93.04780000000001, 22.37722], [93.05907, 22.373880000000003], [93.06841000000001, 22.37404], [93.07254, 22.37537], [93.07577, 22.37769], [93.08181, 22.337860000000003], [93.08653000000001, 22.331560000000003], [93.09048000000001, 22.329400000000003], [93.09479, 22.327740000000002], [93.10413000000001, 22.326590000000003], [93.18903, 22.322200000000002], [93.18957, 22.32044], [93.19433000000001, 22.317100000000003], [93.19575, 22.314320000000002], [93.19499, 22.312730000000002], [93.19123, 22.310910000000003], [93.19053000000001, 22.309530000000002], [93.19518000000001, 22.30374], [93.1954, 22.3017], [93.19413, 22.3012], [93.19121000000001, 22.302670000000003], [93.19006, 22.302500000000002], [93.18957, 22.300800000000002], [93.19241000000001, 22.297420000000002], [93.19725000000001, 22.296360000000004], [93.19918000000001, 22.294240000000002], [93.19814000000001, 22.291210000000003], [93.19437, 22.29119], [93.19351, 22.289150000000003], [93.19406000000001, 22.286170000000002], [93.19738000000001, 22.27877], [93.19729000000001, 22.272710000000004], [93.19805000000001, 22.26969], [93.20204000000001, 22.26397], [93.20179, 22.26257], [93.19806000000001, 22.26021], [93.19904000000001, 22.25569], [93.19276, 22.254600000000003], [93.18627000000001, 22.250480000000003], [93.18130000000001, 22.24887], [93.17762, 22.245720000000002], [93.17107000000001, 22.2465], [93.16756000000001, 22.246080000000003], [93.16395000000001, 22.24998], [93.15452, 22.24724], [93.15182, 22.247480000000003], [93.14958000000001, 22.249530000000004], [93.14833, 22.249530000000004], [93.14549000000001, 22.248600000000003], [93.14210000000001, 22.24546], [93.14183000000001, 22.24311], [93.14355, 22.23795], [93.14221, 22.236240000000002], [93.14009, 22.23619], [93.13994000000001, 22.234710000000003], [93.14170000000001, 22.2326], [93.1474, 22.22934], [93.15234000000001, 22.21664], [93.14885000000001, 22.213260000000002], [93.14864000000001, 22.21171], [93.15344, 22.209000000000003], [93.15709000000001, 22.20135], [93.16061, 22.19882], [93.16146, 22.197100000000002], [93.16040000000001, 22.19209], [93.15728000000001, 22.188370000000003], [93.15752, 22.185930000000003], [93.15564, 22.184710000000003], [93.15587000000001, 22.181530000000002], [93.15337000000001, 22.178], [93.15083000000001, 22.176260000000003], [93.14769000000001, 22.176370000000002], [93.14654, 22.175040000000003], [93.13949000000001, 22.175910000000002], [93.12943000000001, 22.173250000000003], [93.12356000000001, 22.173550000000002], [93.12251, 22.175250000000002], [93.12324000000001, 22.179930000000002], [93.12049, 22.182350000000003], [93.11958000000001, 22.185270000000003], [93.11689000000001, 22.18934], [93.11446000000001, 22.19068], [93.11446000000001, 22.194580000000002], [93.11093000000001, 22.204030000000003], [93.1042, 22.2011], [93.10274000000001, 22.19948], [93.08872000000001, 22.196540000000002], [93.08300000000001, 22.19986], [93.08031000000001, 22.20005], [93.07077000000001, 22.20416], [93.06486000000001, 22.205820000000003], [93.06343000000001, 22.207320000000003], [93.06155000000001, 22.204400000000003], [93.05682, 22.20081], [93.05567, 22.200840000000003], [93.05367000000001, 22.202460000000002], [93.05052, 22.20041], [93.04642000000001, 22.202440000000003], [93.04298000000001, 22.199180000000002], [93.04354000000001, 22.197300000000002], [93.04301000000001, 22.195580000000003], [93.03822000000001, 22.195030000000003], [93.03815, 22.19359], [93.04212000000001, 22.19], [93.04014000000001, 22.186880000000002], [93.04215, 22.185260000000003], [93.04811000000001, 22.175150000000002], [93.04879000000001, 22.17311], [93.04823, 22.170560000000002], [93.04910000000001, 22.1689], [93.04757000000001, 22.162260000000003], [93.04488, 22.16159], [93.04213000000001, 22.1594], [93.04224, 22.1584], [93.04381000000001, 22.15818], [93.04455, 22.15725], [93.04122000000001, 22.15069], [93.03691, 22.148870000000002], [93.03720000000001, 22.14438], [93.03851, 22.14392], [93.03981, 22.14526], [93.04061, 22.1427], [93.04409000000001, 22.14318], [93.04423000000001, 22.142550000000004], [93.04190000000001, 22.14149], [93.03949, 22.13866], [93.04221000000001, 22.136480000000002], [93.04386000000001, 22.137600000000003], [93.04496, 22.137310000000003], [93.04508000000001, 22.13359], [93.04941000000001, 22.129550000000002], [93.05079, 22.127100000000002], [93.05391, 22.125310000000002], [93.05441, 22.121090000000002], [93.05705, 22.121370000000002], [93.05679, 22.11559], [93.05835, 22.1137], [93.05776, 22.110080000000004], [93.05886000000001, 22.107170000000004], [93.05779000000001, 22.103040000000004], [93.05958000000001, 22.10125], [93.05906, 22.100340000000003], [93.05762000000001, 22.100820000000002], [93.05607, 22.099980000000002], [93.05505000000001, 22.100710000000003], [93.05301000000001, 22.099410000000002], [93.04735000000001, 22.09814], [93.03851, 22.100320000000004], [93.03522000000001, 22.099960000000003], [93.02533000000001, 22.101820000000004], [93.02347, 22.100920000000002], [93.0194, 22.10114], [93.00772, 22.104640000000003], [93.00542, 22.104560000000003], [93.00453, 22.10359], [93.00427, 22.099970000000003], [93.00624, 22.097720000000002], [93.00661000000001, 22.09467], [93.01058, 22.09234], [93.01163000000001, 22.0884], [93.00872000000001, 22.084760000000003], [93.00845000000001, 22.08079], [93.00518000000001, 22.08003], [93.00508, 22.07625], [93.00368, 22.07449], [93.00576000000001, 22.073510000000002], [93.0066, 22.070960000000003], [93.0014, 22.06681], [93.00145, 22.065240000000003], [93.00288, 22.062800000000003], [93.00127, 22.060930000000003], [93.00187000000001, 22.057910000000003], [92.9975, 22.054350000000003], [92.99808, 22.05196], [92.99581, 22.048070000000003], [92.99632000000001, 22.04513], [92.99469, 22.0422], [92.99501000000001, 22.039170000000002], [92.99714, 22.03771], [92.99737, 22.035610000000002], [92.99481, 22.032190000000003], [92.99561000000001, 22.02991], [92.99908, 22.02524], [92.99936000000001, 22.02334], [93.00427, 22.01705], [93.00445, 22.01349], [93.00181, 22.006790000000002], [93.0027, 22.005550000000003], [93.00276000000001, 21.996920000000003], [93.00449, 21.9936], [93.00512, 21.986810000000002], [93.00744, 21.982400000000002], [93.00325000000001, 21.981890000000003], [92.99382000000001, 21.977800000000002], [92.98591, 21.9801], [92.98292000000001, 21.97905], [92.98056000000001, 21.98006], [92.97814000000001, 21.986870000000003], [92.97893, 21.991780000000002], [92.97792000000001, 21.997470000000003], [92.97354000000001, 22.00044], [92.97385000000001, 22.00128], [92.97213, 22.00381], [92.97237000000001, 22.00608], [92.96959000000001, 22.007250000000003], [92.96819, 22.00671], [92.96724, 22.009670000000003], [92.96499000000001, 22.01079], [92.96467000000001, 22.014950000000002], [92.96325, 22.01573], [92.96498000000001, 22.01745], [92.96372000000001, 22.01791], [92.96075, 22.021710000000002], [92.96179000000001, 22.02354], [92.96098, 22.025660000000002], [92.95703, 22.02944], [92.95225, 22.02971], [92.95038000000001, 22.026950000000003], [92.94729000000001, 22.024910000000002], [92.94648000000001, 22.022090000000002], [92.94214000000001, 22.02006], [92.94239, 22.01668], [92.94071000000001, 22.016820000000003], [92.94113, 22.01442], [92.93997, 22.013560000000002], [92.93076, 22.017570000000003], [92.92725, 22.01564], [92.92895000000001, 22.00853], [92.93245, 22.010650000000002], [92.93462000000001, 22.01069], [92.93576, 22.01001], [92.93505, 22.00832], [92.93578000000001, 22.0057], [92.93334, 22.001260000000002], [92.93101, 21.99883], [92.93099000000001, 21.99764], [92.92995, 21.997390000000003], [92.92997000000001, 21.99592], [92.92235000000001, 21.993620000000004], [92.92075000000001, 21.99183], [92.92174000000001, 21.990730000000003], [92.92013000000001, 21.989970000000003], [92.92035000000001, 21.98872], [92.91952, 21.987940000000002], [92.92033, 21.9861], [92.91881000000001, 21.981240000000003], [92.91711000000001, 21.9814], [92.91534000000001, 21.97896], [92.91293, 21.970280000000002], [92.91343, 21.967360000000003], [92.91156000000001, 21.965950000000003], [92.91158, 21.964340000000004], [92.91293, 21.96552], [92.91357, 21.96514], [92.91136, 21.96096], [92.91146, 21.95079], [92.90950000000001, 21.94694], [92.90594, 21.943610000000003], [92.90746000000001, 21.94282], [92.90614000000001, 21.94058], [92.90354, 21.940080000000002], [92.90116, 21.94694], [92.90153000000001, 21.951890000000002], [92.89881000000001, 21.95595], [92.90052000000001, 21.957620000000002], [92.8999, 21.9585], [92.90038000000001, 21.96009], [92.89894000000001, 21.963320000000003], [92.90048, 21.964370000000002], [92.89927, 21.96534], [92.89863000000001, 21.971500000000002], [92.89701000000001, 21.972990000000003], [92.89795000000001, 21.97379], [92.89776, 21.979770000000002], [92.89665000000001, 21.98168], [92.89675000000001, 21.98413], [92.89525, 21.98939], [92.89507, 21.99537], [92.89414000000001, 21.9982], [92.89451000000001, 22.00335], [92.89388000000001, 22.005070000000003], [92.89204000000001, 22.006310000000003], [92.89133000000001, 22.01125], [92.88913000000001, 22.01266], [92.87864, 22.015050000000002], [92.8785, 22.018060000000002], [92.87966, 22.0222], [92.87575000000001, 22.021150000000002], [92.87167000000001, 22.022660000000002], [92.8686, 22.022460000000002], [92.86767, 22.023470000000003], [92.86506000000001, 22.023690000000002], [92.86389000000001, 22.026750000000003], [92.8636, 22.032960000000003], [92.86497000000001, 22.036420000000003], [92.86461000000001, 22.041010000000004], [92.86593, 22.051560000000002], [92.86304000000001, 22.0577], [92.86353000000001, 22.06236], [92.86188000000001, 22.062710000000003], [92.85870000000001, 22.067040000000002], [92.85513, 22.065710000000003], [92.85237000000001, 22.06633], [92.8502, 22.062610000000003], [92.84748, 22.06888], [92.84601, 22.082420000000003], [92.8464, 22.08997], [92.84012000000001, 22.12048], [92.84304, 22.128890000000002], [92.84383000000001, 22.136490000000002], [92.84153, 22.146430000000002], [92.84203000000001, 22.151100000000003], [92.83970000000001, 22.15681], [92.83938, 22.16072], [92.84027, 22.167610000000003], [92.83697000000001, 22.187060000000002], [92.83838, 22.19207], [92.83854000000001, 22.19647], [92.8382, 22.20022], [92.83596000000001, 22.205550000000002], [92.83531, 22.213910000000002], [92.83677, 22.225810000000003], [92.83447000000001, 22.242070000000002], [92.83209000000001, 22.250880000000002], [92.82962, 22.255940000000002], [92.83296000000001, 22.263840000000002], [92.83503, 22.266830000000002], [92.83437, 22.270960000000002], [92.83147000000001, 22.272100000000002], [92.83059, 22.274320000000003], [92.83294000000001, 22.283810000000003], [92.83252, 22.288290000000003], [92.83579, 22.28956], [92.83686, 22.29108], [92.83178000000001, 22.2971], [92.82978000000001, 22.300870000000003], [92.82260000000001, 22.306610000000003], [92.82287000000001, 22.30993], [92.82558, 22.3123], [92.82637000000001, 22.316830000000003], [92.82241, 22.3212], [92.82059000000001, 22.325770000000002], [92.82288000000001, 22.332600000000003], [92.82455, 22.3338], [92.82676000000001, 22.33377], [92.8331, 22.3305], [92.83768, 22.32919], [92.84114000000001, 22.330180000000002], [92.84394, 22.33001], [92.84475, 22.326], [92.84952000000001, 22.319110000000002], [92.85312, 22.319480000000002], [92.85527, 22.322260000000004], [92.85758000000001, 22.32158], [92.85894, 22.31978], [92.86036000000001, 22.320130000000002], [92.86168, 22.32187], [92.86376000000001, 22.32841], [92.86756000000001, 22.3336], [92.86903000000001, 22.337300000000003], [92.86897, 22.340940000000003], [92.87647000000001, 22.35535], [92.88023000000001, 22.359090000000002], [92.88604000000001, 22.363030000000002], [92.89051, 22.365000000000002], [92.89511, 22.368640000000003], [92.90465, 22.37402], [92.90886, 22.380650000000003], [92.91234000000001, 22.384430000000002], [92.91955, 22.39095], [92.92800000000001, 22.395680000000002], [92.93199000000001, 22.39648], [92.93576, 22.39469], [92.93768000000001, 22.39251], [92.93780000000001, 22.39085], [92.93267, 22.38644], [92.93155, 22.38363], [92.93383000000001, 22.38006], [92.94116000000001, 22.373790000000003], [92.95280000000001, 22.372220000000002], [92.95552, 22.3728], [92.95825, 22.37561], [92.95927, 22.3808], [92.96165, 22.38586], [93.00688000000001, 22.38128]], [[92.92658, 22.38566], [92.92617000000001, 22.38678], [92.92494, 22.386300000000002], [92.92565, 22.385230000000004], [92.92658, 22.38566]], [[93.07372000000001, 22.356720000000003], [93.07332000000001, 22.357840000000003], [93.07208000000001, 22.357360000000003], [93.0728, 22.35629], [93.07372000000001, 22.356720000000003]], [[92.90519, 22.367530000000002], [92.90478, 22.368650000000002], [92.90354, 22.368170000000003], [92.90426000000001, 22.3671], [92.90519, 22.367530000000002]], [[92.98127000000001, 22.34534], [92.98225000000001, 22.346410000000002], [92.98073000000001, 22.346690000000002], [92.98127000000001, 22.34534]], [[92.95056000000001, 22.348480000000002], [92.95167000000001, 22.34766], [92.95234, 22.348390000000002], [92.95150000000001, 22.34928], [92.95056000000001, 22.348480000000002]], [[93.03037, 22.331490000000002], [93.03113, 22.332240000000002], [93.03024, 22.33312], [93.02940000000001, 22.33256], [93.02998000000001, 22.33151], [93.03037, 22.331490000000002]], [[92.99900000000001, 22.33116], [92.99976000000001, 22.33191], [92.99887000000001, 22.332790000000003], [92.99802000000001, 22.332230000000003], [92.99861000000001, 22.331180000000003], [92.99900000000001, 22.33116]], [[93.1666, 22.31387], [93.16565000000001, 22.31465], [93.16484000000001, 22.313750000000002], [93.16566, 22.313010000000002], [93.1666, 22.31387]], [[93.10742, 22.303970000000003], [93.10642000000001, 22.304750000000002], [93.10565000000001, 22.303970000000003], [93.10652, 22.30311], [93.10742, 22.303970000000003]], [[93.19015, 22.293960000000002], [93.19098000000001, 22.29322], [93.19192000000001, 22.29408], [93.19063000000001, 22.294770000000003], [93.19015, 22.293960000000002]], [[93.0019, 22.31014], [93.00292, 22.30939], [93.00368, 22.31014], [93.00279, 22.311020000000003], [93.0019, 22.31014]], [[92.95526000000001, 22.312610000000003], [92.95628, 22.311860000000003], [92.95704, 22.312610000000003], [92.95615000000001, 22.3135], [92.95526000000001, 22.312610000000003]], [[93.03715000000001, 22.304440000000003], [93.03791000000001, 22.305190000000003], [93.0374, 22.306], [93.03635000000001, 22.3058], [93.03622000000001, 22.30488], [93.03715000000001, 22.304440000000003]], [[93.05385000000001, 22.28376], [93.05345000000001, 22.28489], [93.05221, 22.2844], [93.05293, 22.283330000000003], [93.05385000000001, 22.28376]], [[92.92235000000001, 22.284650000000003], [92.92311000000001, 22.285400000000003], [92.92222000000001, 22.28628], [92.92137000000001, 22.28572], [92.92195000000001, 22.284670000000002], [92.92235000000001, 22.284650000000003]], [[92.87395000000001, 22.282030000000002], [92.87462000000001, 22.28284], [92.87369000000001, 22.28365], [92.87284000000001, 22.282760000000003], [92.87351000000001, 22.282020000000003], [92.87395000000001, 22.282030000000002]], [[93.11974000000001, 22.24472], [93.12061000000001, 22.24558], [93.12, 22.24632], [93.11893, 22.245890000000003], [93.11908000000001, 22.24498], [93.11974000000001, 22.24472]], [[92.84075000000001, 22.26791], [92.84178000000001, 22.26717], [92.84253000000001, 22.26791], [92.84164000000001, 22.268800000000002], [92.84075000000001, 22.26791]], [[92.91023000000001, 22.252650000000003], [92.91099000000001, 22.253400000000003], [92.91010000000001, 22.25428], [92.90925000000001, 22.25372], [92.90983000000001, 22.252670000000002], [92.91023000000001, 22.252650000000003]], [[92.96406, 22.243740000000003], [92.96482, 22.244490000000003], [92.96393, 22.24537], [92.96308, 22.24481], [92.96367000000001, 22.24376], [92.96406, 22.243740000000003]], [[92.92164000000001, 22.244400000000002], [92.92239000000001, 22.245150000000002], [92.92150000000001, 22.24603], [92.92066000000001, 22.24547], [92.92124000000001, 22.24442], [92.92164000000001, 22.244400000000002]], [[92.86709, 22.246380000000002], [92.86785, 22.247130000000002], [92.86696, 22.24801], [92.86611, 22.24745], [92.86669, 22.2464], [92.86709, 22.246380000000002]], [[93.01606000000001, 22.22635], [93.01566000000001, 22.22747], [93.01442, 22.22699], [93.01514, 22.225920000000002], [93.01606000000001, 22.22635]], [[93.13650000000001, 22.21337], [93.13737, 22.21423], [93.1366, 22.215000000000003], [93.13569000000001, 22.214540000000003], [93.13612, 22.213440000000002], [93.13650000000001, 22.21337]], [[92.96629, 22.21536], [92.96722000000001, 22.215790000000002], [92.96681000000001, 22.216910000000002], [92.96576, 22.216710000000003], [92.96563, 22.215790000000002], [92.96629, 22.21536]], [[92.91598, 22.21908], [92.917, 22.21833], [92.91776, 22.21908], [92.91687, 22.21996], [92.91598, 22.21908]], [[93.03644000000001, 22.204790000000003], [93.03719000000001, 22.205540000000003], [93.03630000000001, 22.20643], [93.03546000000001, 22.20587], [93.03604000000001, 22.204810000000002], [93.03644000000001, 22.204790000000003]], [[92.84356000000001, 22.21536], [92.84432000000001, 22.21611], [92.84343000000001, 22.216990000000003], [92.84258000000001, 22.216430000000003], [92.84316000000001, 22.215380000000003], [92.84356000000001, 22.21536]], [[92.88415, 22.17519], [92.88374, 22.17631], [92.88251000000001, 22.17583], [92.88322000000001, 22.174750000000003], [92.88415, 22.17519]], [[92.99508, 22.161880000000004], [92.99584, 22.16263], [92.99495, 22.163510000000002], [92.9941, 22.162950000000002], [92.99468, 22.161900000000003], [92.99508, 22.161880000000004]], [[92.93376, 22.158910000000002], [92.93452, 22.159650000000003], [92.93363000000001, 22.16054], [92.93278000000001, 22.15998], [92.93336000000001, 22.15893], [92.93376, 22.158910000000002]], [[92.917, 22.130840000000003], [92.91776, 22.131590000000003], [92.91687, 22.13247], [92.91602, 22.13191], [92.91661, 22.130860000000002], [92.917, 22.130840000000003]], [[92.8542, 22.09494], [92.8538, 22.09606], [92.85256000000001, 22.09558], [92.85328000000001, 22.094500000000004], [92.8542, 22.09494]], [[92.88665, 22.072470000000003], [92.88624, 22.073600000000003], [92.88501000000001, 22.073110000000003], [92.88572, 22.07204], [92.88665, 22.072470000000003]], [[92.98148, 22.04472], [92.98107, 22.045840000000002], [92.97984000000001, 22.045360000000002], [92.98055000000001, 22.04428], [92.98148, 22.04472]], [[92.98447, 22.017860000000002], [92.98514, 22.018680000000003], [92.98421, 22.01948], [92.98336, 22.018590000000003], [92.98403, 22.017860000000002], [92.98447, 22.017860000000002]], [[92.98724000000001, 22.00165], [92.98799000000001, 22.0024], [92.98710000000001, 22.00328], [92.98626, 22.00272], [92.98684, 22.00167], [92.98724000000001, 22.00165]], [[92.98518000000001, 21.988110000000002], [92.98586, 21.988930000000003], [92.98492, 21.98973], [92.98407, 21.988850000000003], [92.98475, 21.988110000000002], [92.98518000000001, 21.988110000000002]], [[92.98973000000001, 22.37477], [92.98822000000001, 22.37505], [92.98809000000001, 22.37413], [92.98902000000001, 22.373690000000003], [92.98973000000001, 22.37477]], [[93.04492, 22.37], [93.04568, 22.37075], [93.04479, 22.371630000000003], [93.04394, 22.371070000000003], [93.04453000000001, 22.37002], [93.04492, 22.37]], [[92.96758000000001, 22.38171], [92.96745000000001, 22.382630000000002], [92.96639, 22.382830000000002], [92.96599, 22.38171], [92.96691000000001, 22.38128], [92.96758000000001, 22.38171]]]}}, {"id": "19", "type": "Feature", "properties": {"village_name": "Lodaw", "vil_lgd": 271808, "district_name": "Saiha", "dist_lgd": 267, "subdistrict_name": "Tuipang", "sdcode": 1920, "block_name": "Tuipang", "block_lgd": 28.0, "gp_name": "", "state_name": "MIZORAM", "state_lgd": 15, "population": 259, "households": 60}, "geometry": {"type": "Polygon", "coordinates": [[[92.84075000000001, 22.26791], [92.84164000000001, 22.268800000000002], [92.84253000000001, 22.26791], [92.84178000000001, 22.26717], [92.84075000000001, 22.26791]]]}}, {"id": "20", "type": "Feature", "properties": {"village_name": "Phura N", "vil_lgd": 271811, "district_name": "Saiha", "dist_lgd": 267, "subdistrict_name": "Tuipang", "sdcode": 1920, "block_name": "Tuipang", "block_lgd": 28.0, "gp_name": "", "state_name": "MIZORAM", "state_lgd": 15, "population": 1068, "households": 231}, "geometry": {"type": "Polygon", "coordinates": [[[92.91598, 22.21908], [92.91687, 22.21996], [92.91776, 22.21908], [92.917, 22.21833], [92.91598, 22.21908]]]}}, {"id": "21", "type": "Feature", "properties": {"village_name": "Phusa", "vil_lgd": 271833, "district_name": "Saiha", "dist_lgd": 267, "subdistrict_name": "Saiha", "sdcode": 1921, "block_name": "Saiha", "block_lgd": 29.0, "gp_name": "", "state_name": "MIZORAM", "state_lgd": 15, "population": 0, "households": 0}, "geometry": {"type": "Polygon", "coordinates": [[[93.13682000000001, 22.38783], [93.13638, 22.388930000000002], [93.13745, 22.389360000000003], [93.13807000000001, 22.388620000000003], [93.1372, 22.38776], [93.13682000000001, 22.38783]]]}}, {"id": "22", "type": "Feature", "properties": {"village_name": "Kaisih New", "vil_lgd": 271804, "district_name": "Saiha", "dist_lgd": 267, "subdistrict_name": "Tuipang", "sdcode": 1920, "block_name": "Tuipang", "block_lgd": 28.0, "gp_name": "", "state_name": "MIZORAM", "state_lgd": 15, "population": 0, "households": 0}, "geometry": {"type": "Polygon", "coordinates": [[[92.92124000000001, 22.24442], [92.92066000000001, 22.24547], [92.92150000000001, 22.24603], [92.92239000000001, 22.245150000000002], [92.92164000000001, 22.244400000000002], [92.92124000000001, 22.24442]]]}}, {"id": "23", "type": "Feature", "properties": {"village_name": "Sarai", "vil_lgd": 271809, "district_name": "Saiha", "dist_lgd": 267, "subdistrict_name": "Tuipang", "sdcode": 1920, "block_name": "Tuipang", "block_lgd": 28.0, "gp_name": "", "state_name": "MIZORAM", "state_lgd": 15, "population": 0, "households": 0}, "geometry": {"type": "Polygon", "coordinates": [[[92.86669, 22.2464], [92.86611, 22.24745], [92.86696, 22.24801], [92.86785, 22.247130000000002], [92.86709, 22.246380000000002], [92.86669, 22.2464]]]}}, {"id": "24", "type": "Feature", "properties": {"village_name": "Tema", "vil_lgd": 271784, "district_name": "Saiha", "dist_lgd": 267, "subdistrict_name": "Tuipang", "sdcode": 1920, "block_name": "Tuipang", "block_lgd": 28.0, "gp_name": "", "state_name": "MIZORAM", "state_lgd": 15, "population": 0, "households": 0}, "geometry": {"type": "Polygon", "coordinates": [[[92.90354, 22.368170000000003], [92.90478, 22.368650000000002], [92.90519, 22.367530000000002], [92.90426000000001, 22.3671], [92.90354, 22.368170000000003]]]}}, {"id": "25", "type": "Feature", "properties": {"village_name": "Upper Theiva", "vil_lgd": 271783, "district_name": "Saiha", "dist_lgd": 267, "subdistrict_name": "Tuipang", "sdcode": 1920, "block_name": "Tuipang", "block_lgd": 28.0, "gp_name": "", "state_name": "MIZORAM", "state_lgd": 15, "population": 0, "households": 0}, "geometry": {"type": "Polygon", "coordinates": [[[92.92494, 22.386300000000002], [92.92617000000001, 22.38678], [92.92658, 22.38566], [92.92565, 22.385230000000004], [92.92494, 22.386300000000002]]]}}, {"id": "26", "type": "Feature", "properties": {"village_name": "Chheihlu", "vil_lgd": 271796, "district_name": "Saiha", "dist_lgd": 267, "subdistrict_name": "Tuipang", "sdcode": 1920, "block_name": "Tuipang", "block_lgd": 28.0, "gp_name": "", "state_name": "MIZORAM", "state_lgd": 15, "population": 530, "households": 101}, "geometry": {"type": "Polygon", "coordinates": [[[93.10565000000001, 22.303970000000003], [93.10642000000001, 22.304750000000002], [93.10742, 22.303970000000003], [93.10652, 22.30311], [93.10565000000001, 22.303970000000003]]]}}, {"id": "27", "type": "Feature", "properties": {"village_name": "Mawhrei", "vil_lgd": 271799, "district_name": "Saiha", "dist_lgd": 267, "subdistrict_name": "Tuipang", "sdcode": 1920, "block_name": "Tuipang", "block_lgd": 28.0, "gp_name": "", "state_name": "MIZORAM", "state_lgd": 15, "population": 540, "households": 98}, "geometry": {"type": "Polygon", "coordinates": [[[93.11908000000001, 22.24498], [93.11893, 22.245890000000003], [93.12, 22.24632], [93.12061000000001, 22.24558], [93.11974000000001, 22.24472], [93.11908000000001, 22.24498]]]}}, {"id": "28", "type": "Feature", "properties": {"village_name": "Vahia", "vil_lgd": 271812, "district_name": "Saiha", "dist_lgd": 267, "subdistrict_name": "Tuipang", "sdcode": 1920, "block_name": "Tuipang", "block_lgd": 28.0, "gp_name": "", "state_name": "MIZORAM", "state_lgd": 15, "population": 826, "households": 148}, "geometry": {"type": "Polygon", "coordinates": [[[92.96563, 22.215790000000002], [92.96576, 22.216710000000003], [92.96681000000001, 22.216910000000002], [92.96722000000001, 22.215790000000002], [92.96629, 22.21536], [92.96563, 22.215790000000002]]]}}, {"id": "29", "type": "Feature", "properties": {"village_name": "Ahmypi", "vil_lgd": 271802, "district_name": "Saiha", "dist_lgd": 267, "subdistrict_name": "Tuipang", "sdcode": 1920, "block_name": "Tuipang", "block_lgd": 28.0, "gp_name": "", "state_name": "MIZORAM", "state_lgd": 15, "population": 247, "households": 42}, "geometry": {"type": "Polygon", "coordinates": [[[93.01442, 22.22699], [93.01566000000001, 22.22747], [93.01606000000001, 22.22635], [93.01514, 22.225920000000002], [93.01442, 22.22699]]]}}, {"id": "30", "type": "Feature", "properties": {"village_name": "Zyhno", "vil_lgd": 271795, "district_name": "Saiha", "dist_lgd": 267, "subdistrict_name": "Tuipang", "sdcode": 1920, "block_name": "Tuipang", "block_lgd": 28.0, "gp_name": "", "state_name": "MIZORAM", "state_lgd": 15, "population": 1630, "households": 302}, "geometry": {"type": "Polygon", "coordinates": [[[93.05221, 22.2844], [93.05345000000001, 22.28489], [93.05385000000001, 22.28376], [93.05293, 22.283330000000003], [93.05221, 22.2844]]]}}, {"id": "31", "type": "Feature", "properties": {"village_name": "Siatlai", "vil_lgd": 271794, "district_name": "Saiha", "dist_lgd": 267, "subdistrict_name": "Tuipang", "sdcode": 1920, "block_name": "Tuipang", "block_lgd": 28.0, "gp_name": "", "state_name": "MIZORAM", "state_lgd": 15, "population": 335, "households": 74}, "geometry": {"type": "Polygon", "coordinates": [[[93.03622000000001, 22.30488], [93.03635000000001, 22.3058], [93.0374, 22.306], [93.03791000000001, 22.305190000000003], [93.03715000000001, 22.304440000000003], [93.03622000000001, 22.30488]]]}}, {"id": "32", "type": "Feature", "properties": {"village_name": "Tipa B", "vil_lgd": 271791, "district_name": "Saiha", "dist_lgd": 267, "subdistrict_name": "Tuipang", "sdcode": 1920, "block_name": "Tuipang", "block_lgd": 28.0, "gp_name": "", "state_name": "MIZORAM", "state_lgd": 15, "population": 652, "households": 140}, "geometry": {"type": "Polygon", "coordinates": [[[93.0019, 22.31014], [93.00279, 22.311020000000003], [93.00368, 22.31014], [93.00292, 22.30939], [93.0019, 22.31014]]]}}, {"id": "33", "type": "Feature", "properties": {"village_name": "Dairy Veng Tuipang", "vil_lgd": 271793, "district_name": "Saiha", "dist_lgd": 267, "subdistrict_name": "Tuipang", "sdcode": 1920, "block_name": "Tuipang", "block_lgd": 28.0, "gp_name": "", "state_name": "MIZORAM", "state_lgd": 15, "population": 1120, "households": 238}, "geometry": {"type": "Polygon", "coordinates": [[[93.02998000000001, 22.33151], [93.02940000000001, 22.33256], [93.03024, 22.33312], [93.03113, 22.332240000000002], [93.03037, 22.331490000000002], [93.02998000000001, 22.33151]]]}}, {"id": "34", "type": "Feature", "properties": {"village_name": "Tipa V I", "vil_lgd": 271792, "district_name": "Saiha", "dist_lgd": 267, "subdistrict_name": "Tuipang", "sdcode": 1920, "block_name": "Tuipang", "block_lgd": 28.0, "gp_name": "", "state_name": "MIZORAM", "state_lgd": 15, "population": 1655, "households": 306}, "geometry": {"type": "Polygon", "coordinates": [[[92.99861000000001, 22.331180000000003], [92.99802000000001, 22.332230000000003], [92.99887000000001, 22.332790000000003], [92.99976000000001, 22.33191], [92.99900000000001, 22.33116], [92.99861000000001, 22.331180000000003]]]}}, {"id": "35", "type": "Feature", "properties": {"village_name": "New Saikao", "vil_lgd": 271789, "district_name": "Saiha", "dist_lgd": 267, "subdistrict_name": "Tuipang", "sdcode": 1920, "block_name": "Tuipang", "block_lgd": 28.0, "gp_name": "", "state_name": "MIZORAM", "state_lgd": 15, "population": 144, "households": 37}, "geometry": {"type": "Polygon", "coordinates": [[[92.98073000000001, 22.346690000000002], [92.98225000000001, 22.346410000000002], [92.98127000000001, 22.34534], [92.98073000000001, 22.346690000000002]]]}}, {"id": "36", "type": "Feature", "properties": {"village_name": "Saikao", "vil_lgd": 271787, "district_name": "Saiha", "dist_lgd": 267, "subdistrict_name": "Tuipang", "sdcode": 1920, "block_name": "Tuipang", "block_lgd": 28.0, "gp_name": "", "state_name": "MIZORAM", "state_lgd": 15, "population": 977, "households": 258}, "geometry": {"type": "Polygon", "coordinates": [[[92.98902000000001, 22.373690000000003], [92.98809000000001, 22.37413], [92.98822000000001, 22.37505], [92.98973000000001, 22.37477], [92.98902000000001, 22.373690000000003]]]}}, {"id": "37", "type": "Feature", "properties": {"village_name": "Theiri", "vil_lgd": 271786, "district_name": "Saiha", "dist_lgd": 267, "subdistrict_name": "Tuipang", "sdcode": 1920, "block_name": "Tuipang", "block_lgd": 28.0, "gp_name": "", "state_name": "MIZORAM", "state_lgd": 15, "population": 626, "households": 131}, "geometry": {"type": "Polygon", "coordinates": [[[93.04453000000001, 22.37002], [93.04394, 22.371070000000003], [93.04479, 22.371630000000003], [93.04568, 22.37075], [93.04492, 22.37], [93.04453000000001, 22.37002]]]}}, {"id": "38", "type": "Feature", "properties": {"village_name": "Tisi I", "vil_lgd": 271785, "district_name": "Saiha", "dist_lgd": 267, "subdistrict_name": "Tuipang", "sdcode": 1920, "block_name": "Tuipang", "block_lgd": 28.0, "gp_name": "", "state_name": "MIZORAM", "state_lgd": 15, "population": 878, "households": 196}, "geometry": {"type": "Polygon", "coordinates": [[[93.07208000000001, 22.357360000000003], [93.07332000000001, 22.357840000000003], [93.07372000000001, 22.356720000000003], [93.0728, 22.35629], [93.07208000000001, 22.357360000000003]]]}}, {"id": "39", "type": "Feature", "properties": {"village_name": "New Laty", "vil_lgd": 271790, "district_name": "Saiha", "dist_lgd": 267, "subdistrict_name": "Tuipang", "sdcode": 1920, "block_name": "Tuipang", "block_lgd": 28.0, "gp_name": "", "state_name": "MIZORAM", "state_lgd": 15, "population": 603, "households": 123}, "geometry": {"type": "Polygon", "coordinates": [[[92.95526000000001, 22.312610000000003], [92.95615000000001, 22.3135], [92.95704, 22.312610000000003], [92.95628, 22.311860000000003], [92.95526000000001, 22.312610000000003]]]}}, {"id": "40", "type": "Feature", "properties": {"village_name": "Theiva", "vil_lgd": 271831, "district_name": "Saiha", "dist_lgd": 267, "subdistrict_name": "Saiha", "sdcode": 1921, "block_name": "Saiha", "block_lgd": 29.0, "gp_name": "", "state_name": "MIZORAM", "state_lgd": 15, "population": 551, "households": 135}, "geometry": {"type": "Polygon", "coordinates": [[[93.01072, 22.402600000000003], [93.01196, 22.403080000000003], [93.01236, 22.401960000000003], [93.01144000000001, 22.40152], [93.01072, 22.402600000000003]]]}}, {"id": "41", "type": "Feature", "properties": {"village_name": "Siata I", "vil_lgd": 271835, "district_name": "Saiha", "dist_lgd": 267, "subdistrict_name": "Saiha", "sdcode": 1921, "block_name": "Saiha", "block_lgd": 29.0, "gp_name": "", "state_name": "MIZORAM", "state_lgd": 15, "population": 867, "households": 179}, "geometry": {"type": "Polygon", "coordinates": [[[93.13539, 22.343320000000002], [93.13496, 22.344420000000003], [93.13587000000001, 22.344880000000003], [93.13664000000001, 22.34411], [93.13577000000001, 22.34325], [93.13539, 22.343320000000002]]]}}, {"id": "42", "type": "Feature", "properties": {"village_name": "Laty", "vil_lgd": 271788, "district_name": "Saiha", "dist_lgd": 267, "subdistrict_name": "Tuipang", "sdcode": 1920, "block_name": "Tuipang", "block_lgd": 28.0, "gp_name": "", "state_name": "MIZORAM", "state_lgd": 15, "population": 0, "households": 0}, "geometry": {"type": "Polygon", "coordinates": [[[92.95056000000001, 22.348480000000002], [92.95150000000001, 22.34928], [92.95234, 22.348390000000002], [92.95167000000001, 22.34766], [92.95056000000001, 22.348480000000002]]]}}, {"id": "43", "type": "Feature", "properties": {"village_name": "Siahatlah I", "vil_lgd": 271782, "district_name": "Saiha", "dist_lgd": 267, "subdistrict_name": "Tuipang", "sdcode": 1920, "block_name": "Tuipang", "block_lgd": 28.0, "gp_name": "", "state_name": "MIZORAM", "state_lgd": 15, "population": 0, "households": 0}, "geometry": {"type": "Polygon", "coordinates": [[[92.96691000000001, 22.38128], [92.96599, 22.38171], [92.96639, 22.382830000000002], [92.96745000000001, 22.382630000000002], [92.96758000000001, 22.38171], [92.96691000000001, 22.38128]]]}}, {"id": "44", "type": "Feature", "properties": {"village_name": "Amobyu Beivah", "vil_lgd": 271828, "district_name": "Saiha", "dist_lgd": 267, "subdistrict_name": "Saiha", "sdcode": 1921, "block_name": "Saiha", "block_lgd": 29.0, "gp_name": "", "state_name": "MIZORAM", "state_lgd": 15, "population": 599, "households": 122}, "geometry": {"type": "Polygon", "coordinates": [[[92.9681, 22.441190000000002], [92.96899, 22.44207], [92.96988, 22.441190000000002], [92.96913, 22.440440000000002], [92.9681, 22.441190000000002]]]}}, {"id": "45", "type": "Feature", "properties": {"village_name": "Amobyu Ch", "vil_lgd": 271829, "district_name": "Saiha", "dist_lgd": 267, "subdistrict_name": "Saiha", "sdcode": 1921, "block_name": "Saiha", "block_lgd": 29.0, "gp_name": "", "state_name": "MIZORAM", "state_lgd": 15, "population": 252, "households": 56}, "geometry": {"type": "Polygon", "coordinates": [[[92.97194, 22.429260000000003], [92.97136, 22.430310000000002], [92.9722, 22.430870000000002], [92.97309000000001, 22.42998], [92.97233000000001, 22.42924], [92.97194, 22.429260000000003]]]}}, {"id": "46", "type": "Feature", "properties": {"village_name": "Kaochao East I", "vil_lgd": 271830, "district_name": "Saiha", "dist_lgd": 267, "subdistrict_name": "Saiha", "sdcode": 1921, "block_name": "Saiha", "block_lgd": 29.0, "gp_name": "", "state_name": "MIZORAM", "state_lgd": 15, "population": 1071, "households": 239}, "geometry": {"type": "Polygon", "coordinates": [[[92.96963000000001, 22.396710000000002], [92.97003000000001, 22.397830000000003], [92.97127, 22.397350000000003], [92.97055, 22.39628], [92.96963000000001, 22.396710000000002]]]}}, {"id": "47", "type": "Feature", "properties": {"village_name": "Chhaolo I", "vil_lgd": 271841, "district_name": "Saiha", "dist_lgd": 267, "subdistrict_name": "Saiha", "sdcode": 1921, "block_name": "Saiha", "block_lgd": 29.0, "gp_name": "", "state_name": "MIZORAM", "state_lgd": 15, "population": 851, "households": 174}, "geometry": {"type": "Polygon", "coordinates": [[[93.09628000000001, 22.42536], [93.09569, 22.42641], [93.09654, 22.42697], [93.09743, 22.426090000000002], [93.09667, 22.425340000000002], [93.09628000000001, 22.42536]]]}}, {"id": "48", "type": "Feature", "properties": {"village_name": "Chhaolo Ii", "vil_lgd": 271842, "district_name": "Saiha", "dist_lgd": 267, "subdistrict_name": "Saiha", "sdcode": 1921, "block_name": "Saiha", "block_lgd": 29.0, "gp_name": "", "state_name": "MIZORAM", "state_lgd": 15, "population": 313, "households": 56}, "geometry": {"type": "Polygon", "coordinates": [[[93.10207000000001, 22.4307], [93.10257000000001, 22.431510000000003], [93.10363000000001, 22.431310000000003], [93.10375, 22.430390000000003], [93.10282000000001, 22.42996], [93.10207000000001, 22.4307]]]}}, {"id": "49", "type": "Feature", "properties": {"village_name": "Chakhei Ii", "vil_lgd": 271797, "district_name": "Saiha", "dist_lgd": 267, "subdistrict_name": "Tuipang", "sdcode": 1920, "block_name": "Tuipang", "block_lgd": 28.0, "gp_name": "", "state_name": "MIZORAM", "state_lgd": 15, "population": 1333, "households": 285}, "geometry": {"type": "Polygon", "coordinates": [[[93.16484000000001, 22.313750000000002], [93.16565000000001, 22.31465], [93.1666, 22.31387], [93.16566, 22.313010000000002], [93.16484000000001, 22.313750000000002]]]}}, {"id": "50", "type": "Feature", "properties": {"village_name": "Siasi", "vil_lgd": 271798, "district_name": "Saiha", "dist_lgd": 267, "subdistrict_name": "Tuipang", "sdcode": 1920, "block_name": "Tuipang", "block_lgd": 28.0, "gp_name": "", "state_name": "MIZORAM", "state_lgd": 15, "population": 344, "households": 71}, "geometry": {"type": "Polygon", "coordinates": [[[93.19015, 22.293960000000002], [93.19063000000001, 22.294770000000003], [93.19192000000001, 22.29408], [93.19098000000001, 22.29322], [93.19015, 22.293960000000002]]]}}, {"id": "51", "type": "Feature", "properties": {"village_name": "Iana", "vil_lgd": 271834, "district_name": "Saiha", "dist_lgd": 267, "subdistrict_name": "Saiha", "sdcode": 1921, "block_name": "Saiha", "block_lgd": 29.0, "gp_name": "", "state_name": "MIZORAM", "state_lgd": 15, "population": 559, "households": 132}, "geometry": {"type": "Polygon", "coordinates": [[[93.16534000000001, 22.346950000000003], [93.16491, 22.34805], [93.16582000000001, 22.34851], [93.16659000000001, 22.347730000000002], [93.16572000000001, 22.346880000000002], [93.16534000000001, 22.346950000000003]]]}}, {"id": "52", "type": "Feature", "properties": {"village_name": "Thiahra", "vil_lgd": 271823, "district_name": "Saiha", "dist_lgd": 267, "subdistrict_name": "Saiha", "sdcode": 1921, "block_name": "Saiha", "block_lgd": 29.0, "gp_name": "", "state_name": "MIZORAM", "state_lgd": 15, "population": 377, "households": 73}, "geometry": {"type": "Polygon", "coordinates": [[[92.96712000000001, 22.612820000000003], [92.96654000000001, 22.613870000000002], [92.96739000000001, 22.614420000000003], [92.96828000000001, 22.61354], [92.96752000000001, 22.61279], [92.96712000000001, 22.612820000000003]]]}}, {"id": "53", "type": "Feature", "properties": {"village_name": "Riasikah", "vil_lgd": 271825, "district_name": "Saiha", "dist_lgd": 267, "subdistrict_name": "Saiha", "sdcode": 1921, "block_name": "Saiha", "block_lgd": 29.0, "gp_name": "", "state_name": "MIZORAM", "state_lgd": 15, "population": 133, "households": 36}, "geometry": {"type": "Polygon", "coordinates": [[[92.95193, 22.555200000000003], [92.95316000000001, 22.555680000000002], [92.95357000000001, 22.554570000000002], [92.95264, 22.55413], [92.95193, 22.555200000000003]]]}}, {"id": "54", "type": "Feature", "properties": {"village_name": "Amobyu Vaithie", "vil_lgd": 271827, "district_name": "Saiha", "dist_lgd": 267, "subdistrict_name": "Saiha", "sdcode": 1921, "block_name": "Saiha", "block_lgd": 29.0, "gp_name": "", "state_name": "MIZORAM", "state_lgd": 15, "population": 759, "households": 155}, "geometry": {"type": "Polygon", "coordinates": [[[92.96097, 22.47249], [92.96186, 22.473370000000003], [92.96275000000001, 22.47249], [92.96173, 22.47174], [92.96097, 22.47249]]]}}, {"id": "55", "type": "Feature", "properties": {"village_name": "Noaotlah I", "vil_lgd": 271839, "district_name": "Saiha", "dist_lgd": 267, "subdistrict_name": "Saiha", "sdcode": 1921, "block_name": "Saiha", "block_lgd": 29.0, "gp_name": "", "state_name": "MIZORAM", "state_lgd": 15, "population": 772, "households": 151}, "geometry": {"type": "Polygon", "coordinates": [[[93.08313000000001, 22.475440000000003], [93.08246000000001, 22.476170000000003], [93.08330000000001, 22.47706], [93.08424000000001, 22.47625], [93.08357000000001, 22.475440000000003], [93.08313000000001, 22.475440000000003]]]}}, {"id": "56", "type": "Feature", "properties": {"village_name": "Lobo I", "vil_lgd": 271832, "district_name": "Saiha", "dist_lgd": 267, "subdistrict_name": "Saiha", "sdcode": 1921, "block_name": "Saiha", "block_lgd": 29.0, "gp_name": "", "state_name": "MIZORAM", "state_lgd": 15, "population": 799, "households": 167}, "geometry": {"type": "Polygon", "coordinates": [[[93.11115000000001, 22.45473], [93.11071000000001, 22.455830000000002], [93.11163, 22.456290000000003], [93.11240000000001, 22.455520000000003], [93.11153, 22.45466], [93.11115000000001, 22.45473]]]}}, {"id": "57", "type": "Feature", "properties": {"village_name": "Amohtlah", "vil_lgd": 271824, "district_name": "Saiha", "dist_lgd": 267, "subdistrict_name": "Saiha", "sdcode": 1921, "block_name": "Saiha", "block_lgd": 29.0, "gp_name": "", "state_name": "MIZORAM", "state_lgd": 15, "population": 450, "households": 102}, "geometry": {"type": "Polygon", "coordinates": [[[92.96217000000001, 22.589810000000003], [92.96341000000001, 22.590290000000003], [92.96381000000001, 22.589170000000003], [92.96289, 22.58874], [92.96217000000001, 22.589810000000003]]]}}, {"id": "58", "type": "Feature", "properties": {"village_name": "Tipi Ferry", "vil_lgd": 271826, "district_name": "Saiha", "dist_lgd": 267, "subdistrict_name": "Saiha", "sdcode": 1921, "block_name": "Saiha", "block_lgd": 29.0, "gp_name": "", "state_name": "MIZORAM", "state_lgd": 15, "population": 236, "households": 58}, "geometry": {"type": "Polygon", "coordinates": [[[92.94431, 22.534070000000003], [92.94373, 22.535120000000003], [92.94457000000001, 22.535680000000003], [92.94546000000001, 22.53479], [92.94470000000001, 22.53405], [92.94431, 22.534070000000003]]]}}, {"id": "59", "type": "Feature", "properties": {"village_name": "Noaotlah Ii", "vil_lgd": 271840, "district_name": "Saiha", "dist_lgd": 267, "subdistrict_name": "Saiha", "sdcode": 1921, "block_name": "Saiha", "block_lgd": 29.0, "gp_name": "", "state_name": "MIZORAM", "state_lgd": 15, "population": 909, "households": 169}, "geometry": {"type": "Polygon", "coordinates": [[[93.07002000000001, 22.480780000000003], [93.07126000000001, 22.481260000000002], [93.07166000000001, 22.480140000000002], [93.07074, 22.47971], [93.07002000000001, 22.480780000000003]]]}}, {"id": "60", "type": "Feature", "properties": {"village_name": "Tisopi", "vil_lgd": 271836, "district_name": "Saiha", "dist_lgd": 267, "subdistrict_name": "Saiha", "sdcode": 1921, "block_name": "Saiha", "block_lgd": 29.0, "gp_name": "", "state_name": "MIZORAM", "state_lgd": 15, "population": 200, "households": 34}, "geometry": {"type": "Polygon", "coordinates": [[[92.97699, 22.57149], [92.97641, 22.572540000000004], [92.97725000000001, 22.5731], [92.97814000000001, 22.57222], [92.97739000000001, 22.57147], [92.97699, 22.57149]]]}}, {"id": "61", "type": "Feature", "properties": {"village_name": "Old Tisopi", "vil_lgd": 271837, "district_name": "Saiha", "dist_lgd": 267, "subdistrict_name": "Saiha", "sdcode": 1921, "block_name": "Saiha", "block_lgd": 29.0, "gp_name": "", "state_name": "MIZORAM", "state_lgd": 15, "population": 395, "households": 69}, "geometry": {"type": "Polygon", "coordinates": [[[92.98792, 22.57259], [92.98734, 22.57364], [92.98819, 22.5742], [92.98908, 22.573320000000002], [92.98832, 22.572570000000002], [92.98792, 22.57259]]]}}, {"id": "62", "type": "Feature", "properties": {"village_name": "Thosai", "vil_lgd": 271838, "district_name": "Saiha", "dist_lgd": 267, "subdistrict_name": "Saiha", "sdcode": 1921, "block_name": "Saiha", "block_lgd": 29.0, "gp_name": "", "state_name": "MIZORAM", "state_lgd": 15, "population": 328, "households": 57}, "geometry": {"type": "Polygon", "coordinates": [[[92.99209, 22.565520000000003], [92.99333000000001, 22.566000000000003], [92.99373000000001, 22.564880000000002], [92.99281, 22.56445], [92.99209, 22.565520000000003]]]}}, {"id": "63", "type": "Feature", "properties": {"village_name": "Saiha", "vil_lgd": 801519, "district_name": "Saiha", "dist_lgd": 267, "subdistrict_name": "Saiha", "sdcode": 1921, "block_name": "", "block_lgd": null, "gp_name": "", "state_name": "MIZORAM", "state_lgd": 15, "population": 25110, "households": 4607}, "geometry": {"type": "Polygon", "coordinates": [[[93.0057, 22.5086], [93.00791000000001, 22.507620000000003], [93.01074000000001, 22.50277], [93.01326, 22.50112], [93.01589000000001, 22.49792], [93.01694, 22.488210000000002], [93.01358, 22.48151], [93.01032000000001, 22.479180000000003], [92.98615000000001, 22.468210000000003], [92.98342000000001, 22.467920000000003], [92.97796000000001, 22.468890000000002], [92.97554000000001, 22.470250000000004], [92.96934, 22.47782], [92.96735000000001, 22.482090000000003], [92.96924000000001, 22.48394], [92.96882000000001, 22.48607], [92.96640000000001, 22.487820000000003], [92.95915000000001, 22.496270000000003], [92.95789, 22.50083], [92.95778000000001, 22.504230000000003], [92.95936, 22.506850000000004], [92.96136000000001, 22.508110000000002], [92.96766000000001, 22.50908], [92.97523000000001, 22.50879], [92.97743000000001, 22.50918], [92.98069000000001, 22.51141], [92.99193000000001, 22.509760000000004], [93.0057, 22.5086]]]}}]}