{"type": "FeatureCollection", "metadata": {"source": "Survey of India (per src_agency attribute in the source data)", "hosted_via": "National Water Data Portal (NWDP), NWIC, Ministry of Jal Shakti -- https://nwdp.nwic.gov.in/", "access": "public, no login required", "crs_original": "EPSG:7755 (WGS 84 / India NSF LCC)", "fetch_date": "2026-08-02", "quality": "verified-official -- Survey of India source", "state": "Mizoram", "district": "Serchhip", "processing": "reprojected to EPSG:4326, topology-preserving simplify (shared-arc, tolerance 0.0005 deg) so adjacent polygons never overlap/gap at shared borders, coords rounded 5dp, 0 feature(s) needed the per-feature fallback", "feature_count": 45}, "features": [{"id": "0", "type": "Feature", "properties": {"village_name": "Lungkawlh", "vil_lgd": 271417, "district_name": "Serchhip", "dist_lgd": 268, "subdistrict_name": "East Lungdar", "sdcode": 1911, "block_name": "East Lungdar Part", "block_lgd": 19.0, "gp_name": "", "state_name": "MIZORAM", "state_lgd": 15, "population": 803, "households": 155}, "geometry": {"type": "Polygon", "coordinates": [[[93.0951, 23.065530000000003], [93.09443, 23.066260000000003], [93.09528, 23.067140000000002], [93.09622, 23.06634], [93.09554000000001, 23.065530000000003], [93.0951, 23.065530000000003]]]}}, {"id": "1", "type": "Feature", "properties": {"village_name": "Maicham", "vil_lgd": 271418, "district_name": "Serchhip", "dist_lgd": 268, "subdistrict_name": "East Lungdar", "sdcode": 1911, "block_name": "East Lungdar Part", "block_lgd": 19.0, "gp_name": "", "state_name": "MIZORAM", "state_lgd": 15, "population": 0, "households": 0}, "geometry": {"type": "Polygon", "coordinates": [[[93.043, 23.056250000000002], [93.04233, 23.056980000000003], [93.04318, 23.05787], [93.04412, 23.057070000000003], [93.04344, 23.05626], [93.043, 23.056250000000002]]]}}, {"id": "2", "type": "Feature", "properties": {"village_name": "Leilet N V", "vil_lgd": 271416, "district_name": "Serchhip", "dist_lgd": 268, "subdistrict_name": "East Lungdar", "sdcode": 1911, "block_name": "East Lungdar Part", "block_lgd": 19.0, "gp_name": "", "state_name": "MIZORAM", "state_lgd": 15, "population": 0, "households": 0}, "geometry": {"type": "Polygon", "coordinates": [[[93.0468, 23.107920000000004], [93.04693, 23.10884], [93.04844000000001, 23.10856], [93.04773, 23.107490000000002], [93.0468, 23.107920000000004]]]}}, {"id": "3", "type": "Feature", "properties": {"village_name": "Tuichang", "vil_lgd": 271409, "district_name": "Serchhip", "dist_lgd": 268, "subdistrict_name": "East Lungdar", "sdcode": 1911, "block_name": "East Lungdar Part", "block_lgd": 19.0, "gp_name": "", "state_name": "MIZORAM", "state_lgd": 15, "population": 27, "households": 3}, "geometry": {"type": "Polygon", "coordinates": [[[92.93363000000001, 23.231450000000002], [92.93304, 23.2325], [92.93389, 23.233050000000002], [92.93478, 23.232170000000004], [92.93402, 23.231430000000003], [92.93363000000001, 23.231450000000002]]]}}, {"id": "4", "type": "Feature", "properties": {"village_name": "Piler", "vil_lgd": 271408, "district_name": "Serchhip", "dist_lgd": 268, "subdistrict_name": "East Lungdar", "sdcode": 1911, "block_name": "East Lungdar Part", "block_lgd": 19.0, "gp_name": "", "state_name": "MIZORAM", "state_lgd": 15, "population": 467, "households": 84}, "geometry": {"type": "Polygon", "coordinates": [[[92.97868000000001, 23.25504], [92.97991, 23.25551], [92.98032, 23.2544], [92.97939000000001, 23.253970000000002], [92.97868000000001, 23.25504]]]}}, {"id": "5", "type": "Feature", "properties": {"village_name": "Khawlailung", "vil_lgd": 271407, "district_name": "Serchhip", "dist_lgd": 268, "subdistrict_name": "East Lungdar", "sdcode": 1911, "block_name": "East Lungdar Part", "block_lgd": 19.0, "gp_name": "", "state_name": "MIZORAM", "state_lgd": 15, "population": 2318, "households": 501}, "geometry": {"type": "Polygon", "coordinates": [[[92.99923000000001, 23.221490000000003], [92.99864000000001, 23.222540000000002], [92.99949000000001, 23.223090000000003], [93.00038, 23.222220000000004], [92.99962000000001, 23.221470000000004], [92.99923000000001, 23.221490000000003]]]}}, {"id": "6", "type": "Feature", "properties": {"village_name": "Chekawn", "vil_lgd": 271406, "district_name": "Serchhip", "dist_lgd": 268, "subdistrict_name": "East Lungdar", "sdcode": 1911, "block_name": "East Lungdar Part", "block_lgd": 19.0, "gp_name": "", "state_name": "MIZORAM", "state_lgd": 15, "population": 277, "households": 49}, "geometry": {"type": "Polygon", "coordinates": [[[93.01425, 23.186890000000002], [93.01367, 23.18793], [93.01451, 23.18849], [93.01540000000001, 23.187610000000003], [93.01464000000001, 23.186870000000003], [93.01425, 23.186890000000002]]]}}, {"id": "7", "type": "Feature", "properties": {"village_name": "Sialsir", "vil_lgd": 271410, "district_name": "Serchhip", "dist_lgd": 268, "subdistrict_name": "East Lungdar", "sdcode": 1911, "block_name": "East Lungdar Part", "block_lgd": 19.0, "gp_name": "", "state_name": "MIZORAM", "state_lgd": 15, "population": 333, "households": 57}, "geometry": {"type": "Polygon", "coordinates": [[[92.97888, 23.165560000000003], [92.9783, 23.166610000000002], [92.97915, 23.167170000000002], [92.98004, 23.166290000000004], [92.97928, 23.165540000000004], [92.97888, 23.165560000000003]]]}}, {"id": "8", "type": "Feature", "properties": {"village_name": "Lungchhuan", "vil_lgd": 271411, "district_name": "Serchhip", "dist_lgd": 268, "subdistrict_name": "East Lungdar", "sdcode": 1911, "block_name": "East Lungdar Part", "block_lgd": 19.0, "gp_name": "", "state_name": "MIZORAM", "state_lgd": 15, "population": 710, "households": 138}, "geometry": {"type": "Polygon", "coordinates": [[[93.00088000000001, 23.131320000000002], [93.00177000000001, 23.1322], [93.00266, 23.131320000000002], [93.00164000000001, 23.130580000000002], [93.00088000000001, 23.131320000000002]]]}}, {"id": "9", "type": "Feature", "properties": {"village_name": "Mualcheng", "vil_lgd": 271405, "district_name": "Serchhip", "dist_lgd": 268, "subdistrict_name": "East Lungdar", "sdcode": 1911, "block_name": "East Lungdar Part", "block_lgd": 19.0, "gp_name": "", "state_name": "MIZORAM", "state_lgd": 15, "population": 1423, "households": 267}, "geometry": {"type": "Polygon", "coordinates": [[[93.05474000000001, 23.19283], [93.05597, 23.19331], [93.05638, 23.192190000000004], [93.05545000000001, 23.191760000000002], [93.05474000000001, 23.19283]]]}}, {"id": "10", "type": "Feature", "properties": {"village_name": "Data Partially Available", "vil_lgd": 999999, "district_name": "Serchhip", "dist_lgd": 268, "subdistrict_name": "East Lungdar", "sdcode": 1911, "block_name": "", "block_lgd": null, "gp_name": "", "state_name": "MIZORAM", "state_lgd": 15, "population": 0, "households": 0}, "geometry": {"type": "Polygon", "coordinates": [[[92.98586, 23.269160000000003], [93.01010000000001, 23.26622], [93.01866000000001, 23.260980000000004], [93.02472, 23.258360000000003], [93.03198, 23.258570000000002], [93.03319, 23.25375], [93.03769000000001, 23.253760000000003], [93.04313, 23.249390000000002], [93.04303, 23.248710000000003], [93.04117000000001, 23.248410000000003], [93.03896, 23.245900000000002], [93.036, 23.24621], [93.03426, 23.244790000000002], [93.03545000000001, 23.24341], [93.03800000000001, 23.24294], [93.03751000000001, 23.238770000000002], [93.03846, 23.236890000000002], [93.03966000000001, 23.23712], [93.04110000000001, 23.23965], [93.04618, 23.238960000000002], [93.04823, 23.23757], [93.05154, 23.239230000000003], [93.05257, 23.241000000000003], [93.05337, 23.239990000000002], [93.05433000000001, 23.243440000000003], [93.05680000000001, 23.241280000000003], [93.05895000000001, 23.240930000000002], [93.06234, 23.238770000000002], [93.06693000000001, 23.234830000000002], [93.06905, 23.22978], [93.07195, 23.228320000000004], [93.08268000000001, 23.226070000000004], [93.09202, 23.230970000000003], [93.09723000000001, 23.236220000000003], [93.09836000000001, 23.239870000000003], [93.09937000000001, 23.240540000000003], [93.10537000000001, 23.2404], [93.11079000000001, 23.236400000000003], [93.11037, 23.234830000000002], [93.11272000000001, 23.233340000000002], [93.11332, 23.231360000000002], [93.11935000000001, 23.22849], [93.12383000000001, 23.224050000000002], [93.12903000000001, 23.222630000000002], [93.13533000000001, 23.216620000000002], [93.13634, 23.21675], [93.14272000000001, 23.208000000000002], [93.14325000000001, 23.205460000000002], [93.14606, 23.20219], [93.14912000000001, 23.200170000000004], [93.15428000000001, 23.1992], [93.15786000000001, 23.199060000000003], [93.15806, 23.200770000000002], [93.15934000000001, 23.20108], [93.16267, 23.19791], [93.16116000000001, 23.19309], [93.16034, 23.193070000000002], [93.15797, 23.19574], [93.15117000000001, 23.190630000000002], [93.14550000000001, 23.190260000000002], [93.14495000000001, 23.189580000000003], [93.14526000000001, 23.18468], [93.14773000000001, 23.180760000000003], [93.15449000000001, 23.1783], [93.15893000000001, 23.177970000000002], [93.16112000000001, 23.17575], [93.15973000000001, 23.17152], [93.16128, 23.16683], [93.16265000000001, 23.16506], [93.16187000000001, 23.16224], [93.16690000000001, 23.15577], [93.16906, 23.149050000000003], [93.17133000000001, 23.14636], [93.17083000000001, 23.14517], [93.16902, 23.144340000000003], [93.16897, 23.14337], [93.17115000000001, 23.142870000000002], [93.17284000000001, 23.14084], [93.17091, 23.138250000000003], [93.16769000000001, 23.136090000000003], [93.16549, 23.128200000000003], [93.16546000000001, 23.126170000000002], [93.16725000000001, 23.12366], [93.16732, 23.122290000000003], [93.16637, 23.11907], [93.16462000000001, 23.11671], [93.16283000000001, 23.10152], [93.16362000000001, 23.09814], [93.16584, 23.0939], [93.17032, 23.090580000000003], [93.16986000000001, 23.086090000000002], [93.1752, 23.08115], [93.17448, 23.079900000000002], [93.17085, 23.07873], [93.17041, 23.077160000000003], [93.17670000000001, 23.07109], [93.17667, 23.069770000000002], [93.17508000000001, 23.069160000000004], [93.17475, 23.063530000000004], [93.17983000000001, 23.056970000000003], [93.17872000000001, 23.05535], [93.17431, 23.05279], [93.16896000000001, 23.04669], [93.16040000000001, 23.04795], [93.15977000000001, 23.047250000000002], [93.15986000000001, 23.044310000000003], [93.15609, 23.043180000000003], [93.15280000000001, 23.04419], [93.15353, 23.046310000000002], [93.15135000000001, 23.05375], [93.14969, 23.054340000000003], [93.14379000000001, 23.052590000000002], [93.14015, 23.0533], [93.13954000000001, 23.05423], [93.14065000000001, 23.05712], [93.14036, 23.058870000000002], [93.13712000000001, 23.06077], [93.13515000000001, 23.059970000000003], [93.13367000000001, 23.05827], [93.13326, 23.054740000000002], [93.13552000000001, 23.0499], [93.13537000000001, 23.048360000000002], [93.12710000000001, 23.04427], [93.12581, 23.04072], [93.12587, 23.035310000000003], [93.12827, 23.03076], [93.12528, 23.02427], [93.12536, 23.018220000000003], [93.12312000000001, 23.012670000000004], [93.12358, 23.00915], [93.12223, 23.006520000000002], [93.11582000000001, 23.013340000000003], [93.11040000000001, 23.01443], [93.10886, 23.01638], [93.0986, 23.021220000000003], [93.09498, 23.0241], [93.09280000000001, 23.024220000000003], [93.08885000000001, 23.027520000000003], [93.08393000000001, 23.02812], [93.07972000000001, 23.029880000000002], [93.07857000000001, 23.03077], [93.08013000000001, 23.031920000000003], [93.08128, 23.03498], [93.0754, 23.03721], [93.07315000000001, 23.03958], [93.07023000000001, 23.040660000000003], [93.06796000000001, 23.042930000000002], [93.06675000000001, 23.04201], [93.05972000000001, 23.044040000000003], [93.05272000000001, 23.044770000000003], [93.04270000000001, 23.04745], [93.03846, 23.04981], [93.03873, 23.05311], [93.0399, 23.055380000000003], [93.03850000000001, 23.06228], [93.03894000000001, 23.064570000000003], [93.03786000000001, 23.06613], [93.03974000000001, 23.06763], [93.03912000000001, 23.068600000000004], [93.04041000000001, 23.07025], [93.04155, 23.070690000000003], [93.04105000000001, 23.07241], [93.04294, 23.07375], [93.04167000000001, 23.074920000000002], [93.04152, 23.077730000000003], [93.03757, 23.079240000000002], [93.03723000000001, 23.081470000000003], [93.03348000000001, 23.08181], [93.03002000000001, 23.080260000000003], [93.02686000000001, 23.080370000000002], [93.02433, 23.079230000000003], [93.02063000000001, 23.07935], [93.01644, 23.081100000000003], [93.01236, 23.0851], [93.00826, 23.087560000000003], [93.00428000000001, 23.088060000000002], [92.99803000000001, 23.091320000000003], [92.9946, 23.09402], [92.99054000000001, 23.094990000000003], [92.99062, 23.09692], [92.98884000000001, 23.09637], [92.98788, 23.099110000000003], [92.98597000000001, 23.100340000000003], [92.98451000000001, 23.099330000000002], [92.97791000000001, 23.106150000000003], [92.97585000000001, 23.10706], [92.97222000000001, 23.106710000000003], [92.96707, 23.109820000000003], [92.96484000000001, 23.11014], [92.96285, 23.1121], [92.96447, 23.112810000000003], [92.96428, 23.113650000000003], [92.96203000000001, 23.114590000000003], [92.9603, 23.11392], [92.9603, 23.11595], [92.95761, 23.116030000000002], [92.95676, 23.11794], [92.95754000000001, 23.119600000000002], [92.95739, 23.12864], [92.95948000000001, 23.13371], [92.95874, 23.13521], [92.95637, 23.1353], [92.95555, 23.13613], [92.95702000000001, 23.140030000000003], [92.95597000000001, 23.143690000000003], [92.95697000000001, 23.145580000000002], [92.95700000000001, 23.14852], [92.95474, 23.15275], [92.95591, 23.15903], [92.95436000000001, 23.161890000000003], [92.95379000000001, 23.16513], [92.95006000000001, 23.16787], [92.94121000000001, 23.17058], [92.93611000000001, 23.169500000000003], [92.93286, 23.17313], [92.93236, 23.174560000000003], [92.93368000000001, 23.17876], [92.93369000000001, 23.182470000000002], [92.93486000000001, 23.185200000000002], [92.94069, 23.19712], [92.94544, 23.209130000000002], [92.93594, 23.216780000000004], [92.92880000000001, 23.224970000000003], [92.92643000000001, 23.23862], [92.92583, 23.251170000000002], [92.91692, 23.25336], [92.91752000000001, 23.25936], [92.92465000000001, 23.26537], [92.93131000000001, 23.26949], [92.95662, 23.274400000000004], [92.95948000000001, 23.279320000000002], [92.96768, 23.28226], [92.97659, 23.27964], [92.97908000000001, 23.27277], [92.98586, 23.269160000000003]], [[92.98032, 23.2544], [92.97991, 23.25551], [92.97868000000001, 23.25504], [92.97939000000001, 23.253970000000002], [92.98032, 23.2544]], [[92.93402, 23.231430000000003], [92.93478, 23.232170000000004], [92.93389, 23.233050000000002], [92.93304, 23.2325], [92.93363000000001, 23.231450000000002], [92.93402, 23.231430000000003]], [[92.99962000000001, 23.221470000000004], [93.00038, 23.222220000000004], [92.99949000000001, 23.223090000000003], [92.99864000000001, 23.222540000000002], [92.99923000000001, 23.221490000000003], [92.99962000000001, 23.221470000000004]], [[93.08281000000001, 23.20495], [93.0824, 23.20606], [93.08117000000001, 23.20559], [93.08188000000001, 23.204520000000002], [93.08281000000001, 23.20495]], [[93.05638, 23.192190000000004], [93.05597, 23.19331], [93.05474000000001, 23.19283], [93.05545000000001, 23.191760000000002], [93.05638, 23.192190000000004]], [[93.01464000000001, 23.186870000000003], [93.01540000000001, 23.187610000000003], [93.01451, 23.18849], [93.01367, 23.18793], [93.01425, 23.186890000000002], [93.01464000000001, 23.186870000000003]], [[93.13053000000001, 23.165380000000003], [93.1312, 23.16619], [93.13027000000001, 23.166990000000002], [93.12942000000001, 23.166110000000003], [93.13009000000001, 23.165380000000003], [93.13053000000001, 23.165380000000003]], [[92.97928, 23.165540000000004], [92.98004, 23.166290000000004], [92.97915, 23.167170000000002], [92.9783, 23.166610000000002], [92.97888, 23.165560000000003], [92.97928, 23.165540000000004]], [[93.06762, 23.15331], [93.0686, 23.15437], [93.06708, 23.15465], [93.06762, 23.15331]], [[93.08032000000001, 23.13558], [93.07936000000001, 23.14148], [93.07723000000001, 23.14629], [93.05560000000001, 23.15284], [93.05298, 23.155900000000003], [93.04752, 23.15546], [93.04395000000001, 23.151310000000002], [93.03801000000001, 23.15153], [93.03682, 23.148690000000002], [93.02969, 23.14563], [93.02921, 23.14301], [93.03302000000001, 23.137760000000004], [93.03492000000001, 23.132520000000003], [93.03801000000001, 23.13033], [93.04157000000001, 23.130110000000002], [93.04252000000001, 23.12902], [93.03967, 23.12683], [93.04419000000001, 23.12028], [93.05964, 23.112840000000002], [93.06772000000001, 23.111310000000003], [93.07437, 23.11372], [93.07936000000001, 23.127270000000003], [93.08032000000001, 23.13558]], [[93.00088000000001, 23.131320000000002], [93.00164000000001, 23.130580000000002], [93.00266, 23.131320000000002], [93.00177000000001, 23.1322], [93.00088000000001, 23.131320000000002]], [[93.14708, 23.12489], [93.14667000000001, 23.126], [93.14544000000001, 23.12552], [93.14615, 23.124460000000003], [93.14708, 23.12489]], [[93.09289000000001, 23.12646], [93.09248000000001, 23.127570000000002], [93.09124000000001, 23.127100000000002], [93.09196000000001, 23.126030000000004], [93.09289000000001, 23.12646]], [[93.0468, 23.107920000000004], [93.04773, 23.107490000000002], [93.04844000000001, 23.10856], [93.04693, 23.10884], [93.0468, 23.107920000000004]], [[93.09554000000001, 23.065530000000003], [93.09622, 23.06634], [93.09528, 23.067140000000002], [93.09443, 23.066260000000003], [93.0951, 23.065530000000003], [93.09554000000001, 23.065530000000003]], [[93.04344, 23.05626], [93.04412, 23.057070000000003], [93.04318, 23.05787], [93.04233, 23.056980000000003], [93.043, 23.056250000000002], [93.04344, 23.05626]]]}}, {"id": "11", "type": "Feature", "properties": {"village_name": "East Lungdar", "vil_lgd": 271404, "district_name": "Serchhip", "dist_lgd": 268, "subdistrict_name": "East Lungdar", "sdcode": 1911, "block_name": "East Lungdar Part", "block_lgd": 19.0, "gp_name": "", "state_name": "MIZORAM", "state_lgd": 15, "population": 3022, "households": 606}, "geometry": {"type": "Polygon", "coordinates": [[[93.08117000000001, 23.20559], [93.0824, 23.20606], [93.08281000000001, 23.20495], [93.08188000000001, 23.204520000000002], [93.08117000000001, 23.20559]]]}}, {"id": "12", "type": "Feature", "properties": {"village_name": "Bawktlang", "vil_lgd": 271412, "district_name": "Serchhip", "dist_lgd": 268, "subdistrict_name": "East Lungdar", "sdcode": 1911, "block_name": "East Lungdar Part", "block_lgd": 19.0, "gp_name": "", "state_name": "MIZORAM", "state_lgd": 15, "population": 319, "households": 64}, "geometry": {"type": "Polygon", "coordinates": [[[93.06708, 23.15465], [93.0686, 23.15437], [93.06762, 23.15331], [93.06708, 23.15465]]]}}, {"id": "13", "type": "Feature", "properties": {"village_name": "Leng", "vil_lgd": 271413, "district_name": "Serchhip", "dist_lgd": 268, "subdistrict_name": "East Lungdar", "sdcode": 1911, "block_name": "East Lungdar Part", "block_lgd": 19.0, "gp_name": "", "state_name": "MIZORAM", "state_lgd": 15, "population": 746, "households": 170}, "geometry": {"type": "Polygon", "coordinates": [[[93.13009000000001, 23.165380000000003], [93.12942000000001, 23.166110000000003], [93.13027000000001, 23.166990000000002], [93.1312, 23.16619], [93.13053000000001, 23.165380000000003], [93.13009000000001, 23.165380000000003]]]}}, {"id": "14", "type": "Feature", "properties": {"village_name": "Sailulak", "vil_lgd": 271414, "district_name": "Serchhip", "dist_lgd": 268, "subdistrict_name": "East Lungdar", "sdcode": 1911, "block_name": "East Lungdar Part", "block_lgd": 19.0, "gp_name": "", "state_name": "MIZORAM", "state_lgd": 15, "population": 850, "households": 170}, "geometry": {"type": "Polygon", "coordinates": [[[93.14544000000001, 23.12552], [93.14667000000001, 23.126], [93.14708, 23.12489], [93.14615, 23.124460000000003], [93.14544000000001, 23.12552]]]}}, {"id": "15", "type": "Feature", "properties": {"village_name": "Neihloh", "vil_lgd": 271402, "district_name": "Serchhip", "dist_lgd": 268, "subdistrict_name": "Serchhip", "sdcode": 1910, "block_name": "Serchhip", "block_lgd": 18.0, "gp_name": "", "state_name": "MIZORAM", "state_lgd": 15, "population": 345, "households": 62}, "geometry": {"type": "Polygon", "coordinates": [[[92.70159000000001, 23.25024], [92.70248000000001, 23.25112], [92.70337, 23.25024], [92.70261, 23.2495], [92.70159000000001, 23.25024]]]}}, {"id": "16", "type": "Feature", "properties": {"village_name": "Buangpui", "vil_lgd": 271401, "district_name": "Serchhip", "dist_lgd": 268, "subdistrict_name": "Serchhip", "sdcode": 1910, "block_name": "Serchhip", "block_lgd": 18.0, "gp_name": "", "state_name": "MIZORAM", "state_lgd": 15, "population": 390, "households": 84}, "geometry": {"type": "Polygon", "coordinates": [[[92.72321000000001, 23.264000000000003], [92.7241, 23.26488], [92.72500000000001, 23.264000000000003], [92.72397000000001, 23.263260000000002], [92.72321000000001, 23.264000000000003]]]}}, {"id": "17", "type": "Feature", "properties": {"village_name": "Bungtlang", "vil_lgd": 271400, "district_name": "Serchhip", "dist_lgd": 268, "subdistrict_name": "Serchhip", "sdcode": 1910, "block_name": "Serchhip", "block_lgd": 18.0, "gp_name": "", "state_name": "MIZORAM", "state_lgd": 15, "population": 1966, "households": 387}, "geometry": {"type": "Polygon", "coordinates": [[[92.88867, 23.186940000000003], [92.88809, 23.187980000000003], [92.88894, 23.188540000000003], [92.88983, 23.18766], [92.88907, 23.18692], [92.88867, 23.186940000000003]]]}}, {"id": "18", "type": "Feature", "properties": {"village_name": "Keitum", "vil_lgd": 271399, "district_name": "Serchhip", "dist_lgd": 268, "subdistrict_name": "Serchhip", "sdcode": 1910, "block_name": "Serchhip", "block_lgd": 18.0, "gp_name": "", "state_name": "MIZORAM", "state_lgd": 15, "population": 2022, "households": 412}, "geometry": {"type": "Polygon", "coordinates": [[[92.90614000000001, 23.23674], [92.90556000000001, 23.23779], [92.90641000000001, 23.23834], [92.9073, 23.237470000000002], [92.90654, 23.236720000000002], [92.90614000000001, 23.23674]]]}}, {"id": "19", "type": "Feature", "properties": {"village_name": "Hriangtlang", "vil_lgd": 271396, "district_name": "Serchhip", "dist_lgd": 268, "subdistrict_name": "Serchhip", "sdcode": 1910, "block_name": "Serchhip", "block_lgd": 18.0, "gp_name": "", "state_name": "MIZORAM", "state_lgd": 15, "population": 590, "households": 104}, "geometry": {"type": "Polygon", "coordinates": [[[92.91724, 23.29307], [92.91657000000001, 23.2938], [92.91741, 23.294680000000003], [92.91835, 23.29388], [92.91768, 23.29307], [92.91724, 23.29307]]]}}, {"id": "20", "type": "Feature", "properties": {"village_name": "Vanchengte", "vil_lgd": 271397, "district_name": "Serchhip", "dist_lgd": 268, "subdistrict_name": "Serchhip", "sdcode": 1910, "block_name": "Serchhip", "block_lgd": 18.0, "gp_name": "", "state_name": "MIZORAM", "state_lgd": 15, "population": 130, "households": 27}, "geometry": {"type": "Polygon", "coordinates": [[[92.89609, 23.32242], [92.89551, 23.32346], [92.89635000000001, 23.32402], [92.89724000000001, 23.323140000000002], [92.89648000000001, 23.322400000000002], [92.89609, 23.32242]]]}}, {"id": "21", "type": "Feature", "properties": {"village_name": "Thinglian Serchhip", "vil_lgd": 271394, "district_name": "Serchhip", "dist_lgd": 268, "subdistrict_name": "Serchhip", "sdcode": 1910, "block_name": "Serchhip", "block_lgd": 18.0, "gp_name": "", "state_name": "MIZORAM", "state_lgd": 15, "population": 502, "households": 79}, "geometry": {"type": "Polygon", "coordinates": [[[92.96434, 23.32259], [92.96557000000001, 23.32306], [92.96598, 23.32195], [92.96505, 23.321520000000003], [92.96434, 23.32259]]]}}, {"id": "22", "type": "Feature", "properties": {"village_name": "Hmunzawl", "vil_lgd": 271395, "district_name": "Serchhip", "dist_lgd": 268, "subdistrict_name": "Serchhip", "sdcode": 1910, "block_name": "Serchhip", "block_lgd": 18.0, "gp_name": "", "state_name": "MIZORAM", "state_lgd": 15, "population": 459, "households": 97}, "geometry": {"type": "Polygon", "coordinates": [[[92.98774, 23.274720000000002], [92.98715000000001, 23.275760000000002], [92.98800000000001, 23.276320000000002], [92.98889000000001, 23.275440000000003], [92.98813000000001, 23.274700000000003], [92.98774, 23.274720000000002]]]}}, {"id": "23", "type": "Feature", "properties": {"village_name": "Vanchengpui", "vil_lgd": 271403, "district_name": "Serchhip", "dist_lgd": 268, "subdistrict_name": "Serchhip", "sdcode": 1910, "block_name": "Serchhip", "block_lgd": 18.0, "gp_name": "", "state_name": "MIZORAM", "state_lgd": 15, "population": 754, "households": 138}, "geometry": {"type": "Polygon", "coordinates": [[[92.74052, 23.316390000000002], [92.73984, 23.31558], [92.73874, 23.31631], [92.73993, 23.317140000000002], [92.74052, 23.316390000000002]]]}}, {"id": "24", "type": "Feature", "properties": {"village_name": "Data Partially Available", "vil_lgd": 999999, "district_name": "Serchhip", "dist_lgd": 268, "subdistrict_name": "Serchhip", "sdcode": 1910, "block_name": "", "block_lgd": null, "gp_name": "", "state_name": "MIZORAM", "state_lgd": 15, "population": 0, "households": 0}, "geometry": {"type": "Polygon", "coordinates": [[[93.02472, 23.258360000000003], [93.01866000000001, 23.260980000000004], [93.01010000000001, 23.26622], [92.98586, 23.269160000000003], [92.97908000000001, 23.27277], [92.97659, 23.27964], [92.96768, 23.28226], [92.95948000000001, 23.279320000000002], [92.95662, 23.274400000000004], [92.93131000000001, 23.26949], [92.92465000000001, 23.26537], [92.91752000000001, 23.25936], [92.91692, 23.25336], [92.92583, 23.251170000000002], [92.92643000000001, 23.23862], [92.92880000000001, 23.224970000000003], [92.93594, 23.216780000000004], [92.94544, 23.209130000000002], [92.94069, 23.19712], [92.93486000000001, 23.185200000000002], [92.93130000000001, 23.188090000000003], [92.92883, 23.186290000000003], [92.92299000000001, 23.18615], [92.91694000000001, 23.18909], [92.91465000000001, 23.183410000000002], [92.91291000000001, 23.18193], [92.90768000000001, 23.17977], [92.90526000000001, 23.17752], [92.90182, 23.177280000000003], [92.89579, 23.17827], [92.89121, 23.17695], [92.88712000000001, 23.174970000000002], [92.88325, 23.17029], [92.88035, 23.169680000000003], [92.87450000000001, 23.1703], [92.87315000000001, 23.172120000000003], [92.87111, 23.17291], [92.86961000000001, 23.175790000000003], [92.86258000000001, 23.17407], [92.86124000000001, 23.178870000000003], [92.85802000000001, 23.183680000000003], [92.85887000000001, 23.18933], [92.85476000000001, 23.190630000000002], [92.85520000000001, 23.192380000000004], [92.85424, 23.1945], [92.85509, 23.19872], [92.85640000000001, 23.19966], [92.85549, 23.202820000000003], [92.85711, 23.207440000000002], [92.85587000000001, 23.2097], [92.85691000000001, 23.21018], [92.85701, 23.212690000000002], [92.85854, 23.214250000000003], [92.85721000000001, 23.215390000000003], [92.85693, 23.217470000000002], [92.85554, 23.21846], [92.85336000000001, 23.218660000000003], [92.85161000000001, 23.220460000000003], [92.8519, 23.221590000000003], [92.85057, 23.22378], [92.84903000000001, 23.22341], [92.84792, 23.22427], [92.8482, 23.226000000000003], [92.84736000000001, 23.227330000000002], [92.84531000000001, 23.227600000000002], [92.84704, 23.229020000000002], [92.84484, 23.229770000000002], [92.84615000000001, 23.229930000000003], [92.84563000000001, 23.230900000000002], [92.84611000000001, 23.23207], [92.84424000000001, 23.23299], [92.84645, 23.23383], [92.84659, 23.23495], [92.84481000000001, 23.23458], [92.84584000000001, 23.236800000000002], [92.83661000000001, 23.242070000000002], [92.83583, 23.244500000000002], [92.83383, 23.244780000000002], [92.83331000000001, 23.24595], [92.83170000000001, 23.2452], [92.8298, 23.246000000000002], [92.82546, 23.242700000000003], [92.82132000000001, 23.242530000000002], [92.82059000000001, 23.24087], [92.81786000000001, 23.241370000000003], [92.81501, 23.237370000000002], [92.81759000000001, 23.23393], [92.8165, 23.23132], [92.81537, 23.230480000000004], [92.81635000000001, 23.230040000000002], [92.81591, 23.229300000000002], [92.81658, 23.228240000000003], [92.81231000000001, 23.22622], [92.80886000000001, 23.227790000000002], [92.79803000000001, 23.228040000000004], [92.79267, 23.229740000000003], [92.78727, 23.232570000000003], [92.78245000000001, 23.22847], [92.77981000000001, 23.227390000000003], [92.77781, 23.229680000000002], [92.77528000000001, 23.230300000000003], [92.77244, 23.232930000000003], [92.76924000000001, 23.23431], [92.76552000000001, 23.23344], [92.76324000000001, 23.231160000000003], [92.75452000000001, 23.22697], [92.75319, 23.2327], [92.74448000000001, 23.233500000000003], [92.74298, 23.232670000000002], [92.74088, 23.23308], [92.73811, 23.233970000000003], [92.73825000000001, 23.236690000000003], [92.73108, 23.237000000000002], [92.73114000000001, 23.23973], [92.72500000000001, 23.239420000000003], [92.72176, 23.240090000000002], [92.72116000000001, 23.238280000000003], [92.72040000000001, 23.238190000000003], [92.72193000000001, 23.235670000000002], [92.72165000000001, 23.22577], [92.72249000000001, 23.21909], [92.72137000000001, 23.214350000000003], [92.72181, 23.207610000000003], [92.71963000000001, 23.20579], [92.72048000000001, 23.203090000000003], [92.71967000000001, 23.199820000000003], [92.72038, 23.197650000000003], [92.71951000000001, 23.19713], [92.72001, 23.194260000000003], [92.71768, 23.191540000000003], [92.71340000000001, 23.190410000000004], [92.70949, 23.19124], [92.70399, 23.195140000000002], [92.69997000000001, 23.19613], [92.70177000000001, 23.197740000000003], [92.70087000000001, 23.20107], [92.70234, 23.20391], [92.70224, 23.20541], [92.7009, 23.20933], [92.69881000000001, 23.212380000000003], [92.69334, 23.2164], [92.69188000000001, 23.218580000000003], [92.69124000000001, 23.223460000000003], [92.68953, 23.228240000000003], [92.69057000000001, 23.232730000000004], [92.68993, 23.240270000000002], [92.68655000000001, 23.246080000000003], [92.69019, 23.250020000000003], [92.69051, 23.254910000000002], [92.68812000000001, 23.258090000000003], [92.68900000000001, 23.26084], [92.68788, 23.263640000000002], [92.68946000000001, 23.26518], [92.6894, 23.267390000000002], [92.68534000000001, 23.275900000000004], [92.68732000000001, 23.27821], [92.68737, 23.279280000000004], [92.68459000000001, 23.28083], [92.68592000000001, 23.28292], [92.68337000000001, 23.289920000000002], [92.68484000000001, 23.294600000000003], [92.68414000000001, 23.296680000000002], [92.68652, 23.297430000000002], [92.68701, 23.29896], [92.68696000000001, 23.300340000000002], [92.68417000000001, 23.303790000000003], [92.68620000000001, 23.30401], [92.68643, 23.30619], [92.68843000000001, 23.307270000000003], [92.68747, 23.309350000000002], [92.68418000000001, 23.311860000000003], [92.68477000000001, 23.31624], [92.68309, 23.322750000000003], [92.68767000000001, 23.32487], [92.68866000000001, 23.323], [92.6923, 23.322850000000003], [92.69416000000001, 23.323990000000002], [92.69326000000001, 23.32597], [92.69448000000001, 23.327440000000003], [92.69795, 23.32428], [92.69932000000001, 23.320510000000002], [92.70059, 23.319570000000002], [92.70420000000001, 23.318920000000002], [92.71352, 23.321800000000003], [92.71424, 23.3272], [92.71635, 23.32889], [92.71756, 23.331220000000002], [92.71756, 23.333620000000003], [92.71634, 23.33632], [92.71707, 23.33744], [92.71674, 23.338440000000002], [92.71782, 23.33958], [92.71683, 23.343890000000002], [92.71922, 23.346590000000003], [92.71512000000001, 23.348850000000002], [92.71545, 23.349510000000002], [92.72090000000001, 23.350240000000003], [92.72135, 23.35096], [92.72340000000001, 23.34872], [92.72639000000001, 23.34916], [92.72827000000001, 23.34815], [92.72921000000001, 23.34917], [92.73297000000001, 23.34934], [92.73142000000001, 23.34494], [92.73294000000001, 23.34487], [92.73388000000001, 23.343420000000002], [92.73554000000001, 23.343670000000003], [92.74031000000001, 23.339190000000002], [92.74543000000001, 23.340780000000002], [92.74884, 23.339840000000002], [92.75171, 23.341710000000003], [92.75435, 23.340840000000004], [92.75618, 23.33921], [92.7625, 23.338440000000002], [92.76540000000001, 23.336170000000003], [92.76959000000001, 23.335710000000002], [92.77406, 23.330810000000003], [92.77562, 23.330620000000003], [92.77606, 23.32869], [92.77792000000001, 23.328370000000003], [92.77929, 23.32703], [92.78288, 23.32854], [92.79127000000001, 23.328390000000002], [92.79554, 23.327240000000003], [92.80984000000001, 23.328110000000002], [92.81364, 23.325480000000002], [92.82005000000001, 23.32853], [92.82161, 23.331480000000003], [92.82586, 23.33426], [92.83261, 23.334880000000002], [92.83854000000001, 23.333280000000002], [92.84031, 23.33631], [92.84103, 23.33997], [92.83811000000001, 23.34202], [92.83868000000001, 23.346030000000003], [92.83733000000001, 23.348290000000002], [92.83541000000001, 23.34928], [92.83532000000001, 23.35172], [92.83387, 23.35341], [92.83433000000001, 23.35575], [92.83291000000001, 23.35979], [92.83295000000001, 23.3625], [92.82926, 23.367220000000003], [92.82718000000001, 23.366940000000003], [92.82237, 23.370870000000004], [92.82325, 23.372560000000004], [92.82790000000001, 23.375780000000002], [92.82707, 23.37752], [92.82962, 23.378660000000004], [92.82938000000001, 23.380860000000002], [92.83087, 23.38409], [92.82985000000001, 23.384850000000004], [92.82777, 23.383540000000004], [92.82466000000001, 23.38464], [92.82425, 23.38641], [92.82181000000001, 23.38493], [92.82117000000001, 23.38606], [92.82174, 23.391450000000003], [92.82388, 23.39048], [92.82486, 23.39111], [92.8221, 23.39429], [92.825, 23.401290000000003], [92.82663000000001, 23.40284], [92.82759, 23.40809], [92.83023000000001, 23.411620000000003], [92.83002, 23.41532], [92.8284, 23.415370000000003], [92.82822, 23.417330000000003], [92.82694000000001, 23.41928], [92.82905000000001, 23.41897], [92.82943, 23.41957], [92.82841, 23.4203], [92.82949, 23.42122], [92.83127, 23.42123], [92.82965, 23.424100000000003], [92.83225, 23.424860000000002], [92.83138000000001, 23.42649], [92.83195, 23.428510000000003], [92.83127, 23.42996], [92.83398000000001, 23.430560000000003], [92.83500000000001, 23.43334], [92.83510000000001, 23.439500000000002], [92.83641, 23.440900000000003], [92.83551000000001, 23.4418], [92.83642, 23.443520000000003], [92.83496000000001, 23.444010000000002], [92.83478000000001, 23.446320000000004], [92.83624, 23.447210000000002], [92.83520000000001, 23.4479], [92.83597, 23.449040000000004], [92.83437, 23.45062], [92.83518000000001, 23.45165], [92.83458, 23.45259], [92.83615, 23.453750000000003], [92.83473000000001, 23.454240000000002], [92.83297, 23.45735], [92.83340000000001, 23.459410000000002], [92.83169000000001, 23.46027], [92.8328, 23.46243], [92.83471, 23.46308], [92.83592, 23.465600000000002], [92.83460000000001, 23.468560000000004], [92.83068, 23.468700000000002], [92.82455, 23.472640000000002], [92.81809000000001, 23.473010000000002], [92.79946000000001, 23.479490000000002], [92.79859, 23.48497], [92.79719, 23.485960000000002], [92.79801, 23.48723], [92.79554, 23.489210000000003], [92.7968, 23.489900000000002], [92.79836, 23.49361], [92.79815, 23.494880000000002], [92.79920000000001, 23.49643], [92.79855, 23.497840000000004], [92.79943, 23.49949], [92.799, 23.501970000000004], [92.80018000000001, 23.502660000000002], [92.80074, 23.505370000000003], [92.79794000000001, 23.506990000000002], [92.79867, 23.50796], [92.79777000000001, 23.51011], [92.79907000000001, 23.511120000000002], [92.79581, 23.511940000000003], [92.79679, 23.515990000000002], [92.79499000000001, 23.516820000000003], [92.79807000000001, 23.52042], [92.79691000000001, 23.521620000000002], [92.79644, 23.52389], [92.79835000000001, 23.5238], [92.79867, 23.52445], [92.79461, 23.526560000000003], [92.79673000000001, 23.527910000000002], [92.79581, 23.532310000000003], [92.79665000000001, 23.53339], [92.79782, 23.532980000000002], [92.79844000000001, 23.53366], [92.79813000000001, 23.534450000000003], [92.79663000000001, 23.53443], [92.79614000000001, 23.53628], [92.79750000000001, 23.53696], [92.79935, 23.536220000000004], [92.80191, 23.53894], [92.79917, 23.538680000000003], [92.80041000000001, 23.541580000000003], [92.79963000000001, 23.543300000000002], [92.79830000000001, 23.543930000000003], [92.79901000000001, 23.545610000000003], [92.79757000000001, 23.547430000000002], [92.79791, 23.549960000000002], [92.79206, 23.5527], [92.79772000000001, 23.560100000000002], [92.80865000000001, 23.56228], [92.82291000000001, 23.56097], [92.82814, 23.56708], [92.83717000000001, 23.567510000000002], [92.85143000000001, 23.56446], [92.85916, 23.561680000000003], [92.86258000000001, 23.559120000000004], [92.86677, 23.5578], [92.86853, 23.55476], [92.8713, 23.554530000000003], [92.87536, 23.558000000000003], [92.87938000000001, 23.55864], [92.88231, 23.558210000000003], [92.88136, 23.56061], [92.88275, 23.562790000000003], [92.88046000000001, 23.564210000000003], [92.88394000000001, 23.56716], [92.88388, 23.5685], [92.88751, 23.57259], [92.88906, 23.572090000000003], [92.89132000000001, 23.5727], [92.89155000000001, 23.573420000000002], [92.8905, 23.57441], [92.89144, 23.574640000000002], [92.89141000000001, 23.576130000000003], [92.89503, 23.57619], [92.89528000000001, 23.577650000000002], [92.89882, 23.577920000000002], [92.89789, 23.576010000000004], [92.8986, 23.575010000000002], [92.89692000000001, 23.571700000000003], [92.90238000000001, 23.56602], [92.90677000000001, 23.564310000000003], [92.90987000000001, 23.561000000000003], [92.92416, 23.557760000000002], [92.93436000000001, 23.559140000000003], [92.93646000000001, 23.560200000000002], [92.94426000000001, 23.5588], [92.94842000000001, 23.55468], [92.95302000000001, 23.549220000000002], [92.95952000000001, 23.537950000000002], [92.96128, 23.532600000000002], [92.96429, 23.529570000000003], [92.97173000000001, 23.526410000000002], [92.97550000000001, 23.52111], [92.98415000000001, 23.512220000000003], [92.9856, 23.507730000000002], [92.98223, 23.50155], [92.98167000000001, 23.499360000000003], [92.98252000000001, 23.496280000000002], [92.97914, 23.49239], [92.98474, 23.48832], [92.98616000000001, 23.485870000000002], [92.99618000000001, 23.47897], [92.99702, 23.479070000000004], [92.99796, 23.481270000000002], [93.00043000000001, 23.482020000000002], [93.00245000000001, 23.48422], [93.00264000000001, 23.48316], [93.00599000000001, 23.4813], [93.00901, 23.478340000000003], [93.01950000000001, 23.47406], [93.02063000000001, 23.472040000000003], [93.02296000000001, 23.47077], [93.03398000000001, 23.47371], [93.03572000000001, 23.47522], [93.03656000000001, 23.477600000000002], [93.04126000000001, 23.484150000000003], [93.04494000000001, 23.485390000000002], [93.04901000000001, 23.484820000000003], [93.06049, 23.477330000000002], [93.06401000000001, 23.47681], [93.06649, 23.47765], [93.0724, 23.47737], [93.07748000000001, 23.478080000000002], [93.07856000000001, 23.473830000000003], [93.08169000000001, 23.469250000000002], [93.07870000000001, 23.46768], [93.07052, 23.468780000000002], [93.06996000000001, 23.46507], [93.07523, 23.45841], [93.07856000000001, 23.455720000000003], [93.0798, 23.455180000000002], [93.08421000000001, 23.455530000000003], [93.08680000000001, 23.45325], [93.09447, 23.45098], [93.0977, 23.451060000000002], [93.09884000000001, 23.447930000000003], [93.09834000000001, 23.44384], [93.08575, 23.433320000000002], [93.08493000000001, 23.42958], [93.08512, 23.425500000000003], [93.08372000000001, 23.422690000000003], [93.08227000000001, 23.413780000000003], [93.07956, 23.40952], [93.07891000000001, 23.40555], [93.0741, 23.401110000000003], [93.06833, 23.397340000000003], [93.0665, 23.397090000000002], [93.06326000000001, 23.400270000000003], [93.05943, 23.399720000000002], [93.05469000000001, 23.402790000000003], [93.05331000000001, 23.402900000000002], [93.04381000000001, 23.40078], [93.03604000000001, 23.400000000000002], [93.03424000000001, 23.399440000000002], [93.03247, 23.39769], [93.03304000000001, 23.394560000000002], [93.03586000000001, 23.39233], [93.03623, 23.38727], [93.03754, 23.384300000000003], [93.04138, 23.37912], [93.04859, 23.372760000000003], [93.04859, 23.36973], [93.04784000000001, 23.368280000000002], [93.04566000000001, 23.366840000000003], [93.0425, 23.361040000000003], [93.04213000000001, 23.35846], [93.04098, 23.3575], [93.04167000000001, 23.354450000000003], [93.03972, 23.349], [93.03709, 23.348270000000003], [93.03581000000001, 23.347080000000002], [93.03703, 23.345180000000003], [93.03716000000001, 23.343290000000003], [93.03380000000001, 23.336550000000003], [93.03439, 23.33238], [93.03258000000001, 23.330540000000003], [93.03192000000001, 23.326790000000003], [93.02749000000001, 23.324830000000002], [93.02479000000001, 23.320870000000003], [93.01894, 23.31876], [93.00573000000001, 23.304550000000003], [93.00676000000001, 23.3014], [93.00538, 23.29716], [93.00514000000001, 23.290370000000003], [93.00694000000001, 23.287100000000002], [93.00707000000001, 23.281440000000003], [93.01065000000001, 23.27446], [93.01951000000001, 23.26798], [93.02377000000001, 23.26792], [93.02567, 23.266840000000002], [93.0306, 23.265990000000002], [93.031, 23.264850000000003], [93.02802000000001, 23.262790000000003], [93.02770000000001, 23.261740000000003], [93.02884, 23.26066], [93.03127, 23.260350000000003], [93.03198, 23.258570000000002], [93.02472, 23.258360000000003]], [[92.85807000000001, 23.54879], [92.85766000000001, 23.5499], [92.85643, 23.54943], [92.85715, 23.548360000000002], [92.85807000000001, 23.54879]], [[92.93128, 23.526780000000002], [92.93087000000001, 23.527890000000003], [92.92964, 23.527420000000003], [92.93035, 23.52635], [92.93128, 23.526780000000002]], [[92.84490000000001, 23.526370000000004], [92.84557000000001, 23.5271], [92.84472000000001, 23.527970000000003], [92.84379000000001, 23.52718], [92.84446000000001, 23.526370000000004], [92.84490000000001, 23.526370000000004]], [[92.85907, 23.52418], [92.85961, 23.52552], [92.85809, 23.52524], [92.85907, 23.52418]], [[92.95747, 23.49276], [92.95624000000001, 23.493240000000004], [92.95583, 23.492130000000003], [92.95676, 23.4917], [92.95747, 23.49276]], [[92.87286, 23.493660000000002], [92.87362, 23.494400000000002], [92.87273, 23.49528], [92.87188, 23.49473], [92.87246, 23.49368], [92.87286, 23.493660000000002]], [[92.82836, 23.487330000000004], [92.82795, 23.48845], [92.82672000000001, 23.48797], [92.82744000000001, 23.486900000000002], [92.82836, 23.487330000000004]], [[92.82154000000001, 23.475340000000003], [92.82256000000001, 23.47493], [92.82315000000001, 23.47605], [92.82167000000001, 23.476260000000003], [92.82154000000001, 23.475340000000003]], [[92.93798000000001, 23.46271], [92.93874000000001, 23.46345], [92.93824000000001, 23.464250000000003], [92.93718000000001, 23.46405], [92.93706, 23.463130000000003], [92.93798000000001, 23.46271]], [[92.87072, 23.465320000000002], [92.87148, 23.466060000000002], [92.87097000000001, 23.46686], [92.86992000000001, 23.46667], [92.86979000000001, 23.465750000000003], [92.87072, 23.465320000000002]], [[93.00572000000001, 23.435450000000003], [93.00648000000001, 23.436190000000003], [93.00559000000001, 23.437070000000002], [93.00474000000001, 23.436510000000002], [93.00533, 23.435470000000002], [93.00572000000001, 23.435450000000003]], [[92.91471000000001, 23.419960000000003], [92.91564000000001, 23.41953], [92.91635000000001, 23.42059], [92.91484000000001, 23.42087], [92.91471000000001, 23.419960000000003]], [[92.88610000000001, 23.27455], [92.88669, 23.27973], [92.88491, 23.296110000000002], [92.88224000000001, 23.3062], [92.87867000000001, 23.31275], [92.87689, 23.31821], [92.87451, 23.328570000000003], [92.86649000000001, 23.3414], [92.86114, 23.35422], [92.86322000000001, 23.3594], [92.86352000000001, 23.367310000000003], [92.86263000000001, 23.3744], [92.86501000000001, 23.37958], [92.86411000000001, 23.390490000000003], [92.86441, 23.396490000000004], [92.86917000000001, 23.40303], [92.87035, 23.412300000000002], [92.86619, 23.42266], [92.85401, 23.42593], [92.84659, 23.424570000000003], [92.84183, 23.41476], [92.83470000000001, 23.38913], [92.83589, 23.380940000000002], [92.84183, 23.36813], [92.84361000000001, 23.343310000000002], [92.84540000000001, 23.334300000000002], [92.84361000000001, 23.32748], [92.84243000000001, 23.317120000000003], [92.83738000000001, 23.305930000000004], [92.84005, 23.29829], [92.84094, 23.289830000000002], [92.84777000000001, 23.284640000000003], [92.85372000000001, 23.278370000000002], [92.86233000000001, 23.272360000000003], [92.86768000000001, 23.26499], [92.87362, 23.26281], [92.87748, 23.26499], [92.88610000000001, 23.27455]], [[92.79598000000001, 23.305390000000003], [92.78469000000001, 23.304850000000002], [92.77816000000001, 23.30703], [92.77548, 23.311120000000003], [92.7737, 23.31603], [92.7639, 23.316850000000002], [92.75706000000001, 23.31358], [92.75112000000001, 23.308400000000002], [92.74488000000001, 23.29257], [92.73537, 23.27783], [92.73419000000001, 23.27101], [92.74132, 23.2691], [92.73924000000001, 23.26282], [92.73953, 23.254910000000002], [92.74548, 23.251900000000003], [92.7535, 23.246170000000003], [92.75587, 23.246440000000003], [92.75795000000001, 23.248630000000002], [92.76479, 23.249450000000003], [92.77162000000001, 23.25327], [92.79301000000001, 23.25955], [92.79747, 23.2661], [92.80163, 23.278380000000002], [92.80163, 23.288480000000003], [92.79895, 23.296390000000002], [92.79598000000001, 23.305390000000003]], [[92.70159000000001, 23.25024], [92.70261, 23.2495], [92.70337, 23.25024], [92.70248000000001, 23.25112], [92.70159000000001, 23.25024]], [[92.72321000000001, 23.264000000000003], [92.72397000000001, 23.263260000000002], [92.72500000000001, 23.264000000000003], [92.7241, 23.26488], [92.72321000000001, 23.264000000000003]], [[92.74052, 23.316390000000002], [92.73993, 23.317140000000002], [92.73874, 23.31631], [92.73984, 23.31558], [92.74052, 23.316390000000002]], [[92.98742000000001, 23.381790000000002], [92.98818000000001, 23.382530000000003], [92.98729, 23.38341], [92.98644, 23.38286], [92.98702, 23.38181], [92.98742000000001, 23.381790000000002]], [[93.00795000000001, 23.362610000000004], [93.00862000000001, 23.36334], [93.00777000000001, 23.364210000000003], [93.00684000000001, 23.36342], [93.00751000000001, 23.362610000000004], [93.00795000000001, 23.362610000000004]], [[92.92562000000001, 23.364990000000002], [92.92638000000001, 23.365740000000002], [92.92549000000001, 23.36661], [92.92464000000001, 23.36606], [92.92523000000001, 23.36501], [92.92562000000001, 23.364990000000002]], [[92.96598, 23.32195], [92.96557000000001, 23.32306], [92.96434, 23.32259], [92.96505, 23.321520000000003], [92.96598, 23.32195]], [[92.89648000000001, 23.322400000000002], [92.89724000000001, 23.323140000000002], [92.89635000000001, 23.32402], [92.89551, 23.32346], [92.89609, 23.32242], [92.89648000000001, 23.322400000000002]], [[92.91768, 23.29307], [92.91835, 23.29388], [92.91741, 23.294680000000003], [92.91657000000001, 23.2938], [92.91724, 23.29307], [92.91768, 23.29307]], [[92.88550000000001, 23.26686], [92.88626000000001, 23.2676], [92.88537000000001, 23.26848], [92.88452000000001, 23.26792], [92.88511000000001, 23.26688], [92.88550000000001, 23.26686]], [[92.90654, 23.236720000000002], [92.9073, 23.237470000000002], [92.90641000000001, 23.23834], [92.90556000000001, 23.23779], [92.90614000000001, 23.23674], [92.90654, 23.236720000000002]], [[92.88907, 23.18692], [92.88983, 23.18766], [92.88894, 23.188540000000003], [92.88809, 23.187980000000003], [92.88867, 23.186940000000003], [92.88907, 23.18692]], [[92.98813000000001, 23.274700000000003], [92.98889000000001, 23.275440000000003], [92.98800000000001, 23.276320000000002], [92.98715000000001, 23.275760000000002], [92.98774, 23.274720000000002], [92.98813000000001, 23.274700000000003]]]}}, {"id": "25", "type": "Feature", "properties": {"village_name": "Puallawi", "vil_lgd": 271415, "district_name": "Serchhip", "dist_lgd": 268, "subdistrict_name": "East Lungdar", "sdcode": 1911, "block_name": "East Lungdar Part", "block_lgd": 19.0, "gp_name": "", "state_name": "MIZORAM", "state_lgd": 15, "population": 0, "households": 0}, "geometry": {"type": "Polygon", "coordinates": [[[93.09124000000001, 23.127100000000002], [93.09248000000001, 23.127570000000002], [93.09289000000001, 23.12646], [93.09196000000001, 23.126030000000004], [93.09124000000001, 23.127100000000002]]]}}, {"id": "26", "type": "Feature", "properties": {"village_name": "Bawngchawm", "vil_lgd": 271398, "district_name": "Serchhip", "dist_lgd": 268, "subdistrict_name": "Serchhip", "sdcode": 1910, "block_name": "Serchhip", "block_lgd": 18.0, "gp_name": "", "state_name": "MIZORAM", "state_lgd": 15, "population": 0, "households": 0}, "geometry": {"type": "Polygon", "coordinates": [[[92.88511000000001, 23.26688], [92.88452000000001, 23.26792], [92.88537000000001, 23.26848], [92.88626000000001, 23.2676], [92.88550000000001, 23.26686], [92.88511000000001, 23.26688]]]}}, {"id": "27", "type": "Feature", "properties": {"village_name": "Thenzawl", "vil_lgd": 249777, "district_name": "Serchhip", "dist_lgd": 268, "subdistrict_name": "Serchhip", "sdcode": 1910, "block_name": "", "block_lgd": 0.0, "gp_name": "", "state_name": "MIZORAM", "state_lgd": 15, "population": 7259, "households": 1440}, "geometry": {"type": "Polygon", "coordinates": [[[92.78469000000001, 23.304850000000002], [92.79598000000001, 23.305390000000003], [92.79895, 23.296390000000002], [92.80163, 23.288480000000003], [92.80163, 23.278380000000002], [92.79747, 23.2661], [92.79301000000001, 23.25955], [92.77162000000001, 23.25327], [92.76479, 23.249450000000003], [92.75795000000001, 23.248630000000002], [92.75587, 23.246440000000003], [92.7535, 23.246170000000003], [92.74548, 23.251900000000003], [92.73953, 23.254910000000002], [92.73924000000001, 23.26282], [92.74132, 23.2691], [92.73419000000001, 23.27101], [92.73537, 23.27783], [92.74488000000001, 23.29257], [92.75112000000001, 23.308400000000002], [92.75706000000001, 23.31358], [92.7639, 23.316850000000002], [92.7737, 23.31603], [92.77548, 23.311120000000003], [92.77816000000001, 23.30703], [92.78469000000001, 23.304850000000002]]]}}, {"id": "28", "type": "Feature", "properties": {"village_name": "Serchhip", "vil_lgd": 249776, "district_name": "Serchhip", "dist_lgd": 268, "subdistrict_name": "Serchhip", "sdcode": 1910, "block_name": "", "block_lgd": 0.0, "gp_name": "", "state_name": "MIZORAM", "state_lgd": 15, "population": 21158, "households": 4085}, "geometry": {"type": "Polygon", "coordinates": [[[92.87362, 23.26281], [92.86768000000001, 23.26499], [92.86233000000001, 23.272360000000003], [92.85372000000001, 23.278370000000002], [92.84777000000001, 23.284640000000003], [92.84094, 23.289830000000002], [92.84005, 23.29829], [92.83738000000001, 23.305930000000004], [92.84243000000001, 23.317120000000003], [92.84361000000001, 23.32748], [92.84540000000001, 23.334300000000002], [92.84361000000001, 23.343310000000002], [92.84183, 23.36813], [92.83589, 23.380940000000002], [92.83470000000001, 23.38913], [92.84183, 23.41476], [92.84659, 23.424570000000003], [92.85401, 23.42593], [92.86619, 23.42266], [92.87035, 23.412300000000002], [92.86917000000001, 23.40303], [92.86441, 23.396490000000004], [92.86411000000001, 23.390490000000003], [92.86501000000001, 23.37958], [92.86263000000001, 23.3744], [92.86352000000001, 23.367310000000003], [92.86322000000001, 23.3594], [92.86114, 23.35422], [92.86649000000001, 23.3414], [92.87451, 23.328570000000003], [92.87689, 23.31821], [92.87867000000001, 23.31275], [92.88224000000001, 23.3062], [92.88491, 23.296110000000002], [92.88669, 23.27973], [92.88610000000001, 23.27455], [92.87748, 23.26499], [92.87362, 23.26281]]]}}, {"id": "29", "type": "Feature", "properties": {"village_name": "N Vanlaiphai", "vil_lgd": 249778, "district_name": "Serchhip", "dist_lgd": 268, "subdistrict_name": "East Lungdar", "sdcode": 1911, "block_name": "", "block_lgd": 0.0, "gp_name": "", "state_name": "MIZORAM", "state_lgd": 15, "population": 3602, "households": 766}, "geometry": {"type": "Polygon", "coordinates": [[[93.07437, 23.11372], [93.06772000000001, 23.111310000000003], [93.05964, 23.112840000000002], [93.04419000000001, 23.12028], [93.03967, 23.12683], [93.04252000000001, 23.12902], [93.04157000000001, 23.130110000000002], [93.03801000000001, 23.13033], [93.03492000000001, 23.132520000000003], [93.03302000000001, 23.137760000000004], [93.02921, 23.14301], [93.02969, 23.14563], [93.03682, 23.148690000000002], [93.03801000000001, 23.15153], [93.04395000000001, 23.151310000000002], [93.04752, 23.15546], [93.05298, 23.155900000000003], [93.05560000000001, 23.15284], [93.07723000000001, 23.14629], [93.07936000000001, 23.14148], [93.08032000000001, 23.13558], [93.07936000000001, 23.127270000000003], [93.07437, 23.11372]]]}}, {"id": "30", "type": "Feature", "properties": {"village_name": "Sialhau", "vil_lgd": 271391, "district_name": "Serchhip", "dist_lgd": 268, "subdistrict_name": "Serchhip", "sdcode": 1910, "block_name": "Serchhip", "block_lgd": 18.0, "gp_name": "", "state_name": "MIZORAM", "state_lgd": 15, "population": 630, "households": 111}, "geometry": {"type": "Polygon", "coordinates": [[[92.92523000000001, 23.36501], [92.92464000000001, 23.36606], [92.92549000000001, 23.36661], [92.92638000000001, 23.365740000000002], [92.92562000000001, 23.364990000000002], [92.92523000000001, 23.36501]]]}}, {"id": "31", "type": "Feature", "properties": {"village_name": "Thentlang", "vil_lgd": 271390, "district_name": "Serchhip", "dist_lgd": 268, "subdistrict_name": "Serchhip", "sdcode": 1910, "block_name": "Serchhip", "block_lgd": 18.0, "gp_name": "", "state_name": "MIZORAM", "state_lgd": 15, "population": 667, "households": 132}, "geometry": {"type": "Polygon", "coordinates": [[[92.91471000000001, 23.419960000000003], [92.91484000000001, 23.42087], [92.91635000000001, 23.42059], [92.91564000000001, 23.41953], [92.91471000000001, 23.419960000000003]]]}}, {"id": "32", "type": "Feature", "properties": {"village_name": "Khumtung", "vil_lgd": 271379, "district_name": "Serchhip", "dist_lgd": 268, "subdistrict_name": "Serchhip", "sdcode": 1910, "block_name": "Thingsulthliah Part", "block_lgd": 17.0, "gp_name": "", "state_name": "MIZORAM", "state_lgd": 15, "population": 1150, "households": 236}, "geometry": {"type": "Polygon", "coordinates": [[[92.85643, 23.54943], [92.85766000000001, 23.5499], [92.85807000000001, 23.54879], [92.85715, 23.548360000000002], [92.85643, 23.54943]]]}}, {"id": "33", "type": "Feature", "properties": {"village_name": "Chhuanthar Tlangnuam", "vil_lgd": 271382, "district_name": "Serchhip", "dist_lgd": 268, "subdistrict_name": "Serchhip", "sdcode": 1910, "block_name": "Thingsulthliah Part", "block_lgd": 17.0, "gp_name": "", "state_name": "MIZORAM", "state_lgd": 15, "population": 3220, "households": 551}, "geometry": {"type": "Polygon", "coordinates": [[[92.84446000000001, 23.526370000000004], [92.84379000000001, 23.52718], [92.84472000000001, 23.527970000000003], [92.84557000000001, 23.5271], [92.84490000000001, 23.526370000000004], [92.84446000000001, 23.526370000000004]]]}}, {"id": "34", "type": "Feature", "properties": {"village_name": "Chanin", "vil_lgd": 271381, "district_name": "Serchhip", "dist_lgd": 268, "subdistrict_name": "Serchhip", "sdcode": 1910, "block_name": "Thingsulthliah Part", "block_lgd": 17.0, "gp_name": "", "state_name": "MIZORAM", "state_lgd": 15, "population": 147, "households": 33}, "geometry": {"type": "Polygon", "coordinates": [[[92.85809, 23.52524], [92.85961, 23.52552], [92.85907, 23.52418], [92.85809, 23.52524]]]}}, {"id": "35", "type": "Feature", "properties": {"village_name": "Hmawngkawn", "vil_lgd": 271384, "district_name": "Serchhip", "dist_lgd": 268, "subdistrict_name": "Serchhip", "sdcode": 1910, "block_name": "Thingsulthliah Part", "block_lgd": 17.0, "gp_name": "", "state_name": "MIZORAM", "state_lgd": 15, "population": 170, "households": 34}, "geometry": {"type": "Polygon", "coordinates": [[[92.82672000000001, 23.48797], [92.82795, 23.48845], [92.82836, 23.487330000000004], [92.82744000000001, 23.486900000000002], [92.82672000000001, 23.48797]]]}}, {"id": "36", "type": "Feature", "properties": {"village_name": "Buhkangkawn", "vil_lgd": 271383, "district_name": "Serchhip", "dist_lgd": 268, "subdistrict_name": "Serchhip", "sdcode": 1910, "block_name": "Thingsulthliah Part", "block_lgd": 17.0, "gp_name": "", "state_name": "MIZORAM", "state_lgd": 15, "population": 151, "households": 40}, "geometry": {"type": "Polygon", "coordinates": [[[92.87246, 23.49368], [92.87188, 23.49473], [92.87273, 23.49528], [92.87362, 23.494400000000002], [92.87286, 23.493660000000002], [92.87246, 23.49368]]]}}, {"id": "37", "type": "Feature", "properties": {"village_name": "Chhingchhip", "vil_lgd": 271386, "district_name": "Serchhip", "dist_lgd": 268, "subdistrict_name": "Serchhip", "sdcode": 1910, "block_name": "Serchhip", "block_lgd": 18.0, "gp_name": "", "state_name": "MIZORAM", "state_lgd": 15, "population": 3741, "households": 726}, "geometry": {"type": "Polygon", "coordinates": [[[92.86979000000001, 23.465750000000003], [92.86992000000001, 23.46667], [92.87097000000001, 23.46686], [92.87148, 23.466060000000002], [92.87072, 23.465320000000002], [92.86979000000001, 23.465750000000003]]]}}, {"id": "38", "type": "Feature", "properties": {"village_name": "N Chawilung", "vil_lgd": 271385, "district_name": "Serchhip", "dist_lgd": 268, "subdistrict_name": "Serchhip", "sdcode": 1910, "block_name": "Thingsulthliah Part", "block_lgd": 17.0, "gp_name": "", "state_name": "MIZORAM", "state_lgd": 15, "population": 0, "households": 0}, "geometry": {"type": "Polygon", "coordinates": [[[92.82154000000001, 23.475340000000003], [92.82167000000001, 23.476260000000003], [92.82315000000001, 23.47605], [92.82256000000001, 23.47493], [92.82154000000001, 23.475340000000003]]]}}, {"id": "39", "type": "Feature", "properties": {"village_name": "Ngentiang", "vil_lgd": 271393, "district_name": "Serchhip", "dist_lgd": 268, "subdistrict_name": "Serchhip", "sdcode": 1910, "block_name": "Serchhip", "block_lgd": 18.0, "gp_name": "", "state_name": "MIZORAM", "state_lgd": 15, "population": 614, "households": 115}, "geometry": {"type": "Polygon", "coordinates": [[[93.00751000000001, 23.362610000000004], [93.00684000000001, 23.36342], [93.00777000000001, 23.364210000000003], [93.00862000000001, 23.36334], [93.00795000000001, 23.362610000000004], [93.00751000000001, 23.362610000000004]]]}}, {"id": "40", "type": "Feature", "properties": {"village_name": "Lungpho", "vil_lgd": 271392, "district_name": "Serchhip", "dist_lgd": 268, "subdistrict_name": "Serchhip", "sdcode": 1910, "block_name": "Serchhip", "block_lgd": 18.0, "gp_name": "", "state_name": "MIZORAM", "state_lgd": 15, "population": 1015, "households": 181}, "geometry": {"type": "Polygon", "coordinates": [[[92.98702, 23.38181], [92.98644, 23.38286], [92.98729, 23.38341], [92.98818000000001, 23.382530000000003], [92.98742000000001, 23.381790000000002], [92.98702, 23.38181]]]}}, {"id": "41", "type": "Feature", "properties": {"village_name": "Khawbel", "vil_lgd": 271387, "district_name": "Serchhip", "dist_lgd": 268, "subdistrict_name": "Serchhip", "sdcode": 1910, "block_name": "Serchhip", "block_lgd": 18.0, "gp_name": "", "state_name": "MIZORAM", "state_lgd": 15, "population": 640, "households": 104}, "geometry": {"type": "Polygon", "coordinates": [[[92.93706, 23.463130000000003], [92.93718000000001, 23.46405], [92.93824000000001, 23.464250000000003], [92.93874000000001, 23.46345], [92.93798000000001, 23.46271], [92.93706, 23.463130000000003]]]}}, {"id": "42", "type": "Feature", "properties": {"village_name": "Hmuntha", "vil_lgd": 271388, "district_name": "Serchhip", "dist_lgd": 268, "subdistrict_name": "Serchhip", "sdcode": 1910, "block_name": "Serchhip", "block_lgd": 18.0, "gp_name": "", "state_name": "MIZORAM", "state_lgd": 15, "population": 783, "households": 128}, "geometry": {"type": "Polygon", "coordinates": [[[92.95583, 23.492130000000003], [92.95624000000001, 23.493240000000004], [92.95747, 23.49276], [92.95676, 23.4917], [92.95583, 23.492130000000003]]]}}, {"id": "43", "type": "Feature", "properties": {"village_name": "Hualtu", "vil_lgd": 271380, "district_name": "Serchhip", "dist_lgd": 268, "subdistrict_name": "Serchhip", "sdcode": 1910, "block_name": "Thingsulthliah Part", "block_lgd": 17.0, "gp_name": "", "state_name": "MIZORAM", "state_lgd": 15, "population": 960, "households": 186}, "geometry": {"type": "Polygon", "coordinates": [[[92.92964, 23.527420000000003], [92.93087000000001, 23.527890000000003], [92.93128, 23.526780000000002], [92.93035, 23.52635], [92.92964, 23.527420000000003]]]}}, {"id": "44", "type": "Feature", "properties": {"village_name": "Rullam", "vil_lgd": 271389, "district_name": "Serchhip", "dist_lgd": 268, "subdistrict_name": "Serchhip", "sdcode": 1910, "block_name": "Serchhip", "block_lgd": 18.0, "gp_name": "", "state_name": "MIZORAM", "state_lgd": 15, "population": 577, "households": 100}, "geometry": {"type": "Polygon", "coordinates": [[[93.00533, 23.435470000000002], [93.00474000000001, 23.436510000000002], [93.00559000000001, 23.437070000000002], [93.00648000000001, 23.436190000000003], [93.00572000000001, 23.435450000000003], [93.00533, 23.435470000000002]]]}}]}