{"type": "FeatureCollection", "metadata": {"source": "Survey of India (per src_agency attribute in the source data)", "hosted_via": "National Water Data Portal (NWDP), NWIC, Ministry of Jal Shakti -- https://nwdp.nwic.gov.in/", "access": "public, no login required", "crs_original": "EPSG:7755 (WGS 84 / India NSF LCC)", "fetch_date": "2026-08-02", "quality": "verified-official -- Survey of India source", "state": "Puducherry", "district": "Karaikal", "processing": "reprojected to EPSG:4326, topology-preserving simplify (shared-arc, tolerance 0.0005 deg) so adjacent polygons never overlap/gap at shared borders, coords rounded 5dp, 0 feature(s) needed the per-feature fallback", "feature_count": 30}, "features": [{"id": "0", "type": "Feature", "properties": {"village_name": "Vanjiur", "vil_lgd": 644994, "district_name": "Karaikal", "dist_lgd": 598, "subdistrict_name": "Karaikal Taluk", "sdcode": 5914, "block_name": "Karaikal CD Block", "block_lgd": 3.0, "gp_name": "Vanjiyur", "state_name": "PUDUCHERRY", "state_lgd": 34, "population": 2234, "households": 579}, "geometry": {"type": "Polygon", "coordinates": [[[79.85206000000001, 10.849480000000002], [79.85244, 10.845120000000001], [79.85437, 10.84369], [79.85870000000001, 10.84275], [79.86135, 10.83918], [79.86063, 10.837280000000002], [79.85870000000001, 10.83609], [79.85221, 10.833710000000002], [79.8525, 10.827240000000002], [79.85194000000001, 10.827820000000001], [79.84125, 10.82789], [79.83095, 10.827340000000001], [79.82996, 10.83722], [79.82924000000001, 10.8381], [79.83015, 10.83825], [79.82797000000001, 10.849630000000001], [79.82996, 10.8503], [79.83326000000001, 10.84848], [79.83837000000001, 10.848820000000002], [79.84123000000001, 10.85041], [79.84334000000001, 10.84927], [79.85206000000001, 10.849480000000002]]]}}, {"id": "1", "type": "Feature", "properties": {"village_name": "Kottucherry", "vil_lgd": 644987, "district_name": "Karaikal", "dist_lgd": 598, "subdistrict_name": "Karaikal Taluk", "sdcode": 5914, "block_name": "Karaikal CD Block", "block_lgd": 3.0, "gp_name": "Korrucherry (West) (Part), Kottucherry (East)", "state_name": "PUDUCHERRY", "state_lgd": 34, "population": 9711, "households": 2411}, "geometry": {"type": "Polygon", "coordinates": [[[79.83340000000001, 10.967080000000001], [79.84138, 10.967080000000001], [79.84231000000001, 10.96771], [79.85359000000001, 10.967080000000001], [79.85287000000001, 10.955720000000001], [79.81318, 10.95517], [79.81215, 10.95602], [79.81233, 10.95864], [79.80985000000001, 10.968610000000002], [79.82747, 10.967490000000002], [79.83340000000001, 10.967080000000001]]]}}, {"id": "2", "type": "Feature", "properties": {"village_name": "Polagam", "vil_lgd": 644993, "district_name": "Karaikal", "dist_lgd": 598, "subdistrict_name": "Karaikal Taluk", "sdcode": 5914, "block_name": "Karaikal CD Block", "block_lgd": 3.0, "gp_name": "T.R.Pattinam (South) (Part)", "state_name": "PUDUCHERRY", "state_lgd": 34, "population": 1888, "households": 499}, "geometry": {"type": "Polygon", "coordinates": [[[79.81158, 10.859610000000002], [79.81785, 10.8634], [79.82309000000001, 10.86419], [79.82478, 10.86514], [79.82628000000001, 10.865290000000002], [79.82714, 10.864270000000001], [79.82701, 10.86109], [79.82918000000001, 10.860740000000002], [79.82996, 10.8503], [79.82797000000001, 10.849630000000001], [79.82514, 10.84689], [79.82096, 10.84551], [79.81913, 10.847330000000001], [79.81931, 10.84909], [79.81364, 10.849920000000001], [79.80782, 10.85557], [79.80737, 10.865400000000001], [79.80954000000001, 10.865620000000002], [79.80945000000001, 10.863880000000002], [79.81075000000001, 10.861500000000001], [79.81158, 10.859610000000002]]]}}, {"id": "3", "type": "Feature", "properties": {"village_name": "Keezhaiyur South", "vil_lgd": 644992, "district_name": "Karaikal", "dist_lgd": 598, "subdistrict_name": "Karaikal Taluk", "sdcode": 5914, "block_name": "Karaikal CD Block", "block_lgd": 3.0, "gp_name": "Edatheru, T.R.Pattinam(South) (Part)", "state_name": "PUDUCHERRY", "state_lgd": 34, "population": 3262, "households": 857}, "geometry": {"type": "Polygon", "coordinates": [[[79.83741, 10.867870000000002], [79.84140000000001, 10.86762], [79.84109000000001, 10.8642], [79.84363, 10.863880000000002], [79.84374000000001, 10.86289], [79.84542, 10.863140000000001], [79.84621000000001, 10.86161], [79.85228000000001, 10.861650000000001], [79.85206000000001, 10.849480000000002], [79.84334000000001, 10.84927], [79.84123000000001, 10.85041], [79.83837000000001, 10.848820000000002], [79.83326000000001, 10.84848], [79.82996, 10.8503], [79.82918000000001, 10.860740000000002], [79.82935, 10.862110000000001], [79.8314, 10.86223], [79.83131, 10.863750000000001], [79.83007, 10.864880000000001], [79.83169000000001, 10.866650000000002], [79.83146, 10.86851], [79.83307, 10.86762], [79.83741, 10.867870000000002]]]}}, {"id": "4", "type": "Feature", "properties": {"village_name": "Keezhaiyur North", "vil_lgd": 644991, "district_name": "Karaikal", "dist_lgd": 598, "subdistrict_name": "Karaikal Taluk", "sdcode": 5914, "block_name": "Karaikal CD Block", "block_lgd": 3.0, "gp_name": "Kezhaiyur", "state_name": "PUDUCHERRY", "state_lgd": 34, "population": 2687, "households": 662}, "geometry": {"type": "Polygon", "coordinates": [[[79.85270000000001, 10.885810000000001], [79.85192, 10.87841], [79.85228000000001, 10.861650000000001], [79.84621000000001, 10.86161], [79.84542, 10.863140000000001], [79.84374000000001, 10.86289], [79.84363, 10.863880000000002], [79.84109000000001, 10.8642], [79.84140000000001, 10.86762], [79.83741, 10.867870000000002], [79.83795, 10.86926], [79.83743000000001, 10.875190000000002], [79.83365, 10.875110000000001], [79.83467, 10.87846], [79.83266, 10.87879], [79.83226, 10.88202], [79.83745, 10.884950000000002], [79.84662, 10.885980000000002], [79.85270000000001, 10.885810000000001]]]}}, {"id": "5", "type": "Feature", "properties": {"village_name": "Neravy", "vil_lgd": 644990, "district_name": "Karaikal", "dist_lgd": 598, "subdistrict_name": "Karaikal Taluk", "sdcode": 5914, "block_name": "Karaikal CD Block", "block_lgd": 3.0, "gp_name": "Neravy(East),  Neravy(West)", "state_name": "PUDUCHERRY", "state_lgd": 34, "population": 6555, "households": 1511}, "geometry": {"type": "Polygon", "coordinates": [[[79.81714000000001, 10.898010000000001], [79.82151, 10.899840000000001], [79.83072, 10.898760000000001], [79.83179000000001, 10.894210000000001], [79.82852000000001, 10.89334], [79.82837, 10.892460000000002], [79.82686000000001, 10.891670000000001], [79.82757000000001, 10.88992], [79.82691000000001, 10.888200000000001], [79.8275, 10.88446], [79.82315000000001, 10.884220000000001], [79.81858000000001, 10.8864], [79.81441000000001, 10.88677], [79.81123000000001, 10.888390000000001], [79.80779000000001, 10.88724], [79.80595000000001, 10.887830000000001], [79.80421000000001, 10.891010000000001], [79.80185, 10.890130000000001], [79.80109, 10.892130000000002], [79.80304000000001, 10.893220000000001], [79.80668, 10.897340000000002], [79.80885, 10.900110000000002], [79.80965, 10.900160000000001], [79.8147, 10.89789], [79.81714000000001, 10.898010000000001]]]}}, {"id": "6", "type": "Feature", "properties": {"village_name": "Kizhamanai", "vil_lgd": 644989, "district_name": "Karaikal", "dist_lgd": 598, "subdistrict_name": "Karaikal Taluk", "sdcode": 5914, "block_name": "Karaikal CD Block", "block_lgd": 3.0, "gp_name": "Kizhamanai", "state_name": "PUDUCHERRY", "state_lgd": 34, "population": 2851, "households": 744}, "geometry": {"type": "Polygon", "coordinates": [[[79.80896000000001, 10.906500000000001], [79.80708000000001, 10.90398], [79.80719, 10.90235], [79.80552, 10.900780000000001], [79.80552, 10.899000000000001], [79.80668, 10.897340000000002], [79.80304000000001, 10.893220000000001], [79.80109, 10.892130000000002], [79.80185, 10.890130000000001], [79.79983, 10.88888], [79.79973000000001, 10.88734], [79.79458000000001, 10.8876], [79.79559, 10.889550000000002], [79.79516000000001, 10.8908], [79.79364000000001, 10.89117], [79.79269000000001, 10.89357], [79.79024000000001, 10.89483], [79.78987000000001, 10.89033], [79.78362000000001, 10.8884], [79.78203, 10.890300000000002], [79.78238, 10.895190000000001], [79.78773000000001, 10.895460000000002], [79.7894, 10.896690000000001], [79.79108000000001, 10.89601], [79.79233, 10.89835], [79.79376, 10.89874], [79.79188, 10.90019], [79.79124, 10.90479], [79.79458000000001, 10.90207], [79.79529000000001, 10.902690000000002], [79.79412, 10.90384], [79.79740000000001, 10.90235], [79.80004000000001, 10.903640000000001], [79.80346, 10.902180000000001], [79.80524000000001, 10.90845], [79.80640000000001, 10.909120000000001], [79.80925, 10.90883], [79.80896000000001, 10.906500000000001]]]}}, {"id": "7", "type": "Feature", "properties": {"village_name": "Poovam", "vil_lgd": 644984, "district_name": "Karaikal", "dist_lgd": 598, "subdistrict_name": "Karaikal Taluk", "sdcode": 5914, "block_name": "Karaikal CD Block", "block_lgd": 3.0, "gp_name": "Poovam(Part)", "state_name": "PUDUCHERRY", "state_lgd": 34, "population": 1565, "households": 388}, "geometry": {"type": "Polygon", "coordinates": [[[79.84001, 11.001430000000001], [79.83932, 10.995800000000001], [79.84230000000001, 10.995730000000002], [79.84294000000001, 10.994720000000001], [79.84431000000001, 10.987380000000002], [79.84349, 10.98689], [79.83505000000001, 10.98803], [79.83361000000001, 10.98689], [79.83265, 10.983220000000001], [79.82914000000001, 10.983250000000002], [79.83069, 10.995080000000002], [79.83079000000001, 11.000580000000001], [79.8298, 11.002180000000001], [79.83316, 11.00271], [79.83763, 11.0015], [79.84001, 11.001430000000001]]]}}, {"id": "8", "type": "Feature", "properties": {"village_name": "Vizhidiur", "vil_lgd": 644988, "district_name": "Karaikal", "dist_lgd": 598, "subdistrict_name": "Karaikal Taluk", "sdcode": 5914, "block_name": "Karaikal CD Block", "block_lgd": 3.0, "gp_name": "Vizhidiur", "state_name": "PUDUCHERRY", "state_lgd": 34, "population": 3435, "households": 914}, "geometry": {"type": "Polygon", "coordinates": [[[79.77730000000001, 10.908900000000001], [79.77695000000001, 10.90708], [79.77913000000001, 10.905990000000001], [79.77912, 10.905230000000001], [79.77658000000001, 10.905360000000002], [79.77688, 10.896560000000001], [79.76503000000001, 10.896230000000001], [79.76517000000001, 10.89433], [79.76771000000001, 10.89348], [79.76783, 10.892420000000001], [79.76402, 10.89259], [79.76389, 10.89193], [79.75824, 10.892700000000001], [79.75775, 10.891430000000001], [79.75617000000001, 10.891710000000002], [79.75670000000001, 10.89263], [79.75574, 10.89456], [79.75729000000001, 10.895420000000001], [79.75716000000001, 10.894580000000001], [79.75769000000001, 10.89474], [79.75875, 10.896040000000001], [79.75855, 10.897160000000001], [79.75948000000001, 10.89661], [79.76077000000001, 10.89798], [79.76226000000001, 10.89794], [79.76217000000001, 10.89916], [79.76346000000001, 10.89972], [79.76125, 10.901710000000001], [79.76083000000001, 10.90061], [79.76239000000001, 10.90038], [79.76163000000001, 10.8992], [79.76085, 10.89892], [79.76146, 10.899650000000001], [79.76017, 10.900440000000001], [79.75971000000001, 10.89849], [79.75788, 10.89832], [79.75744, 10.8963], [79.75691, 10.89643], [79.75777000000001, 10.901860000000001], [79.75915, 10.90089], [79.75938000000001, 10.90182], [79.75760000000001, 10.90548], [79.75745, 10.907810000000001], [79.76085, 10.91234], [79.76293000000001, 10.913440000000001], [79.76345, 10.91356], [79.76954, 10.91107], [79.76953, 10.90909], [79.77267, 10.90886], [79.77730000000001, 10.908900000000001]]]}}, {"id": "9", "type": "Feature", "properties": {"village_name": "Sethur", "vil_lgd": 645009, "district_name": "Karaikal", "dist_lgd": 598, "subdistrict_name": "Thirunallar Taluk", "sdcode": 5915, "block_name": "Karaikal CD Block", "block_lgd": 3.0, "gp_name": "Karukkankudy(Part), Sethur", "state_name": "PUDUCHERRY", "state_lgd": 34, "population": 3890, "households": 983}, "geometry": {"type": "Polygon", "coordinates": [[[79.75801000000001, 10.945060000000002], [79.75773000000001, 10.938460000000001], [79.75839, 10.936300000000001], [79.75725000000001, 10.932810000000002], [79.75462, 10.932640000000001], [79.75375000000001, 10.931690000000001], [79.75369, 10.92739], [79.75087, 10.926870000000001], [79.74901000000001, 10.927840000000002], [79.74570000000001, 10.927040000000002], [79.7436, 10.92754], [79.74269000000001, 10.925020000000002], [79.73966, 10.924650000000002], [79.73953, 10.923490000000001], [79.73869, 10.92341], [79.7394, 10.92645], [79.73742, 10.9258], [79.73825000000001, 10.92481], [79.73544000000001, 10.92482], [79.73588000000001, 10.927560000000001], [79.73309, 10.92838], [79.7303, 10.92744], [79.72969, 10.92759], [79.73015000000001, 10.928460000000001], [79.72707000000001, 10.928540000000002], [79.72458, 10.929680000000001], [79.72578, 10.93425], [79.72711000000001, 10.93523], [79.72807, 10.93415], [79.72947, 10.93411], [79.72948000000001, 10.936240000000002], [79.72672, 10.93646], [79.72673, 10.935530000000002], [79.72488000000001, 10.936290000000001], [79.72318000000001, 10.93514], [79.72326000000001, 10.936140000000002], [79.72731, 10.937890000000001], [79.72617000000001, 10.938730000000001], [79.72517, 10.938360000000001], [79.72537000000001, 10.94114], [79.72481, 10.94068], [79.72395, 10.9413], [79.72563000000001, 10.943280000000001], [79.73082000000001, 10.94439], [79.73184, 10.9417], [79.73146000000001, 10.94049], [79.73230000000001, 10.93998], [79.73848000000001, 10.94147], [79.74187, 10.941120000000002], [79.74542000000001, 10.94274], [79.74706, 10.94256], [79.74770000000001, 10.94354], [79.75283, 10.943380000000001], [79.75428000000001, 10.945780000000001], [79.75671000000001, 10.945950000000002], [79.75678, 10.9456], [79.75801000000001, 10.945060000000002]]]}}, {"id": "10", "type": "Feature", "properties": {"village_name": "Thiruvettakudy", "vil_lgd": 644985, "district_name": "Karaikal", "dist_lgd": 598, "subdistrict_name": "Karaikal Taluk", "sdcode": 5914, "block_name": "Karaikal CD Block", "block_lgd": 3.0, "gp_name": "Thiruvettakudy", "state_name": "PUDUCHERRY", "state_lgd": 34, "population": 4281, "households": 1067}, "geometry": {"type": "Polygon", "coordinates": [[[79.85359000000001, 10.967080000000001], [79.84231000000001, 10.96771], [79.84138, 10.967080000000001], [79.83340000000001, 10.967080000000001], [79.83249, 10.96789], [79.83238, 10.969660000000001], [79.83119, 10.970270000000001], [79.83290000000001, 10.97268], [79.83318000000001, 10.974820000000001], [79.83222, 10.98056], [79.83265, 10.983220000000001], [79.83361000000001, 10.98689], [79.83505000000001, 10.98803], [79.84349, 10.98689], [79.84431000000001, 10.987380000000002], [79.84294000000001, 10.994720000000001], [79.85111, 10.994250000000001], [79.85175000000001, 10.992460000000001], [79.85058000000001, 10.990200000000002], [79.85055000000001, 10.987340000000001], [79.85182, 10.9838], [79.85381000000001, 10.983170000000001], [79.85359000000001, 10.967080000000001]]]}}, {"id": "11", "type": "Feature", "properties": {"village_name": "Varichikudy North", "vil_lgd": 644983, "district_name": "Karaikal", "dist_lgd": 598, "subdistrict_name": "Karaikal Taluk", "sdcode": 5914, "block_name": "Karaikal CD Block", "block_lgd": 3.0, "gp_name": "Poovam(Part), Varichikudy (Part)", "state_name": "PUDUCHERRY", "state_lgd": 34, "population": 3533, "households": 883}, "geometry": {"type": "Polygon", "coordinates": [[[79.82056, 10.99811], [79.82288000000001, 11.000720000000001], [79.82567, 10.998270000000002], [79.82781, 10.998090000000001], [79.82832, 11.00064], [79.8298, 11.002180000000001], [79.83079000000001, 11.000580000000001], [79.83069, 10.995080000000002], [79.82914000000001, 10.983250000000002], [79.83265, 10.983220000000001], [79.83222, 10.98056], [79.82649, 10.980680000000001], [79.82606000000001, 10.98562], [79.82007, 10.986070000000002], [79.81795000000001, 10.98746], [79.80774000000001, 10.98789], [79.8066, 10.98709], [79.80405, 10.98808], [79.80355, 10.98901], [79.80452000000001, 10.99102], [79.8037, 10.99197], [79.80499, 10.992750000000001], [79.80559000000001, 10.991840000000002], [79.80616, 10.9929], [79.80314000000001, 10.99515], [79.80416000000001, 10.99759], [79.80803, 10.99984], [79.81306000000001, 10.9991], [79.81477000000001, 11.001410000000002], [79.81400000000001, 11.00308], [79.81538, 11.003820000000001], [79.81654, 11.003260000000001], [79.82056, 10.99811]]]}}, {"id": "12", "type": "Feature", "properties": {"village_name": "Varichikudy South", "vil_lgd": 644986, "district_name": "Karaikal", "dist_lgd": 598, "subdistrict_name": "Karaikal Taluk", "sdcode": 5914, "block_name": "Karaikal CD Block", "block_lgd": 3.0, "gp_name": "Varichikudy (Part), Kottucherry(West) (Part)", "state_name": "PUDUCHERRY", "state_lgd": 34, "population": 4096, "households": 932}, "geometry": {"type": "Polygon", "coordinates": [[[79.80405, 10.98808], [79.8066, 10.98709], [79.80774000000001, 10.98789], [79.81795000000001, 10.98746], [79.82007, 10.986070000000002], [79.82606000000001, 10.98562], [79.82649, 10.980680000000001], [79.83222, 10.98056], [79.83318000000001, 10.974820000000001], [79.83290000000001, 10.97268], [79.83119, 10.970270000000001], [79.83238, 10.969660000000001], [79.83249, 10.96789], [79.83340000000001, 10.967080000000001], [79.82747, 10.967490000000002], [79.80985000000001, 10.968610000000002], [79.80882000000001, 10.97343], [79.80659, 10.97488], [79.80403000000001, 10.981150000000001], [79.79936000000001, 10.982800000000001], [79.79912, 10.9861], [79.80235, 10.988370000000002], [79.80388, 10.986910000000002], [79.80405, 10.98808]]]}}, {"id": "13", "type": "Feature", "properties": {"village_name": "Karaikal", "vil_lgd": 253096, "district_name": "Karaikal", "dist_lgd": 598, "subdistrict_name": "Karaikal Taluk", "sdcode": 5914, "block_name": "", "block_lgd": 0.0, "gp_name": "", "state_name": "PUDUCHERRY", "state_lgd": 34, "population": 86838, "households": 21320}, "geometry": {"type": "Polygon", "coordinates": [[[79.85248, 10.93346], [79.85405, 10.91671], [79.85286, 10.905050000000001], [79.85270000000001, 10.885810000000001], [79.84662, 10.885980000000002], [79.83745, 10.884950000000002], [79.83226, 10.88202], [79.82869000000001, 10.883420000000001], [79.8275, 10.88446], [79.82691000000001, 10.888200000000001], [79.82757000000001, 10.88992], [79.82686000000001, 10.891670000000001], [79.82837, 10.892460000000002], [79.82852000000001, 10.89334], [79.83179000000001, 10.894210000000001], [79.83072, 10.898760000000001], [79.82151, 10.899840000000001], [79.81714000000001, 10.898010000000001], [79.8147, 10.89789], [79.80965, 10.900160000000001], [79.80885, 10.900110000000002], [79.80668, 10.897340000000002], [79.80552, 10.899000000000001], [79.80552, 10.900780000000001], [79.80719, 10.90235], [79.80708000000001, 10.90398], [79.80896000000001, 10.906500000000001], [79.80925, 10.90883], [79.80902, 10.910530000000001], [79.80753, 10.91159], [79.80714, 10.91844], [79.80662000000001, 10.92487], [79.80457000000001, 10.925640000000001], [79.80497000000001, 10.928400000000002], [79.80668, 10.928730000000002], [79.80778000000001, 10.92989], [79.80999000000001, 10.93237], [79.80885, 10.93293], [79.80947, 10.935530000000002], [79.81164000000001, 10.936570000000001], [79.81027, 10.941180000000001], [79.80845000000001, 10.945200000000002], [79.81529, 10.945340000000002], [79.81541, 10.945870000000001], [79.81318, 10.95517], [79.85287000000001, 10.955720000000001], [79.85248, 10.93346]]]}}, {"id": "14", "type": "Feature", "properties": {"village_name": "Puthakudy", "vil_lgd": 644998, "district_name": "Karaikal", "dist_lgd": 598, "subdistrict_name": "Thirunallar Taluk", "sdcode": 5915, "block_name": "Karaikal CD Block", "block_lgd": 3.0, "gp_name": "Ponbethy (Part), Melakasakudy (Part)", "state_name": "PUDUCHERRY", "state_lgd": 34, "population": 2304, "households": 573}, "geometry": {"type": "Polygon", "coordinates": [[[79.79936000000001, 10.982800000000001], [79.80403000000001, 10.981150000000001], [79.80659, 10.97488], [79.80882000000001, 10.97343], [79.80985000000001, 10.968610000000002], [79.81233, 10.95864], [79.81215, 10.95602], [79.8005, 10.956990000000001], [79.79936000000001, 10.95608], [79.79608, 10.9563], [79.79591, 10.960840000000001], [79.79154000000001, 10.96091], [79.79192, 10.96868], [79.79530000000001, 10.968300000000001], [79.79561000000001, 10.97089], [79.79539000000001, 10.972410000000002], [79.79408000000001, 10.97316], [79.79468, 10.974490000000001], [79.79432000000001, 10.977960000000001], [79.79173, 10.982610000000001], [79.79225000000001, 10.98412], [79.79417000000001, 10.98295], [79.79936000000001, 10.982800000000001]]]}}, {"id": "15", "type": "Feature", "properties": {"village_name": "Nedungadu", "vil_lgd": 644999, "district_name": "Karaikal", "dist_lgd": 598, "subdistrict_name": "Thirunallar Taluk", "sdcode": 5915, "block_name": "Karaikal CD Block", "block_lgd": 3.0, "gp_name": "Nedungadu, Kurumbagaram (Part)", "state_name": "PUDUCHERRY", "state_lgd": 34, "population": 4886, "households": 1212}, "geometry": {"type": "Polygon", "coordinates": [[[79.76964000000001, 10.97371], [79.77629, 10.972090000000001], [79.78125, 10.969750000000001], [79.78544000000001, 10.969270000000002], [79.78445, 10.961390000000002], [79.77636000000001, 10.961670000000002], [79.77413, 10.961670000000002], [79.77199, 10.959520000000001], [79.76847000000001, 10.95817], [79.76532, 10.958960000000001], [79.76392000000001, 10.95997], [79.76275000000001, 10.96124], [79.76158000000001, 10.964960000000001], [79.76166, 10.96629], [79.76217000000001, 10.965430000000001], [79.76268, 10.96649], [79.76045, 10.968060000000001], [79.75946, 10.97188], [79.75662000000001, 10.97286], [79.75466, 10.97184], [79.75467, 10.97513], [79.75357000000001, 10.976930000000001], [79.75273, 10.976840000000001], [79.75258000000001, 10.9777], [79.75548, 10.97793], [79.75558000000001, 10.97939], [79.75833, 10.979800000000001], [79.76782, 10.979690000000002], [79.76964000000001, 10.97371]]]}}, {"id": "16", "type": "Feature", "properties": {"village_name": "Ponbethy", "vil_lgd": 644997, "district_name": "Karaikal", "dist_lgd": 598, "subdistrict_name": "Thirunallar Taluk", "sdcode": 5915, "block_name": "Karaikal CD Block", "block_lgd": 3.0, "gp_name": "Ponbethy (Part), Kurumbagaram (Part)", "state_name": "PUDUCHERRY", "state_lgd": 34, "population": 2604, "households": 668}, "geometry": {"type": "Polygon", "coordinates": [[[79.77994000000001, 10.998370000000001], [79.77877000000001, 10.996870000000001], [79.78347000000001, 10.99474], [79.78344000000001, 10.996640000000001], [79.78670000000001, 10.997000000000002], [79.78892, 10.991200000000001], [79.78630000000001, 10.99078], [79.78599000000001, 10.989970000000001], [79.79225000000001, 10.98412], [79.79173, 10.982610000000001], [79.79432000000001, 10.977960000000001], [79.79468, 10.974490000000001], [79.79408000000001, 10.97316], [79.79539000000001, 10.972410000000002], [79.79561000000001, 10.97089], [79.79530000000001, 10.968300000000001], [79.79192, 10.96868], [79.78635000000001, 10.96898], [79.78544000000001, 10.969270000000002], [79.78125, 10.969750000000001], [79.77629, 10.972090000000001], [79.77804, 10.973220000000001], [79.77879, 10.97574], [79.77818, 10.97766], [79.77661, 10.9784], [79.77469, 10.981020000000001], [79.77477, 10.997560000000002], [79.77926000000001, 10.998600000000001], [79.77994000000001, 10.998370000000001]]]}}, {"id": "17", "type": "Feature", "properties": {"village_name": "Kurumbagaram", "vil_lgd": 644996, "district_name": "Karaikal", "dist_lgd": 598, "subdistrict_name": "Thirunallar Taluk", "sdcode": 5915, "block_name": "Karaikal CD Block", "block_lgd": 3.0, "gp_name": "Ponbethy (Part), Kurumbagaram (Part)", "state_name": "PUDUCHERRY", "state_lgd": 34, "population": 5212, "households": 1352}, "geometry": {"type": "Polygon", "coordinates": [[[79.75698000000001, 11.002320000000001], [79.75936, 11.00111], [79.75995, 10.998970000000002], [79.76203000000001, 11.00131], [79.76315000000001, 10.99906], [79.76478, 10.99886], [79.76663, 10.997300000000001], [79.76831, 10.99788], [79.77061, 10.99713], [79.77191, 10.99796], [79.77477, 10.997560000000002], [79.77469, 10.981020000000001], [79.77661, 10.9784], [79.77818, 10.97766], [79.77879, 10.97574], [79.77804, 10.973220000000001], [79.77629, 10.972090000000001], [79.76964000000001, 10.97371], [79.76782, 10.979690000000002], [79.75833, 10.979800000000001], [79.75839, 10.98347], [79.75636, 10.983910000000002], [79.75497, 10.982890000000001], [79.75278, 10.982830000000002], [79.75249000000001, 10.98797], [79.74727, 10.988290000000001], [79.74831, 10.990020000000001], [79.74851000000001, 10.995270000000001], [79.74718, 11.002880000000001], [79.75245000000001, 11.003150000000002], [79.75388000000001, 11.00253], [79.75486000000001, 11.003670000000001], [79.75662000000001, 11.003400000000001], [79.75698000000001, 11.002320000000001]]]}}, {"id": "18", "type": "Feature", "properties": {"village_name": "Melakasakudy", "vil_lgd": 645000, "district_name": "Karaikal", "dist_lgd": 598, "subdistrict_name": "Thirunallar Taluk", "sdcode": 5915, "block_name": "Karaikal CD Block", "block_lgd": 3.0, "gp_name": "Melakasakudy (Part)", "state_name": "PUDUCHERRY", "state_lgd": 34, "population": 2140, "households": 543}, "geometry": {"type": "Polygon", "coordinates": [[[79.79192, 10.96868], [79.79154000000001, 10.96091], [79.79591, 10.960840000000001], [79.79608, 10.9563], [79.79936000000001, 10.95608], [79.8005, 10.956990000000001], [79.81215, 10.95602], [79.81318, 10.95517], [79.81541, 10.945870000000001], [79.81529, 10.945340000000002], [79.80845000000001, 10.945200000000002], [79.81027, 10.941180000000001], [79.79128, 10.94702], [79.78691, 10.94833], [79.78445, 10.961390000000002], [79.78544000000001, 10.969270000000002], [79.78635000000001, 10.96898], [79.79192, 10.96868]]]}}, {"id": "19", "type": "Feature", "properties": {"village_name": "Ambagarathur", "vil_lgd": 645001, "district_name": "Karaikal", "dist_lgd": 598, "subdistrict_name": "Thirunallar Taluk", "sdcode": 5915, "block_name": "Karaikal CD Block", "block_lgd": 3.0, "gp_name": "Ambagarathur, Nallambal(Part)", "state_name": "PUDUCHERRY", "state_lgd": 34, "population": 7391, "households": 1707}, "geometry": {"type": "Polygon", "coordinates": [[[79.73516000000001, 10.969360000000002], [79.73541, 10.96746], [79.73884000000001, 10.96724], [79.73999, 10.964310000000001], [79.74173, 10.96639], [79.74465000000001, 10.96616], [79.7463, 10.964950000000002], [79.74609000000001, 10.962890000000002], [79.74537000000001, 10.96268], [79.74544, 10.956510000000002], [79.74029, 10.95767], [79.73603, 10.95954], [79.73557000000001, 10.95753], [79.73467000000001, 10.957680000000002], [79.73471, 10.956890000000001], [79.73346000000001, 10.9572], [79.73364000000001, 10.95475], [79.73243000000001, 10.95509], [79.73257000000001, 10.95138], [79.73031, 10.951530000000002], [79.72983, 10.95085], [79.72983, 10.951600000000001], [79.72737000000001, 10.95132], [79.72742000000001, 10.95207], [79.72462, 10.951170000000001], [79.72436, 10.951860000000002], [79.72250000000001, 10.951440000000002], [79.72213, 10.95228], [79.72141, 10.95151], [79.71986000000001, 10.95255], [79.71962, 10.954400000000001], [79.72134000000001, 10.954120000000001], [79.72139, 10.955660000000002], [79.72065, 10.95575], [79.72093000000001, 10.95673], [79.71923000000001, 10.95635], [79.71907, 10.95714], [79.72036, 10.95794], [79.72091, 10.965010000000001], [79.71957, 10.96846], [79.72154, 10.969130000000002], [79.72189, 10.968200000000001], [79.72354, 10.96972], [79.72592, 10.968820000000001], [79.72625000000001, 10.96939], [79.73, 10.96945], [79.73108, 10.97047], [79.7318, 10.96926], [79.73319000000001, 10.969230000000001], [79.73516000000001, 10.969360000000002]]]}}, {"id": "20", "type": "Feature", "properties": {"village_name": "Sorakudy", "vil_lgd": 645004, "district_name": "Karaikal", "dist_lgd": 598, "subdistrict_name": "Thirunallar Taluk", "sdcode": 5915, "block_name": "Karaikal CD Block", "block_lgd": 3.0, "gp_name": "Sorakudy(Part), Thirunallar (North) (Part)", "state_name": "PUDUCHERRY", "state_lgd": 34, "population": 4666, "households": 1206}, "geometry": {"type": "Polygon", "coordinates": [[[79.78445, 10.961390000000002], [79.78691, 10.94833], [79.78580000000001, 10.94663], [79.78419000000001, 10.94768], [79.7809, 10.94491], [79.78204000000001, 10.937510000000001], [79.78369, 10.931780000000002], [79.78208000000001, 10.9312], [79.78269, 10.92885], [79.78093000000001, 10.92703], [79.7809, 10.92347], [79.77820000000001, 10.923250000000001], [79.77641000000001, 10.923670000000001], [79.77623000000001, 10.925220000000001], [79.77507, 10.92642], [79.77397, 10.932110000000002], [79.77397, 10.934560000000001], [79.76993, 10.934930000000001], [79.7699, 10.93642], [79.77463, 10.936630000000001], [79.77484000000001, 10.94214], [79.77281, 10.946110000000001], [79.77311, 10.94678], [79.77403000000001, 10.946510000000002], [79.77219000000001, 10.950130000000001], [79.76717000000001, 10.95104], [79.76532, 10.958960000000001], [79.76847000000001, 10.95817], [79.77199, 10.959520000000001], [79.77413, 10.961670000000002], [79.77636000000001, 10.961670000000002], [79.78445, 10.961390000000002]]]}}, {"id": "21", "type": "Feature", "properties": {"village_name": "Subrayapuram", "vil_lgd": 645005, "district_name": "Karaikal", "dist_lgd": 598, "subdistrict_name": "Thirunallar Taluk", "sdcode": 5915, "block_name": "Karaikal CD Block", "block_lgd": 3.0, "gp_name": "Thirunallar (North) (Part)", "state_name": "PUDUCHERRY", "state_lgd": 34, "population": 1069, "households": 287}, "geometry": {"type": "Polygon", "coordinates": [[[79.81027, 10.941180000000001], [79.81164000000001, 10.936570000000001], [79.80947, 10.935530000000002], [79.80885, 10.93293], [79.80999000000001, 10.93237], [79.80778000000001, 10.92989], [79.80652, 10.93107], [79.80484000000001, 10.93111], [79.80374, 10.9344], [79.79837, 10.93482], [79.79820000000001, 10.936850000000002], [79.79236, 10.9365], [79.78523000000001, 10.937510000000001], [79.78204000000001, 10.937510000000001], [79.7809, 10.94491], [79.78419000000001, 10.94768], [79.78580000000001, 10.94663], [79.78691, 10.94833], [79.79128, 10.94702], [79.81027, 10.941180000000001]]]}}, {"id": "22", "type": "Feature", "properties": {"village_name": "Keezhavoor Part", "vil_lgd": 645006, "district_name": "Karaikal", "dist_lgd": 598, "subdistrict_name": "Thirunallar Taluk", "sdcode": 5915, "block_name": "Karaikal CD Block", "block_lgd": 3.0, "gp_name": "Thirunallar (North) (Part), Thirunallar(South) (Part)", "state_name": "PUDUCHERRY", "state_lgd": 34, "population": 1119, "households": 281}, "geometry": {"type": "Polygon", "coordinates": [[[79.80662000000001, 10.92487], [79.80714, 10.91844], [79.79409000000001, 10.92074], [79.79381000000001, 10.923630000000001], [79.79528, 10.925490000000002], [79.80457000000001, 10.925640000000001], [79.80662000000001, 10.92487]]]}}, {"id": "23", "type": "Feature", "properties": {"village_name": "Pettai", "vil_lgd": 645011, "district_name": "Karaikal", "dist_lgd": 598, "subdistrict_name": "Thirunallar Taluk", "sdcode": 5915, "block_name": "Karaikal CD Block", "block_lgd": 3.0, "gp_name": "Pettai", "state_name": "PUDUCHERRY", "state_lgd": 34, "population": 3192, "households": 822}, "geometry": {"type": "Polygon", "coordinates": [[[79.78235000000001, 10.91825], [79.78557, 10.917380000000001], [79.78748, 10.912460000000001], [79.79, 10.91197], [79.79043, 10.91351], [79.79238000000001, 10.91374], [79.79268, 10.91815], [79.79416, 10.9196], [79.79409000000001, 10.92074], [79.80714, 10.91844], [79.80753, 10.91159], [79.80902, 10.910530000000001], [79.80925, 10.90883], [79.80640000000001, 10.909120000000001], [79.80524000000001, 10.90845], [79.80346, 10.902180000000001], [79.80004000000001, 10.903640000000001], [79.79740000000001, 10.90235], [79.79412, 10.90384], [79.79173, 10.90699], [79.78965000000001, 10.908280000000001], [79.78212, 10.906220000000001], [79.77989000000001, 10.908700000000001], [79.77730000000001, 10.908900000000001], [79.77267, 10.90886], [79.77350000000001, 10.913200000000002], [79.77619, 10.913760000000002], [79.77832000000001, 10.91533], [79.77968000000001, 10.921000000000001], [79.78106000000001, 10.920720000000001], [79.78128000000001, 10.91937], [79.78235000000001, 10.91825]]]}}, {"id": "24", "type": "Feature", "properties": {"village_name": "Thirunallar", "vil_lgd": 645007, "district_name": "Karaikal", "dist_lgd": 598, "subdistrict_name": "Thirunallar Taluk", "sdcode": 5915, "block_name": "Karaikal CD Block", "block_lgd": 3.0, "gp_name": "Sorakudy(Part), Thirunallar(North) (Part), Thirunallar(South) (Part)", "state_name": "PUDUCHERRY", "state_lgd": 34, "population": 6866, "households": 1682}, "geometry": {"type": "Polygon", "coordinates": [[[79.79236, 10.9365], [79.79820000000001, 10.936850000000002], [79.79837, 10.93482], [79.80374, 10.9344], [79.80484000000001, 10.93111], [79.80652, 10.93107], [79.80778000000001, 10.92989], [79.80668, 10.928730000000002], [79.80497000000001, 10.928400000000002], [79.80457000000001, 10.925640000000001], [79.79528, 10.925490000000002], [79.79381000000001, 10.923630000000001], [79.79409000000001, 10.92074], [79.79416, 10.9196], [79.79268, 10.91815], [79.79238000000001, 10.91374], [79.79043, 10.91351], [79.79, 10.91197], [79.78748, 10.912460000000001], [79.78557, 10.917380000000001], [79.78235000000001, 10.91825], [79.78128000000001, 10.91937], [79.78106000000001, 10.920720000000001], [79.77968000000001, 10.921000000000001], [79.77822, 10.921360000000002], [79.77820000000001, 10.923250000000001], [79.7809, 10.92347], [79.78093000000001, 10.92703], [79.78269, 10.92885], [79.78208000000001, 10.9312], [79.78369, 10.931780000000002], [79.78204000000001, 10.937510000000001], [79.78523000000001, 10.937510000000001], [79.79236, 10.9365]]]}}, {"id": "25", "type": "Feature", "properties": {"village_name": "Thennankudy", "vil_lgd": 645008, "district_name": "Karaikal", "dist_lgd": 598, "subdistrict_name": "Thirunallar Taluk", "sdcode": 5915, "block_name": "Karaikal CD Block", "block_lgd": 3.0, "gp_name": "Sellur (Part)", "state_name": "PUDUCHERRY", "state_lgd": 34, "population": 2321, "households": 605}, "geometry": {"type": "Polygon", "coordinates": [[[79.77397, 10.932110000000002], [79.76658, 10.93255], [79.76538000000001, 10.931470000000001], [79.76451, 10.92844], [79.76530000000001, 10.92561], [79.7647, 10.92557], [79.76462000000001, 10.923570000000002], [79.76320000000001, 10.92295], [79.76345, 10.91356], [79.76293000000001, 10.913440000000001], [79.75885000000001, 10.91656], [79.75421, 10.916120000000001], [79.75365000000001, 10.914000000000001], [79.74326, 10.914790000000002], [79.74339, 10.916030000000001], [79.745, 10.91609], [79.74546000000001, 10.91943], [79.74324, 10.91754], [79.74199, 10.91815], [79.74227, 10.918890000000001], [79.74368000000001, 10.919120000000001], [79.74269000000001, 10.925020000000002], [79.7436, 10.92754], [79.74570000000001, 10.927040000000002], [79.74901000000001, 10.927840000000002], [79.75087, 10.926870000000001], [79.75369, 10.92739], [79.75375000000001, 10.931690000000001], [79.75462, 10.932640000000001], [79.75725000000001, 10.932810000000002], [79.75839, 10.936300000000001], [79.7699, 10.93642], [79.76993, 10.934930000000001], [79.77397, 10.934560000000001], [79.77397, 10.932110000000002]]]}}, {"id": "26", "type": "Feature", "properties": {"village_name": "Thevamapuram", "vil_lgd": 645003, "district_name": "Karaikal", "dist_lgd": 598, "subdistrict_name": "Thirunallar Taluk", "sdcode": 5915, "block_name": "Karaikal CD Block", "block_lgd": 3.0, "gp_name": "Karukkankudy(Part)", "state_name": "PUDUCHERRY", "state_lgd": 34, "population": 2305, "households": 590}, "geometry": {"type": "Polygon", "coordinates": [[[79.76392000000001, 10.95997], [79.76532, 10.958960000000001], [79.76717000000001, 10.95104], [79.77219000000001, 10.950130000000001], [79.77403000000001, 10.946510000000002], [79.77311, 10.94678], [79.77281, 10.946110000000001], [79.77484000000001, 10.94214], [79.77463, 10.936630000000001], [79.7699, 10.93642], [79.75839, 10.936300000000001], [79.75773000000001, 10.938460000000001], [79.75801000000001, 10.945060000000002], [79.75678, 10.9456], [79.75671000000001, 10.945950000000002], [79.75801000000001, 10.94926], [79.75666000000001, 10.950940000000001], [79.75711000000001, 10.954300000000002], [79.75640000000001, 10.95509], [79.75634000000001, 10.95884], [79.75875, 10.960550000000001], [79.75991, 10.96], [79.76392000000001, 10.95997]]]}}, {"id": "27", "type": "Feature", "properties": {"village_name": "Nallazhundur", "vil_lgd": 645002, "district_name": "Karaikal", "dist_lgd": 598, "subdistrict_name": "Thirunallar Taluk", "sdcode": 5915, "block_name": "Karaikal CD Block", "block_lgd": 3.0, "gp_name": "Nallambal(Part), Sethur(Part)", "state_name": "PUDUCHERRY", "state_lgd": 34, "population": 3575, "households": 893}, "geometry": {"type": "Polygon", "coordinates": [[[79.74544, 10.956510000000002], [79.74645000000001, 10.956420000000001], [79.74666, 10.957320000000001], [79.74926, 10.95841], [79.75172, 10.957820000000002], [79.75341, 10.95878], [79.75634000000001, 10.95884], [79.75640000000001, 10.95509], [79.75711000000001, 10.954300000000002], [79.75666000000001, 10.950940000000001], [79.75801000000001, 10.94926], [79.75671000000001, 10.945950000000002], [79.75428000000001, 10.945780000000001], [79.75283, 10.943380000000001], [79.74770000000001, 10.94354], [79.74706, 10.94256], [79.74542000000001, 10.94274], [79.74187, 10.941120000000002], [79.73848000000001, 10.94147], [79.73230000000001, 10.93998], [79.73146000000001, 10.94049], [79.73184, 10.9417], [79.73082000000001, 10.94439], [79.73069000000001, 10.945860000000001], [79.73173000000001, 10.947550000000001], [79.73706, 10.94902], [79.73744, 10.952530000000001], [79.7365, 10.953000000000001], [79.73659, 10.95738], [79.73557000000001, 10.95753], [79.73603, 10.95954], [79.74029, 10.95767], [79.74544, 10.956510000000002]]]}}, {"id": "28", "type": "Feature", "properties": {"village_name": "Sellur", "vil_lgd": 645010, "district_name": "Karaikal", "dist_lgd": 598, "subdistrict_name": "Thirunallar Taluk", "sdcode": 5915, "block_name": "Karaikal CD Block", "block_lgd": 3.0, "gp_name": "Sellur (Part)", "state_name": "PUDUCHERRY", "state_lgd": 34, "population": 2482, "households": 670}, "geometry": {"type": "Polygon", "coordinates": [[[79.77507, 10.92642], [79.77623000000001, 10.925220000000001], [79.77641000000001, 10.923670000000001], [79.77820000000001, 10.923250000000001], [79.77822, 10.921360000000002], [79.77968000000001, 10.921000000000001], [79.77832000000001, 10.91533], [79.77619, 10.913760000000002], [79.77350000000001, 10.913200000000002], [79.77267, 10.90886], [79.76953, 10.90909], [79.76954, 10.91107], [79.76345, 10.91356], [79.76320000000001, 10.92295], [79.76462000000001, 10.923570000000002], [79.7647, 10.92557], [79.76530000000001, 10.92561], [79.76451, 10.92844], [79.76538000000001, 10.931470000000001], [79.76658, 10.93255], [79.77397, 10.932110000000002], [79.77507, 10.92642]]]}}, {"id": "29", "type": "Feature", "properties": {"village_name": "Thirumalairayanpattinam CT", "vil_lgd": 644995, "district_name": "Karaikal", "dist_lgd": 598, "subdistrict_name": "Karaikal Taluk", "sdcode": 5914, "block_name": "", "block_lgd": null, "gp_name": "", "state_name": "PUDUCHERRY", "state_lgd": 34, "population": 11264, "households": 2864}, "geometry": {"type": "Polygon", "coordinates": [[[79.83266, 10.87879], [79.83467, 10.87846], [79.83365, 10.875110000000001], [79.83743000000001, 10.875190000000002], [79.83795, 10.86926], [79.83741, 10.867870000000002], [79.83307, 10.86762], [79.83146, 10.86851], [79.83169000000001, 10.866650000000002], [79.83007, 10.864880000000001], [79.83131, 10.863750000000001], [79.8314, 10.86223], [79.82935, 10.862110000000001], [79.82918000000001, 10.860740000000002], [79.82701, 10.86109], [79.82714, 10.864270000000001], [79.82628000000001, 10.865290000000002], [79.82478, 10.86514], [79.82469, 10.86899], [79.8232, 10.870000000000001], [79.82229000000001, 10.8742], [79.81672, 10.87433], [79.81099, 10.875530000000001], [79.81098, 10.879840000000002], [79.8169, 10.88058], [79.81919, 10.87991], [79.82089, 10.881310000000001], [79.82270000000001, 10.88019], [79.82366, 10.881010000000002], [79.82453000000001, 10.880460000000001], [79.82533000000001, 10.881350000000001], [79.82795, 10.88166], [79.82869000000001, 10.883420000000001], [79.83226, 10.88202], [79.83266, 10.87879]]]}}]}