{"type": "FeatureCollection", "metadata": {"source": "Survey of India (per src_agency attribute in the source data)", "hosted_via": "National Water Data Portal (NWDP), NWIC, Ministry of Jal Shakti -- https://nwdp.nwic.gov.in/", "access": "public, no login required", "crs_original": "EPSG:7755 (WGS 84 / India NSF LCC)", "fetch_date": "2026-08-02", "quality": "verified-official -- Survey of India source", "state": "Puducherry", "district": "Mahe", "processing": "reprojected to EPSG:4326, topology-preserving simplify (shared-arc, tolerance 0.0005 deg) so adjacent polygons never overlap/gap at shared borders, coords rounded 5dp, 0 feature(s) needed the per-feature fallback", "feature_count": 1}, "features": [{"id": "1", "type": "Feature", "properties": {"village_name": "Mahe", "vil_lgd": 253095, "district_name": "Mahe", "dist_lgd": 599, "subdistrict_name": "Mahe Taluk", "sdcode": 5913, "block_name": "", "block_lgd": 0, "gp_name": "", "state_name": "PUDUCHERRY", "state_lgd": 34, "population": 41816, "households": 7420}, "geometry": {"type": "MultiPolygon", "coordinates": [[[[75.55429000000001, 11.730540000000001], [75.55785, 11.726410000000001], [75.55831, 11.72245], [75.55658000000001, 11.71954], [75.55436, 11.71883], [75.55246000000001, 11.719360000000002], [75.54815, 11.716560000000001], [75.54342000000001, 11.716920000000002], [75.53967, 11.71541], [75.53498, 11.718440000000001], [75.53334000000001, 11.716380000000001], [75.53352000000001, 11.71446], [75.53444, 11.713540000000002], [75.53679000000001, 11.713610000000001], [75.53688000000001, 11.712050000000001], [75.53247, 11.710560000000001], [75.53297, 11.70898], [75.52992, 11.709000000000001], [75.52891000000001, 11.710840000000001], [75.53020000000001, 11.711860000000001], [75.53138000000001, 11.715890000000002], [75.53024, 11.71704], [75.5275, 11.717220000000001], [75.52690000000001, 11.723450000000001], [75.52795, 11.72832], [75.52939, 11.73043], [75.52913000000001, 11.733130000000001], [75.53132000000001, 11.735330000000001], [75.53703, 11.73468], [75.53958, 11.738380000000001], [75.53968, 11.7451], [75.53867000000001, 11.747290000000001], [75.53589000000001, 11.74876], [75.53216, 11.75398], [75.53251, 11.757100000000001], [75.53481000000001, 11.759630000000001], [75.54270000000001, 11.760620000000001], [75.54519, 11.758970000000001], [75.54455, 11.755590000000002], [75.5455, 11.75248], [75.54472000000001, 11.744670000000001], [75.54551000000001, 11.740540000000001], [75.54409000000001, 11.735280000000001], [75.55429000000001, 11.730540000000001]]], [[[75.54133, 11.695010000000002], [75.53995, 11.69522], [75.53658, 11.693060000000001], [75.53375000000001, 11.69799], [75.53232000000001, 11.699110000000001], [75.53160000000001, 11.698760000000002], [75.53133000000001, 11.7003], [75.52904000000001, 11.70129], [75.52886000000001, 11.702280000000002], [75.53195000000001, 11.70382], [75.53389, 11.707910000000002], [75.53866000000001, 11.708580000000001], [75.54409000000001, 11.703740000000002], [75.54162000000001, 11.69978], [75.54133, 11.695010000000002]]]]}}]}