{"type": "FeatureCollection", "metadata": {"source": "Survey of India (per src_agency attribute in the source data)", "hosted_via": "National Water Data Portal (NWDP), NWIC, Ministry of Jal Shakti -- https://nwdp.nwic.gov.in/", "access": "public, no login required", "crs_original": "EPSG:7755 (WGS 84 / India NSF LCC)", "fetch_date": "2026-08-02", "quality": "verified-official -- Survey of India source", "state": "Puducherry", "district": "Pondicherry", "processing": "reprojected to EPSG:4326, topology-preserving simplify (shared-arc, tolerance 0.0005 deg) so adjacent polygons never overlap/gap at shared borders, coords rounded 5dp, 0 feature(s) needed the per-feature fallback", "feature_count": 69}, "features": [{"id": "0", "type": "Feature", "properties": {"village_name": "Thavalakuppam", "vil_lgd": 644919, "district_name": "Pondicherry", "dist_lgd": 600, "subdistrict_name": "Puducherry Taluk", "sdcode": 5909, "block_name": "Ariankuppam CD Block", "block_lgd": 2.0, "gp_name": "Thavalakuppam(Part) , Andiarpalayam, Purnankuppam(Part)", "state_name": "PUDUCHERRY", "state_lgd": 34, "population": 9212, "households": 2252}, "geometry": {"type": "Polygon", "coordinates": [[[79.80588, 11.870360000000002], [79.80640000000001, 11.868760000000002], [79.80479000000001, 11.867830000000001], [79.80317000000001, 11.86513], [79.80849, 11.860660000000001], [79.80716000000001, 11.85978], [79.80588, 11.85462], [79.80607, 11.850380000000001], [79.80495, 11.84933], [79.80300000000001, 11.85069], [79.80260000000001, 11.85396], [79.80058000000001, 11.855220000000001], [79.79022, 11.855220000000001], [79.79514, 11.871860000000002], [79.79675, 11.87451], [79.79867, 11.880820000000002], [79.80733000000001, 11.88066], [79.80588, 11.870360000000002]]]}}, {"id": "1", "type": "Feature", "properties": {"village_name": "Manamedu", "vil_lgd": 644976, "district_name": "Pondicherry", "dist_lgd": 600, "subdistrict_name": "Bahour Taluk", "sdcode": 5912, "block_name": "Ariankuppam CD Block", "block_lgd": 2.0, "gp_name": "Manamedu(Part)", "state_name": "PUDUCHERRY", "state_lgd": 34, "population": 2345, "households": 547}, "geometry": {"type": "Polygon", "coordinates": [[[79.68574000000001, 11.81244], [79.68844, 11.81023], [79.68844, 11.80381], [79.68765, 11.802480000000001], [79.68416, 11.80178], [79.68145000000001, 11.800180000000001], [79.68141, 11.79766], [79.67866000000001, 11.79869], [79.6747, 11.806750000000001], [79.67583, 11.814250000000001], [79.67982, 11.814390000000001], [79.68574000000001, 11.81244]]]}}, {"id": "2", "type": "Feature", "properties": {"village_name": "Madukarai", "vil_lgd": 644961, "district_name": "Pondicherry", "dist_lgd": 600, "subdistrict_name": "Bahour Taluk", "sdcode": 5912, "block_name": "Ariankuppam CD Block", "block_lgd": 2.0, "gp_name": "Madukkarai East(Part), Mandukarai West", "state_name": "PUDUCHERRY", "state_lgd": 34, "population": 9049, "households": 2085}, "geometry": {"type": "Polygon", "coordinates": [[[79.61841000000001, 11.85843], [79.61668, 11.85618], [79.61391, 11.8566], [79.60751, 11.85344], [79.60574000000001, 11.854270000000001], [79.60544, 11.864400000000002], [79.60682000000001, 11.86564], [79.6066, 11.867790000000001], [79.60491, 11.869150000000001], [79.60368000000001, 11.87916], [79.60446, 11.879550000000002], [79.60873000000001, 11.87808], [79.6123, 11.87368], [79.61304000000001, 11.865250000000001], [79.62421, 11.86513], [79.62306000000001, 11.862720000000001], [79.62316000000001, 11.85927], [79.62233, 11.858490000000002], [79.61841000000001, 11.85843]]]}}, {"id": "3", "type": "Feature", "properties": {"village_name": "Karaiyamputhur", "vil_lgd": 644975, "district_name": "Pondicherry", "dist_lgd": 600, "subdistrict_name": "Bahour Taluk", "sdcode": 5912, "block_name": "Ariankuppam CD Block", "block_lgd": 2.0, "gp_name": "Karaiyambuthur-Panayadikuppam(Part)", "state_name": "PUDUCHERRY", "state_lgd": 34, "population": 4518, "households": 1077}, "geometry": {"type": "Polygon", "coordinates": [[[79.66333, 11.81253], [79.66231, 11.809180000000001], [79.65988, 11.807400000000001], [79.65121, 11.80887], [79.64980000000001, 11.81094], [79.64815, 11.811750000000002], [79.6469, 11.81549], [79.64433000000001, 11.81872], [79.64880000000001, 11.82816], [79.66294, 11.82347], [79.66333, 11.81253]]]}}, {"id": "4", "type": "Feature", "properties": {"village_name": "Pandasozhanur", "vil_lgd": 644967, "district_name": "Pondicherry", "dist_lgd": 600, "subdistrict_name": "Bahour Taluk", "sdcode": 5912, "block_name": "Ariankuppam CD Block", "block_lgd": 2.0, "gp_name": "Kalmandapam(Part)", "state_name": "PUDUCHERRY", "state_lgd": 34, "population": 5643, "households": 1404}, "geometry": {"type": "Polygon", "coordinates": [[[79.66621, 11.8572], [79.66331000000001, 11.851590000000002], [79.65995000000001, 11.848310000000001], [79.65431000000001, 11.84562], [79.6503, 11.84496], [79.64876000000001, 11.845160000000002], [79.64691, 11.846820000000001], [79.64353000000001, 11.846770000000001], [79.64478000000001, 11.853090000000002], [79.64448, 11.86612], [79.65308, 11.86654], [79.65397, 11.86555], [79.65892000000001, 11.86532], [79.66125000000001, 11.863280000000001], [79.66488000000001, 11.861930000000001], [79.66621, 11.8572]]]}}, {"id": "5", "type": "Feature", "properties": {"village_name": "Nettapakkam", "vil_lgd": 644968, "district_name": "Pondicherry", "dist_lgd": 600, "subdistrict_name": "Bahour Taluk", "sdcode": 5912, "block_name": "Ariankuppam CD Block", "block_lgd": 2.0, "gp_name": "Kalmandapam(Part) , Nettapakkam", "state_name": "PUDUCHERRY", "state_lgd": 34, "population": 6331, "households": 1549}, "geometry": {"type": "Polygon", "coordinates": [[[79.63604000000001, 11.86551], [79.64448, 11.86612], [79.64478000000001, 11.853090000000002], [79.64353000000001, 11.846770000000001], [79.64135, 11.846660000000002], [79.63514, 11.8498], [79.63069, 11.84928], [79.62999, 11.85172], [79.63139000000001, 11.859620000000001], [79.63332000000001, 11.860640000000002], [79.63158, 11.86668], [79.63317, 11.866060000000001], [79.63604000000001, 11.86551]]]}}, {"id": "6", "type": "Feature", "properties": {"village_name": "Panayadikuppam", "vil_lgd": 644969, "district_name": "Pondicherry", "dist_lgd": 600, "subdistrict_name": "Bahour Taluk", "sdcode": 5912, "block_name": "Ariankuppam CD Block", "block_lgd": 2.0, "gp_name": "Karaiyambuthur-Panayadikuppam(Part)", "state_name": "PUDUCHERRY", "state_lgd": 34, "population": 1316, "households": 316}, "geometry": {"type": "Polygon", "coordinates": [[[79.66403000000001, 11.83252], [79.66399000000001, 11.826600000000001], [79.66294, 11.82347], [79.64880000000001, 11.82816], [79.64887, 11.830670000000001], [79.6474, 11.83266], [79.64743, 11.83392], [79.65029000000001, 11.838510000000001], [79.65408000000001, 11.83773], [79.66016, 11.83351], [79.66403000000001, 11.83252]]]}}, {"id": "7", "type": "Feature", "properties": {"village_name": "Kariamanickam", "vil_lgd": 644962, "district_name": "Pondicherry", "dist_lgd": 600, "subdistrict_name": "Bahour Taluk", "sdcode": 5912, "block_name": "Ariankuppam CD Block", "block_lgd": 2.0, "gp_name": "Madukkarai East(Part) , Kariamanickam, Sooramangalam", "state_name": "PUDUCHERRY", "state_lgd": 34, "population": 7685, "households": 1807}, "geometry": {"type": "Polygon", "coordinates": [[[79.63421000000001, 11.883360000000001], [79.6337, 11.87936], [79.63331000000001, 11.875390000000001], [79.63406, 11.87522], [79.63278000000001, 11.867400000000002], [79.63317, 11.866060000000001], [79.63158, 11.86668], [79.62595, 11.866140000000001], [79.62421, 11.86513], [79.61304000000001, 11.865250000000001], [79.6123, 11.87368], [79.61411000000001, 11.873780000000002], [79.61835, 11.87845], [79.62383000000001, 11.88183], [79.62547, 11.88761], [79.62750000000001, 11.88756], [79.63354000000001, 11.884820000000001], [79.63421000000001, 11.883360000000001]]]}}, {"id": "8", "type": "Feature", "properties": {"village_name": "Eripakkam", "vil_lgd": 644963, "district_name": "Pondicherry", "dist_lgd": 600, "subdistrict_name": "Bahour Taluk", "sdcode": 5912, "block_name": "Ariankuppam CD Block", "block_lgd": 2.0, "gp_name": "Eripakkam, Kalmandapam(Part)", "state_name": "PUDUCHERRY", "state_lgd": 34, "population": 4703, "households": 1100}, "geometry": {"type": "Polygon", "coordinates": [[[79.64703, 11.87794], [79.65037000000001, 11.876460000000002], [79.65225000000001, 11.87357], [79.65308, 11.86654], [79.64448, 11.86612], [79.63604000000001, 11.86551], [79.63317, 11.866060000000001], [79.63278000000001, 11.867400000000002], [79.63406, 11.87522], [79.63331000000001, 11.875390000000001], [79.6337, 11.87936], [79.63626000000001, 11.877630000000002], [79.63843, 11.87725], [79.63989000000001, 11.878490000000001], [79.63938, 11.882290000000001], [79.64627, 11.881430000000002], [79.64703, 11.87794]]]}}, {"id": "9", "type": "Feature", "properties": {"village_name": "Kalitheerthalkuppam", "vil_lgd": 644938, "district_name": "Pondicherry", "dist_lgd": 600, "subdistrict_name": "Villianur Taluk", "sdcode": 5911, "block_name": "Villianur CD Block", "block_lgd": 1.0, "gp_name": "Vadanur Puranasingupalayam(Part), Kalithirthalkuppam", "state_name": "PUDUCHERRY", "state_lgd": 34, "population": 8862, "households": 2137}, "geometry": {"type": "Polygon", "coordinates": [[[79.63586000000001, 11.9395], [79.63828000000001, 11.93973], [79.63811000000001, 11.932680000000001], [79.64215, 11.932210000000001], [79.64286000000001, 11.93163], [79.64274, 11.9296], [79.64541000000001, 11.929160000000001], [79.64548, 11.92331], [79.64334000000001, 11.919880000000001], [79.64162, 11.919590000000001], [79.64162, 11.917670000000001], [79.64399, 11.91735], [79.64409, 11.91422], [79.63163, 11.91458], [79.62832, 11.91802], [79.62259, 11.920250000000001], [79.62273, 11.929950000000002], [79.62389, 11.940650000000002], [79.62788, 11.940380000000001], [79.63297, 11.94125], [79.63586000000001, 11.9395]]]}}, {"id": "10", "type": "Feature", "properties": {"village_name": "Sanniyasikuppam", "vil_lgd": 644937, "district_name": "Pondicherry", "dist_lgd": 600, "subdistrict_name": "Villianur Taluk", "sdcode": 5911, "block_name": "Villianur CD Block", "block_lgd": 1.0, "gp_name": "Sannasikuppam(Part)", "state_name": "PUDUCHERRY", "state_lgd": 34, "population": 2375, "households": 589}, "geometry": {"type": "Polygon", "coordinates": [[[79.66188000000001, 11.93204], [79.66164, 11.930760000000001], [79.65587000000001, 11.930530000000001], [79.6554, 11.92867], [79.65445000000001, 11.928490000000002], [79.64541000000001, 11.929160000000001], [79.64274, 11.9296], [79.64286000000001, 11.93163], [79.64215, 11.932210000000001], [79.63811000000001, 11.932680000000001], [79.63828000000001, 11.93973], [79.64148, 11.938130000000001], [79.64391, 11.9379], [79.65264, 11.938690000000001], [79.65477000000001, 11.93951], [79.65627, 11.94382], [79.66093000000001, 11.943940000000001], [79.66502000000001, 11.93322], [79.66188000000001, 11.93204]]]}}, {"id": "11", "type": "Feature", "properties": {"village_name": "Thiruvandarkoil", "vil_lgd": 644941, "district_name": "Pondicherry", "dist_lgd": 600, "subdistrict_name": "Villianur Taluk", "sdcode": 5911, "block_name": "Villianur CD Block", "block_lgd": 1.0, "gp_name": "Sannasikuppam(Part), Thiruvandarkoil(part), Thirubuvanai(part)", "state_name": "PUDUCHERRY", "state_lgd": 34, "population": 7078, "households": 1651}, "geometry": {"type": "Polygon", "coordinates": [[[79.6722, 11.933840000000002], [79.67386, 11.931870000000002], [79.67381, 11.927520000000001], [79.67502, 11.92506], [79.67383000000001, 11.914280000000002], [79.66528000000001, 11.91468], [79.66518, 11.90849], [79.66209, 11.909440000000002], [79.65982000000001, 11.907960000000001], [79.65977000000001, 11.914090000000002], [79.65517000000001, 11.91412], [79.65508000000001, 11.91674], [79.65662, 11.916830000000001], [79.6576, 11.920110000000001], [79.65843000000001, 11.92008], [79.65864, 11.922120000000001], [79.65962, 11.92223], [79.65953, 11.926400000000001], [79.65772000000001, 11.926520000000002], [79.6554, 11.92867], [79.65587000000001, 11.930530000000001], [79.66164, 11.930760000000001], [79.66188000000001, 11.93204], [79.66502000000001, 11.93322], [79.66653000000001, 11.933240000000001], [79.66853, 11.93457], [79.66980000000001, 11.933900000000001], [79.6722, 11.933840000000002]]]}}, {"id": "12", "type": "Feature", "properties": {"village_name": "Madagadipet", "vil_lgd": 644939, "district_name": "Pondicherry", "dist_lgd": 600, "subdistrict_name": "Villianur Taluk", "sdcode": 5911, "block_name": "Villianur CD Block", "block_lgd": 1.0, "gp_name": "Madagadipet", "state_name": "PUDUCHERRY", "state_lgd": 34, "population": 7253, "households": 1709}, "geometry": {"type": "Polygon", "coordinates": [[[79.65252000000001, 11.913920000000001], [79.65288000000001, 11.904530000000001], [79.65182, 11.904760000000001], [79.65052, 11.90352], [79.64500000000001, 11.9037], [79.64301, 11.899700000000001], [79.63856000000001, 11.89882], [79.63214, 11.89934], [79.63041000000001, 11.900970000000001], [79.63165000000001, 11.905080000000002], [79.63103000000001, 11.91036], [79.63163, 11.91458], [79.64409, 11.91422], [79.65252000000001, 11.913920000000001]]]}}, {"id": "13", "type": "Feature", "properties": {"village_name": "Thirubuvanai", "vil_lgd": 644940, "district_name": "Pondicherry", "dist_lgd": 600, "subdistrict_name": "Villianur Taluk", "sdcode": 5911, "block_name": "Villianur CD Block", "block_lgd": 1.0, "gp_name": "Thirubuvanai (Part)", "state_name": "PUDUCHERRY", "state_lgd": 34, "population": 9374, "households": 2247}, "geometry": {"type": "Polygon", "coordinates": [[[79.6554, 11.92867], [79.65772000000001, 11.926520000000002], [79.65953, 11.926400000000001], [79.65962, 11.92223], [79.65864, 11.922120000000001], [79.65843000000001, 11.92008], [79.6576, 11.920110000000001], [79.65662, 11.916830000000001], [79.65508000000001, 11.91674], [79.65517000000001, 11.91412], [79.65977000000001, 11.914090000000002], [79.65982000000001, 11.907960000000001], [79.65857000000001, 11.904860000000001], [79.65520000000001, 11.90403], [79.65288000000001, 11.904530000000001], [79.65252000000001, 11.913920000000001], [79.64409, 11.91422], [79.64399, 11.91735], [79.64162, 11.917670000000001], [79.64162, 11.919590000000001], [79.64334000000001, 11.919880000000001], [79.64548, 11.92331], [79.64541000000001, 11.929160000000001], [79.65445000000001, 11.928490000000002], [79.6554, 11.92867]]]}}, {"id": "14", "type": "Feature", "properties": {"village_name": "Sorapet", "vil_lgd": 644934, "district_name": "Pondicherry", "dist_lgd": 600, "subdistrict_name": "Villianur Taluk", "sdcode": 5911, "block_name": "Villianur CD Block", "block_lgd": 1.0, "gp_name": "Sorapet(Part)", "state_name": "PUDUCHERRY", "state_lgd": 34, "population": 5110, "households": 1202}, "geometry": {"type": "Polygon", "coordinates": [[[79.67432000000001, 11.96292], [79.67402000000001, 11.959140000000001], [79.67848000000001, 11.956290000000001], [79.67996000000001, 11.95414], [79.68174, 11.954310000000001], [79.68549, 11.951120000000001], [79.68650000000001, 11.95115], [79.68649, 11.94949], [79.6877, 11.948110000000002], [79.679, 11.942960000000001], [79.67587, 11.944230000000001], [79.67324, 11.94433], [79.66695, 11.947280000000001], [79.66395, 11.94599], [79.66121000000001, 11.947890000000001], [79.65741000000001, 11.95166], [79.65719, 11.955380000000002], [79.65798000000001, 11.95589], [79.66189, 11.95359], [79.66452000000001, 11.95404], [79.66510000000001, 11.956010000000001], [79.66431, 11.957970000000001], [79.66718, 11.961120000000001], [79.66747000000001, 11.963370000000001], [79.67084000000001, 11.96277], [79.67432000000001, 11.96292]]]}}, {"id": "15", "type": "Feature", "properties": {"village_name": "Vambupet", "vil_lgd": 644935, "district_name": "Pondicherry", "dist_lgd": 600, "subdistrict_name": "Villianur Taluk", "sdcode": 5911, "block_name": "Villianur CD Block", "block_lgd": 1.0, "gp_name": "Sorapet(Part)", "state_name": "PUDUCHERRY", "state_lgd": 34, "population": 1111, "households": 269}, "geometry": {"type": "Polygon", "coordinates": [[[79.69074, 11.96409], [79.68706, 11.961070000000001], [79.68642000000001, 11.95856], [79.68650000000001, 11.95115], [79.68549, 11.951120000000001], [79.68174, 11.954310000000001], [79.67996000000001, 11.95414], [79.67848000000001, 11.956290000000001], [79.67402000000001, 11.959140000000001], [79.67432000000001, 11.96292], [79.67525, 11.963080000000001], [79.67661000000001, 11.961860000000001], [79.67943000000001, 11.96259], [79.68295, 11.96578], [79.68671, 11.967170000000001], [79.68972000000001, 11.966050000000001], [79.69074, 11.96409]]]}}, {"id": "16", "type": "Feature", "properties": {"village_name": "Kunichempet", "vil_lgd": 644931, "district_name": "Pondicherry", "dist_lgd": 600, "subdistrict_name": "Villianur Taluk", "sdcode": 5911, "block_name": "Villianur CD Block", "block_lgd": 1.0, "gp_name": "Kunichampet", "state_name": "PUDUCHERRY", "state_lgd": 34, "population": 5692, "households": 1376}, "geometry": {"type": "Polygon", "coordinates": [[[79.64675000000001, 12.00032], [79.64462, 11.996300000000002], [79.6396, 11.992790000000001], [79.6353, 11.994420000000002], [79.63512, 11.987520000000002], [79.63412000000001, 11.987340000000001], [79.63384, 11.984800000000002], [79.62628000000001, 11.985430000000001], [79.62955000000001, 11.994620000000001], [79.62843000000001, 11.99637], [79.62536, 11.996910000000002], [79.62476000000001, 12.00913], [79.62883000000001, 12.01054], [79.63966, 12.01989], [79.64054, 12.01758], [79.64006, 12.015080000000001], [79.64078, 12.01299], [79.64268000000001, 12.011590000000002], [79.64315, 12.005600000000001], [79.64476, 12.003340000000001], [79.64913, 12.00135], [79.64675000000001, 12.00032]]]}}, {"id": "17", "type": "Feature", "properties": {"village_name": "Manalipet", "vil_lgd": 644923, "district_name": "Pondicherry", "dist_lgd": 600, "subdistrict_name": "Villianur Taluk", "sdcode": 5911, "block_name": "Villianur CD Block", "block_lgd": 1.0, "gp_name": "Chettipet(Part)", "state_name": "PUDUCHERRY", "state_lgd": 34, "population": 1244, "households": 285}, "geometry": {"type": "Polygon", "coordinates": [[[79.64113, 12.023040000000002], [79.63966, 12.01989], [79.62883000000001, 12.01054], [79.62476000000001, 12.00913], [79.61768000000001, 12.01345], [79.61906, 12.01609], [79.62496, 12.018770000000002], [79.6252, 12.02026], [79.62299, 12.026660000000001], [79.62322, 12.030830000000002], [79.6246, 12.03147], [79.63145, 12.028620000000002], [79.63692, 12.02795], [79.64136, 12.02626], [79.64113, 12.023040000000002]]]}}, {"id": "18", "type": "Feature", "properties": {"village_name": "Chettypet", "vil_lgd": 644924, "district_name": "Pondicherry", "dist_lgd": 600, "subdistrict_name": "Villianur Taluk", "sdcode": 5911, "block_name": "Villianur CD Block", "block_lgd": 1.0, "gp_name": "Chettipet(Part)", "state_name": "PUDUCHERRY", "state_lgd": 34, "population": 1822, "households": 431}, "geometry": {"type": "Polygon", "coordinates": [[[79.64854000000001, 12.02449], [79.65457, 12.020040000000002], [79.65521000000001, 12.018640000000001], [79.65284000000001, 12.016020000000001], [79.65132000000001, 12.012590000000001], [79.65001000000001, 12.00228], [79.64913, 12.00135], [79.64476, 12.003340000000001], [79.64315, 12.005600000000001], [79.64268000000001, 12.011590000000002], [79.64078, 12.01299], [79.64006, 12.015080000000001], [79.64054, 12.01758], [79.63966, 12.01989], [79.64113, 12.023040000000002], [79.64136, 12.02626], [79.64393000000001, 12.024500000000002], [79.64854000000001, 12.02449]]]}}, {"id": "19", "type": "Feature", "properties": {"village_name": "Mannadipet", "vil_lgd": 644932, "district_name": "Pondicherry", "dist_lgd": 600, "subdistrict_name": "Villianur Taluk", "sdcode": 5911, "block_name": "Villianur CD Block", "block_lgd": 1.0, "gp_name": "Mannadipet, Thirukkanur", "state_name": "PUDUCHERRY", "state_lgd": 34, "population": 11176, "households": 2584}, "geometry": {"type": "Polygon", "coordinates": [[[79.64005, 11.991240000000001], [79.64325000000001, 11.98933], [79.64377, 11.987870000000001], [79.64378, 11.98404], [79.64088000000001, 11.97906], [79.63615, 11.979560000000001], [79.63306, 11.976650000000001], [79.63093, 11.972290000000001], [79.62767000000001, 11.970730000000001], [79.62791, 11.976820000000002], [79.6235, 11.979930000000001], [79.62087000000001, 11.983770000000002], [79.62197, 11.98507], [79.62628000000001, 11.985430000000001], [79.63384, 11.984800000000002], [79.63412000000001, 11.987340000000001], [79.63512, 11.987520000000002], [79.6353, 11.994420000000002], [79.6396, 11.992790000000001], [79.64005, 11.991240000000001]]]}}, {"id": "20", "type": "Feature", "properties": {"village_name": "Vadanur", "vil_lgd": 644933, "district_name": "Pondicherry", "dist_lgd": 600, "subdistrict_name": "Villianur Taluk", "sdcode": 5911, "block_name": "Villianur CD Block", "block_lgd": 1.0, "gp_name": "Vadanur Puranasingupalayam(Part)", "state_name": "PUDUCHERRY", "state_lgd": 34, "population": 4925, "households": 953}, "geometry": {"type": "Polygon", "coordinates": [[[79.64121, 11.97417], [79.63548, 11.972750000000001], [79.63468, 11.970770000000002], [79.6336, 11.97043], [79.63316, 11.966990000000001], [79.63033, 11.964480000000002], [79.62993, 11.962760000000001], [79.62482, 11.96504], [79.62436000000001, 11.96662], [79.62415, 11.967970000000001], [79.62767000000001, 11.970730000000001], [79.63093, 11.972290000000001], [79.63306, 11.976650000000001], [79.63615, 11.979560000000001], [79.64088000000001, 11.97906], [79.64121, 11.97417]]]}}, {"id": "21", "type": "Feature", "properties": {"village_name": "Kodathur", "vil_lgd": 644930, "district_name": "Pondicherry", "dist_lgd": 600, "subdistrict_name": "Villianur Taluk", "sdcode": 5911, "block_name": "Villianur CD Block", "block_lgd": 1.0, "gp_name": "Kodathur", "state_name": "PUDUCHERRY", "state_lgd": 34, "population": 3605, "households": 786}, "geometry": {"type": "Polygon", "coordinates": [[[79.67629000000001, 11.98858], [79.67025000000001, 11.987330000000002], [79.66756000000001, 11.98474], [79.66352, 11.98545], [79.66203, 11.98783], [79.66164, 11.990450000000001], [79.66393000000001, 12.00553], [79.67305, 12.003710000000002], [79.67566000000001, 12.00144], [79.67603000000001, 11.991530000000001], [79.67629000000001, 11.98858]]]}}, {"id": "22", "type": "Feature", "properties": {"village_name": "Suthukeny", "vil_lgd": 644925, "district_name": "Pondicherry", "dist_lgd": 600, "subdistrict_name": "Villianur Taluk", "sdcode": 5911, "block_name": "Villianur CD Block", "block_lgd": 1.0, "gp_name": "Suthukeny(Part)", "state_name": "PUDUCHERRY", "state_lgd": 34, "population": 2637, "households": 611}, "geometry": {"type": "Polygon", "coordinates": [[[79.67496000000001, 12.02144], [79.67652000000001, 12.021920000000001], [79.68404000000001, 12.016900000000001], [79.68820000000001, 12.007890000000002], [79.6907, 12.00731], [79.69123, 12.0051], [79.69373, 12.004290000000001], [79.69456000000001, 12.003240000000002], [79.69426, 11.996030000000001], [79.69175000000001, 11.995830000000002], [79.69076000000001, 11.995740000000001], [79.6907, 11.994760000000001], [79.68957, 11.994990000000001], [79.68624000000001, 11.995690000000002], [79.68493000000001, 11.997660000000002], [79.68398, 11.997250000000001], [79.68434, 11.996150000000002], [79.68321, 11.99394], [79.67804000000001, 11.994290000000001], [79.67816, 11.992080000000001], [79.67905, 11.99144], [79.67603000000001, 11.991530000000001], [79.67566000000001, 12.00144], [79.67305, 12.003710000000002], [79.66393000000001, 12.00553], [79.66470000000001, 12.009070000000001], [79.66305000000001, 12.01021], [79.66577000000001, 12.01092], [79.66677, 12.011940000000001], [79.66842000000001, 12.018590000000001], [79.67008000000001, 12.023010000000001], [79.67072, 12.02284], [79.67496000000001, 12.02144]]]}}, {"id": "23", "type": "Feature", "properties": {"village_name": "Thethampakkam", "vil_lgd": 644929, "district_name": "Pondicherry", "dist_lgd": 600, "subdistrict_name": "Villianur Taluk", "sdcode": 5911, "block_name": "Villianur CD Block", "block_lgd": 1.0, "gp_name": "Suthukeny(Part)", "state_name": "PUDUCHERRY", "state_lgd": 34, "population": 2109, "households": 512}, "geometry": {"type": "Polygon", "coordinates": [[[79.6907, 11.994760000000001], [79.69076000000001, 11.995740000000001], [79.69175000000001, 11.995830000000002], [79.69224000000001, 11.99202], [79.68975, 11.991560000000002], [79.68838000000001, 11.990450000000001], [79.68816000000001, 11.984960000000001], [79.68723, 11.98154], [79.68378000000001, 11.979220000000002], [79.68084, 11.984470000000002], [79.67749, 11.98821], [79.67629000000001, 11.98858], [79.67603000000001, 11.991530000000001], [79.67905, 11.99144], [79.67816, 11.992080000000001], [79.67804000000001, 11.994290000000001], [79.68321, 11.99394], [79.68434, 11.996150000000002], [79.68398, 11.997250000000001], [79.68493000000001, 11.997660000000002], [79.68624000000001, 11.995690000000002], [79.68957, 11.994990000000001], [79.6907, 11.994760000000001]]]}}, {"id": "24", "type": "Feature", "properties": {"village_name": "Thimmanaickenpalayam", "vil_lgd": 644917, "district_name": "Pondicherry", "dist_lgd": 600, "subdistrict_name": "Puducherry Taluk", "sdcode": 5909, "block_name": "Ariankuppam CD Block", "block_lgd": 2.0, "gp_name": "Abishegapakkam(Part), Thimmanaickenpalayam", "state_name": "PUDUCHERRY", "state_lgd": 34, "population": 3479, "households": 808}, "geometry": {"type": "Polygon", "coordinates": [[[79.77958000000001, 11.877870000000001], [79.77995, 11.875440000000001], [79.7791, 11.868630000000001], [79.77805000000001, 11.867120000000002], [79.77585, 11.867070000000002], [79.77561, 11.865350000000001], [79.77395000000001, 11.865860000000001], [79.77523000000001, 11.86293], [79.77443000000001, 11.856050000000002], [79.77533000000001, 11.855530000000002], [79.77642, 11.85651], [79.78154, 11.85565], [79.78006, 11.848070000000002], [79.77834, 11.847560000000001], [79.77662000000001, 11.845160000000002], [79.77578000000001, 11.838370000000001], [79.77387, 11.83666], [79.77234, 11.836580000000001], [79.76606000000001, 11.8405], [79.76423000000001, 11.846820000000001], [79.76207000000001, 11.848350000000002], [79.76319000000001, 11.851790000000001], [79.76504000000001, 11.8519], [79.76686000000001, 11.85796], [79.76941000000001, 11.858220000000001], [79.77075, 11.86123], [79.77016, 11.86476], [79.76918, 11.86503], [79.76995000000001, 11.874500000000001], [79.77276, 11.875300000000001], [79.77335000000001, 11.87512], [79.77380000000001, 11.876500000000002], [79.7762, 11.878150000000002], [79.77816, 11.877770000000002], [79.77958000000001, 11.877870000000001]]]}}, {"id": "25", "type": "Feature", "properties": {"village_name": "Pillaiyarkuppam", "vil_lgd": 644972, "district_name": "Pondicherry", "dist_lgd": 600, "subdistrict_name": "Bahour Taluk", "sdcode": 5912, "block_name": "Ariankuppam CD Block", "block_lgd": 2.0, "gp_name": "Kirumampakkam(Part), Piallaiyrarkuppam(Part), Kudiyiruppupalayam(Part)", "state_name": "PUDUCHERRY", "state_lgd": 34, "population": 5309, "households": 1190}, "geometry": {"type": "Polygon", "coordinates": [[[79.77104000000001, 11.822610000000001], [79.77294, 11.82262], [79.77434000000001, 11.82182], [79.77914000000001, 11.82182], [79.78446000000001, 11.819350000000002], [79.79502000000001, 11.816650000000001], [79.79663000000001, 11.817120000000001], [79.79701, 11.816], [79.79782, 11.818000000000001], [79.79939, 11.818090000000002], [79.79963000000001, 11.817260000000001], [79.80328, 11.816230000000001], [79.80024, 11.804590000000001], [79.79068000000001, 11.80554], [79.78872000000001, 11.80296], [79.78280000000001, 11.80564], [79.78219, 11.805150000000001], [79.77952, 11.806930000000001], [79.77317000000001, 11.80864], [79.76982000000001, 11.810810000000002], [79.7676, 11.811530000000001], [79.76757, 11.813], [79.76472000000001, 11.814190000000002], [79.76450000000001, 11.815690000000002], [79.76222000000001, 11.816350000000002], [79.7629, 11.81869], [79.76792, 11.819180000000001], [79.76933000000001, 11.82258], [79.77095000000001, 11.82323], [79.77104000000001, 11.822610000000001]]]}}, {"id": "26", "type": "Feature", "properties": {"village_name": "Kuruvinatham", "vil_lgd": 644982, "district_name": "Pondicherry", "dist_lgd": 600, "subdistrict_name": "Bahour Taluk", "sdcode": 5912, "block_name": "Ariankuppam CD Block", "block_lgd": 2.0, "gp_name": "Kuruvinatham(Part), Soriankuppam", "state_name": "PUDUCHERRY", "state_lgd": 34, "population": 7289, "households": 1845}, "geometry": {"type": "Polygon", "coordinates": [[[79.72349000000001, 11.795530000000001], [79.72854000000001, 11.7948], [79.73011000000001, 11.795300000000001], [79.73014, 11.79597], [79.73492, 11.79565], [79.73519, 11.79446], [79.73724, 11.79396], [79.74883000000001, 11.793700000000001], [79.74703000000001, 11.777470000000001], [79.74017, 11.780850000000001], [79.7318, 11.78072], [79.72608000000001, 11.782470000000002], [79.72176, 11.78682], [79.71978, 11.7849], [79.71228, 11.791440000000001], [79.71383, 11.79625], [79.71666, 11.796420000000001], [79.71687, 11.797490000000002], [79.72272000000001, 11.79644], [79.72349000000001, 11.795530000000001]]]}}, {"id": "27", "type": "Feature", "properties": {"village_name": "Parikalpattu", "vil_lgd": 644981, "district_name": "Pondicherry", "dist_lgd": 600, "subdistrict_name": "Bahour Taluk", "sdcode": 5912, "block_name": "Ariankuppam CD Block", "block_lgd": 2.0, "gp_name": "Parikalpet", "state_name": "PUDUCHERRY", "state_lgd": 34, "population": 3835, "households": 909}, "geometry": {"type": "Polygon", "coordinates": [[[79.76581, 11.791780000000001], [79.76306000000001, 11.790510000000001], [79.76179, 11.790700000000001], [79.76086000000001, 11.786890000000001], [79.75986, 11.786890000000001], [79.75750000000001, 11.7834], [79.75586000000001, 11.775310000000001], [79.75114, 11.77552], [79.74703000000001, 11.777470000000001], [79.74883000000001, 11.793700000000001], [79.75985, 11.79367], [79.76021, 11.794630000000002], [79.76324000000001, 11.792510000000002], [79.76793, 11.792390000000001], [79.76872, 11.790680000000002], [79.76581, 11.791780000000001]]]}}, {"id": "28", "type": "Feature", "properties": {"village_name": "Outchimedu", "vil_lgd": 644980, "district_name": "Pondicherry", "dist_lgd": 600, "subdistrict_name": "Bahour Taluk", "sdcode": 5912, "block_name": "Ariankuppam CD Block", "block_lgd": 2.0, "gp_name": "Pudukuppam(Part), Krishnavaram", "state_name": "PUDUCHERRY", "state_lgd": 34, "population": 3959, "households": 964}, "geometry": {"type": "Polygon", "coordinates": [[[79.78433000000001, 11.78729], [79.78240000000001, 11.784450000000001], [79.78114000000001, 11.78425], [79.7804, 11.78114], [79.77489000000001, 11.78241], [79.77468, 11.781860000000002], [79.77184000000001, 11.782140000000002], [79.77012, 11.783380000000001], [79.77028, 11.787090000000001], [79.77099000000001, 11.78809], [79.77057, 11.789470000000001], [79.76876, 11.78908], [79.76872, 11.790680000000002], [79.76793, 11.792390000000001], [79.76324000000001, 11.792510000000002], [79.76021, 11.794630000000002], [79.75887, 11.795710000000001], [79.75890000000001, 11.80042], [79.75997000000001, 11.800300000000002], [79.76047000000001, 11.802100000000001], [79.77371000000001, 11.79765], [79.77316, 11.795470000000002], [79.78074000000001, 11.79446], [79.78258000000001, 11.79382], [79.78282, 11.79268], [79.78606, 11.792250000000001], [79.78460000000001, 11.788580000000001], [79.78497, 11.787170000000001], [79.78433000000001, 11.78729]]]}}, {"id": "29", "type": "Feature", "properties": {"village_name": "Irulansanthai", "vil_lgd": 644977, "district_name": "Pondicherry", "dist_lgd": 600, "subdistrict_name": "Bahour Taluk", "sdcode": 5912, "block_name": "Ariankuppam CD Block", "block_lgd": 2.0, "gp_name": "Kuruvinatham(Part)", "state_name": "PUDUCHERRY", "state_lgd": 34, "population": 1670, "households": 400}, "geometry": {"type": "Polygon", "coordinates": [[[79.73562000000001, 11.809280000000001], [79.73612, 11.804860000000001], [79.73492, 11.79565], [79.73014, 11.79597], [79.73011000000001, 11.795300000000001], [79.72854000000001, 11.7948], [79.72349000000001, 11.795530000000001], [79.72272000000001, 11.79644], [79.72342, 11.79901], [79.72253, 11.799570000000001], [79.72306, 11.802900000000001], [79.72516, 11.802990000000001], [79.72543, 11.80578], [79.72414, 11.80747], [79.72442000000001, 11.81038], [79.72977, 11.80999], [79.72970000000001, 11.80921], [79.73562000000001, 11.809280000000001]]]}}, {"id": "30", "type": "Feature", "properties": {"village_name": "Manapet", "vil_lgd": 644979, "district_name": "Pondicherry", "dist_lgd": 600, "subdistrict_name": "Bahour Taluk", "sdcode": 5912, "block_name": "Ariankuppam CD Block", "block_lgd": 2.0, "gp_name": "Manapattu, Pudukuppam(Part)", "state_name": "PUDUCHERRY", "state_lgd": 34, "population": 8227, "households": 1951}, "geometry": {"type": "Polygon", "coordinates": [[[79.77317000000001, 11.80864], [79.77952, 11.806930000000001], [79.78219, 11.805150000000001], [79.78280000000001, 11.80564], [79.78872000000001, 11.80296], [79.79068000000001, 11.80554], [79.80024, 11.804590000000001], [79.79814, 11.79765], [79.79692, 11.78518], [79.78497, 11.787170000000001], [79.78460000000001, 11.788580000000001], [79.78606, 11.792250000000001], [79.78282, 11.79268], [79.78258000000001, 11.79382], [79.78074000000001, 11.79446], [79.77316, 11.795470000000002], [79.77371000000001, 11.79765], [79.76047000000001, 11.802100000000001], [79.76151, 11.809370000000001], [79.76251, 11.81126], [79.76440000000001, 11.8106], [79.7676, 11.811530000000001], [79.76982000000001, 11.810810000000002], [79.77317000000001, 11.80864]]]}}, {"id": "31", "type": "Feature", "properties": {"village_name": "Bahour", "vil_lgd": 644978, "district_name": "Pondicherry", "dist_lgd": 600, "subdistrict_name": "Bahour Taluk", "sdcode": 5912, "block_name": "Ariankuppam CD Block", "block_lgd": 2.0, "gp_name": "Bahour- East, Bahour-West", "state_name": "PUDUCHERRY", "state_lgd": 34, "population": 10927, "households": 2669}, "geometry": {"type": "Polygon", "coordinates": [[[79.7381, 11.83694], [79.73957, 11.836010000000002], [79.74245, 11.835980000000001], [79.74406, 11.834620000000001], [79.74417000000001, 11.82886], [79.74602, 11.82407], [79.7472, 11.820450000000001], [79.74730000000001, 11.817100000000002], [79.74506000000001, 11.81179], [79.75736, 11.81117], [79.75814000000001, 11.80981], [79.76151, 11.809370000000001], [79.76047000000001, 11.802100000000001], [79.75997000000001, 11.800300000000002], [79.75890000000001, 11.80042], [79.75887, 11.795710000000001], [79.76021, 11.794630000000002], [79.75985, 11.79367], [79.74883000000001, 11.793700000000001], [79.73724, 11.79396], [79.73519, 11.79446], [79.73492, 11.79565], [79.73612, 11.804860000000001], [79.73562000000001, 11.809280000000001], [79.73582, 11.81239], [79.73457, 11.81305], [79.73419000000001, 11.814300000000001], [79.7347, 11.81681], [79.73291, 11.81808], [79.73266000000001, 11.823760000000002], [79.73156, 11.82435], [79.73229, 11.833350000000001], [79.72935000000001, 11.836910000000001], [79.73545, 11.837050000000001], [79.7381, 11.83694]]]}}, {"id": "32", "type": "Feature", "properties": {"village_name": "Aranganoor", "vil_lgd": 644970, "district_name": "Pondicherry", "dist_lgd": 600, "subdistrict_name": "Bahour Taluk", "sdcode": 5912, "block_name": "Ariankuppam CD Block", "block_lgd": 2.0, "gp_name": "Seliamedu(Part)", "state_name": "PUDUCHERRY", "state_lgd": 34, "population": 2426, "households": 541}, "geometry": {"type": "Polygon", "coordinates": [[[79.7389, 11.84356], [79.73955000000001, 11.84232], [79.74858, 11.84065], [79.75067, 11.83858], [79.7556, 11.8375], [79.75561, 11.836820000000001], [79.76061, 11.83519], [79.76512000000001, 11.832650000000001], [79.76268, 11.831880000000002], [79.76201, 11.830800000000002], [79.7603, 11.83125], [79.75563000000001, 11.829440000000002], [79.75463, 11.82609], [79.75235, 11.82577], [79.75227000000001, 11.823120000000001], [79.74602, 11.82407], [79.74417000000001, 11.82886], [79.74406, 11.834620000000001], [79.74245, 11.835980000000001], [79.73957, 11.836010000000002], [79.7381, 11.83694], [79.73663, 11.84416], [79.73733, 11.84426], [79.73758000000001, 11.843020000000001], [79.7389, 11.84356]]]}}, {"id": "33", "type": "Feature", "properties": {"village_name": "Seliamedu", "vil_lgd": 644973, "district_name": "Pondicherry", "dist_lgd": 600, "subdistrict_name": "Bahour Taluk", "sdcode": 5912, "block_name": "Ariankuppam CD Block", "block_lgd": 2.0, "gp_name": "Seliamedu(Part), Kudiyiruppupalayam(Part)", "state_name": "PUDUCHERRY", "state_lgd": 34, "population": 5984, "households": 1426}, "geometry": {"type": "Polygon", "coordinates": [[[79.76495000000001, 11.824110000000001], [79.76933000000001, 11.82258], [79.76792, 11.819180000000001], [79.7629, 11.81869], [79.76222000000001, 11.816350000000002], [79.76450000000001, 11.815690000000002], [79.76472000000001, 11.814190000000002], [79.76757, 11.813], [79.7676, 11.811530000000001], [79.76440000000001, 11.8106], [79.76251, 11.81126], [79.76151, 11.809370000000001], [79.75814000000001, 11.80981], [79.75736, 11.81117], [79.74506000000001, 11.81179], [79.74730000000001, 11.817100000000002], [79.7472, 11.820450000000001], [79.74602, 11.82407], [79.75227000000001, 11.823120000000001], [79.75235, 11.82577], [79.75463, 11.82609], [79.75563000000001, 11.829440000000002], [79.7603, 11.83125], [79.76201, 11.830800000000002], [79.76268, 11.831880000000002], [79.76512000000001, 11.832650000000001], [79.76523, 11.831850000000001], [79.76495000000001, 11.824110000000001]]]}}, {"id": "34", "type": "Feature", "properties": {"village_name": "Kirumampakkam", "vil_lgd": 644971, "district_name": "Pondicherry", "dist_lgd": 600, "subdistrict_name": "Bahour Taluk", "sdcode": 5912, "block_name": "Ariankuppam CD Block", "block_lgd": 2.0, "gp_name": "Kirumampakkam(Part), Piallaiyrarkuppam(Part), Pannithittu", "state_name": "PUDUCHERRY", "state_lgd": 34, "population": 10133, "households": 2229}, "geometry": {"type": "Polygon", "coordinates": [[[79.80820000000001, 11.833480000000002], [79.80328, 11.816230000000001], [79.79963000000001, 11.817260000000001], [79.79939, 11.818090000000002], [79.79782, 11.818000000000001], [79.79701, 11.816], [79.79663000000001, 11.817120000000001], [79.79502000000001, 11.816650000000001], [79.78446000000001, 11.819350000000002], [79.77914000000001, 11.82182], [79.77434000000001, 11.82182], [79.77294, 11.82262], [79.77328, 11.82628], [79.77429000000001, 11.8269], [79.77470000000001, 11.828570000000001], [79.77608000000001, 11.82862], [79.77828000000001, 11.83167], [79.78632, 11.83093], [79.78729000000001, 11.829310000000001], [79.79226000000001, 11.8275], [79.79571, 11.82845], [79.79616, 11.826870000000001], [79.79502000000001, 11.825740000000001], [79.79661, 11.824390000000001], [79.798, 11.82492], [79.79833, 11.82745], [79.80043, 11.82904], [79.80061, 11.83059], [79.79859, 11.833260000000001], [79.79396000000001, 11.83233], [79.79378000000001, 11.833480000000002], [79.79804, 11.834600000000002], [79.79761, 11.837750000000002], [79.79819, 11.838650000000001], [79.80033, 11.837610000000002], [79.80129000000001, 11.83463], [79.80338, 11.833520000000002], [79.80820000000001, 11.833480000000002]]]}}, {"id": "35", "type": "Feature", "properties": {"village_name": "Ariyur", "vil_lgd": 644951, "district_name": "Pondicherry", "dist_lgd": 600, "subdistrict_name": "Villianur Taluk", "sdcode": 5911, "block_name": "Villianur CD Block", "block_lgd": 1.0, "gp_name": "Ariyur", "state_name": "PUDUCHERRY", "state_lgd": 34, "population": 8758, "households": 2073}, "geometry": {"type": "Polygon", "coordinates": [[[79.71857, 11.91899], [79.71786, 11.91332], [79.70651000000001, 11.913580000000001], [79.70652000000001, 11.905140000000001], [79.70886, 11.90426], [79.70844000000001, 11.901530000000001], [79.70733000000001, 11.90146], [79.70596, 11.899310000000002], [79.70529, 11.894660000000002], [79.70209000000001, 11.89503], [79.69534, 11.895570000000001], [79.69564000000001, 11.902370000000001], [79.69753, 11.90238], [79.69781, 11.90469], [79.69766000000001, 11.90755], [79.69551000000001, 11.907850000000002], [79.69609000000001, 11.919030000000001], [79.71671, 11.91909], [79.71857, 11.91899]]]}}, {"id": "36", "type": "Feature", "properties": {"village_name": "Sedarapet", "vil_lgd": 644942, "district_name": "Pondicherry", "dist_lgd": 600, "subdistrict_name": "Villianur Taluk", "sdcode": 5911, "block_name": "Villianur CD Block", "block_lgd": 1.0, "gp_name": "Sedarapet(Part)", "state_name": "PUDUCHERRY", "state_lgd": 34, "population": 4756, "households": 1149}, "geometry": {"type": "Polygon", "coordinates": [[[79.76228, 12.002640000000001], [79.76199000000001, 11.99319], [79.76033000000001, 11.989160000000002], [79.75543, 11.988240000000001], [79.75425000000001, 11.986070000000002], [79.75322000000001, 11.986], [79.75173000000001, 11.984290000000001], [79.74803, 11.984710000000002], [79.73927, 11.987350000000001], [79.74132, 12.00126], [79.74143000000001, 12.003900000000002], [79.74363000000001, 12.00359], [79.74480000000001, 12.00622], [79.74675, 12.007510000000002], [79.76228, 12.002640000000001]]]}}, {"id": "37", "type": "Feature", "properties": {"village_name": "Kizhur", "vil_lgd": 644952, "district_name": "Pondicherry", "dist_lgd": 600, "subdistrict_name": "Villianur Taluk", "sdcode": 5911, "block_name": "Villianur CD Block", "block_lgd": 1.0, "gp_name": "Sivarandagam", "state_name": "PUDUCHERRY", "state_lgd": 34, "population": 2955, "households": 698}, "geometry": {"type": "Polygon", "coordinates": [[[79.70529, 11.894660000000002], [79.70518000000001, 11.893870000000001], [79.70935, 11.892940000000001], [79.71038, 11.891100000000002], [79.70983000000001, 11.889180000000001], [79.69952, 11.88907], [79.69676000000001, 11.88854], [79.69649000000001, 11.88662], [79.68645000000001, 11.886420000000001], [79.68462000000001, 11.885810000000001], [79.6855, 11.88471], [79.68496, 11.880920000000001], [79.67393000000001, 11.880650000000001], [79.67375000000001, 11.891570000000002], [79.68273, 11.89192], [79.68253, 11.88874], [79.68675, 11.888840000000002], [79.68707, 11.894490000000001], [79.69529, 11.89475], [79.69534, 11.895570000000001], [79.70209000000001, 11.89503], [79.70529, 11.894660000000002]]]}}, {"id": "38", "type": "Feature", "properties": {"village_name": "Sathamangalam", "vil_lgd": 644953, "district_name": "Pondicherry", "dist_lgd": 600, "subdistrict_name": "Villianur Taluk", "sdcode": 5911, "block_name": "Villianur CD Block", "block_lgd": 1.0, "gp_name": "Sathamangalam(Part)", "state_name": "PUDUCHERRY", "state_lgd": 34, "population": 2977, "households": 675}, "geometry": {"type": "Polygon", "coordinates": [[[79.71882000000001, 11.890350000000002], [79.72869, 11.89015], [79.72968, 11.888490000000001], [79.7316, 11.888110000000001], [79.73139, 11.886230000000001], [79.72786, 11.88183], [79.72397000000001, 11.88221], [79.71780000000001, 11.880500000000001], [79.71445000000001, 11.882950000000001], [79.71174, 11.882040000000002], [79.70918, 11.88255], [79.70946, 11.885420000000002], [79.71062, 11.887550000000001], [79.70983000000001, 11.887830000000001], [79.70983000000001, 11.889180000000001], [79.71038, 11.891100000000002], [79.71147, 11.890630000000002], [79.71257, 11.891770000000001], [79.71366, 11.89104], [79.71644, 11.892710000000001], [79.71788000000001, 11.89187], [79.71882000000001, 11.890350000000002]]]}}, {"id": "39", "type": "Feature", "properties": {"village_name": "Mangalam", "vil_lgd": 644954, "district_name": "Pondicherry", "dist_lgd": 600, "subdistrict_name": "Villianur Taluk", "sdcode": 5911, "block_name": "Villianur CD Block", "block_lgd": 1.0, "gp_name": "Mangalam", "state_name": "PUDUCHERRY", "state_lgd": 34, "population": 4320, "households": 973}, "geometry": {"type": "Polygon", "coordinates": [[[79.74501000000001, 11.90465], [79.74526, 11.900250000000002], [79.74347, 11.90018], [79.74247000000001, 11.89062], [79.74297, 11.887060000000002], [79.74184000000001, 11.88559], [79.7342, 11.885110000000001], [79.73139, 11.886230000000001], [79.7316, 11.888110000000001], [79.72968, 11.888490000000001], [79.72869, 11.89015], [79.72945, 11.891610000000002], [79.73041, 11.891680000000001], [79.73062, 11.901950000000001], [79.73121, 11.903160000000002], [79.73334000000001, 11.904020000000001], [79.73805, 11.904150000000001], [79.7406, 11.90539], [79.74173, 11.904990000000002], [79.74501000000001, 11.90465]]]}}, {"id": "40", "type": "Feature", "properties": {"village_name": "Karasoor", "vil_lgd": 644943, "district_name": "Pondicherry", "dist_lgd": 600, "subdistrict_name": "Villianur Taluk", "sdcode": 5911, "block_name": "Villianur CD Block", "block_lgd": 1.0, "gp_name": "Sedarapet|(Part)", "state_name": "PUDUCHERRY", "state_lgd": 34, "population": 1752, "households": 397}, "geometry": {"type": "Polygon", "coordinates": [[[79.74362, 11.97981], [79.74276, 11.97784], [79.74185, 11.977620000000002], [79.73549000000001, 11.979120000000002], [79.73014, 11.983170000000001], [79.72949000000001, 11.984890000000002], [79.73031, 11.985890000000001], [79.72805000000001, 11.98591], [79.72819000000001, 11.989020000000002], [79.72943000000001, 11.99107], [79.73014, 11.99069], [79.7304, 11.99319], [79.73332, 11.99322], [79.7347, 11.997420000000002], [79.73741000000001, 11.99844], [79.73763000000001, 12.000860000000001], [79.74132, 12.00126], [79.73927, 11.987350000000001], [79.74803, 11.984710000000002], [79.74362, 11.97981]]]}}, {"id": "41", "type": "Feature", "properties": {"village_name": "Karikkalampakkam", "vil_lgd": 644966, "district_name": "Pondicherry", "dist_lgd": 600, "subdistrict_name": "Bahour Taluk", "sdcode": 5912, "block_name": "Ariankuppam CD Block", "block_lgd": 2.0, "gp_name": "Karikalampakkam", "state_name": "PUDUCHERRY", "state_lgd": 34, "population": 6558, "households": 1633}, "geometry": {"type": "Polygon", "coordinates": [[[79.74954000000001, 11.86993], [79.74993, 11.871500000000001], [79.75211, 11.871550000000001], [79.75456000000001, 11.869650000000002], [79.75487000000001, 11.867180000000001], [79.75378, 11.865950000000002], [79.75447000000001, 11.865770000000001], [79.75363, 11.862060000000001], [79.75423, 11.860990000000001], [79.75356000000001, 11.858770000000002], [79.75383000000001, 11.85008], [79.75030000000001, 11.847880000000002], [79.74859000000001, 11.84903], [79.74301000000001, 11.84828], [79.74236, 11.851540000000002], [79.74295000000001, 11.85275], [79.74396, 11.852870000000001], [79.74385000000001, 11.855080000000001], [79.74322000000001, 11.859660000000002], [79.74215000000001, 11.860840000000001], [79.74185, 11.86275], [79.73961000000001, 11.864600000000001], [79.73259, 11.865570000000002], [79.73231000000001, 11.868200000000002], [79.73321, 11.86935], [79.73346000000001, 11.87204], [79.73656000000001, 11.872230000000002], [79.73646000000001, 11.870940000000001], [79.73781000000001, 11.870000000000001], [79.74954000000001, 11.86993]]]}}, {"id": "42", "type": "Feature", "properties": {"village_name": "Perungalur", "vil_lgd": 644957, "district_name": "Pondicherry", "dist_lgd": 600, "subdistrict_name": "Villianur Taluk", "sdcode": 5911, "block_name": "Villianur CD Block", "block_lgd": 1.0, "gp_name": "Uruvaiyar(Part)", "state_name": "PUDUCHERRY", "state_lgd": 34, "population": 1765, "households": 437}, "geometry": {"type": "Polygon", "coordinates": [[[79.75607000000001, 11.883890000000001], [79.75999, 11.883790000000001], [79.76092000000001, 11.88292], [79.76085, 11.881210000000001], [79.76309, 11.879150000000001], [79.76295, 11.87845], [79.76507000000001, 11.877580000000002], [79.76578, 11.876270000000002], [79.76443, 11.87541], [79.76389, 11.87692], [79.76060000000001, 11.876750000000001], [79.76010000000001, 11.875670000000001], [79.75733000000001, 11.87602], [79.75769000000001, 11.87227], [79.75867000000001, 11.871620000000002], [79.75859000000001, 11.86842], [79.75487000000001, 11.867180000000001], [79.75456000000001, 11.869650000000002], [79.75211, 11.871550000000001], [79.75092000000001, 11.878620000000002], [79.75167, 11.88103], [79.75136, 11.8848], [79.75391, 11.88546], [79.75607000000001, 11.883890000000001]]]}}, {"id": "43", "type": "Feature", "properties": {"village_name": "Uruvaiyar", "vil_lgd": 644955, "district_name": "Pondicherry", "dist_lgd": 600, "subdistrict_name": "Villianur Taluk", "sdcode": 5911, "block_name": "Villianur CD Block", "block_lgd": 1.0, "gp_name": "Uruvaiyar(Part)", "state_name": "PUDUCHERRY", "state_lgd": 34, "population": 4568, "households": 1090}, "geometry": {"type": "Polygon", "coordinates": [[[79.75136, 11.899170000000002], [79.75279, 11.899140000000001], [79.75282, 11.896210000000002], [79.75347000000001, 11.896070000000002], [79.75339000000001, 11.895130000000002], [79.75450000000001, 11.895370000000002], [79.75482000000001, 11.888710000000001], [79.75391, 11.88546], [79.75136, 11.8848], [79.74707000000001, 11.88507], [79.74472, 11.883540000000002], [79.74386000000001, 11.883780000000002], [79.74184000000001, 11.88559], [79.74297, 11.887060000000002], [79.74247000000001, 11.89062], [79.74347, 11.90018], [79.74526, 11.900250000000002], [79.74501000000001, 11.90465], [79.75254000000001, 11.906120000000001], [79.75136, 11.899170000000002]]]}}, {"id": "44", "type": "Feature", "properties": {"village_name": "Thirukanchi", "vil_lgd": 644956, "district_name": "Pondicherry", "dist_lgd": 600, "subdistrict_name": "Villianur Taluk", "sdcode": 5911, "block_name": "Villianur CD Block", "block_lgd": 1.0, "gp_name": "Thirukanji", "state_name": "PUDUCHERRY", "state_lgd": 34, "population": 4207, "households": 1005}, "geometry": {"type": "MultiPolygon", "coordinates": [[[[79.76427000000001, 11.895900000000001], [79.76926, 11.89611], [79.76910000000001, 11.900620000000002], [79.77279, 11.900400000000001], [79.77044000000001, 11.89084], [79.77186, 11.885250000000001], [79.77075, 11.883970000000001], [79.77340000000001, 11.883210000000002], [79.77276, 11.875300000000001], [79.76995000000001, 11.874500000000001], [79.76831, 11.875900000000001], [79.76578, 11.876270000000002], [79.76507000000001, 11.877580000000002], [79.76295, 11.87845], [79.76309, 11.879150000000001], [79.76085, 11.881210000000001], [79.76092000000001, 11.88292], [79.75999, 11.883790000000001], [79.75607000000001, 11.883890000000001], [79.75391, 11.88546], [79.75482000000001, 11.888710000000001], [79.75450000000001, 11.895370000000002], [79.75339000000001, 11.895130000000002], [79.75347000000001, 11.896070000000002], [79.75282, 11.896210000000002], [79.75279, 11.899140000000001], [79.75136, 11.899170000000002], [79.75254000000001, 11.906120000000001], [79.75714, 11.90338], [79.7616, 11.897100000000002], [79.76427000000001, 11.895900000000001]]], [[[79.77506000000001, 11.90178], [79.76975, 11.902730000000002], [79.76949, 11.90455], [79.77529000000001, 11.904940000000002], [79.77506000000001, 11.90178]]]]}}, {"id": "45", "type": "Feature", "properties": {"village_name": "Thuthipet", "vil_lgd": 644944, "district_name": "Pondicherry", "dist_lgd": 600, "subdistrict_name": "Villianur Taluk", "sdcode": 5911, "block_name": "Villianur CD Block", "block_lgd": 1.0, "gp_name": "Thondamanatham(Part)", "state_name": "PUDUCHERRY", "state_lgd": 34, "population": 939, "households": 230}, "geometry": {"type": "Polygon", "coordinates": [[[79.73014, 11.99069], [79.72943000000001, 11.99107], [79.72819000000001, 11.989020000000002], [79.72805000000001, 11.98591], [79.72642, 11.98568], [79.72353000000001, 11.97799], [79.72357000000001, 11.975090000000002], [79.72216, 11.97512], [79.72025000000001, 11.97507], [79.71959000000001, 11.97414], [79.71864000000001, 11.97005], [79.71568, 11.969890000000001], [79.71592000000001, 11.97098], [79.71454, 11.97267], [79.71078, 11.974520000000002], [79.71071, 11.97563], [79.70925000000001, 11.975800000000001], [79.71048, 11.97742], [79.71237, 11.986460000000001], [79.71456, 11.98634], [79.71441, 11.98493], [79.7158, 11.984800000000002], [79.71931000000001, 11.9892], [79.72046, 11.99267], [79.72302, 11.992450000000002], [79.72333, 11.99309], [79.72821, 11.992260000000002], [79.72894000000001, 11.993570000000002], [79.7304, 11.99319], [79.73014, 11.99069]]]}}, {"id": "46", "type": "Feature", "properties": {"village_name": "Sellipet", "vil_lgd": 644936, "district_name": "Pondicherry", "dist_lgd": 600, "subdistrict_name": "Villianur Taluk", "sdcode": 5911, "block_name": "Villianur CD Block", "block_lgd": 1.0, "gp_name": "Sellipattu", "state_name": "PUDUCHERRY", "state_lgd": 34, "population": 2893, "households": 664}, "geometry": {"type": "Polygon", "coordinates": [[[79.70824, 11.946660000000001], [79.70804000000001, 11.94072], [79.71112000000001, 11.93303], [79.70648000000001, 11.93523], [79.70644, 11.937230000000001], [79.7042, 11.940130000000002], [79.70152, 11.94138], [79.69721000000001, 11.94171], [79.69586000000001, 11.94448], [79.69566, 11.94766], [79.69387, 11.94908], [79.69368, 11.95021], [79.69157000000001, 11.951270000000001], [79.69282000000001, 11.95738], [79.69344000000001, 11.957210000000002], [79.69560000000001, 11.96386], [79.69788000000001, 11.96044], [79.70824, 11.946660000000001]]]}}, {"id": "47", "type": "Feature", "properties": {"village_name": "Thondamanatham", "vil_lgd": 644945, "district_name": "Pondicherry", "dist_lgd": 600, "subdistrict_name": "Villianur Taluk", "sdcode": 5911, "block_name": "Villianur CD Block", "block_lgd": 1.0, "gp_name": "Thondamanatham(Part)", "state_name": "PUDUCHERRY", "state_lgd": 34, "population": 4090, "households": 983}, "geometry": {"type": "Polygon", "coordinates": [[[79.72357000000001, 11.975090000000002], [79.72447000000001, 11.97123], [79.72954, 11.97062], [79.73449000000001, 11.968340000000001], [79.73201, 11.962230000000002], [79.7342, 11.961010000000002], [79.73477000000001, 11.958250000000001], [79.73230000000001, 11.95889], [79.72906, 11.958400000000001], [79.72720000000001, 11.95587], [79.72486, 11.957880000000001], [79.72269, 11.9585], [79.71699000000001, 11.958380000000002], [79.71459, 11.957270000000001], [79.71106, 11.95766], [79.71059000000001, 11.95695], [79.70992000000001, 11.95695], [79.70984, 11.95786], [79.71205, 11.959810000000001], [79.71402, 11.960400000000002], [79.71407, 11.96695], [79.71568, 11.969890000000001], [79.71864000000001, 11.97005], [79.71959000000001, 11.97414], [79.72025000000001, 11.97507], [79.72216, 11.97512], [79.72357000000001, 11.975090000000002]]]}}, {"id": "48", "type": "Feature", "properties": {"village_name": "Ramanathapuram", "vil_lgd": 644946, "district_name": "Pondicherry", "dist_lgd": 600, "subdistrict_name": "Villianur Taluk", "sdcode": 5911, "block_name": "Villianur CD Block", "block_lgd": 1.0, "gp_name": "Pillaiyarkuppam(Part)", "state_name": "PUDUCHERRY", "state_lgd": 34, "population": 2841, "households": 703}, "geometry": {"type": "Polygon", "coordinates": [[[79.73284000000001, 11.944180000000001], [79.73159000000001, 11.94279], [79.72556, 11.944360000000001], [79.72594000000001, 11.943230000000002], [79.72080000000001, 11.94486], [79.71164, 11.948810000000002], [79.71384, 11.952800000000002], [79.71059000000001, 11.95695], [79.71106, 11.95766], [79.71459, 11.957270000000001], [79.71699000000001, 11.958380000000002], [79.72269, 11.9585], [79.72486, 11.957880000000001], [79.72720000000001, 11.95587], [79.72906, 11.958400000000001], [79.73230000000001, 11.95889], [79.73477000000001, 11.958250000000001], [79.73284000000001, 11.944180000000001]]]}}, {"id": "49", "type": "Feature", "properties": {"village_name": "Oussudu", "vil_lgd": 644950, "district_name": "Pondicherry", "dist_lgd": 600, "subdistrict_name": "Villianur Taluk", "sdcode": 5911, "block_name": "Villianur CD Block", "block_lgd": 1.0, "gp_name": "Poraiyur Agaram(Part)", "state_name": "PUDUCHERRY", "state_lgd": 34, "population": 3227, "households": 729}, "geometry": {"type": "Polygon", "coordinates": [[[79.74444000000001, 11.964910000000001], [79.74860000000001, 11.94392], [79.74914000000001, 11.927560000000001], [79.74781, 11.92768], [79.74492000000001, 11.928310000000002], [79.74467000000001, 11.925870000000002], [79.74613000000001, 11.92088], [79.74553, 11.917910000000001], [79.73719000000001, 11.91788], [79.73622, 11.92126], [79.73697, 11.922], [79.73754000000001, 11.929110000000001], [79.74211000000001, 11.929010000000002], [79.74239, 11.933330000000002], [79.74214, 11.93438], [79.73933000000001, 11.934410000000002], [79.73915000000001, 11.93665], [79.73790000000001, 11.937240000000001], [79.73772000000001, 11.939860000000001], [79.73537, 11.939300000000001], [79.73376, 11.939820000000001], [79.72594000000001, 11.943230000000002], [79.72556, 11.944360000000001], [79.73159000000001, 11.94279], [79.73284000000001, 11.944180000000001], [79.73477000000001, 11.958250000000001], [79.7342, 11.961010000000002], [79.73201, 11.962230000000002], [79.73449000000001, 11.968340000000001], [79.73487, 11.96822], [79.74444000000001, 11.964910000000001]]]}}, {"id": "50", "type": "Feature", "properties": {"village_name": "Olavaikal", "vil_lgd": 644949, "district_name": "Pondicherry", "dist_lgd": 600, "subdistrict_name": "Villianur Taluk", "sdcode": 5911, "block_name": "Villianur CD Block", "block_lgd": 1.0, "gp_name": "Poraiyur Agaram(Part)", "state_name": "PUDUCHERRY", "state_lgd": 34, "population": 1224, "households": 320}, "geometry": {"type": "Polygon", "coordinates": [[[79.73726, 11.913870000000001], [79.73790000000001, 11.91341], [79.73749000000001, 11.909070000000002], [79.73252000000001, 11.913210000000001], [79.72687, 11.92106], [79.72981, 11.924240000000001], [79.72948000000001, 11.92858], [79.73400000000001, 11.92866], [79.73376, 11.939820000000001], [79.73537, 11.939300000000001], [79.73772000000001, 11.939860000000001], [79.73790000000001, 11.937240000000001], [79.73915000000001, 11.93665], [79.73933000000001, 11.934410000000002], [79.74214, 11.93438], [79.74239, 11.933330000000002], [79.74211000000001, 11.929010000000002], [79.73754000000001, 11.929110000000001], [79.73697, 11.922], [79.73622, 11.92126], [79.73719000000001, 11.91788], [79.73726, 11.913870000000001]]]}}, {"id": "51", "type": "Feature", "properties": {"village_name": "Pillaiyarkuppam", "vil_lgd": 644947, "district_name": "Pondicherry", "dist_lgd": 600, "subdistrict_name": "Villianur Taluk", "sdcode": 5911, "block_name": "Villianur CD Block", "block_lgd": 1.0, "gp_name": "Pillaiyarkuppam(Part)", "state_name": "PUDUCHERRY", "state_lgd": 34, "population": 2744, "households": 658}, "geometry": {"type": "Polygon", "coordinates": [[[79.71407, 11.96695], [79.71402, 11.960400000000002], [79.71205, 11.959810000000001], [79.70984, 11.95786], [79.70992000000001, 11.95695], [79.71059000000001, 11.95695], [79.71384, 11.952800000000002], [79.71164, 11.948810000000002], [79.70958, 11.949910000000001], [79.70824, 11.946660000000001], [79.69788000000001, 11.96044], [79.70007000000001, 11.96277], [79.70095, 11.96263], [79.70193, 11.96485], [79.70358, 11.965430000000001], [79.70251, 11.966980000000001], [79.70573, 11.96709], [79.70598000000001, 11.966320000000001], [79.71012, 11.96574], [79.71083, 11.967220000000001], [79.71201, 11.967500000000001], [79.71407, 11.96695]]]}}, {"id": "52", "type": "Feature", "properties": {"village_name": "Goodapakkam", "vil_lgd": 644948, "district_name": "Pondicherry", "dist_lgd": 600, "subdistrict_name": "Villianur Taluk", "sdcode": 5911, "block_name": "Villianur CD Block", "block_lgd": 1.0, "gp_name": "Koodapakkam, Poraiyur Agaram(Part)", "state_name": "PUDUCHERRY", "state_lgd": 34, "population": 7147, "households": 1712}, "geometry": {"type": "Polygon", "coordinates": [[[79.73376, 11.939820000000001], [79.73400000000001, 11.92866], [79.72948000000001, 11.92858], [79.72981, 11.924240000000001], [79.72687, 11.92106], [79.72542, 11.923110000000001], [79.71744000000001, 11.92894], [79.72080000000001, 11.94486], [79.72594000000001, 11.943230000000002], [79.73376, 11.939820000000001]]]}}, {"id": "53", "type": "Feature", "properties": {"village_name": "Pondicherry", "vil_lgd": 253094, "district_name": "Pondicherry", "dist_lgd": 600, "subdistrict_name": "Puducherry Taluk", "sdcode": 5909, "block_name": "", "block_lgd": 0.0, "gp_name": "", "state_name": "PUDUCHERRY", "state_lgd": 34, "population": 244377, "households": 60638}, "geometry": {"type": "Polygon", "coordinates": [[[79.84059, 11.95574], [79.83775, 11.9443], [79.83697000000001, 11.93557], [79.83506000000001, 11.927190000000001], [79.83006, 11.910100000000002], [79.83216, 11.907480000000001], [79.83056, 11.899890000000001], [79.82155, 11.903730000000001], [79.82077000000001, 11.904720000000001], [79.81947000000001, 11.903730000000001], [79.81759000000001, 11.903670000000002], [79.81424000000001, 11.89891], [79.81127000000001, 11.89728], [79.80907, 11.89905], [79.80711000000001, 11.89844], [79.80455, 11.90004], [79.79641000000001, 11.899840000000001], [79.79048, 11.897070000000001], [79.78757, 11.896790000000001], [79.78017000000001, 11.90365], [79.78197, 11.90634], [79.78261, 11.910990000000002], [79.78503, 11.91797], [79.79409000000001, 11.91792], [79.79479, 11.92023], [79.79666, 11.92215], [79.80889, 11.92383], [79.80884, 11.931650000000001], [79.80537000000001, 11.931420000000001], [79.80523000000001, 11.933000000000002], [79.80694000000001, 11.93365], [79.80832000000001, 11.940620000000001], [79.81336, 11.94007], [79.8164, 11.937930000000001], [79.82348, 11.936300000000001], [79.83066000000001, 11.952810000000001], [79.83004000000001, 11.953930000000001], [79.83172, 11.95686], [79.83271, 11.956470000000001], [79.84059, 11.95574]]]}}, {"id": "54", "type": "Feature", "properties": {"village_name": "Pooranankuppam", "vil_lgd": 644920, "district_name": "Pondicherry", "dist_lgd": 600, "subdistrict_name": "Puducherry Taluk", "sdcode": 5909, "block_name": "Ariankuppam CD Block", "block_lgd": 2.0, "gp_name": "Purnankuppam(Part), Nallavadu", "state_name": "PUDUCHERRY", "state_lgd": 34, "population": 6766, "households": 1742}, "geometry": {"type": "Polygon", "coordinates": [[[79.81776, 11.873690000000002], [79.82168, 11.871200000000002], [79.81985, 11.867840000000001], [79.8091, 11.836120000000001], [79.80646, 11.83703], [79.80606, 11.84163], [79.80811000000001, 11.845210000000002], [79.80764, 11.846680000000001], [79.80528000000001, 11.847610000000001], [79.80495, 11.84933], [79.80607, 11.850380000000001], [79.80588, 11.85462], [79.80716000000001, 11.85978], [79.80849, 11.860660000000001], [79.80317000000001, 11.86513], [79.80479000000001, 11.867830000000001], [79.80640000000001, 11.868760000000002], [79.80588, 11.870360000000002], [79.80733000000001, 11.88066], [79.80911, 11.879550000000002], [79.80916, 11.87536], [79.81525, 11.873270000000002], [79.81776, 11.873690000000002]]]}}, {"id": "55", "type": "Feature", "properties": {"village_name": "Abishegapakkam", "vil_lgd": 644918, "district_name": "Pondicherry", "dist_lgd": 600, "subdistrict_name": "Puducherry Taluk", "sdcode": 5909, "block_name": "Ariankuppam CD Block", "block_lgd": 2.0, "gp_name": "Abishegapakkam(Part) , Thavalakuppam(Part)", "state_name": "PUDUCHERRY", "state_lgd": 34, "population": 7124, "households": 1616}, "geometry": {"type": "Polygon", "coordinates": [[[79.79675, 11.87451], [79.79514, 11.871860000000002], [79.79022, 11.855220000000001], [79.78154, 11.85565], [79.77642, 11.85651], [79.77533000000001, 11.855530000000002], [79.77443000000001, 11.856050000000002], [79.77523000000001, 11.86293], [79.77395000000001, 11.865860000000001], [79.77561, 11.865350000000001], [79.77585, 11.867070000000002], [79.77805000000001, 11.867120000000002], [79.77838000000001, 11.863240000000001], [79.78501, 11.862940000000002], [79.78718, 11.873380000000001], [79.78949, 11.877110000000002], [79.79228, 11.876800000000001], [79.79185000000001, 11.87949], [79.79279000000001, 11.88166], [79.79395000000001, 11.88095], [79.79867, 11.880820000000002], [79.79675, 11.87451]]]}}, {"id": "56", "type": "Feature", "properties": {"village_name": "Pudukuppam", "vil_lgd": 644926, "district_name": "Pondicherry", "dist_lgd": 600, "subdistrict_name": "Villianur Taluk", "sdcode": 5911, "block_name": "Villianur CD Block", "block_lgd": 1.0, "gp_name": "Sandai Pudukuppam", "state_name": "PUDUCHERRY", "state_lgd": 34, "population": 2211, "households": 519}, "geometry": {"type": "Polygon", "coordinates": [[[79.69437, 12.030510000000001], [79.69852, 12.030470000000001], [79.69765000000001, 12.026200000000001], [79.69907, 12.019110000000001], [79.69741, 12.01237], [79.69373, 12.004290000000001], [79.69123, 12.0051], [79.6907, 12.00731], [79.68820000000001, 12.007890000000002], [79.68404000000001, 12.016900000000001], [79.67652000000001, 12.021920000000001], [79.67847, 12.025160000000001], [79.68147, 12.027610000000001], [79.68372000000001, 12.02804], [79.68504, 12.031870000000001], [79.68707, 12.033040000000002], [79.68843000000001, 12.032620000000001], [79.69437, 12.030510000000001]]]}}, {"id": "57", "type": "Feature", "properties": {"village_name": "Ozhukarai", "vil_lgd": 253093, "district_name": "Pondicherry", "dist_lgd": 600, "subdistrict_name": "Ozhukarai Taluk", "sdcode": 5910, "block_name": "", "block_lgd": 0.0, "gp_name": "", "state_name": "PUDUCHERRY", "state_lgd": 34, "population": 300104, "households": 74133}, "geometry": {"type": "MultiPolygon", "coordinates": [[[[79.83066000000001, 11.952810000000001], [79.82348, 11.936300000000001], [79.8164, 11.937930000000001], [79.81336, 11.94007], [79.80832000000001, 11.940620000000001], [79.80694000000001, 11.93365], [79.80523000000001, 11.933000000000002], [79.80537000000001, 11.931420000000001], [79.80884, 11.931650000000001], [79.80889, 11.92383], [79.79666, 11.92215], [79.79479, 11.92023], [79.79369000000001, 11.920340000000001], [79.7933, 11.922730000000001], [79.79147, 11.923380000000002], [79.78964, 11.925640000000001], [79.78451000000001, 11.92534], [79.78444, 11.92697], [79.78327, 11.92697], [79.78175, 11.923480000000001], [79.77251000000001, 11.922080000000001], [79.77210000000001, 11.923520000000002], [79.77541000000001, 11.924360000000002], [79.77531, 11.925170000000001], [79.77068000000001, 11.9252], [79.77018000000001, 11.92622], [79.76915000000001, 11.928980000000001], [79.76632000000001, 11.92988], [79.76568, 11.930980000000002], [79.76639, 11.931930000000001], [79.7729, 11.93195], [79.77321, 11.94156], [79.77143000000001, 11.943840000000002], [79.77314000000001, 11.94898], [79.77383, 11.949810000000001], [79.77501000000001, 11.94969], [79.7767, 11.95359], [79.77929, 11.953560000000001], [79.78071000000001, 11.95644], [79.78338000000001, 11.956320000000002], [79.78463, 11.95982], [79.78808000000001, 11.960230000000001], [79.78832000000001, 11.959650000000002], [79.79163000000001, 11.959330000000001], [79.80325, 11.953090000000001], [79.80498, 11.95321], [79.80515000000001, 11.963120000000002], [79.80638, 11.96798], [79.80972000000001, 11.975180000000002], [79.81251, 11.97784], [79.81573, 11.978890000000002], [79.81841, 11.97784], [79.82161, 11.969470000000001], [79.82226, 11.965720000000001], [79.82478, 11.961480000000002], [79.82944, 11.957740000000001], [79.83172, 11.95686], [79.83004000000001, 11.953930000000001], [79.83066000000001, 11.952810000000001]]], [[[79.77807, 12.016810000000001], [79.77745, 12.017700000000001], [79.77857, 12.022020000000001], [79.77837000000001, 12.024400000000002], [79.77936000000001, 12.024540000000002], [79.78256, 12.022590000000001], [79.79272, 12.021070000000002], [79.79276, 12.01702], [79.79145000000001, 12.014750000000001], [79.79028000000001, 12.014410000000002], [79.77807, 12.016810000000001]]], [[[79.85509, 12.00055], [79.83873000000001, 12.005350000000002], [79.83170000000001, 12.00857], [79.82162000000001, 12.01124], [79.82497000000001, 12.032990000000002], [79.82666, 12.03429], [79.82801, 12.04376], [79.82960000000001, 12.045570000000001], [79.83659, 12.041120000000001], [79.85289, 12.033990000000001], [79.86847, 12.030740000000002], [79.85554, 12.00298], [79.85509, 12.00055]]]]}}, {"id": "58", "type": "Feature", "properties": {"village_name": "Manakuppam", "vil_lgd": 644958, "district_name": "Pondicherry", "dist_lgd": 600, "subdistrict_name": "Villianur Taluk", "sdcode": 5911, "block_name": "Villianur CD Block", "block_lgd": 1.0, "gp_name": "Sathamangalam(Part)", "state_name": "PUDUCHERRY", "state_lgd": 34, "population": 1254, "households": 290}, "geometry": {"type": "Polygon", "coordinates": [[[79.69454, 11.859670000000001], [79.69599000000001, 11.87377], [79.69813, 11.87377], [79.69777, 11.86114], [79.69454, 11.859670000000001]]]}}, {"id": "59", "type": "Feature", "properties": {"village_name": "Kuppam", "vil_lgd": 644928, "district_name": "Pondicherry", "dist_lgd": 600, "subdistrict_name": "Villianur Taluk", "sdcode": 5911, "block_name": "Villianur CD Block", "block_lgd": 1.0, "gp_name": "Katteri Kuppam(Part)", "state_name": "PUDUCHERRY", "state_lgd": 34, "population": 2731, "households": 666}, "geometry": {"type": "Polygon", "coordinates": [[[79.70163000000001, 12.000570000000002], [79.70353, 11.999], [79.70591, 11.998420000000001], [79.71274000000001, 11.99731], [79.71577, 11.993390000000002], [79.71746, 11.99324], [79.70856, 11.987810000000001], [79.70612000000001, 11.9877], [79.70209000000001, 11.985090000000001], [79.69804, 11.98596], [79.69671000000001, 11.984480000000001], [79.69482, 11.983970000000001], [79.6901, 11.985840000000001], [79.68816000000001, 11.984960000000001], [79.68838000000001, 11.990450000000001], [79.68975, 11.991560000000002], [79.69224000000001, 11.99202], [79.69175000000001, 11.995830000000002], [79.69426, 11.996030000000001], [79.69456000000001, 12.003240000000002], [79.69664, 12.00342], [79.69991, 12.00045], [79.70163000000001, 12.000570000000002]]]}}, {"id": "60", "type": "Feature", "properties": {"village_name": "Kattery", "vil_lgd": 644927, "district_name": "Pondicherry", "dist_lgd": 600, "subdistrict_name": "Villianur Taluk", "sdcode": 5911, "block_name": "Villianur CD Block", "block_lgd": 1.0, "gp_name": "Katteri Kuppam(Part)", "state_name": "PUDUCHERRY", "state_lgd": 34, "population": 4292, "households": 1054}, "geometry": {"type": "Polygon", "coordinates": [[[79.71605000000001, 11.99629], [79.71746, 11.99324], [79.71577, 11.993390000000002], [79.71274000000001, 11.99731], [79.70591, 11.998420000000001], [79.70353, 11.999], [79.70163000000001, 12.000570000000002], [79.69991, 12.00045], [79.69664, 12.00342], [79.69456000000001, 12.003240000000002], [79.69373, 12.004290000000001], [79.69741, 12.01237], [79.69907, 12.019110000000001], [79.69765000000001, 12.026200000000001], [79.69852, 12.030470000000001], [79.70176000000001, 12.028], [79.70786000000001, 12.02715], [79.70959, 12.025530000000002], [79.70973000000001, 12.023330000000001], [79.7065, 12.01285], [79.70734, 12.00439], [79.71605000000001, 11.99629]]]}}, {"id": "61", "type": "Feature", "properties": {"village_name": "Kaduvanoor", "vil_lgd": 644974, "district_name": "Pondicherry", "dist_lgd": 600, "subdistrict_name": "Bahour Taluk", "sdcode": 5912, "block_name": "Ariankuppam CD Block", "block_lgd": 2.0, "gp_name": "Manamedu(Part)", "state_name": "PUDUCHERRY", "state_lgd": 34, "population": 819, "households": 210}, "geometry": {"type": "Polygon", "coordinates": [[[79.70092000000001, 11.815740000000002], [79.70291, 11.813300000000002], [79.70184, 11.812460000000002], [79.69614, 11.813440000000002], [79.6922, 11.81292], [79.69307, 11.816020000000002], [79.69207, 11.820910000000001], [79.69236000000001, 11.82328], [79.70023, 11.82286], [79.70092000000001, 11.815740000000002]]]}}, {"id": "62", "type": "Feature", "properties": {"village_name": "Embalam", "vil_lgd": 644964, "district_name": "Pondicherry", "dist_lgd": 600, "subdistrict_name": "Bahour Taluk", "sdcode": 5912, "block_name": "Ariankuppam CD Block", "block_lgd": 2.0, "gp_name": "Embalam, Sembiapalayam", "state_name": "PUDUCHERRY", "state_lgd": 34, "population": 8331, "households": 2022}, "geometry": {"type": "Polygon", "coordinates": [[[79.73474, 11.88282], [79.73392000000001, 11.88052], [79.73346000000001, 11.87204], [79.73321, 11.86935], [79.73231000000001, 11.868200000000002], [79.73259, 11.865570000000002], [79.7325, 11.862570000000002], [79.72102000000001, 11.86246], [79.71936000000001, 11.856700000000002], [79.71962, 11.853040000000002], [79.71827, 11.85349], [79.71333000000001, 11.86062], [79.71348, 11.863460000000002], [79.71257, 11.866620000000001], [79.70817000000001, 11.869040000000002], [79.70918, 11.88255], [79.71174, 11.882040000000002], [79.71445000000001, 11.882950000000001], [79.71780000000001, 11.880500000000001], [79.72397000000001, 11.88221], [79.72786, 11.88183], [79.73139, 11.886230000000001], [79.7342, 11.885110000000001], [79.73474, 11.88282]]]}}, {"id": "63", "type": "Feature", "properties": {"village_name": "Korkadu", "vil_lgd": 644965, "district_name": "Pondicherry", "dist_lgd": 600, "subdistrict_name": "Bahour Taluk", "sdcode": 5912, "block_name": "Ariankuppam CD Block", "block_lgd": 2.0, "gp_name": "Korkadu", "state_name": "PUDUCHERRY", "state_lgd": 34, "population": 3418, "households": 838}, "geometry": {"type": "Polygon", "coordinates": [[[79.74472, 11.883540000000002], [79.74707000000001, 11.88507], [79.75136, 11.8848], [79.75167, 11.88103], [79.75092000000001, 11.878620000000002], [79.75211, 11.871550000000001], [79.74993, 11.871500000000001], [79.74954000000001, 11.86993], [79.73781000000001, 11.870000000000001], [79.73646000000001, 11.870940000000001], [79.73656000000001, 11.872230000000002], [79.73346000000001, 11.87204], [79.73392000000001, 11.88052], [79.73474, 11.88282], [79.7342, 11.885110000000001], [79.74184000000001, 11.88559], [79.74386000000001, 11.883780000000002], [79.74472, 11.883540000000002]]]}}, {"id": "64", "type": "Feature", "properties": {"village_name": "Villianur CT", "vil_lgd": 644959, "district_name": "Pondicherry", "dist_lgd": 600, "subdistrict_name": "Villianur Taluk", "sdcode": 5911, "block_name": "", "block_lgd": null, "gp_name": "", "state_name": "PUDUCHERRY", "state_lgd": 34, "population": 34383, "households": 8227}, "geometry": {"type": "Polygon", "coordinates": [[[79.74914000000001, 11.927560000000001], [79.74923000000001, 11.922120000000001], [79.75046, 11.922500000000001], [79.75098000000001, 11.921610000000001], [79.75018, 11.919860000000002], [79.75618, 11.920340000000001], [79.7562, 11.92219], [79.76082000000001, 11.922020000000002], [79.76156, 11.914320000000002], [79.76476000000001, 11.912870000000002], [79.76476000000001, 11.908790000000002], [79.7659, 11.906450000000001], [79.76527, 11.906220000000001], [79.76427000000001, 11.895900000000001], [79.7616, 11.897100000000002], [79.75714, 11.90338], [79.75254000000001, 11.906120000000001], [79.74501000000001, 11.90465], [79.74173, 11.904990000000002], [79.7406, 11.90539], [79.73749000000001, 11.909070000000002], [79.73790000000001, 11.91341], [79.73726, 11.913870000000001], [79.73719000000001, 11.91788], [79.74553, 11.917910000000001], [79.74613000000001, 11.92088], [79.74467000000001, 11.925870000000002], [79.74492000000001, 11.928310000000002], [79.74781, 11.92768], [79.74914000000001, 11.927560000000001]]]}}, {"id": "65", "type": "Feature", "properties": {"village_name": "Kurumbapet Gp Plus Og", "vil_lgd": 804038, "district_name": "Pondicherry", "dist_lgd": 600, "subdistrict_name": "Villianur Taluk", "sdcode": 5911, "block_name": "", "block_lgd": null, "gp_name": "", "state_name": "PUDUCHERRY", "state_lgd": 34, "population": 32871, "households": 7790}, "geometry": {"type": "Polygon", "coordinates": [[[79.77321, 11.94156], [79.7729, 11.93195], [79.76639, 11.931930000000001], [79.76568, 11.930980000000002], [79.76632000000001, 11.92988], [79.76915000000001, 11.928980000000001], [79.77018000000001, 11.92622], [79.75709, 11.92694], [79.75719000000001, 11.928070000000002], [79.7621, 11.928500000000001], [79.76208000000001, 11.93077], [79.7609, 11.930650000000002], [79.76061, 11.931980000000001], [79.75985, 11.94355], [79.77143000000001, 11.943840000000002], [79.77321, 11.94156]]]}}, {"id": "66", "type": "Feature", "properties": {"village_name": "Ariyankuppam", "vil_lgd": 644921, "district_name": "Pondicherry", "dist_lgd": 600, "subdistrict_name": "Puducherry Taluk", "sdcode": 5909, "block_name": "", "block_lgd": null, "gp_name": "", "state_name": "PUDUCHERRY", "state_lgd": 34, "population": 29808, "households": 7350}, "geometry": {"type": "Polygon", "coordinates": [[[79.83056, 11.899890000000001], [79.8276, 11.888710000000001], [79.81686, 11.888480000000001], [79.81586, 11.888710000000001], [79.81529, 11.890250000000002], [79.80854000000001, 11.89095], [79.8065, 11.889460000000001], [79.80522, 11.889550000000002], [79.80298, 11.889920000000002], [79.80251000000001, 11.89095], [79.80008000000001, 11.89183], [79.79591, 11.892080000000002], [79.79665, 11.894240000000002], [79.79641000000001, 11.899840000000001], [79.80455, 11.90004], [79.80711000000001, 11.89844], [79.80907, 11.89905], [79.81127000000001, 11.89728], [79.81424000000001, 11.89891], [79.81759000000001, 11.903670000000002], [79.81947000000001, 11.903730000000001], [79.82077000000001, 11.904720000000001], [79.82155, 11.903730000000001], [79.83056, 11.899890000000001]]]}}, {"id": "67", "type": "Feature", "properties": {"village_name": "Manaveli", "vil_lgd": 644922, "district_name": "Pondicherry", "dist_lgd": 600, "subdistrict_name": "Puducherry Taluk", "sdcode": 5909, "block_name": "", "block_lgd": null, "gp_name": "", "state_name": "PUDUCHERRY", "state_lgd": 34, "population": 15666, "households": 3878}, "geometry": {"type": "Polygon", "coordinates": [[[79.80251000000001, 11.89095], [79.80298, 11.889920000000002], [79.80522, 11.889550000000002], [79.8065, 11.889460000000001], [79.80854000000001, 11.89095], [79.81529, 11.890250000000002], [79.81586, 11.888710000000001], [79.81686, 11.888480000000001], [79.8276, 11.888710000000001], [79.82468, 11.87668], [79.82168, 11.871200000000002], [79.81776, 11.873690000000002], [79.81525, 11.873270000000002], [79.80916, 11.87536], [79.80911, 11.879550000000002], [79.80733000000001, 11.88066], [79.79867, 11.880820000000002], [79.79395000000001, 11.88095], [79.79279000000001, 11.88166], [79.79459, 11.8853], [79.79591, 11.892080000000002], [79.80008000000001, 11.89183], [79.80251000000001, 11.89095]]]}}, {"id": "68", "type": "Feature", "properties": {"village_name": "Odiampet OG", "vil_lgd": 644960, "district_name": "Pondicherry", "dist_lgd": 600, "subdistrict_name": "Villianur Taluk", "sdcode": 5911, "block_name": "", "block_lgd": null, "gp_name": "", "state_name": "PUDUCHERRY", "state_lgd": 34, "population": 0, "households": 0}, "geometry": {"type": "Polygon", "coordinates": [[[79.77018000000001, 11.92622], [79.77068000000001, 11.9252], [79.77531, 11.925170000000001], [79.77541000000001, 11.924360000000002], [79.77210000000001, 11.923520000000002], [79.77251000000001, 11.922080000000001], [79.78175, 11.923480000000001], [79.78327, 11.92697], [79.78444, 11.92697], [79.78451000000001, 11.92534], [79.78964, 11.925640000000001], [79.79147, 11.923380000000002], [79.7933, 11.922730000000001], [79.79369000000001, 11.920340000000001], [79.79479, 11.92023], [79.79409000000001, 11.91792], [79.78503, 11.91797], [79.78261, 11.910990000000002], [79.78197, 11.90634], [79.78017000000001, 11.90365], [79.77872, 11.9046], [79.77529000000001, 11.904940000000002], [79.76949, 11.90455], [79.76975, 11.902730000000002], [79.76910000000001, 11.900620000000002], [79.76926, 11.89611], [79.76427000000001, 11.895900000000001], [79.76527, 11.906220000000001], [79.7659, 11.906450000000001], [79.76476000000001, 11.908790000000002], [79.76476000000001, 11.912870000000002], [79.76156, 11.914320000000002], [79.76082000000001, 11.922020000000002], [79.7562, 11.92219], [79.75630000000001, 11.924220000000002], [79.75503, 11.924360000000002], [79.75503, 11.925920000000001], [79.75709, 11.92694], [79.77018000000001, 11.92622]]]}}]}