{"type": "FeatureCollection", "metadata": {"source": "Survey of India (per src_agency attribute in the source data)", "hosted_via": "National Water Data Portal (NWDP), NWIC, Ministry of Jal Shakti -- https://nwdp.nwic.gov.in/", "access": "public, no login required", "crs_original": "EPSG:7755 (WGS 84 / India NSF LCC)", "fetch_date": "2026-08-02", "quality": "verified-official -- Survey of India source", "state": "Puducherry", "district": "Yanam", "processing": "reprojected to EPSG:4326, topology-preserving simplify (shared-arc, tolerance 0.0005 deg) so adjacent polygons never overlap/gap at shared borders, coords rounded 5dp, 0 feature(s) needed the per-feature fallback", "feature_count": 1}, "features": [{"id": "94", "type": "Feature", "properties": {"village_name": "Yanam", "vil_lgd": 253092, "district_name": "Yanam", "dist_lgd": 601, "subdistrict_name": "Yanam Taluk", "sdcode": 5908, "block_name": "", "block_lgd": 0, "gp_name": "", "state_name": "PUDUCHERRY", "state_lgd": 34, "population": 55626, "households": 13812}, "geometry": {"type": "Polygon", "coordinates": [[[82.22758, 16.756890000000002], [82.21782, 16.74331], [82.21879000000001, 16.739990000000002], [82.22258000000001, 16.737270000000002], [82.22824000000001, 16.730400000000003], [82.23485000000001, 16.72927], [82.25276000000001, 16.731070000000003], [82.2715, 16.73151], [82.28851, 16.734910000000003], [82.29287000000001, 16.746660000000002], [82.29688, 16.753120000000003], [82.3015, 16.755180000000003], [82.30553, 16.75253], [82.30885, 16.745510000000003], [82.31062, 16.73504], [82.30727, 16.72634], [82.30264000000001, 16.71826], [82.293, 16.709660000000003], [82.28417, 16.70533], [82.27252, 16.702740000000002], [82.26128000000001, 16.70192], [82.25439, 16.70361], [82.23524, 16.71677], [82.22327000000001, 16.721860000000003], [82.21037000000001, 16.71976], [82.20141000000001, 16.72052], [82.18691000000001, 16.72833], [82.18245, 16.73711], [82.18814, 16.7401], [82.19656, 16.739220000000003], [82.20459000000001, 16.74848], [82.21502000000001, 16.75572], [82.21892000000001, 16.76023], [82.22547, 16.7637], [82.22961000000001, 16.76236], [82.22834, 16.75892], [82.22758, 16.756890000000002]]]}}]}