{"type": "FeatureCollection", "metadata": {"source": "Survey of India (per src_agency attribute in the source data)", "hosted_via": "National Water Data Portal (NWDP), NWIC, Ministry of Jal Shakti -- https://nwdp.nwic.gov.in/", "access": "public, no login required", "crs_original": "EPSG:7755 (WGS 84 / India NSF LCC)", "fetch_date": "2026-08-02", "quality": "verified-official -- Survey of India source", "state": "Chandigarh", "processing": "reprojected to EPSG:4326, topology-preserving simplify (shared-arc, tolerance 0.0005 deg) so adjacent polygons never overlap/gap at shared borders, coords rounded 5dp, 0 feature(s) needed the per-feature fallback", "feature_count": 1, "level_note": "SoI sub-district (sdcode) -- the closest available Survey of India product to Block/Tehsil; SoI's own block/bkcode grouping has no separate boundary product."}, "features": [{"id": "1103", "type": "Feature", "properties": {"state_name": "Chandigarh", "district_name": "Chandigarh", "block_name": "Chandigarh", "block_lgd": 277, "district_lgd": 44}, "geometry": {"type": "Polygon", "coordinates": [[[76.77537000000001, 30.7907], [76.78272000000001, 30.789230000000003], [76.787, 30.779680000000003], [76.77934, 30.778000000000002], [76.78268000000001, 30.7708], [76.79015000000001, 30.770850000000003], [76.7913, 30.76752], [76.79165, 30.769040000000004], [76.79803000000001, 30.771400000000003], [76.79757000000001, 30.772420000000004], [76.80055, 30.773670000000003], [76.80263000000001, 30.775750000000002], [76.80745, 30.77746], [76.81057000000001, 30.77981], [76.81203000000001, 30.779220000000002], [76.81319, 30.780170000000002], [76.81522000000001, 30.778480000000002], [76.81831000000001, 30.778150000000004], [76.81782000000001, 30.77511], [76.81972, 30.774580000000004], [76.81792, 30.77126], [76.80721000000001, 30.767000000000003], [76.80510000000001, 30.765240000000002], [76.81498, 30.753090000000004], [76.81784, 30.75466], [76.82017, 30.761070000000004], [76.82430000000001, 30.76132], [76.82444000000001, 30.76226], [76.82651000000001, 30.763510000000004], [76.83773000000001, 30.75456], [76.83383, 30.74988], [76.83344000000001, 30.746480000000002], [76.83493, 30.74189], [76.83677, 30.74266], [76.83149, 30.739570000000004], [76.83195, 30.7387], [76.83308000000001, 30.738840000000003], [76.83724000000001, 30.733500000000003], [76.84195000000001, 30.73278], [76.84328000000001, 30.731180000000002], [76.84749000000001, 30.731460000000002], [76.84827, 30.730380000000004], [76.84638000000001, 30.729730000000004], [76.84939, 30.723450000000003], [76.84605, 30.722340000000003], [76.84356000000001, 30.71927], [76.84512000000001, 30.717290000000002], [76.84944, 30.71833], [76.84683000000001, 30.716880000000003], [76.84831000000001, 30.715360000000004], [76.84722000000001, 30.71234], [76.84382000000001, 30.707980000000003], [76.83869, 30.705940000000002], [76.83563000000001, 30.70371], [76.83526, 30.701610000000002], [76.82858, 30.694710000000004], [76.8302, 30.693500000000004], [76.82748000000001, 30.692080000000004], [76.82742, 30.689670000000003], [76.82515000000001, 30.6883], [76.8262, 30.686730000000004], [76.82761, 30.687720000000002], [76.83187000000001, 30.683280000000003], [76.82933000000001, 30.682070000000003], [76.82919000000001, 30.681010000000004], [76.82731000000001, 30.682190000000002], [76.82184000000001, 30.678500000000003], [76.82087, 30.677680000000002], [76.82077000000001, 30.674950000000003], [76.8168, 30.67302], [76.81633000000001, 30.671440000000004], [76.81149, 30.6701], [76.80866, 30.667430000000003], [76.80216, 30.66673], [76.80018000000001, 30.67021], [76.79643, 30.667650000000002], [76.79415, 30.66955], [76.78974000000001, 30.675670000000004], [76.78173000000001, 30.673820000000003], [76.78122, 30.67434], [76.77875, 30.671260000000004], [76.77661, 30.6704], [76.77569000000001, 30.67171], [76.77422, 30.672130000000003], [76.76991000000001, 30.679820000000003], [76.76427000000001, 30.686090000000004], [76.75886000000001, 30.68654], [76.75254000000001, 30.684600000000003], [76.74992, 30.688360000000003], [76.74775000000001, 30.687600000000003], [76.74715, 30.69555], [76.74318000000001, 30.693700000000003], [76.7393, 30.692970000000003], [76.73951000000001, 30.69808], [76.73794000000001, 30.699890000000003], [76.73934000000001, 30.700380000000003], [76.73910000000001, 30.70578], [76.73001000000001, 30.70688], [76.72907000000001, 30.711830000000003], [76.73125, 30.712580000000003], [76.72869, 30.715940000000003], [76.73113000000001, 30.717570000000002], [76.73107, 30.72349], [76.7305, 30.724180000000004], [76.72955, 30.723540000000003], [76.72573000000001, 30.727890000000002], [76.7232, 30.728460000000002], [76.72125000000001, 30.730020000000003], [76.71565000000001, 30.737370000000002], [76.71417000000001, 30.740980000000004], [76.71328000000001, 30.740540000000003], [76.71269000000001, 30.741260000000004], [76.70747, 30.73955], [76.70516, 30.742970000000003], [76.70663, 30.7447], [76.70596, 30.747500000000002], [76.70714000000001, 30.747880000000002], [76.70721, 30.749280000000002], [76.70833, 30.75026], [76.70734, 30.753780000000003], [76.70521000000001, 30.756010000000003], [76.71058000000001, 30.76096], [76.72087, 30.763900000000003], [76.72478000000001, 30.765970000000003], [76.73054, 30.765060000000002], [76.74402, 30.769730000000003], [76.74387, 30.77154], [76.74541, 30.77267], [76.74375, 30.776090000000003], [76.75226, 30.780320000000003], [76.75243, 30.783160000000002], [76.75177000000001, 30.784270000000003], [76.75831000000001, 30.787550000000003], [76.75844000000001, 30.788690000000003], [76.76169, 30.791490000000003], [76.76747, 30.794290000000004], [76.77180000000001, 30.794980000000002], [76.77537000000001, 30.7907]]]}}]}