{"type": "FeatureCollection", "metadata": {"source": "Survey of India (per src_agency attribute in the source data)", "hosted_via": "National Water Data Portal (NWDP), NWIC, Ministry of Jal Shakti -- https://nwdp.nwic.gov.in/", "access": "public, no login required", "crs_original": "EPSG:7755 (WGS 84 / India NSF LCC)", "fetch_date": "2026-08-02", "quality": "verified-official -- Survey of India source", "state": "Dadra and Nagar Haveli and Daman and Diu", "processing": "reprojected to EPSG:4326, topology-preserving simplify (shared-arc, tolerance 0.0005 deg) so adjacent polygons never overlap/gap at shared borders, coords rounded 5dp, 0 feature(s) needed the per-feature fallback", "feature_count": 3, "level_note": "SoI sub-district (sdcode) -- the closest available Survey of India product to Block/Tehsil; SoI's own block/bkcode grouping has no separate boundary product."}, "features": [{"id": "0", "type": "Feature", "properties": {"state_name": "Dadra & Nagar Havelli and Daman & Diu", "district_name": "Diu", "block_name": "Diu", "block_lgd": 3947, "district_lgd": 464}, "geometry": {"type": "MultiPolygon", "coordinates": [[[[70.92708, 20.736960000000003], [70.93169, 20.736900000000002], [70.93851000000001, 20.73243], [70.94694000000001, 20.7346], [70.95414000000001, 20.734920000000002], [70.96041000000001, 20.736720000000002], [70.9633, 20.73357], [70.96435000000001, 20.72961], [70.97402000000001, 20.727870000000003], [70.98114000000001, 20.72269], [70.98447, 20.73225], [70.98870000000001, 20.733420000000002], [70.99051, 20.73541], [70.99307, 20.735780000000002], [70.99560000000001, 20.73874], [70.9992, 20.740470000000002], [70.99961, 20.74199], [71.00212, 20.741760000000003], [71.00667, 20.737710000000003], [71.01311000000001, 20.739900000000002], [71.01345, 20.73789], [71.00837, 20.73701], [70.99847000000001, 20.733210000000003], [70.99454, 20.73053], [70.98998, 20.723380000000002], [70.99048, 20.720630000000003], [70.99309000000001, 20.71647], [70.99823, 20.716340000000002], [70.99696, 20.71327], [70.99305000000001, 20.71018], [70.98699, 20.70908], [70.97922000000001, 20.705540000000003], [70.97714, 20.701900000000002], [70.97563000000001, 20.702250000000003], [70.97582, 20.704020000000003], [70.97407000000001, 20.70417], [70.97355, 20.70305], [70.97304000000001, 20.70514], [70.97083, 20.7043], [70.97, 20.705060000000003], [70.97043000000001, 20.706760000000003], [70.96937000000001, 20.707430000000002], [70.96604, 20.707240000000002], [70.96332000000001, 20.705840000000002], [70.96167000000001, 20.706210000000002], [70.96100000000001, 20.70728], [70.95968, 20.707140000000003], [70.95505, 20.704510000000003], [70.95231000000001, 20.704020000000003], [70.94873000000001, 20.705820000000003], [70.94809000000001, 20.704900000000002], [70.94615, 20.70595], [70.94433000000001, 20.705260000000003], [70.94228000000001, 20.706950000000003], [70.93821000000001, 20.70795], [70.93733, 20.709880000000002], [70.93148000000001, 20.711280000000002], [70.92436000000001, 20.71085], [70.91828000000001, 20.708730000000003], [70.91553, 20.70585], [70.91546000000001, 20.704530000000002], [70.91730000000001, 20.70157], [70.91332, 20.69951], [70.91137, 20.700000000000003], [70.91183000000001, 20.70139], [70.91053000000001, 20.702260000000003], [70.90955000000001, 20.70191], [70.91021, 20.701330000000002], [70.90975, 20.700830000000003], [70.90664000000001, 20.70088], [70.90174, 20.699460000000002], [70.89753, 20.69957], [70.89726, 20.701230000000002], [70.89858000000001, 20.70248], [70.89800000000001, 20.704060000000002], [70.89368, 20.706940000000003], [70.88871, 20.7081], [70.87825000000001, 20.708630000000003], [70.87486000000001, 20.707520000000002], [70.87392000000001, 20.70561], [70.87171000000001, 20.706780000000002], [70.8708, 20.708660000000002], [70.87209, 20.710630000000002], [70.87305, 20.717460000000003], [70.87522, 20.720650000000003], [70.87645, 20.726750000000003], [70.87929000000001, 20.72943], [70.88489000000001, 20.731650000000002], [70.89387, 20.732390000000002], [70.90542, 20.73657], [70.91011, 20.73684], [70.91586000000001, 20.742030000000003], [70.91949000000001, 20.743100000000002], [70.92429, 20.740660000000002], [70.92536000000001, 20.73799], [70.92708, 20.736960000000003]]], [[[71.15338000000001, 20.76143], [71.15507000000001, 20.76116], [71.15524, 20.75991], [71.14991, 20.759430000000002], [71.15144000000001, 20.761840000000003], [71.15017, 20.762300000000003], [71.15159, 20.763930000000002], [71.15208000000001, 20.762870000000003], [71.15338000000001, 20.76143]]], [[[71.14961000000001, 20.761830000000003], [71.14858000000001, 20.760610000000003], [71.14826000000001, 20.75796], [71.14603000000001, 20.75796], [71.14562000000001, 20.76066], [71.14637, 20.763440000000003], [71.14779, 20.767180000000003], [71.14882, 20.767180000000003], [71.14973, 20.771430000000002], [71.14961000000001, 20.761830000000003]]]]}}, {"id": "1", "type": "Feature", "properties": {"state_name": "Dadra & Nagar Havelli and Daman & Diu", "district_name": "Daman", "block_name": "Daman", "block_lgd": 3948, "district_lgd": 463}, "geometry": {"type": "Polygon", "coordinates": [[[72.87048, 20.46348], [72.87726, 20.46176], [72.88655, 20.46233], [72.888, 20.460700000000003], [72.88714, 20.45492], [72.88797000000001, 20.4506], [72.89533, 20.444300000000002], [72.89145, 20.440900000000003], [72.89017000000001, 20.438650000000003], [72.88771000000001, 20.43824], [72.87891, 20.441650000000003], [72.87685, 20.444640000000003], [72.87492, 20.44553], [72.86981, 20.439510000000002], [72.86832000000001, 20.43447], [72.86501000000001, 20.42902], [72.86109, 20.427590000000002], [72.86027, 20.424970000000002], [72.85742, 20.42095], [72.85726000000001, 20.41892], [72.86265, 20.416770000000003], [72.86491000000001, 20.4173], [72.86853, 20.41634], [72.87036, 20.41381], [72.87176000000001, 20.413880000000002], [72.8743, 20.41487], [72.87533, 20.41681], [72.88008, 20.416970000000003], [72.88157000000001, 20.419420000000002], [72.88273000000001, 20.41984], [72.8892, 20.419030000000003], [72.89111000000001, 20.419600000000003], [72.89172, 20.42136], [72.89311000000001, 20.42171], [72.8979, 20.4206], [72.90042000000001, 20.416860000000003], [72.90405000000001, 20.414900000000003], [72.90177, 20.410130000000002], [72.90326, 20.409860000000002], [72.9026, 20.405790000000003], [72.90042000000001, 20.405250000000002], [72.89794, 20.402340000000002], [72.89483, 20.40152], [72.89196000000001, 20.399220000000003], [72.89008000000001, 20.39898], [72.88771000000001, 20.40002], [72.88520000000001, 20.397940000000002], [72.88281, 20.39789], [72.88363000000001, 20.39122], [72.88705, 20.388250000000003], [72.88690000000001, 20.385450000000002], [72.89620000000001, 20.38035], [72.89616000000001, 20.379060000000003], [72.89150000000001, 20.37564], [72.89068, 20.37264], [72.88297, 20.372310000000002], [72.87697, 20.3698], [72.86566, 20.37228], [72.86500000000001, 20.374540000000003], [72.86395, 20.375210000000003], [72.85814, 20.37403], [72.85617, 20.37205], [72.84424, 20.374930000000003], [72.84087000000001, 20.373450000000002], [72.83595000000001, 20.37331], [72.83040000000001, 20.36793], [72.82762000000001, 20.366600000000002], [72.82617, 20.366410000000002], [72.82062, 20.368340000000003], [72.82133, 20.37431], [72.8258, 20.38719], [72.82678, 20.39581], [72.82597000000001, 20.40688], [72.82845, 20.4146], [72.8272, 20.43383], [72.83204, 20.4477], [72.83934, 20.457990000000002], [72.84855, 20.463500000000003], [72.85629, 20.47053], [72.85812, 20.46565], [72.85900000000001, 20.46499], [72.86796000000001, 20.463350000000002], [72.87048, 20.46348]]]}}, {"id": "2", "type": "Feature", "properties": {"state_name": "Dadra & Nagar Havelli and Daman & Diu", "district_name": "Dadra And Nagar Haveli", "block_name": "Dadra & Nagar Haveli", "block_lgd": 3949, "district_lgd": 465}, "geometry": {"type": "MultiPolygon", "coordinates": [[[[73.09864, 20.35828], [73.09928000000001, 20.354360000000003], [73.10231, 20.35369], [73.10538000000001, 20.349870000000003], [73.10463, 20.346100000000003], [73.10753000000001, 20.34327], [73.10912, 20.33837], [73.11148, 20.336940000000002], [73.10856000000001, 20.330150000000003], [73.10876, 20.32384], [73.10398, 20.314300000000003], [73.10099000000001, 20.30394], [73.10136, 20.302880000000002], [73.10377000000001, 20.30142], [73.10802000000001, 20.3044], [73.11343000000001, 20.30384], [73.11711000000001, 20.305400000000002], [73.12011000000001, 20.304250000000003], [73.12478, 20.30402], [73.12627, 20.304810000000003], [73.12621, 20.308780000000002], [73.12931, 20.317520000000002], [73.13771000000001, 20.316820000000003], [73.14043000000001, 20.317500000000003], [73.15135000000001, 20.31728], [73.15879000000001, 20.30854], [73.15984, 20.30816], [73.16251000000001, 20.30947], [73.16518, 20.3094], [73.16578000000001, 20.305120000000002], [73.16316, 20.299190000000003], [73.16300000000001, 20.297050000000002], [73.16563000000001, 20.291210000000003], [73.16542000000001, 20.285890000000002], [73.16329, 20.28291], [73.15690000000001, 20.28122], [73.15456, 20.282500000000002], [73.15298, 20.2847], [73.15119, 20.29134], [73.14951, 20.29118], [73.14436, 20.287920000000003], [73.14139, 20.280610000000003], [73.14116, 20.276220000000002], [73.13956, 20.274130000000003], [73.13744000000001, 20.273100000000003], [73.13575, 20.274790000000003], [73.13395000000001, 20.27411], [73.13056, 20.27505], [73.12935, 20.26866], [73.12532, 20.26159], [73.11899000000001, 20.25934], [73.11415000000001, 20.25889], [73.10838000000001, 20.25253], [73.10646000000001, 20.246190000000002], [73.10353, 20.24446], [73.10053, 20.240160000000003], [73.09749000000001, 20.238670000000003], [73.09727000000001, 20.23611], [73.09841, 20.23494], [73.09784, 20.233610000000002], [73.09916000000001, 20.232010000000002], [73.09793, 20.22933], [73.09182000000001, 20.228420000000003], [73.08946, 20.226770000000002], [73.08568000000001, 20.22765], [73.08445, 20.230020000000003], [73.08264000000001, 20.230900000000002], [73.07064000000001, 20.23205], [73.06736000000001, 20.22931], [73.06362, 20.22764], [73.06266000000001, 20.224010000000003], [73.06016000000001, 20.22335], [73.05831, 20.217760000000002], [73.05526, 20.21225], [73.05514000000001, 20.209020000000002], [73.05359, 20.2054], [73.05003, 20.20111], [73.049, 20.200870000000002], [73.05076000000001, 20.19787], [73.05342, 20.19544], [73.05974, 20.193810000000003], [73.06227000000001, 20.184260000000002], [73.063, 20.17762], [73.06227000000001, 20.172880000000003], [73.06283, 20.16976], [73.06067, 20.166970000000003], [73.06043000000001, 20.161900000000003], [73.06451000000001, 20.15866], [73.07266, 20.154980000000002], [73.07434, 20.156480000000002], [73.07476000000001, 20.16057], [73.07776000000001, 20.16701], [73.07785000000001, 20.16964], [73.07892000000001, 20.17256], [73.08014, 20.173090000000002], [73.08364, 20.17227], [73.08724000000001, 20.170330000000003], [73.09026, 20.163390000000003], [73.09041, 20.160510000000002], [73.09530000000001, 20.158830000000002], [73.09960000000001, 20.15623], [73.10831, 20.157850000000003], [73.11071000000001, 20.156350000000003], [73.11384000000001, 20.1521], [73.11585000000001, 20.15218], [73.11672, 20.15583], [73.11503, 20.158900000000003], [73.11586000000001, 20.16222], [73.11787000000001, 20.16385], [73.11968, 20.164050000000003], [73.11937, 20.16822], [73.12255, 20.17069], [73.12353, 20.17012], [73.12478, 20.1706], [73.12854, 20.17341], [73.13267, 20.169430000000002], [73.13623000000001, 20.17004], [73.13876, 20.174690000000002], [73.14206, 20.177370000000003], [73.13915, 20.18447], [73.13633, 20.184540000000002], [73.13498000000001, 20.18539], [73.13486, 20.184600000000003], [73.1328, 20.19197], [73.13318000000001, 20.20577], [73.1376, 20.207520000000002], [73.13871, 20.204510000000003], [73.14776, 20.200740000000003], [73.15244000000001, 20.20391], [73.15737, 20.19835], [73.16848, 20.20824], [73.16892, 20.203020000000002], [73.17166, 20.19845], [73.17694, 20.199330000000003], [73.17899000000001, 20.197760000000002], [73.17947000000001, 20.195610000000002], [73.17814, 20.19265], [73.18058, 20.192330000000002], [73.18195, 20.194390000000002], [73.18371, 20.193910000000002], [73.19022000000001, 20.1951], [73.19191000000001, 20.19744], [73.19900000000001, 20.194460000000003], [73.20333000000001, 20.189950000000003], [73.20686, 20.18814], [73.20844000000001, 20.189500000000002], [73.21784000000001, 20.18597], [73.21838000000001, 20.181520000000003], [73.21425, 20.17163], [73.20573, 20.16418], [73.20123000000001, 20.16532], [73.18986000000001, 20.164270000000002], [73.1885, 20.15866], [73.18557000000001, 20.15584], [73.18484000000001, 20.1447], [73.18565000000001, 20.137410000000003], [73.18721000000001, 20.13362], [73.18718000000001, 20.12946], [73.18983, 20.12731], [73.19275, 20.1278], [73.19764, 20.126330000000003], [73.20320000000001, 20.119600000000002], [73.20801, 20.11984], [73.20985, 20.120730000000002], [73.21501, 20.11924], [73.2137, 20.10441], [73.21254, 20.100230000000003], [73.21309000000001, 20.09112], [73.2106, 20.085890000000003], [73.20411, 20.07871], [73.19936000000001, 20.07769], [73.19698000000001, 20.075480000000002], [73.19467, 20.075840000000003], [73.19257, 20.077430000000003], [73.18925, 20.07732], [73.19030000000001, 20.0728], [73.18863, 20.06999], [73.18927000000001, 20.068550000000002], [73.18807000000001, 20.065640000000002], [73.18862, 20.063730000000003], [73.18743, 20.05883], [73.18849, 20.056320000000003], [73.19017000000001, 20.05665], [73.1927, 20.054350000000003], [73.19297, 20.050410000000003], [73.19214000000001, 20.049560000000003], [73.18856000000001, 20.05096], [73.18531, 20.04982], [73.18353, 20.05038], [73.17904, 20.04757], [73.17782000000001, 20.051340000000003], [73.17105000000001, 20.05232], [73.16866, 20.055680000000002], [73.16634, 20.05495], [73.16536, 20.05599], [73.16429000000001, 20.06071], [73.16075000000001, 20.063560000000003], [73.15742, 20.06304], [73.15776000000001, 20.06569], [73.15622, 20.06574], [73.15518, 20.069760000000002], [73.15320000000001, 20.072190000000003], [73.15496, 20.074740000000002], [73.15477, 20.07592], [73.14957000000001, 20.078380000000003], [73.14957000000001, 20.07485], [73.14693000000001, 20.07363], [73.14373, 20.07617], [73.14237, 20.07977], [73.13976000000001, 20.078180000000003], [73.13854, 20.07832], [73.13689000000001, 20.0801], [73.13816, 20.083660000000002], [73.13709, 20.08605], [73.13411, 20.08586], [73.13132, 20.081400000000002], [73.12624000000001, 20.082720000000002], [73.12481000000001, 20.07798], [73.12119000000001, 20.079250000000002], [73.11962000000001, 20.07883], [73.11995, 20.076340000000002], [73.11918, 20.07516], [73.11515, 20.07654], [73.11223000000001, 20.074440000000003], [73.10940000000001, 20.07581], [73.10719, 20.078300000000002], [73.10617, 20.081400000000002], [73.10706, 20.0848], [73.10392, 20.08978], [73.09677, 20.089290000000002], [73.08579, 20.09091], [73.07828, 20.09439], [73.06765, 20.09634], [73.06396000000001, 20.09844], [73.05569000000001, 20.098860000000002], [73.05395, 20.09503], [73.05245000000001, 20.08952], [73.05331000000001, 20.078670000000002], [73.05237000000001, 20.07102], [73.05257, 20.064510000000002], [73.05175000000001, 20.063930000000003], [73.04779, 20.06662], [73.04486, 20.065350000000002], [73.03955, 20.06718], [73.02863, 20.081570000000003], [73.02569000000001, 20.08235], [73.02347, 20.08463], [73.02199, 20.090130000000002], [73.01407, 20.096300000000003], [73.01311000000001, 20.10104], [73.00835000000001, 20.10828], [73.00522000000001, 20.110570000000003], [73.00124000000001, 20.11176], [73.00023, 20.116560000000003], [72.99872, 20.11944], [72.99985000000001, 20.12256], [73.00202, 20.1247], [73.00508, 20.12527], [73.01228, 20.12948], [73.01113000000001, 20.13453], [73.00858000000001, 20.13406], [73.00576000000001, 20.13542], [73.00426, 20.13673], [73.00342, 20.139850000000003], [72.99801000000001, 20.142670000000003], [72.99484000000001, 20.13772], [72.99573000000001, 20.132630000000002], [72.99243000000001, 20.11776], [72.99154, 20.116840000000003], [72.97979000000001, 20.11589], [72.97767, 20.11298], [72.97212, 20.11492], [72.97003000000001, 20.117610000000003], [72.96909000000001, 20.124070000000003], [72.9646, 20.1262], [72.96069, 20.13435], [72.96439000000001, 20.14335], [72.97368, 20.158230000000003], [72.97427, 20.16213], [72.97345, 20.163410000000002], [72.97337, 20.173240000000003], [72.97738000000001, 20.179730000000003], [72.97497, 20.18149], [72.9723, 20.18156], [72.9672, 20.183220000000002], [72.96305000000001, 20.182250000000003], [72.96146, 20.18493], [72.96178, 20.191580000000002], [72.95988000000001, 20.200010000000002], [72.96130000000001, 20.208650000000002], [72.96287000000001, 20.20993], [72.96471000000001, 20.213810000000002], [72.96603, 20.223920000000003], [72.96033, 20.229460000000003], [72.95798, 20.234080000000002], [72.9539, 20.236970000000003], [72.93707, 20.24332], [72.93090000000001, 20.24283], [72.92384000000001, 20.25543], [72.91878000000001, 20.257080000000002], [72.91770000000001, 20.263060000000003], [72.91625, 20.263820000000003], [72.91191, 20.269640000000003], [72.91214000000001, 20.275550000000003], [72.91438000000001, 20.276000000000003], [72.91459, 20.275280000000002], [72.91646, 20.27597], [72.91738000000001, 20.278080000000003], [72.91691, 20.281350000000003], [72.91994000000001, 20.2817], [72.91993000000001, 20.28327], [72.9269, 20.28619], [72.92952000000001, 20.289330000000003], [72.93139000000001, 20.295090000000002], [72.93252000000001, 20.29538], [72.93335, 20.293850000000003], [72.93663000000001, 20.294770000000003], [72.9392, 20.29406], [72.93964000000001, 20.29286], [72.94006, 20.29354], [72.94133000000001, 20.293360000000003], [72.94446, 20.289230000000003], [72.94711000000001, 20.28768], [72.9486, 20.288050000000002], [72.94894000000001, 20.286790000000003], [72.95048, 20.28574], [72.95485000000001, 20.284390000000002], [72.95515, 20.2831], [72.95597000000001, 20.283140000000003], [72.9556, 20.2802], [72.96146, 20.275090000000002], [72.96271, 20.27129], [72.97329, 20.27042], [72.97406000000001, 20.271990000000002], [72.97948000000001, 20.27346], [72.98031, 20.27577], [72.98122000000001, 20.276210000000003], [72.98061000000001, 20.282040000000002], [72.98122000000001, 20.28986], [72.98488, 20.28819], [72.98821000000001, 20.291150000000002], [72.99358000000001, 20.292520000000003], [72.99991, 20.291220000000003], [73.00107000000001, 20.29173], [73.00549000000001, 20.288990000000002], [73.01006000000001, 20.29119], [73.01093, 20.292820000000003], [73.0107, 20.297420000000002], [73.01206, 20.300780000000003], [73.01041000000001, 20.303060000000002], [73.00995, 20.30787], [73.00685, 20.311500000000002], [73.00760000000001, 20.31248], [73.01251, 20.31108], [73.01222, 20.309250000000002], [73.01627, 20.30996], [73.01717000000001, 20.30903], [73.01746, 20.305470000000003], [73.01609, 20.293660000000003], [73.02175000000001, 20.29258], [73.02411000000001, 20.2908], [73.02619, 20.29042], [73.03463, 20.29145], [73.03571000000001, 20.29248], [73.03638000000001, 20.304180000000002], [73.03788, 20.31031], [73.0382, 20.31738], [73.03924, 20.32037], [73.04252000000001, 20.325110000000002], [73.04819, 20.32373], [73.05211, 20.32432], [73.06143, 20.32816], [73.0672, 20.329490000000003], [73.07031, 20.32523], [73.07749000000001, 20.32301], [73.07881, 20.32572], [73.08445, 20.33042], [73.09078000000001, 20.344880000000003], [73.08897, 20.349300000000003], [73.08994000000001, 20.352430000000002], [73.08993000000001, 20.35844], [73.09226000000001, 20.3596], [73.09709000000001, 20.360200000000003], [73.09864, 20.35828]], [[72.99306, 20.21421], [72.99315, 20.215000000000003], [73.00133000000001, 20.214450000000003], [73.00275, 20.22063], [73.00582, 20.2234], [73.00848, 20.228930000000002], [73.00568000000001, 20.23198], [72.99860000000001, 20.23676], [72.98961, 20.238760000000003], [72.97943000000001, 20.23404], [72.97482000000001, 20.225730000000002], [72.97498, 20.21928], [72.97925000000001, 20.215590000000002], [72.98397, 20.213070000000002], [72.98974000000001, 20.213320000000003], [72.99306, 20.21421]]], [[[72.97865, 20.331680000000002], [72.97970000000001, 20.32862], [72.98161, 20.32674], [72.98286, 20.32298], [72.98305, 20.319010000000002], [72.98008, 20.31606], [72.97871, 20.31341], [72.97746000000001, 20.31397], [72.97411000000001, 20.31072], [72.97182000000001, 20.29792], [72.97030000000001, 20.297250000000002], [72.96794000000001, 20.29861], [72.96300000000001, 20.30535], [72.95477000000001, 20.310170000000003], [72.95276000000001, 20.3135], [72.95274, 20.31538], [72.95518000000001, 20.317890000000002], [72.96115, 20.32841], [72.96161000000001, 20.33219], [72.97666000000001, 20.33143], [72.97865, 20.331680000000002]]]]}}]}