{"type": "FeatureCollection", "metadata": {"source": "Survey of India (per src_agency attribute in the source data)", "hosted_via": "National Water Data Portal (NWDP), NWIC, Ministry of Jal Shakti -- https://nwdp.nwic.gov.in/", "access": "public, no login required", "crs_original": "EPSG:7755 (WGS 84 / India NSF LCC)", "fetch_date": "2026-08-02", "quality": "verified-official -- Survey of India source", "state": "Delhi", "processing": "reprojected to EPSG:4326, topology-preserving simplify (shared-arc, tolerance 0.0005 deg) so adjacent polygons never overlap/gap at shared borders, coords rounded 5dp, 0 feature(s) needed the per-feature fallback", "feature_count": 36, "level_note": "SoI sub-district (sdcode) -- the closest available Survey of India product to Block/Tehsil; SoI's own block/bkcode grouping has no separate boundary product."}, "features": [{"id": "0", "type": "Feature", "properties": {"state_name": "Delhi", "district_name": "Central", "block_name": "Sadar Bazar", "block_lgd": 434, "district_lgd": 77}, "geometry": {"type": "Polygon", "coordinates": [[[77.24354000000001, 28.66392], [77.24725000000001, 28.66335], [77.24615, 28.662750000000003], [77.24158000000001, 28.663320000000002], [77.24027000000001, 28.662750000000003], [77.24205, 28.661210000000004], [77.24151, 28.66109], [77.22977, 28.6628], [77.21793000000001, 28.663050000000002], [77.21888000000001, 28.654410000000002], [77.21573000000001, 28.654020000000003], [77.21326, 28.651200000000003], [77.20834, 28.652410000000003], [77.20750000000001, 28.650800000000004], [77.20632, 28.6506], [77.20501, 28.65612], [77.20411, 28.65923], [77.20620000000001, 28.662280000000003], [77.19908000000001, 28.662670000000002], [77.20776000000001, 28.66579], [77.21940000000001, 28.66402], [77.22024, 28.66663], [77.22642, 28.667780000000004], [77.23545, 28.671110000000002], [77.23891, 28.666140000000002], [77.24354000000001, 28.66392]]]}}, {"id": "1", "type": "Feature", "properties": {"state_name": "Delhi", "district_name": "West", "block_name": "Patel Nagar", "block_lgd": 448, "district_lgd": 85}, "geometry": {"type": "Polygon", "coordinates": [[[77.15731000000001, 28.671370000000003], [77.15979, 28.670610000000003], [77.16387, 28.662290000000002], [77.15911000000001, 28.65808], [77.16231, 28.658030000000004], [77.16791, 28.656160000000003], [77.16856, 28.653420000000004], [77.16928, 28.653080000000003], [77.17294000000001, 28.65339], [77.17836000000001, 28.652320000000003], [77.18024000000001, 28.652860000000004], [77.17995, 28.650810000000003], [77.18119, 28.65031], [77.17824, 28.64626], [77.17837, 28.64523], [77.17542, 28.642100000000003], [77.17588, 28.63979], [77.17527000000001, 28.633340000000004], [77.17666000000001, 28.630100000000002], [77.17266000000001, 28.629990000000003], [77.16549, 28.62796], [77.16169000000001, 28.633000000000003], [77.15323000000001, 28.639490000000002], [77.14968, 28.63725], [77.14708, 28.640210000000003], [77.14562000000001, 28.6382], [77.14054, 28.639860000000002], [77.13390000000001, 28.640970000000003], [77.12956000000001, 28.63941], [77.12540000000001, 28.63895], [77.12137000000001, 28.642740000000003], [77.1204, 28.644470000000002], [77.11752000000001, 28.646590000000003], [77.11712, 28.64797], [77.11352000000001, 28.649820000000002], [77.11342, 28.651290000000003], [77.11160000000001, 28.65182], [77.10807000000001, 28.648780000000002], [77.10404000000001, 28.642210000000002], [77.10005000000001, 28.640240000000002], [77.09826000000001, 28.639870000000002], [77.09163000000001, 28.643400000000003], [77.08985000000001, 28.64581], [77.08857, 28.645940000000003], [77.08340000000001, 28.64055], [77.08889, 28.63764], [77.09163000000001, 28.635270000000002], [77.08953000000001, 28.628700000000002], [77.08486, 28.62985], [77.08389000000001, 28.628500000000003], [77.08708, 28.625940000000003], [77.08954, 28.618070000000003], [77.0874, 28.616970000000002], [77.08638, 28.615450000000003], [77.0805, 28.613780000000002], [77.07956, 28.61201], [77.06409000000001, 28.62123], [77.06119000000001, 28.617760000000004], [77.05312, 28.61831], [77.05183000000001, 28.616300000000003], [77.05489, 28.611680000000003], [77.05233000000001, 28.607450000000004], [77.06194, 28.59963], [77.05981000000001, 28.59842], [77.05864000000001, 28.599410000000002], [77.05846000000001, 28.598250000000004], [77.0554, 28.596220000000002], [77.0518, 28.597230000000003], [77.04481000000001, 28.60113], [77.03632, 28.604000000000003], [77.03263000000001, 28.61388], [77.03282, 28.615420000000004], [77.03401000000001, 28.616600000000002], [77.03049, 28.619030000000002], [77.02251000000001, 28.620970000000003], [77.02286000000001, 28.62348], [77.02205000000001, 28.626450000000002], [77.02513, 28.631390000000003], [77.02555000000001, 28.634900000000002], [77.02491, 28.637340000000002], [77.02612, 28.640470000000004], [77.03240000000001, 28.644790000000004], [77.03411000000001, 28.646980000000003], [77.03974000000001, 28.64992], [77.0468, 28.650730000000003], [77.05172, 28.64992], [77.0565, 28.64504], [77.05593, 28.640030000000003], [77.05871, 28.637400000000003], [77.06641, 28.643410000000003], [77.07582000000001, 28.652610000000003], [77.07967000000001, 28.654490000000003], [77.08417, 28.655110000000004], [77.08852, 28.653550000000003], [77.09101000000001, 28.653550000000003], [77.09629000000001, 28.65799], [77.10035, 28.659990000000004], [77.11148, 28.66043], [77.11354, 28.657740000000004], [77.1144, 28.657680000000003], [77.11811, 28.659550000000003], [77.12246, 28.664620000000003], [77.12681, 28.665250000000004], [77.12802, 28.66637], [77.13272, 28.667690000000004], [77.13937, 28.671180000000003], [77.14850000000001, 28.669200000000004], [77.14939000000001, 28.672870000000003], [77.15333000000001, 28.67236], [77.15716, 28.675390000000004], [77.15765, 28.674780000000002], [77.15695000000001, 28.674380000000003], [77.15825000000001, 28.67329], [77.15731000000001, 28.671370000000003]]]}}, {"id": "2", "type": "Feature", "properties": {"state_name": "Delhi", "district_name": "New Delhi", "block_name": "Vasant Vihar", "block_lgd": 453, "district_lgd": 79}, "geometry": {"type": "Polygon", "coordinates": [[[77.18993, 28.582250000000002], [77.19159, 28.58235], [77.19004000000001, 28.579900000000002], [77.18957, 28.565450000000002], [77.18762000000001, 28.56285], [77.18316, 28.56088], [77.18139000000001, 28.558780000000002], [77.18402, 28.557650000000002], [77.18168, 28.555190000000003], [77.18371, 28.554980000000004], [77.18293000000001, 28.551650000000002], [77.18114000000001, 28.54877], [77.16949000000001, 28.54792], [77.165, 28.54567], [77.16055, 28.545440000000003], [77.17041, 28.54024], [77.1748, 28.536030000000004], [77.16961, 28.53347], [77.16403000000001, 28.526390000000003], [77.15959000000001, 28.525800000000004], [77.15614000000001, 28.521310000000003], [77.14712, 28.523490000000002], [77.13419, 28.524040000000003], [77.13355, 28.521130000000003], [77.13118, 28.517850000000003], [77.12937000000001, 28.50682], [77.13671000000001, 28.504340000000003], [77.14330000000001, 28.497580000000003], [77.14779, 28.49979], [77.15001000000001, 28.4994], [77.1478, 28.492410000000003], [77.1453, 28.48862], [77.1444, 28.48393], [77.13708000000001, 28.486760000000004], [77.13236, 28.487640000000003], [77.12693, 28.486970000000003], [77.11861, 28.488020000000002], [77.12064000000001, 28.495960000000004], [77.11465000000001, 28.49734], [77.09797, 28.505750000000003], [77.09708, 28.506480000000003], [77.0998, 28.511270000000003], [77.10354000000001, 28.51819], [77.10094000000001, 28.520860000000003], [77.08558000000001, 28.531760000000002], [77.08675000000001, 28.535320000000002], [77.08892, 28.53853], [77.07919000000001, 28.540640000000003], [77.07130000000001, 28.543840000000003], [77.07054000000001, 28.5482], [77.07115, 28.550780000000003], [77.07376000000001, 28.55073], [77.07703000000001, 28.552920000000004], [77.08047, 28.55318], [77.0822, 28.554330000000004], [77.0844, 28.55871], [77.08291000000001, 28.559860000000004], [77.08356, 28.561480000000003], [77.08558000000001, 28.562420000000003], [77.08933, 28.561840000000004], [77.09099, 28.563200000000002], [77.10026, 28.55704], [77.1106, 28.553390000000004], [77.11547, 28.557720000000003], [77.11892, 28.556420000000003], [77.12427000000001, 28.556990000000003], [77.13175000000001, 28.55506], [77.13484000000001, 28.55516], [77.14239, 28.552660000000003], [77.14958, 28.563150000000004], [77.14958, 28.562520000000003], [77.15101, 28.562680000000004], [77.15101, 28.564140000000002], [77.16289, 28.55751], [77.16473, 28.560640000000003], [77.16265, 28.563720000000004], [77.16039, 28.564610000000002], [77.15956000000001, 28.565810000000003], [77.16372000000001, 28.57259], [77.15647000000001, 28.57411], [77.16152000000001, 28.58209], [77.16158, 28.582870000000003], [77.15938000000001, 28.58423], [77.16604000000001, 28.59138], [77.16818, 28.59607], [77.17204000000001, 28.592740000000003], [77.17614, 28.587360000000004], [77.18743, 28.583550000000002], [77.18993, 28.582250000000002]]]}}, {"id": "3", "type": "Feature", "properties": {"state_name": "Delhi", "district_name": "Shahdara", "block_name": "Seema Puri", "block_lgd": 438, "district_lgd": 671}, "geometry": {"type": "Polygon", "coordinates": [[[77.32206000000001, 28.71214], [77.32309000000001, 28.71308], [77.33112000000001, 28.713060000000002], [77.32648, 28.710490000000004], [77.32445000000001, 28.707100000000004], [77.32573000000001, 28.702890000000004], [77.32326, 28.698610000000002], [77.32588000000001, 28.695120000000003], [77.32298, 28.692590000000003], [77.32017, 28.693550000000002], [77.31174, 28.681870000000004], [77.30841000000001, 28.68119], [77.30735, 28.68213], [77.30244, 28.6809], [77.30277000000001, 28.68296], [77.30223000000001, 28.683280000000003], [77.30452000000001, 28.688750000000002], [77.30298, 28.68964], [77.29923000000001, 28.68905], [77.29918, 28.69226], [77.29697, 28.69235], [77.29827, 28.696530000000003], [77.29678000000001, 28.704520000000002], [77.29913, 28.70869], [77.29903, 28.70989], [77.30328, 28.71141], [77.30478000000001, 28.712940000000003], [77.31517000000001, 28.71281], [77.31784, 28.713980000000003], [77.32008, 28.713060000000002], [77.32206000000001, 28.71214]]]}}, {"id": "4", "type": "Feature", "properties": {"state_name": "Delhi", "district_name": "East", "block_name": "Gandhi Nagar", "block_lgd": 439, "district_lgd": 78}, "geometry": {"type": "Polygon", "coordinates": [[[77.28447000000001, 28.629080000000002], [77.28644000000001, 28.621100000000002], [77.2774, 28.61755], [77.26326, 28.614480000000004], [77.2549, 28.61435], [77.25412, 28.620300000000004], [77.25258000000001, 28.622170000000004], [77.25252, 28.624830000000003], [77.25377, 28.62937], [77.25507, 28.63116], [77.25768000000001, 28.63023], [77.26279000000001, 28.630070000000003], [77.27085000000001, 28.631570000000004], [77.27247000000001, 28.63106], [77.28121, 28.634030000000003], [77.28245000000001, 28.632780000000004], [77.28447000000001, 28.629080000000002]]]}}, {"id": "5", "type": "Feature", "properties": {"state_name": "Delhi", "district_name": "Central", "block_name": "Kotwali", "block_lgd": 435, "district_lgd": 77}, "geometry": {"type": "Polygon", "coordinates": [[[77.25935000000001, 28.659430000000004], [77.26284000000001, 28.652310000000003], [77.24162000000001, 28.650750000000002], [77.23911000000001, 28.651650000000004], [77.23757, 28.654010000000003], [77.23397, 28.654080000000004], [77.22957000000001, 28.65228], [77.22737000000001, 28.654310000000002], [77.22535, 28.652980000000003], [77.22402000000001, 28.654210000000003], [77.22247, 28.652220000000003], [77.22018000000001, 28.651080000000004], [77.21888000000001, 28.654410000000002], [77.21793000000001, 28.663050000000002], [77.22977, 28.6628], [77.24151, 28.66109], [77.24205, 28.661210000000004], [77.24027000000001, 28.662750000000003], [77.24158000000001, 28.663320000000002], [77.24615, 28.662750000000003], [77.24725000000001, 28.66335], [77.25092000000001, 28.663650000000004], [77.25153, 28.663000000000004], [77.25935000000001, 28.659430000000004]]]}}, {"id": "6", "type": "Feature", "properties": {"state_name": "Delhi", "district_name": "New Delhi", "block_name": "Chanakya Puri", "block_lgd": 443, "district_lgd": 79}, "geometry": {"type": "Polygon", "coordinates": [[[77.21827, 28.634420000000002], [77.21881, 28.634950000000003], [77.22261, 28.6353], [77.22363, 28.636390000000002], [77.22459, 28.635040000000004], [77.24122000000001, 28.62656], [77.24382, 28.625000000000004], [77.2467, 28.62158], [77.24922000000001, 28.61418], [77.25283, 28.61295], [77.25562000000001, 28.613480000000003], [77.25598000000001, 28.608780000000003], [77.25039000000001, 28.607650000000003], [77.24554, 28.605510000000002], [77.24259, 28.60818], [77.23315000000001, 28.602500000000003], [77.23337000000001, 28.595160000000003], [77.23551, 28.592100000000002], [77.21209, 28.589370000000002], [77.21017, 28.580170000000003], [77.19159, 28.58235], [77.18993, 28.582250000000002], [77.18743, 28.583550000000002], [77.17614, 28.587360000000004], [77.17204000000001, 28.592740000000003], [77.16818, 28.59607], [77.17204000000001, 28.602010000000003], [77.16919, 28.604010000000002], [77.17461, 28.613020000000002], [77.1747, 28.615440000000003], [77.17660000000001, 28.62037], [77.17996000000001, 28.62505], [77.18169, 28.62366], [77.18766000000001, 28.62845], [77.19051, 28.634130000000003], [77.19644000000001, 28.640990000000002], [77.19841000000001, 28.646110000000004], [77.21229000000001, 28.637870000000003], [77.21827, 28.634420000000002]]]}}, {"id": "7", "type": "Feature", "properties": {"state_name": "Delhi", "district_name": "Central", "block_name": "Darya Ganj", "block_lgd": 445, "district_lgd": 77}, "geometry": {"type": "Polygon", "coordinates": [[[77.26375, 28.649400000000004], [77.26440000000001, 28.645170000000004], [77.26197, 28.639490000000002], [77.25507, 28.63116], [77.25377, 28.62937], [77.25252, 28.624830000000003], [77.25258000000001, 28.622170000000004], [77.25412, 28.620300000000004], [77.2549, 28.61435], [77.25562000000001, 28.613480000000003], [77.25283, 28.61295], [77.24922000000001, 28.61418], [77.2467, 28.62158], [77.24382, 28.625000000000004], [77.24122000000001, 28.62656], [77.22459, 28.635040000000004], [77.22363, 28.636390000000002], [77.22261, 28.6353], [77.21881, 28.634950000000003], [77.21853, 28.641130000000004], [77.22018000000001, 28.651080000000004], [77.22247, 28.652220000000003], [77.22402000000001, 28.654210000000003], [77.22535, 28.652980000000003], [77.22737000000001, 28.654310000000002], [77.22957000000001, 28.65228], [77.23397, 28.654080000000004], [77.23757, 28.654010000000003], [77.23911000000001, 28.651650000000004], [77.24162000000001, 28.650750000000002], [77.26284000000001, 28.652310000000003], [77.26375, 28.649400000000004]]]}}, {"id": "8", "type": "Feature", "properties": {"state_name": "Delhi", "district_name": "Central", "block_name": "Pahar Ganj", "block_lgd": 446, "district_lgd": 77}, "geometry": {"type": "Polygon", "coordinates": [[[77.20632, 28.6506], [77.20750000000001, 28.650800000000004], [77.20834, 28.652410000000003], [77.21326, 28.651200000000003], [77.21573000000001, 28.654020000000003], [77.21888000000001, 28.654410000000002], [77.22018000000001, 28.651080000000004], [77.21853, 28.641130000000004], [77.21881, 28.634950000000003], [77.21827, 28.634420000000002], [77.21229000000001, 28.637870000000003], [77.19841000000001, 28.646110000000004], [77.19414, 28.647700000000004], [77.18530000000001, 28.6488], [77.18934, 28.654320000000002], [77.19136, 28.6537], [77.19290000000001, 28.655050000000003], [77.19469000000001, 28.657870000000003], [77.19552, 28.66194], [77.19908000000001, 28.662670000000002], [77.20620000000001, 28.662280000000003], [77.20411, 28.65923], [77.20501, 28.65612], [77.20632, 28.6506]]]}}, {"id": "9", "type": "Feature", "properties": {"state_name": "Delhi", "district_name": "Central", "block_name": "Karol Bagh", "block_lgd": 447, "district_lgd": 77}, "geometry": {"type": "Polygon", "coordinates": [[[77.19414, 28.647700000000004], [77.19841000000001, 28.646110000000004], [77.19644000000001, 28.640990000000002], [77.19051, 28.634130000000003], [77.18766000000001, 28.62845], [77.18169, 28.62366], [77.17996000000001, 28.62505], [77.17755000000001, 28.627440000000004], [77.17666000000001, 28.630100000000002], [77.17527000000001, 28.633340000000004], [77.17588, 28.63979], [77.17542, 28.642100000000003], [77.17837, 28.64523], [77.17824, 28.64626], [77.18119, 28.65031], [77.18530000000001, 28.6488], [77.19414, 28.647700000000004]]]}}, {"id": "10", "type": "Feature", "properties": {"state_name": "Delhi", "district_name": "West", "block_name": "Rajouri Garden", "block_lgd": 449, "district_lgd": 85}, "geometry": {"type": "Polygon", "coordinates": [[[77.12540000000001, 28.63895], [77.12201, 28.63181], [77.12258, 28.62852], [77.12196, 28.627710000000004], [77.11942, 28.62805], [77.11805000000001, 28.627010000000002], [77.11531000000001, 28.618180000000002], [77.10394000000001, 28.61276], [77.09559, 28.616500000000002], [77.08954, 28.618070000000003], [77.08708, 28.625940000000003], [77.08389000000001, 28.628500000000003], [77.08486, 28.62985], [77.08953000000001, 28.628700000000002], [77.09163000000001, 28.635270000000002], [77.08889, 28.63764], [77.08340000000001, 28.64055], [77.08857, 28.645940000000003], [77.08985000000001, 28.64581], [77.09163000000001, 28.643400000000003], [77.09826000000001, 28.639870000000002], [77.10005000000001, 28.640240000000002], [77.10404000000001, 28.642210000000002], [77.10807000000001, 28.648780000000002], [77.11160000000001, 28.65182], [77.11342, 28.651290000000003], [77.11352000000001, 28.649820000000002], [77.11712, 28.64797], [77.11752000000001, 28.646590000000003], [77.1204, 28.644470000000002], [77.12137000000001, 28.642740000000003], [77.12540000000001, 28.63895]]]}}, {"id": "11", "type": "Feature", "properties": {"state_name": "Delhi", "district_name": "West", "block_name": "Punjabi Bagh", "block_lgd": 450, "district_lgd": 85}, "geometry": {"type": "Polygon", "coordinates": [[[76.97653000000001, 28.697400000000002], [76.98345, 28.690050000000003], [77.00024, 28.67921], [77.00225, 28.679750000000002], [77.00938000000001, 28.688260000000003], [77.01270000000001, 28.695310000000003], [77.02315, 28.695490000000003], [77.03876000000001, 28.698240000000002], [77.04512000000001, 28.69497], [77.04886, 28.688240000000004], [77.0541, 28.68342], [77.0561, 28.686830000000004], [77.06452, 28.691990000000004], [77.07341000000001, 28.686030000000002], [77.07602, 28.683020000000003], [77.07881, 28.683760000000003], [77.08366000000001, 28.68842], [77.08793, 28.68879], [77.09244000000001, 28.68598], [77.09501, 28.689000000000004], [77.09788, 28.689300000000003], [77.10366, 28.684680000000004], [77.10768, 28.688530000000004], [77.1148, 28.68306], [77.11838, 28.687220000000003], [77.11930000000001, 28.689700000000002], [77.12131000000001, 28.68907], [77.12304, 28.68738], [77.12076, 28.68372], [77.12207000000001, 28.68232], [77.13266, 28.677130000000002], [77.13937, 28.671180000000003], [77.13272, 28.667690000000004], [77.12802, 28.66637], [77.12681, 28.665250000000004], [77.12246, 28.664620000000003], [77.11811, 28.659550000000003], [77.1144, 28.657680000000003], [77.11354, 28.657740000000004], [77.11148, 28.66043], [77.10035, 28.659990000000004], [77.09629000000001, 28.65799], [77.09101000000001, 28.653550000000003], [77.08852, 28.653550000000003], [77.08417, 28.655110000000004], [77.07967000000001, 28.654490000000003], [77.07582000000001, 28.652610000000003], [77.06641, 28.643410000000003], [77.05871, 28.637400000000003], [77.05593, 28.640030000000003], [77.0565, 28.64504], [77.05172, 28.64992], [77.0468, 28.650730000000003], [77.03974000000001, 28.64992], [77.03411000000001, 28.646980000000003], [77.03240000000001, 28.644790000000004], [77.02612, 28.640470000000004], [77.02491, 28.637340000000002], [77.02555000000001, 28.634900000000002], [77.02513, 28.631390000000003], [77.02205000000001, 28.626450000000002], [77.01593000000001, 28.627170000000003], [77.01419, 28.625410000000002], [77.00947000000001, 28.625130000000002], [77.0078, 28.62411], [77.00461, 28.625220000000002], [77.00685, 28.627940000000002], [77.00492000000001, 28.63146], [76.99968000000001, 28.6474], [76.99975, 28.649610000000003], [77.00215, 28.651280000000003], [76.99600000000001, 28.653840000000002], [76.9927, 28.65631], [76.99298, 28.65837], [76.98874, 28.66082], [76.97968, 28.654290000000003], [76.97751000000001, 28.65706], [76.96793000000001, 28.65856], [76.96717000000001, 28.659560000000003], [76.96269000000001, 28.661360000000002], [76.95372, 28.667780000000004], [76.95589000000001, 28.671250000000004], [76.95605, 28.677010000000003], [76.95800000000001, 28.684620000000002], [76.96313, 28.692010000000003], [76.96333000000001, 28.694000000000003], [76.96479000000001, 28.69628], [76.96786, 28.69949], [76.96907, 28.6993], [76.97257, 28.701850000000004], [76.97432, 28.702040000000004], [76.97681, 28.700440000000004], [76.97648000000001, 28.699700000000004], [76.97653000000001, 28.697400000000002]]]}}, {"id": "12", "type": "Feature", "properties": {"state_name": "Delhi", "district_name": "South West", "block_name": "Najafgarh", "block_lgd": 451, "district_lgd": 84}, "geometry": {"type": "Polygon", "coordinates": [[[76.95212000000001, 28.66955], [76.95372, 28.667780000000004], [76.96269000000001, 28.661360000000002], [76.96717000000001, 28.659560000000003], [76.96793000000001, 28.65856], [76.97751000000001, 28.65706], [76.97968, 28.654290000000003], [76.98874, 28.66082], [76.99298, 28.65837], [76.9927, 28.65631], [76.99600000000001, 28.653840000000002], [77.00215, 28.651280000000003], [76.99975, 28.649610000000003], [76.99968000000001, 28.6474], [77.00492000000001, 28.63146], [77.00685, 28.627940000000002], [77.00461, 28.625220000000002], [77.00294000000001, 28.625400000000003], [77.00068, 28.628210000000003], [76.99718, 28.62665], [76.99123, 28.620700000000003], [76.99058000000001, 28.62113], [76.98678000000001, 28.61754], [76.98203000000001, 28.618630000000003], [76.96311, 28.630560000000003], [76.95917, 28.634860000000003], [76.9586, 28.633860000000002], [76.95185000000001, 28.6306], [76.95208000000001, 28.622300000000003], [76.95512000000001, 28.619880000000002], [76.96045000000001, 28.617620000000002], [76.96749000000001, 28.612190000000002], [76.97053000000001, 28.61119], [76.97405, 28.61053], [76.97566, 28.614610000000003], [76.97662000000001, 28.614610000000003], [76.97662000000001, 28.613200000000003], [76.97405, 28.60827], [76.98032, 28.603600000000004], [76.98222000000001, 28.604270000000003], [76.98641, 28.60836], [76.99211000000001, 28.6046], [76.99525000000001, 28.603260000000002], [76.99763, 28.603260000000002], [77.00371000000001, 28.600260000000002], [77.00970000000001, 28.600340000000003], [77.01331, 28.601840000000003], [77.01531, 28.599590000000003], [77.0155, 28.598010000000002], [77.01493, 28.59634], [77.01388, 28.595750000000002], [77.00002, 28.60112], [76.99581, 28.60206], [76.99167000000001, 28.597060000000003], [76.98504000000001, 28.59317], [76.98105000000001, 28.595430000000004], [76.97182000000001, 28.589080000000003], [76.96725, 28.582320000000003], [76.96012, 28.57439], [76.95799000000001, 28.57515], [76.95229, 28.575270000000003], [76.95343000000001, 28.583060000000003], [76.95063, 28.58707], [76.94436, 28.58321], [76.93924000000001, 28.58435], [76.93888000000001, 28.577050000000003], [76.93698, 28.57224], [76.94095, 28.566070000000003], [76.9376, 28.566000000000003], [76.93656, 28.563850000000002], [76.93528, 28.559530000000002], [76.93706, 28.55721], [76.93628000000001, 28.555960000000002], [76.93057, 28.549070000000004], [76.92792, 28.5513], [76.92284000000001, 28.553610000000003], [76.92248000000001, 28.555100000000003], [76.90929000000001, 28.55704], [76.9043, 28.54558], [76.91035000000001, 28.544190000000004], [76.9107, 28.54024], [76.91498, 28.533310000000004], [76.9145, 28.53197], [76.91089000000001, 28.52755], [76.90937000000001, 28.52746], [76.89473000000001, 28.53273], [76.89083000000001, 28.524870000000004], [76.88959000000001, 28.51995], [76.88731, 28.51911], [76.88689000000001, 28.519890000000004], [76.88711, 28.520590000000002], [76.87701000000001, 28.524420000000003], [76.87383000000001, 28.528480000000002], [76.87288000000001, 28.530960000000004], [76.87324000000001, 28.532580000000003], [76.86742000000001, 28.535330000000002], [76.86640000000001, 28.54032], [76.86473000000001, 28.543350000000004], [76.86031000000001, 28.545720000000003], [76.84535000000001, 28.550380000000004], [76.84518000000001, 28.551990000000004], [76.84248000000001, 28.55619], [76.8425, 28.56303], [76.84069000000001, 28.56924], [76.84089, 28.570870000000003], [76.83896, 28.573140000000002], [76.83966000000001, 28.58254], [76.84527, 28.584390000000003], [76.86051, 28.584860000000003], [76.86414, 28.58573], [76.86784, 28.590410000000002], [76.87171000000001, 28.602670000000003], [76.87729, 28.608810000000002], [76.88515000000001, 28.628570000000003], [76.88827, 28.631930000000004], [76.89320000000001, 28.631670000000003], [76.90638000000001, 28.62383], [76.90851, 28.626960000000004], [76.91435000000001, 28.632320000000004], [76.92015, 28.631480000000003], [76.92422, 28.628120000000003], [76.92742000000001, 28.623540000000002], [76.93526, 28.618350000000003], [76.94351, 28.627940000000002], [76.94516, 28.63305], [76.93814, 28.636360000000003], [76.93100000000001, 28.64307], [76.92507, 28.65002], [76.93071, 28.658350000000002], [76.93349, 28.6655], [76.93502000000001, 28.667530000000003], [76.94991, 28.66953], [76.95212000000001, 28.66955]]]}}, {"id": "13", "type": "Feature", "properties": {"state_name": "Delhi", "district_name": "East", "block_name": "Mayur Vihar", "block_lgd": 6084, "district_lgd": 78}, "geometry": {"type": "Polygon", "coordinates": [[[77.34241, 28.60892], [77.34167000000001, 28.606090000000002], [77.33955, 28.603700000000003], [77.33676000000001, 28.601850000000002], [77.32841, 28.600150000000003], [77.32516000000001, 28.598090000000003], [77.3135, 28.596660000000004], [77.31025000000001, 28.590590000000002], [77.30315, 28.58388], [77.29017, 28.60293], [77.29154000000001, 28.60347], [77.29276, 28.602800000000002], [77.29226000000001, 28.60368], [77.29390000000001, 28.603820000000002], [77.29387000000001, 28.604550000000003], [77.29634, 28.605970000000003], [77.30214000000001, 28.604090000000003], [77.30438000000001, 28.60762], [77.30901, 28.611810000000002], [77.31907000000001, 28.614], [77.32356, 28.61388], [77.32484000000001, 28.614690000000003], [77.32719, 28.614250000000002], [77.32805, 28.615440000000003], [77.32769, 28.618260000000003], [77.32539000000001, 28.624620000000004], [77.33351, 28.629050000000003], [77.33976000000001, 28.62413], [77.34036, 28.622560000000004], [77.34253000000001, 28.622020000000003], [77.34151, 28.617600000000003], [77.34178, 28.614680000000003], [77.34241, 28.60892]]]}}, {"id": "14", "type": "Feature", "properties": {"state_name": "Delhi", "district_name": "South West", "block_name": "Kapeshera", "block_lgd": 6085, "district_lgd": 84}, "geometry": {"type": "Polygon", "coordinates": [[[77.01008, 28.59016], [77.01265000000001, 28.58949], [77.01683000000001, 28.591490000000004], [77.01769, 28.590740000000004], [77.01655000000001, 28.586230000000004], [77.01750000000001, 28.583060000000003], [77.02948, 28.57897], [77.03214000000001, 28.57897], [77.03233, 28.580470000000002], [77.0368, 28.580810000000003], [77.03737000000001, 28.582810000000002], [77.04459, 28.58724], [77.04973000000001, 28.58573], [77.05657000000001, 28.58022], [77.05657000000001, 28.576380000000004], [77.05885, 28.573800000000002], [77.05877000000001, 28.571460000000002], [77.05067000000001, 28.558950000000003], [77.06118000000001, 28.55261], [77.07054000000001, 28.5482], [77.07130000000001, 28.543840000000003], [77.07919000000001, 28.540640000000003], [77.08892, 28.53853], [77.08675000000001, 28.535320000000002], [77.08558000000001, 28.531760000000002], [77.10094000000001, 28.520860000000003], [77.10354000000001, 28.51819], [77.0998, 28.511270000000003], [77.09394, 28.514100000000003], [77.0805, 28.518040000000003], [77.07496, 28.51864], [77.07224000000001, 28.520260000000004], [77.07143, 28.517650000000003], [77.06734, 28.512150000000002], [77.05995, 28.512320000000003], [77.04657, 28.516640000000002], [77.04835, 28.52089], [77.04439, 28.523020000000002], [77.04344, 28.524720000000002], [77.03195000000001, 28.5313], [77.02405, 28.532950000000003], [77.01769, 28.53741], [77.01707, 28.538770000000003], [77.01345, 28.5405], [77.00981, 28.539920000000002], [77.00664, 28.54136], [77.00481, 28.540190000000003], [77.00215, 28.53421], [77.00042, 28.533530000000003], [77.00047, 28.532080000000004], [77.01010000000001, 28.5256], [77.01502, 28.523860000000003], [77.01703, 28.520950000000003], [77.01013, 28.51471], [76.99656, 28.51976], [76.99526, 28.516920000000002], [76.99403000000001, 28.51705], [76.99052, 28.513540000000003], [76.98275000000001, 28.51714], [76.97810000000001, 28.521340000000002], [76.97590000000001, 28.518720000000002], [76.97074, 28.515220000000003], [76.96489000000001, 28.512590000000003], [76.95602000000001, 28.50617], [76.95167000000001, 28.504250000000003], [76.94878, 28.504050000000003], [76.94186, 28.504540000000002], [76.93347, 28.50972], [76.92736000000001, 28.510430000000003], [76.92068, 28.507030000000004], [76.91676000000001, 28.51037], [76.91220000000001, 28.51237], [76.91018000000001, 28.51216], [76.90798000000001, 28.51375], [76.90239000000001, 28.508950000000002], [76.90003, 28.509380000000004], [76.89753, 28.508360000000003], [76.89143, 28.500880000000002], [76.88393, 28.500890000000002], [76.88433, 28.501890000000003], [76.87961, 28.50477], [76.88145, 28.50991], [76.88689000000001, 28.519890000000004], [76.88731, 28.51911], [76.88959000000001, 28.51995], [76.89083000000001, 28.524870000000004], [76.89473000000001, 28.53273], [76.90937000000001, 28.52746], [76.91089000000001, 28.52755], [76.9145, 28.53197], [76.91498, 28.533310000000004], [76.9107, 28.54024], [76.91035000000001, 28.544190000000004], [76.9043, 28.54558], [76.90929000000001, 28.55704], [76.92248000000001, 28.555100000000003], [76.92284000000001, 28.553610000000003], [76.92792, 28.5513], [76.93057, 28.549070000000004], [76.93628000000001, 28.555960000000002], [76.93706, 28.55721], [76.93528, 28.559530000000002], [76.93656, 28.563850000000002], [76.9376, 28.566000000000003], [76.94095, 28.566070000000003], [76.93698, 28.57224], [76.93888000000001, 28.577050000000003], [76.93924000000001, 28.58435], [76.94436, 28.58321], [76.95063, 28.58707], [76.95343000000001, 28.583060000000003], [76.95229, 28.575270000000003], [76.95799000000001, 28.57515], [76.96012, 28.57439], [76.96725, 28.582320000000003], [76.97182000000001, 28.589080000000003], [76.98105000000001, 28.595430000000004], [76.98504000000001, 28.59317], [76.99167000000001, 28.597060000000003], [76.99581, 28.60206], [77.00002, 28.60112], [77.01388, 28.595750000000002], [77.01094, 28.594420000000003], [77.01008, 28.59016]]]}}, {"id": "15", "type": "Feature", "properties": {"state_name": "Delhi", "district_name": "North", "block_name": "Narela", "block_lgd": 430, "district_lgd": 80}, "geometry": {"type": "MultiPolygon", "coordinates": [[[[77.0835, 28.867110000000004], [77.08369, 28.863280000000003], [77.08293, 28.850870000000004], [77.08255000000001, 28.847540000000002], [77.08112000000001, 28.846290000000003], [77.08046, 28.842710000000004], [77.07817, 28.83913], [77.07884, 28.83763], [77.08169000000001, 28.83855], [77.08678, 28.838050000000003], [77.09115000000001, 28.838630000000002], [77.09296, 28.84063], [77.09885000000001, 28.840300000000003], [77.09923, 28.84138], [77.10712000000001, 28.84146], [77.10969, 28.84005], [77.11216, 28.841050000000003], [77.11521, 28.840210000000003], [77.12031, 28.8412], [77.12003, 28.840200000000003], [77.12392000000001, 28.836620000000003], [77.13296000000001, 28.833280000000002], [77.1259, 28.825640000000003], [77.11934000000001, 28.82514], [77.11772, 28.822060000000004], [77.12086000000001, 28.819810000000004], [77.12067, 28.815230000000003], [77.1199, 28.813810000000004], [77.11242, 28.814020000000003], [77.11634000000001, 28.80392], [77.11729000000001, 28.80309], [77.11955, 28.803710000000002], [77.12109000000001, 28.80111], [77.12157, 28.79944], [77.11955, 28.796740000000003], [77.11456000000001, 28.795070000000003], [77.11396, 28.793820000000004], [77.11795000000001, 28.79182], [77.12009, 28.79164], [77.12109000000001, 28.791140000000002], [77.12109000000001, 28.790070000000004], [77.12344, 28.789450000000002], [77.12152, 28.787200000000002], [77.12144, 28.78262], [77.11871000000001, 28.781050000000004], [77.1139, 28.780170000000002], [77.11027, 28.77579], [77.10808, 28.771050000000002], [77.10267, 28.767300000000002], [77.11575, 28.755810000000004], [77.11903000000001, 28.753370000000004], [77.12076, 28.753310000000003], [77.11922000000001, 28.752160000000003], [77.11981, 28.74893], [77.11767, 28.748620000000003], [77.11717, 28.75024], [77.1114, 28.751990000000003], [77.10883000000001, 28.755560000000003], [77.10028000000001, 28.75993], [77.09970000000001, 28.758930000000003], [77.09856, 28.760250000000003], [77.09478, 28.757870000000004], [77.09286, 28.754120000000004], [77.09200000000001, 28.74912], [77.08537000000001, 28.742490000000004], [77.08359, 28.739120000000003], [77.087, 28.735310000000002], [77.08186, 28.728060000000003], [77.07537, 28.731510000000004], [77.06601, 28.738070000000004], [77.06422, 28.737900000000003], [77.05782, 28.74238], [77.05042, 28.743080000000003], [77.03960000000001, 28.748110000000004], [77.02279, 28.75155], [77.01662, 28.75493], [77.01526000000001, 28.754980000000003], [77.01439, 28.760120000000004], [77.01173, 28.763250000000003], [77.01323000000001, 28.769890000000004], [77.01264, 28.77502], [77.01344, 28.778760000000002], [77.00066000000001, 28.783820000000002], [76.99165, 28.785010000000003], [76.98254, 28.792900000000003], [76.98051000000001, 28.79341], [76.97850000000001, 28.792440000000003], [76.96929, 28.79707], [76.96787, 28.79812], [76.96869000000001, 28.800330000000002], [76.96657, 28.800880000000003], [76.96717000000001, 28.80384], [76.96913, 28.807170000000003], [76.96677000000001, 28.809340000000002], [76.96772, 28.811190000000003], [76.96591000000001, 28.81192], [76.96585, 28.8135], [76.96182, 28.81492], [76.96480000000001, 28.819850000000002], [76.96378, 28.822760000000002], [76.96574000000001, 28.825640000000003], [76.96601000000001, 28.827420000000004], [76.9671, 28.828070000000004], [76.97281000000001, 28.826810000000002], [76.97666000000001, 28.822260000000004], [76.97967000000001, 28.82128], [76.98280000000001, 28.8242], [76.98512000000001, 28.828090000000003], [76.98700000000001, 28.83386], [76.99181, 28.83837], [76.99485, 28.839550000000003], [76.9983, 28.83836], [77.00652000000001, 28.840570000000003], [77.02332000000001, 28.83941], [77.0271, 28.836910000000003], [77.03226000000001, 28.835440000000002], [77.04004, 28.831870000000002], [77.04258, 28.83434], [77.04207000000001, 28.838260000000002], [77.04508000000001, 28.84091], [77.04568, 28.847500000000004], [77.05101, 28.85471], [77.05433000000001, 28.862630000000003], [77.05806000000001, 28.868100000000002], [77.0614, 28.87104], [77.06924000000001, 28.867230000000003], [77.07177, 28.868930000000002], [77.07452, 28.86754], [77.07926, 28.87273], [77.08236000000001, 28.869110000000003], [77.0835, 28.867110000000004]]], [[[77.11013000000001, 28.869850000000003], [77.11245000000001, 28.866580000000003], [77.11572000000001, 28.864900000000002], [77.11639000000001, 28.863290000000003], [77.12077000000001, 28.860000000000003], [77.12086000000001, 28.85844], [77.12488, 28.85771], [77.12602000000001, 28.85244], [77.12459000000001, 28.846690000000002], [77.11796000000001, 28.849370000000004], [77.11578, 28.84879], [77.11340000000001, 28.850040000000003], [77.11159, 28.85179], [77.09695, 28.852790000000002], [77.09562000000001, 28.854370000000003], [77.09562000000001, 28.86586], [77.09715000000001, 28.870900000000002], [77.10591000000001, 28.870050000000003], [77.11013000000001, 28.869850000000003]]]]}}, {"id": "16", "type": "Feature", "properties": {"state_name": "Delhi", "district_name": "North West", "block_name": "Saraswati Vihar", "block_lgd": 431, "district_lgd": 82}, "geometry": {"type": "Polygon", "coordinates": [[[77.10636000000001, 28.737320000000004], [77.10948, 28.73589], [77.10922000000001, 28.734410000000004], [77.11970000000001, 28.718030000000002], [77.12035, 28.715030000000002], [77.11957000000001, 28.713440000000002], [77.12155000000001, 28.712120000000002], [77.12127000000001, 28.707590000000003], [77.12528, 28.70606], [77.13133, 28.709220000000002], [77.13180000000001, 28.71046], [77.13049000000001, 28.712180000000004], [77.13255000000001, 28.71581], [77.13765000000001, 28.71995], [77.13902, 28.719890000000003], [77.14009, 28.723750000000003], [77.14526000000001, 28.72914], [77.15163000000001, 28.72671], [77.15881, 28.73102], [77.16004000000001, 28.732550000000003], [77.16275, 28.727950000000003], [77.16415, 28.727010000000003], [77.1603, 28.718690000000002], [77.16210000000001, 28.717190000000002], [77.16338, 28.717090000000002], [77.16284, 28.715920000000004], [77.16405, 28.714160000000003], [77.16386, 28.712370000000004], [77.16112000000001, 28.709970000000002], [77.16213, 28.707390000000004], [77.15888000000001, 28.704300000000003], [77.16274, 28.702790000000004], [77.16818, 28.69901], [77.17074000000001, 28.699840000000002], [77.17164000000001, 28.69854], [77.17290000000001, 28.698850000000004], [77.17624, 28.70163], [77.17774, 28.700090000000003], [77.18112, 28.701020000000003], [77.18183, 28.700190000000003], [77.17942000000001, 28.698970000000003], [77.17974000000001, 28.69751], [77.18222, 28.696440000000003], [77.18467000000001, 28.69394], [77.18574000000001, 28.693890000000003], [77.18582, 28.693040000000003], [77.18536, 28.69141], [77.18356, 28.689550000000004], [77.17588, 28.6837], [77.17328, 28.685160000000003], [77.16956, 28.689090000000004], [77.16859000000001, 28.688570000000002], [77.16796000000001, 28.683920000000004], [77.17299000000001, 28.67932], [77.17473000000001, 28.67425], [77.17689, 28.675230000000003], [77.17899000000001, 28.67432], [77.17689, 28.67068], [77.1782, 28.667600000000004], [77.17529, 28.66571], [77.17042000000001, 28.66025], [77.16791, 28.656160000000003], [77.16231, 28.658030000000004], [77.15911000000001, 28.65808], [77.16387, 28.662290000000002], [77.15979, 28.670610000000003], [77.15731000000001, 28.671370000000003], [77.15825000000001, 28.67329], [77.15695000000001, 28.674380000000003], [77.15765, 28.674780000000002], [77.15716, 28.675390000000004], [77.15333000000001, 28.67236], [77.14939000000001, 28.672870000000003], [77.14850000000001, 28.669200000000004], [77.13937, 28.671180000000003], [77.13266, 28.677130000000002], [77.12207000000001, 28.68232], [77.12076, 28.68372], [77.12304, 28.68738], [77.12131000000001, 28.68907], [77.11930000000001, 28.689700000000002], [77.11838, 28.687220000000003], [77.1148, 28.68306], [77.10768, 28.688530000000004], [77.10366, 28.684680000000004], [77.09788, 28.689300000000003], [77.09501, 28.689000000000004], [77.09244000000001, 28.68598], [77.08793, 28.68879], [77.0887, 28.69262], [77.08834, 28.695380000000004], [77.08407000000001, 28.697930000000003], [77.08383, 28.699130000000004], [77.09161, 28.707680000000003], [77.08751000000001, 28.71075], [77.08585000000001, 28.715030000000002], [77.08525, 28.721850000000003], [77.08186, 28.728060000000003], [77.087, 28.735310000000002], [77.08962000000001, 28.737630000000003], [77.09447, 28.73701], [77.0959, 28.739290000000004], [77.10184000000001, 28.73722], [77.10636000000001, 28.737320000000004]]]}}, {"id": "17", "type": "Feature", "properties": {"state_name": "Delhi", "district_name": "North", "block_name": "Model Town", "block_lgd": 432, "district_lgd": 80}, "geometry": {"type": "Polygon", "coordinates": [[[77.17943000000001, 28.757900000000003], [77.17871000000001, 28.75524], [77.18137, 28.754800000000003], [77.18261000000001, 28.753180000000004], [77.18218, 28.750950000000003], [77.17967, 28.750580000000003], [77.17558000000001, 28.74611], [77.17503, 28.744600000000002], [77.17656000000001, 28.74076], [77.17936, 28.738180000000003], [77.18463000000001, 28.735440000000004], [77.18664000000001, 28.73289], [77.19032, 28.731640000000002], [77.19217, 28.729010000000002], [77.19193, 28.725690000000004], [77.19541000000001, 28.72875], [77.21537000000001, 28.726620000000004], [77.21520000000001, 28.722350000000002], [77.22213, 28.715790000000002], [77.21858, 28.70764], [77.21499, 28.70238], [77.21243000000001, 28.700170000000004], [77.20697000000001, 28.692220000000002], [77.20268, 28.688280000000002], [77.20383000000001, 28.688170000000003], [77.20406000000001, 28.6853], [77.20025000000001, 28.685920000000003], [77.19781, 28.684400000000004], [77.19697000000001, 28.684730000000002], [77.19361, 28.688930000000003], [77.18809, 28.691440000000004], [77.18895, 28.693510000000003], [77.18843000000001, 28.69433], [77.18582, 28.693040000000003], [77.18574000000001, 28.693890000000003], [77.18467000000001, 28.69394], [77.18222, 28.696440000000003], [77.17974000000001, 28.69751], [77.17942000000001, 28.698970000000003], [77.18183, 28.700190000000003], [77.18112, 28.701020000000003], [77.17774, 28.700090000000003], [77.17624, 28.70163], [77.17290000000001, 28.698850000000004], [77.17164000000001, 28.69854], [77.17074000000001, 28.699840000000002], [77.16818, 28.69901], [77.16274, 28.702790000000004], [77.15888000000001, 28.704300000000003], [77.16213, 28.707390000000004], [77.16112000000001, 28.709970000000002], [77.16386, 28.712370000000004], [77.16405, 28.714160000000003], [77.16284, 28.715920000000004], [77.16338, 28.717090000000002], [77.16210000000001, 28.717190000000002], [77.1603, 28.718690000000002], [77.16415, 28.727010000000003], [77.16275, 28.727950000000003], [77.16004000000001, 28.732550000000003], [77.15958, 28.737550000000002], [77.16034, 28.740630000000003], [77.16006, 28.742210000000004], [77.15882, 28.74313], [77.15984, 28.743460000000002], [77.15898, 28.74536], [77.15931, 28.74893], [77.16094000000001, 28.75148], [77.16026000000001, 28.75437], [77.16436, 28.7557], [77.17172000000001, 28.75578], [77.17169000000001, 28.75833], [77.1757, 28.758820000000004], [77.17943000000001, 28.757900000000003]]]}}, {"id": "18", "type": "Feature", "properties": {"state_name": "Delhi", "district_name": "Central", "block_name": "Civil Lines", "block_lgd": 433, "district_lgd": 77}, "geometry": {"type": "Polygon", "coordinates": [[[77.22124000000001, 28.770360000000004], [77.22003000000001, 28.770280000000003], [77.21791, 28.76696], [77.21894, 28.76376], [77.22201000000001, 28.75871], [77.22201000000001, 28.751430000000003], [77.22129000000001, 28.750870000000003], [77.22298, 28.75061], [77.22171, 28.744950000000003], [77.22263000000001, 28.7451], [77.22338, 28.74659], [77.22677, 28.745020000000004], [77.22795, 28.74556], [77.22864000000001, 28.748680000000004], [77.24074, 28.74433], [77.23998, 28.738500000000002], [77.23878, 28.73675], [77.23946000000001, 28.73355], [77.23907000000001, 28.730400000000003], [77.23714000000001, 28.725], [77.23557000000001, 28.716150000000003], [77.23069000000001, 28.708230000000004], [77.22915, 28.702280000000002], [77.22998000000001, 28.69884], [77.23271000000001, 28.69384], [77.23271000000001, 28.689780000000003], [77.23474, 28.687060000000002], [77.23485000000001, 28.68258], [77.23699, 28.680600000000002], [77.24151, 28.680290000000003], [77.23497, 28.675910000000002], [77.23545, 28.671110000000002], [77.22642, 28.667780000000004], [77.22024, 28.66663], [77.21940000000001, 28.66402], [77.20776000000001, 28.66579], [77.19908000000001, 28.662670000000002], [77.19552, 28.66194], [77.19469000000001, 28.657870000000003], [77.19290000000001, 28.655050000000003], [77.19136, 28.6537], [77.18934, 28.654320000000002], [77.18530000000001, 28.6488], [77.18119, 28.65031], [77.17995, 28.650810000000003], [77.18024000000001, 28.652860000000004], [77.17836000000001, 28.652320000000003], [77.17294000000001, 28.65339], [77.16928, 28.653080000000003], [77.16856, 28.653420000000004], [77.16791, 28.656160000000003], [77.17042000000001, 28.66025], [77.17529, 28.66571], [77.1782, 28.667600000000004], [77.17689, 28.67068], [77.17899000000001, 28.67432], [77.17689, 28.675230000000003], [77.17473000000001, 28.67425], [77.17299000000001, 28.67932], [77.16796000000001, 28.683920000000004], [77.16859000000001, 28.688570000000002], [77.16956, 28.689090000000004], [77.17328, 28.685160000000003], [77.17588, 28.6837], [77.18356, 28.689550000000004], [77.18536, 28.69141], [77.18582, 28.693040000000003], [77.18843000000001, 28.69433], [77.18895, 28.693510000000003], [77.18809, 28.691440000000004], [77.19361, 28.688930000000003], [77.19697000000001, 28.684730000000002], [77.19781, 28.684400000000004], [77.20025000000001, 28.685920000000003], [77.20406000000001, 28.6853], [77.20383000000001, 28.688170000000003], [77.20268, 28.688280000000002], [77.20697000000001, 28.692220000000002], [77.21243000000001, 28.700170000000004], [77.21499, 28.70238], [77.21858, 28.70764], [77.22213, 28.715790000000002], [77.21520000000001, 28.722350000000002], [77.21537000000001, 28.726620000000004], [77.19541000000001, 28.72875], [77.19193, 28.725690000000004], [77.19217, 28.729010000000002], [77.19032, 28.731640000000002], [77.18664000000001, 28.73289], [77.18463000000001, 28.735440000000004], [77.17936, 28.738180000000003], [77.17656000000001, 28.74076], [77.17503, 28.744600000000002], [77.17558000000001, 28.74611], [77.17967, 28.750580000000003], [77.18218, 28.750950000000003], [77.18261000000001, 28.753180000000004], [77.18137, 28.754800000000003], [77.17871000000001, 28.75524], [77.17943000000001, 28.757900000000003], [77.1757, 28.758820000000004], [77.17424000000001, 28.760450000000002], [77.17517000000001, 28.7632], [77.17437000000001, 28.765620000000002], [77.17161, 28.767180000000003], [77.17185, 28.77249], [77.17920000000001, 28.770310000000002], [77.18627000000001, 28.771200000000004], [77.19528000000001, 28.77802], [77.19890000000001, 28.78169], [77.19817, 28.78385], [77.20786000000001, 28.788240000000002], [77.21111, 28.786630000000002], [77.20987000000001, 28.783690000000004], [77.21051, 28.782120000000003], [77.21401, 28.779310000000002], [77.21781, 28.77793], [77.21765, 28.775330000000004], [77.22054, 28.771480000000004], [77.22124000000001, 28.770360000000004]]]}}, {"id": "19", "type": "Feature", "properties": {"state_name": "Delhi", "district_name": "North East", "block_name": "Seelam Pur", "block_lgd": 436, "district_lgd": 81}, "geometry": {"type": "Polygon", "coordinates": [[[77.24203, 28.714160000000003], [77.25094, 28.71317], [77.25114, 28.712010000000003], [77.25369, 28.71403], [77.25999, 28.71253], [77.26133, 28.71384], [77.26349, 28.713990000000003], [77.26219, 28.71169], [77.26471000000001, 28.710800000000003], [77.26614000000001, 28.707390000000004], [77.26868, 28.705740000000002], [77.2656, 28.702730000000003], [77.27159, 28.700940000000003], [77.27078, 28.69827], [77.27208, 28.69695], [77.2706, 28.683230000000002], [77.26944, 28.68052], [77.27014000000001, 28.6792], [77.26804000000001, 28.676820000000003], [77.26971, 28.675860000000004], [77.26823, 28.674730000000004], [77.26968000000001, 28.67311], [77.26864, 28.67209], [77.26327, 28.67059], [77.25858000000001, 28.67011], [77.25384000000001, 28.671020000000002], [77.23891, 28.666140000000002], [77.23545, 28.671110000000002], [77.23497, 28.675910000000002], [77.24151, 28.680290000000003], [77.23699, 28.680600000000002], [77.23485000000001, 28.68258], [77.23474, 28.687060000000002], [77.23271000000001, 28.689780000000003], [77.23271000000001, 28.69384], [77.22998000000001, 28.69884], [77.22915, 28.702280000000002], [77.23069000000001, 28.708230000000004], [77.23557000000001, 28.716150000000003], [77.23700000000001, 28.71723], [77.23759000000001, 28.71271], [77.24203, 28.714160000000003]]]}}, {"id": "20", "type": "Feature", "properties": {"state_name": "Delhi", "district_name": "Shahdara", "block_name": "Shahdara", "block_lgd": 437, "district_lgd": 671}, "geometry": {"type": "Polygon", "coordinates": [[[77.28193, 28.696130000000004], [77.28454, 28.693440000000002], [77.28662000000001, 28.695790000000002], [77.29064000000001, 28.69347], [77.29697, 28.69235], [77.29918, 28.69226], [77.29923000000001, 28.68905], [77.29561000000001, 28.682450000000003], [77.29247000000001, 28.679280000000002], [77.28913, 28.679260000000003], [77.28408, 28.681530000000002], [77.27979, 28.681790000000003], [77.27929, 28.679440000000003], [77.27647, 28.67724], [77.27385000000001, 28.672490000000003], [77.26968000000001, 28.67311], [77.26823, 28.674730000000004], [77.26971, 28.675860000000004], [77.26804000000001, 28.676820000000003], [77.27014000000001, 28.6792], [77.26944, 28.68052], [77.2706, 28.683230000000002], [77.27208, 28.69695], [77.27513, 28.696800000000003], [77.27965, 28.697950000000002], [77.27956, 28.696880000000004], [77.28193, 28.696130000000004]]]}}, {"id": "21", "type": "Feature", "properties": {"state_name": "Delhi", "district_name": "South East", "block_name": "Sarita Vihar", "block_lgd": 6081, "district_lgd": 670}, "geometry": {"type": "MultiPolygon", "coordinates": [[[[77.32538000000001, 28.52504], [77.33503, 28.524700000000003], [77.33833000000001, 28.52287], [77.34704, 28.520870000000002], [77.34757, 28.518990000000002], [77.34544000000001, 28.513260000000002], [77.33612000000001, 28.50522], [77.33496000000001, 28.501770000000004], [77.32683, 28.49013], [77.31828, 28.487340000000003], [77.31410000000001, 28.48363], [77.30653000000001, 28.489410000000003], [77.30075000000001, 28.489980000000003], [77.30055, 28.494170000000004], [77.30024, 28.498250000000002], [77.30159, 28.497600000000002], [77.30380000000001, 28.498130000000003], [77.30673, 28.500760000000003], [77.30655, 28.50317], [77.3057, 28.50587], [77.30149, 28.509560000000004], [77.29828, 28.515390000000004], [77.29436000000001, 28.51921], [77.29955000000001, 28.523860000000003], [77.30170000000001, 28.527230000000003], [77.31211, 28.527730000000002], [77.32538000000001, 28.52504]]], [[[77.29393, 28.53826], [77.29272, 28.535940000000004], [77.29122000000001, 28.536], [77.28888, 28.53583], [77.28465000000001, 28.53554], [77.28047000000001, 28.533030000000004], [77.2766, 28.532870000000003], [77.27275, 28.535190000000004], [77.27012, 28.538200000000003], [77.28302000000001, 28.540450000000003], [77.29415, 28.541330000000002], [77.29700000000001, 28.540830000000003], [77.29393, 28.53826]]]]}}, {"id": "22", "type": "Feature", "properties": {"state_name": "Delhi", "district_name": "Shahdara", "block_name": "Vivek Vihar", "block_lgd": 440, "district_lgd": 671}, "geometry": {"type": "Polygon", "coordinates": [[[77.33081, 28.689400000000003], [77.33284, 28.682100000000002], [77.33009000000001, 28.67826], [77.32546, 28.6778], [77.32359000000001, 28.676750000000002], [77.3237, 28.668950000000002], [77.32299, 28.6672], [77.32163000000001, 28.666320000000002], [77.32075, 28.66353], [77.31986, 28.651080000000004], [77.31628, 28.641270000000002], [77.31535000000001, 28.640020000000003], [77.31093000000001, 28.641270000000002], [77.30051, 28.644650000000002], [77.29684, 28.648360000000004], [77.29335, 28.65379], [77.28921000000001, 28.657850000000003], [77.28029000000001, 28.655240000000003], [77.27748000000001, 28.653850000000002], [77.27747000000001, 28.65248], [77.27136, 28.650350000000003], [77.26375, 28.649400000000004], [77.26284000000001, 28.652310000000003], [77.25935000000001, 28.659430000000004], [77.25153, 28.663000000000004], [77.25092000000001, 28.663650000000004], [77.24725000000001, 28.66335], [77.24354000000001, 28.66392], [77.23891, 28.666140000000002], [77.25384000000001, 28.671020000000002], [77.25858000000001, 28.67011], [77.26327, 28.67059], [77.26864, 28.67209], [77.26968000000001, 28.67311], [77.27385000000001, 28.672490000000003], [77.27647, 28.67724], [77.27929, 28.679440000000003], [77.27979, 28.681790000000003], [77.28408, 28.681530000000002], [77.28913, 28.679260000000003], [77.29247000000001, 28.679280000000002], [77.29561000000001, 28.682450000000003], [77.29923000000001, 28.68905], [77.30298, 28.68964], [77.30452000000001, 28.688750000000002], [77.30223000000001, 28.683280000000003], [77.30277000000001, 28.68296], [77.30244, 28.6809], [77.30735, 28.68213], [77.30841000000001, 28.68119], [77.31174, 28.681870000000004], [77.32017, 28.693550000000002], [77.32298, 28.692590000000003], [77.32588000000001, 28.695120000000003], [77.32839000000001, 28.692870000000003], [77.33081, 28.689400000000003]]]}}, {"id": "23", "type": "Feature", "properties": {"state_name": "Delhi", "district_name": "East", "block_name": "Preet Vihar", "block_lgd": 441, "district_lgd": 78}, "geometry": {"type": "Polygon", "coordinates": [[[77.31535000000001, 28.640020000000003], [77.31628, 28.641270000000002], [77.32369000000001, 28.63436], [77.32464, 28.634690000000003], [77.33351, 28.629050000000003], [77.32539000000001, 28.624620000000004], [77.32769, 28.618260000000003], [77.32805, 28.615440000000003], [77.32719, 28.614250000000002], [77.32484000000001, 28.614690000000003], [77.32356, 28.61388], [77.31907000000001, 28.614], [77.30901, 28.611810000000002], [77.30438000000001, 28.60762], [77.30214000000001, 28.604090000000003], [77.29634, 28.605970000000003], [77.29387000000001, 28.604550000000003], [77.29390000000001, 28.603820000000002], [77.29226000000001, 28.60368], [77.29276, 28.602800000000002], [77.29154000000001, 28.60347], [77.29017, 28.60293], [77.30315, 28.58388], [77.29844, 28.580090000000002], [77.29975, 28.57851], [77.29995000000001, 28.57664], [77.2985, 28.571230000000003], [77.29218, 28.577430000000003], [77.29185000000001, 28.580240000000003], [77.28792, 28.585490000000004], [77.28487000000001, 28.58676], [77.27819000000001, 28.585140000000003], [77.27837000000001, 28.588020000000004], [77.28081, 28.58978], [77.28039000000001, 28.595260000000003], [77.27926000000001, 28.598550000000003], [77.27392, 28.60197], [77.26545, 28.595810000000004], [77.26716, 28.59204], [77.26513000000001, 28.59176], [77.2574, 28.606370000000002], [77.25598000000001, 28.608780000000003], [77.25562000000001, 28.613480000000003], [77.2549, 28.61435], [77.26326, 28.614480000000004], [77.2774, 28.61755], [77.28644000000001, 28.621100000000002], [77.28447000000001, 28.629080000000002], [77.28245000000001, 28.632780000000004], [77.28121, 28.634030000000003], [77.27247000000001, 28.63106], [77.27085000000001, 28.631570000000004], [77.26279000000001, 28.630070000000003], [77.25768000000001, 28.63023], [77.25507, 28.63116], [77.26197, 28.639490000000002], [77.26440000000001, 28.645170000000004], [77.26375, 28.649400000000004], [77.27136, 28.650350000000003], [77.27747000000001, 28.65248], [77.27748000000001, 28.653850000000002], [77.28029000000001, 28.655240000000003], [77.28921000000001, 28.657850000000003], [77.29335, 28.65379], [77.29684, 28.648360000000004], [77.30051, 28.644650000000002], [77.31093000000001, 28.641270000000002], [77.31535000000001, 28.640020000000003]]]}}, {"id": "24", "type": "Feature", "properties": {"state_name": "Delhi", "district_name": "New Delhi", "block_name": "Delhi Cantonment", "block_lgd": 452, "district_lgd": 79}, "geometry": {"type": "Polygon", "coordinates": [[[77.14562000000001, 28.6382], [77.14708, 28.640210000000003], [77.14968, 28.63725], [77.15323000000001, 28.639490000000002], [77.16169000000001, 28.633000000000003], [77.16549, 28.62796], [77.17266000000001, 28.629990000000003], [77.17666000000001, 28.630100000000002], [77.17755000000001, 28.627440000000004], [77.17996000000001, 28.62505], [77.17660000000001, 28.62037], [77.1747, 28.615440000000003], [77.17461, 28.613020000000002], [77.16919, 28.604010000000002], [77.17204000000001, 28.602010000000003], [77.16818, 28.59607], [77.16604000000001, 28.59138], [77.15938000000001, 28.58423], [77.16158, 28.582870000000003], [77.16152000000001, 28.58209], [77.15647000000001, 28.57411], [77.16372000000001, 28.57259], [77.15956000000001, 28.565810000000003], [77.16039, 28.564610000000002], [77.16265, 28.563720000000004], [77.16473, 28.560640000000003], [77.16289, 28.55751], [77.15101, 28.564140000000002], [77.15101, 28.562680000000004], [77.14958, 28.562520000000003], [77.14958, 28.563150000000004], [77.14239, 28.552660000000003], [77.13484000000001, 28.55516], [77.13175000000001, 28.55506], [77.12427000000001, 28.556990000000003], [77.11892, 28.556420000000003], [77.11547, 28.557720000000003], [77.1106, 28.553390000000004], [77.10026, 28.55704], [77.09099, 28.563200000000002], [77.08933, 28.561840000000004], [77.08558000000001, 28.562420000000003], [77.08356, 28.561480000000003], [77.08291000000001, 28.559860000000004], [77.0844, 28.55871], [77.0822, 28.554330000000004], [77.08047, 28.55318], [77.07703000000001, 28.552920000000004], [77.07376000000001, 28.55073], [77.07115, 28.550780000000003], [77.07054000000001, 28.5482], [77.06118000000001, 28.55261], [77.05067000000001, 28.558950000000003], [77.05877000000001, 28.571460000000002], [77.06558000000001, 28.56978], [77.06782000000001, 28.573760000000004], [77.06946, 28.574930000000002], [77.07507000000001, 28.573680000000003], [77.08114, 28.571180000000002], [77.09609, 28.58808], [77.09624000000001, 28.591430000000003], [77.09803000000001, 28.59119], [77.10021, 28.594920000000002], [77.10263, 28.596300000000003], [77.10324, 28.597420000000003], [77.09970000000001, 28.598760000000002], [77.10033, 28.599890000000002], [77.09883, 28.601020000000002], [77.10193000000001, 28.605020000000003], [77.10195, 28.606340000000003], [77.10277, 28.606260000000002], [77.10394000000001, 28.61276], [77.11531000000001, 28.618180000000002], [77.11805000000001, 28.627010000000002], [77.11942, 28.62805], [77.12196, 28.627710000000004], [77.12258, 28.62852], [77.12201, 28.63181], [77.12540000000001, 28.63895], [77.12956000000001, 28.63941], [77.13390000000001, 28.640970000000003], [77.14054, 28.639860000000002], [77.14562000000001, 28.6382]]]}}, {"id": "25", "type": "Feature", "properties": {"state_name": "Delhi", "district_name": "South", "block_name": "Hauz Khas", "block_lgd": 454, "district_lgd": 83}, "geometry": {"type": "MultiPolygon", "coordinates": [[[[77.22024, 28.563460000000003], [77.22290000000001, 28.561100000000003], [77.22299000000001, 28.558110000000003], [77.22422, 28.556150000000002], [77.22393000000001, 28.554900000000004], [77.23154000000001, 28.553240000000002], [77.2312, 28.549020000000002], [77.23406, 28.54726], [77.23508000000001, 28.53421], [77.24605000000001, 28.52764], [77.24385000000001, 28.520830000000004], [77.24499, 28.514310000000002], [77.24186, 28.50561], [77.24282000000001, 28.498810000000002], [77.24558, 28.495060000000002], [77.24763, 28.49368], [77.24923000000001, 28.490840000000002], [77.24967000000001, 28.4842], [77.24875, 28.48101], [77.24341000000001, 28.478880000000004], [77.2356, 28.47116], [77.22612000000001, 28.47765], [77.21594, 28.490810000000003], [77.21228, 28.494320000000002], [77.20976, 28.495530000000002], [77.21222, 28.502930000000003], [77.21244, 28.510230000000004], [77.20652000000001, 28.513710000000003], [77.20218000000001, 28.514210000000002], [77.19887, 28.512500000000003], [77.19372000000001, 28.51206], [77.19562, 28.516340000000003], [77.19467, 28.516340000000003], [77.20198, 28.52109], [77.20506, 28.528350000000003], [77.20516, 28.536450000000002], [77.20801, 28.545810000000003], [77.20782000000001, 28.554660000000002], [77.20912000000001, 28.559030000000003], [77.21196, 28.563520000000004], [77.21587000000001, 28.56621], [77.21870000000001, 28.562690000000003], [77.22024, 28.563460000000003]]], [[[77.24655000000001, 28.558940000000003], [77.24588, 28.556400000000004], [77.24675, 28.55365], [77.23292000000001, 28.555560000000003], [77.23089, 28.556420000000003], [77.23125, 28.559], [77.23714000000001, 28.55778], [77.24655000000001, 28.558940000000003]]]]}}, {"id": "26", "type": "Feature", "properties": {"state_name": "Delhi", "district_name": "South East", "block_name": "Defence Colony", "block_lgd": 455, "district_lgd": 670}, "geometry": {"type": "MultiPolygon", "coordinates": [[[[77.26513000000001, 28.59176], [77.26716, 28.59204], [77.26545, 28.595810000000004], [77.27392, 28.60197], [77.27926000000001, 28.598550000000003], [77.28039000000001, 28.595260000000003], [77.28081, 28.58978], [77.27837000000001, 28.588020000000004], [77.27819000000001, 28.585140000000003], [77.28487000000001, 28.58676], [77.28792, 28.585490000000004], [77.29185000000001, 28.580240000000003], [77.29218, 28.577430000000003], [77.2985, 28.571230000000003], [77.29709000000001, 28.566010000000002], [77.30123, 28.562730000000002], [77.30144, 28.560900000000004], [77.29996000000001, 28.559790000000003], [77.30303, 28.554170000000003], [77.29131000000001, 28.55262], [77.28555, 28.55487], [77.27824000000001, 28.554820000000003], [77.27784000000001, 28.555370000000003], [77.27579, 28.558580000000003], [77.27254, 28.56144], [77.26935, 28.564090000000004], [77.26541, 28.56585], [77.26153000000001, 28.562790000000003], [77.25429000000001, 28.558830000000004], [77.24978, 28.552570000000003], [77.24852000000001, 28.55187], [77.24675, 28.55365], [77.24588, 28.556400000000004], [77.24655000000001, 28.558940000000003], [77.23714000000001, 28.55778], [77.23125, 28.559], [77.22597, 28.560460000000003], [77.22422, 28.556150000000002], [77.22299000000001, 28.558110000000003], [77.22290000000001, 28.561100000000003], [77.22024, 28.563460000000003], [77.21870000000001, 28.562690000000003], [77.21587000000001, 28.56621], [77.21196, 28.563520000000004], [77.20912000000001, 28.559030000000003], [77.20588000000001, 28.56209], [77.20605, 28.565710000000003], [77.21017, 28.580170000000003], [77.21209, 28.589370000000002], [77.23551, 28.592100000000002], [77.23337000000001, 28.595160000000003], [77.23315000000001, 28.602500000000003], [77.24259, 28.60818], [77.24554, 28.605510000000002], [77.25039000000001, 28.607650000000003], [77.25598000000001, 28.608780000000003], [77.2574, 28.606370000000002], [77.26513000000001, 28.59176]]], [[[77.29122000000001, 28.536], [77.29379, 28.53262], [77.30092, 28.52867], [77.30170000000001, 28.527230000000003], [77.29955000000001, 28.523860000000003], [77.29436000000001, 28.51921], [77.29236, 28.522280000000002], [77.27953000000001, 28.52886], [77.2766, 28.532870000000003], [77.28047000000001, 28.533030000000004], [77.28465000000001, 28.53554], [77.28888, 28.53583], [77.29122000000001, 28.536]]]]}}, {"id": "27", "type": "Feature", "properties": {"state_name": "Delhi", "district_name": "South East", "block_name": "Kalkaji", "block_lgd": 456, "district_lgd": 670}, "geometry": {"type": "Polygon", "coordinates": [[[77.27824000000001, 28.554820000000003], [77.28555, 28.55487], [77.29131000000001, 28.55262], [77.30303, 28.554170000000003], [77.3044, 28.551930000000002], [77.31236000000001, 28.546570000000003], [77.31364, 28.54491], [77.32078000000001, 28.541010000000004], [77.32472, 28.534950000000002], [77.33016, 28.532320000000002], [77.33364, 28.52579], [77.33503, 28.524700000000003], [77.32538000000001, 28.52504], [77.31211, 28.527730000000002], [77.30170000000001, 28.527230000000003], [77.30092, 28.52867], [77.29379, 28.53262], [77.29122000000001, 28.536], [77.29272, 28.535940000000004], [77.29393, 28.53826], [77.29700000000001, 28.540830000000003], [77.29415, 28.541330000000002], [77.28302000000001, 28.540450000000003], [77.27012, 28.538200000000003], [77.27275, 28.535190000000004], [77.2766, 28.532870000000003], [77.27953000000001, 28.52886], [77.29236, 28.522280000000002], [77.29436000000001, 28.51921], [77.29828, 28.515390000000004], [77.30149, 28.509560000000004], [77.3057, 28.50587], [77.30655, 28.50317], [77.30673, 28.500760000000003], [77.30380000000001, 28.498130000000003], [77.30159, 28.497600000000002], [77.30024, 28.498250000000002], [77.30055, 28.494170000000004], [77.29838000000001, 28.494310000000002], [77.29490000000001, 28.496010000000002], [77.29026, 28.496570000000002], [77.28702000000001, 28.496050000000004], [77.27666, 28.493350000000003], [77.27207, 28.490820000000003], [77.26936, 28.48665], [77.24875, 28.48101], [77.24967000000001, 28.4842], [77.24923000000001, 28.490840000000002], [77.24763, 28.49368], [77.24558, 28.495060000000002], [77.24282000000001, 28.498810000000002], [77.24186, 28.50561], [77.24499, 28.514310000000002], [77.24385000000001, 28.520830000000004], [77.24605000000001, 28.52764], [77.23508000000001, 28.53421], [77.23406, 28.54726], [77.2312, 28.549020000000002], [77.23154000000001, 28.553240000000002], [77.22393000000001, 28.554900000000004], [77.22422, 28.556150000000002], [77.22597, 28.560460000000003], [77.23125, 28.559], [77.23089, 28.556420000000003], [77.23292000000001, 28.555560000000003], [77.24675, 28.55365], [77.24852000000001, 28.55187], [77.24978, 28.552570000000003], [77.25429000000001, 28.558830000000004], [77.26153000000001, 28.562790000000003], [77.26541, 28.56585], [77.26935, 28.564090000000004], [77.27254, 28.56144], [77.27579, 28.558580000000003], [77.27784000000001, 28.555370000000003], [77.27824000000001, 28.554820000000003]]]}}, {"id": "28", "type": "Feature", "properties": {"state_name": "Delhi", "district_name": "North", "block_name": "Alipur", "block_lgd": 6076, "district_lgd": 80}, "geometry": {"type": "Polygon", "coordinates": [[[77.11578, 28.84879], [77.11796000000001, 28.849370000000004], [77.12459000000001, 28.846690000000002], [77.12602000000001, 28.85244], [77.12488, 28.85771], [77.1256, 28.859970000000004], [77.13009000000001, 28.86147], [77.13228000000001, 28.863350000000004], [77.14037, 28.86201], [77.1409, 28.860210000000002], [77.14253000000001, 28.859640000000002], [77.14215, 28.855990000000002], [77.1453, 28.853550000000002], [77.14523000000001, 28.852310000000003], [77.14199, 28.84701], [77.14169000000001, 28.842660000000002], [77.14241000000001, 28.83894], [77.15708000000001, 28.836740000000002], [77.15789000000001, 28.83715], [77.15687000000001, 28.839080000000003], [77.15931, 28.84091], [77.16604000000001, 28.849180000000004], [77.16735000000001, 28.849110000000003], [77.16953000000001, 28.850440000000003], [77.17195000000001, 28.849990000000002], [77.17301, 28.857170000000004], [77.17519, 28.85828], [77.18141, 28.857550000000003], [77.19769000000001, 28.859270000000002], [77.20984, 28.857930000000003], [77.21359000000001, 28.855980000000002], [77.21731000000001, 28.851370000000003], [77.21664000000001, 28.84155], [77.22299000000001, 28.833420000000004], [77.22256, 28.83012], [77.22438000000001, 28.825360000000003], [77.22188000000001, 28.820500000000003], [77.22028, 28.81921], [77.21886, 28.808290000000003], [77.20559, 28.81125], [77.20129, 28.812980000000003], [77.20085, 28.812160000000002], [77.19922000000001, 28.797810000000002], [77.20402, 28.790860000000002], [77.20786000000001, 28.788240000000002], [77.19817, 28.78385], [77.19890000000001, 28.78169], [77.19528000000001, 28.77802], [77.18627000000001, 28.771200000000004], [77.17920000000001, 28.770310000000002], [77.17185, 28.77249], [77.17161, 28.767180000000003], [77.17437000000001, 28.765620000000002], [77.17517000000001, 28.7632], [77.17424000000001, 28.760450000000002], [77.1757, 28.758820000000004], [77.17169000000001, 28.75833], [77.17172000000001, 28.75578], [77.16436, 28.7557], [77.16026000000001, 28.75437], [77.16094000000001, 28.75148], [77.15931, 28.74893], [77.15898, 28.74536], [77.15984, 28.743460000000002], [77.15882, 28.74313], [77.16006, 28.742210000000004], [77.16034, 28.740630000000003], [77.15958, 28.737550000000002], [77.16004000000001, 28.732550000000003], [77.15881, 28.73102], [77.15163000000001, 28.72671], [77.14526000000001, 28.72914], [77.14009, 28.723750000000003], [77.13902, 28.719890000000003], [77.13765000000001, 28.71995], [77.13255000000001, 28.71581], [77.13049000000001, 28.712180000000004], [77.13180000000001, 28.71046], [77.13133, 28.709220000000002], [77.12528, 28.70606], [77.12127000000001, 28.707590000000003], [77.12155000000001, 28.712120000000002], [77.11957000000001, 28.713440000000002], [77.12035, 28.715030000000002], [77.11970000000001, 28.718030000000002], [77.10922000000001, 28.734410000000004], [77.10948, 28.73589], [77.10636000000001, 28.737320000000004], [77.10184000000001, 28.73722], [77.0959, 28.739290000000004], [77.09447, 28.73701], [77.08962000000001, 28.737630000000003], [77.087, 28.735310000000002], [77.08359, 28.739120000000003], [77.08537000000001, 28.742490000000004], [77.09200000000001, 28.74912], [77.09286, 28.754120000000004], [77.09478, 28.757870000000004], [77.09856, 28.760250000000003], [77.09970000000001, 28.758930000000003], [77.10028000000001, 28.75993], [77.10883000000001, 28.755560000000003], [77.1114, 28.751990000000003], [77.11717, 28.75024], [77.11767, 28.748620000000003], [77.11981, 28.74893], [77.11922000000001, 28.752160000000003], [77.12076, 28.753310000000003], [77.11903000000001, 28.753370000000004], [77.11575, 28.755810000000004], [77.10267, 28.767300000000002], [77.10808, 28.771050000000002], [77.11027, 28.77579], [77.1139, 28.780170000000002], [77.11871000000001, 28.781050000000004], [77.12144, 28.78262], [77.12152, 28.787200000000002], [77.12344, 28.789450000000002], [77.12109000000001, 28.790070000000004], [77.12109000000001, 28.791140000000002], [77.12009, 28.79164], [77.11795000000001, 28.79182], [77.11396, 28.793820000000004], [77.11456000000001, 28.795070000000003], [77.11955, 28.796740000000003], [77.12157, 28.79944], [77.12109000000001, 28.80111], [77.11955, 28.803710000000002], [77.11729000000001, 28.80309], [77.11634000000001, 28.80392], [77.11242, 28.814020000000003], [77.1199, 28.813810000000004], [77.12067, 28.815230000000003], [77.12086000000001, 28.819810000000004], [77.11772, 28.822060000000004], [77.11934000000001, 28.82514], [77.1259, 28.825640000000003], [77.13296000000001, 28.833280000000002], [77.12392000000001, 28.836620000000003], [77.12003, 28.840200000000003], [77.12031, 28.8412], [77.11521, 28.840210000000003], [77.11216, 28.841050000000003], [77.10969, 28.84005], [77.10712000000001, 28.84146], [77.09923, 28.84138], [77.09885000000001, 28.840300000000003], [77.09296, 28.84063], [77.09115000000001, 28.838630000000002], [77.08678, 28.838050000000003], [77.08169000000001, 28.83855], [77.07884, 28.83763], [77.07817, 28.83913], [77.08046, 28.842710000000004], [77.08112000000001, 28.846290000000003], [77.08255000000001, 28.847540000000002], [77.08293, 28.850870000000004], [77.08369, 28.863280000000003], [77.0835, 28.867110000000004], [77.08236000000001, 28.869110000000003], [77.07926, 28.87273], [77.07765, 28.87723], [77.08053000000001, 28.879900000000003], [77.08266, 28.883570000000002], [77.08681, 28.881020000000003], [77.08807, 28.877070000000003], [77.08754, 28.875470000000004], [77.09383000000001, 28.871660000000002], [77.09715000000001, 28.870900000000002], [77.09562000000001, 28.86586], [77.09562000000001, 28.854370000000003], [77.09695, 28.852790000000002], [77.11159, 28.85179], [77.11340000000001, 28.850040000000003], [77.11578, 28.84879]]]}}, {"id": "29", "type": "Feature", "properties": {"state_name": "Delhi", "district_name": "North West", "block_name": "Rohini", "block_lgd": 6077, "district_lgd": 82}, "geometry": {"type": "Polygon", "coordinates": [[[77.07537, 28.731510000000004], [77.08186, 28.728060000000003], [77.08525, 28.721850000000003], [77.08585000000001, 28.715030000000002], [77.08751000000001, 28.71075], [77.09161, 28.707680000000003], [77.08383, 28.699130000000004], [77.08407000000001, 28.697930000000003], [77.08834, 28.695380000000004], [77.0887, 28.69262], [77.08793, 28.68879], [77.08366000000001, 28.68842], [77.07881, 28.683760000000003], [77.07602, 28.683020000000003], [77.07341000000001, 28.686030000000002], [77.06452, 28.691990000000004], [77.0561, 28.686830000000004], [77.0541, 28.68342], [77.04886, 28.688240000000004], [77.04512000000001, 28.69497], [77.03876000000001, 28.698240000000002], [77.02315, 28.695490000000003], [77.01270000000001, 28.695310000000003], [77.00255, 28.704990000000002], [77.00169000000001, 28.706740000000003], [77.00233, 28.71224], [77.00675000000001, 28.711810000000003], [77.00927, 28.713240000000003], [77.01174, 28.720160000000003], [77.01744000000001, 28.722830000000002], [77.01992000000001, 28.725330000000003], [77.03033, 28.72078], [77.04037000000001, 28.719680000000004], [77.04376, 28.718590000000003], [77.04910000000001, 28.71516], [77.05367000000001, 28.7175], [77.05718, 28.722250000000003], [77.05985000000001, 28.732920000000004], [77.0627, 28.735090000000003], [77.06422, 28.737900000000003], [77.06601, 28.738070000000004], [77.07537, 28.731510000000004]]]}}, {"id": "30", "type": "Feature", "properties": {"state_name": "Delhi", "district_name": "North West", "block_name": "Kanjhawala", "block_lgd": 6078, "district_lgd": 82}, "geometry": {"type": "Polygon", "coordinates": [[[76.96182, 28.81492], [76.96585, 28.8135], [76.96591000000001, 28.81192], [76.96772, 28.811190000000003], [76.96677000000001, 28.809340000000002], [76.96913, 28.807170000000003], [76.96717000000001, 28.80384], [76.96657, 28.800880000000003], [76.96869000000001, 28.800330000000002], [76.96787, 28.79812], [76.96929, 28.79707], [76.97850000000001, 28.792440000000003], [76.98051000000001, 28.79341], [76.98254, 28.792900000000003], [76.99165, 28.785010000000003], [77.00066000000001, 28.783820000000002], [77.01344, 28.778760000000002], [77.01264, 28.77502], [77.01323000000001, 28.769890000000004], [77.01173, 28.763250000000003], [77.01439, 28.760120000000004], [77.01526000000001, 28.754980000000003], [77.01662, 28.75493], [77.02279, 28.75155], [77.03960000000001, 28.748110000000004], [77.05042, 28.743080000000003], [77.05782, 28.74238], [77.06422, 28.737900000000003], [77.0627, 28.735090000000003], [77.05985000000001, 28.732920000000004], [77.05718, 28.722250000000003], [77.05367000000001, 28.7175], [77.04910000000001, 28.71516], [77.04376, 28.718590000000003], [77.04037000000001, 28.719680000000004], [77.03033, 28.72078], [77.01992000000001, 28.725330000000003], [77.01744000000001, 28.722830000000002], [77.01174, 28.720160000000003], [77.00927, 28.713240000000003], [77.00675000000001, 28.711810000000003], [77.00233, 28.71224], [77.00169000000001, 28.706740000000003], [77.00255, 28.704990000000002], [77.01270000000001, 28.695310000000003], [77.00938000000001, 28.688260000000003], [77.00225, 28.679750000000002], [77.00024, 28.67921], [76.98345, 28.690050000000003], [76.97653000000001, 28.697400000000002], [76.97648000000001, 28.699700000000004], [76.97681, 28.700440000000004], [76.97432, 28.702040000000004], [76.97257, 28.701850000000004], [76.96907, 28.6993], [76.96786, 28.69949], [76.94824000000001, 28.71281], [76.95926, 28.728590000000004], [76.95996000000001, 28.73261], [76.95825, 28.735840000000003], [76.95596, 28.73814], [76.95861000000001, 28.742950000000004], [76.95017, 28.750580000000003], [76.94462, 28.7541], [76.94669, 28.758620000000004], [76.95086, 28.76348], [76.95580000000001, 28.767370000000003], [76.94979000000001, 28.777110000000004], [76.95004, 28.783320000000003], [76.95377, 28.79107], [76.94628, 28.797950000000004], [76.94211, 28.79849], [76.94626000000001, 28.806670000000004], [76.94566, 28.810280000000002], [76.95081, 28.818310000000004], [76.95968, 28.815310000000004], [76.96182, 28.81492]]]}}, {"id": "31", "type": "Feature", "properties": {"state_name": "Delhi", "district_name": "North East", "block_name": "Yamuna Vihar", "block_lgd": 6082, "district_lgd": 81}, "geometry": {"type": "Polygon", "coordinates": [[[77.28741000000001, 28.711550000000003], [77.28736, 28.710300000000004], [77.28944000000001, 28.707620000000002], [77.29151, 28.706190000000003], [77.29678000000001, 28.704520000000002], [77.29827, 28.696530000000003], [77.29697, 28.69235], [77.29064000000001, 28.69347], [77.28662000000001, 28.695790000000002], [77.28454, 28.693440000000002], [77.28193, 28.696130000000004], [77.27956, 28.696880000000004], [77.27965, 28.697950000000002], [77.27513, 28.696800000000003], [77.27208, 28.69695], [77.27078, 28.69827], [77.27159, 28.700940000000003], [77.2656, 28.702730000000003], [77.26868, 28.705740000000002], [77.26614000000001, 28.707390000000004], [77.26471000000001, 28.710800000000003], [77.26219, 28.71169], [77.26349, 28.713990000000003], [77.26563, 28.71946], [77.27223000000001, 28.716590000000004], [77.27746, 28.715390000000003], [77.27793000000001, 28.712940000000003], [77.28008000000001, 28.7115], [77.28741000000001, 28.711550000000003]]]}}, {"id": "32", "type": "Feature", "properties": {"state_name": "Delhi", "district_name": "South", "block_name": "Saket", "block_lgd": 6079, "district_lgd": 83}, "geometry": {"type": "Polygon", "coordinates": [[[77.20652000000001, 28.513710000000003], [77.21244, 28.510230000000004], [77.21222, 28.502930000000003], [77.20976, 28.495530000000002], [77.21228, 28.494320000000002], [77.21594, 28.490810000000003], [77.22612000000001, 28.47765], [77.2356, 28.47116], [77.23292000000001, 28.458060000000003], [77.23442, 28.45474], [77.24251000000001, 28.456180000000003], [77.2462, 28.453480000000003], [77.24921, 28.445210000000003], [77.24986000000001, 28.43784], [77.24896000000001, 28.43295], [77.25259000000001, 28.432810000000003], [77.25017000000001, 28.42612], [77.24925, 28.42415], [77.23862000000001, 28.420920000000002], [77.22852, 28.413940000000004], [77.22196000000001, 28.412480000000002], [77.21672000000001, 28.409830000000003], [77.21589, 28.411440000000002], [77.21309000000001, 28.41054], [77.21300000000001, 28.413300000000003], [77.20102, 28.41485], [77.19741, 28.41627], [77.19118, 28.420740000000002], [77.18786, 28.424500000000002], [77.18883000000001, 28.429190000000002], [77.19008000000001, 28.43051], [77.18958, 28.433100000000003], [77.19015, 28.436280000000004], [77.18730000000001, 28.438720000000004], [77.18428, 28.43973], [77.18423, 28.441290000000002], [77.18321, 28.441000000000003], [77.18296000000001, 28.442370000000004], [77.18197, 28.441540000000003], [77.18062, 28.441920000000003], [77.17934000000001, 28.44403], [77.17979000000001, 28.448900000000002], [77.18278000000001, 28.455130000000004], [77.17943000000001, 28.457050000000002], [77.17960000000001, 28.458430000000003], [77.18347, 28.464760000000002], [77.18531, 28.464630000000003], [77.18649, 28.46862], [77.18639, 28.47246], [77.17783, 28.473530000000004], [77.17597, 28.47032], [77.17172000000001, 28.467530000000004], [77.16648, 28.47051], [77.16718, 28.475700000000003], [77.16205000000001, 28.476830000000003], [77.16543, 28.481880000000004], [77.16039, 28.484730000000003], [77.16621, 28.496910000000003], [77.16882000000001, 28.49895], [77.17167, 28.50297], [77.17589000000001, 28.503020000000003], [77.17607000000001, 28.504530000000003], [77.17429000000001, 28.506050000000002], [77.17845000000001, 28.50918], [77.19330000000001, 28.506410000000002], [77.19229, 28.509860000000003], [77.19372000000001, 28.51206], [77.19887, 28.512500000000003], [77.20218000000001, 28.514210000000002], [77.20652000000001, 28.513710000000003]]]}}, {"id": "33", "type": "Feature", "properties": {"state_name": "Delhi", "district_name": "South", "block_name": "Mehrauli", "block_lgd": 6080, "district_lgd": 83}, "geometry": {"type": "Polygon", "coordinates": [[[77.20801, 28.545810000000003], [77.20516, 28.536450000000002], [77.20506, 28.528350000000003], [77.20198, 28.52109], [77.19467, 28.516340000000003], [77.19562, 28.516340000000003], [77.19372000000001, 28.51206], [77.19229, 28.509860000000003], [77.19330000000001, 28.506410000000002], [77.17845000000001, 28.50918], [77.17429000000001, 28.506050000000002], [77.17607000000001, 28.504530000000003], [77.17589000000001, 28.503020000000003], [77.17167, 28.50297], [77.16882000000001, 28.49895], [77.16621, 28.496910000000003], [77.16039, 28.484730000000003], [77.16543, 28.481880000000004], [77.16205000000001, 28.476830000000003], [77.16718, 28.475700000000003], [77.16648, 28.47051], [77.17172000000001, 28.467530000000004], [77.17597, 28.47032], [77.17783, 28.473530000000004], [77.18639, 28.47246], [77.18649, 28.46862], [77.18531, 28.464630000000003], [77.18347, 28.464760000000002], [77.17960000000001, 28.458430000000003], [77.17943000000001, 28.457050000000002], [77.18278000000001, 28.455130000000004], [77.17979000000001, 28.448900000000002], [77.17934000000001, 28.44403], [77.18062, 28.441920000000003], [77.18197, 28.441540000000003], [77.18296000000001, 28.442370000000004], [77.18321, 28.441000000000003], [77.18423, 28.441290000000002], [77.18428, 28.43973], [77.18730000000001, 28.438720000000004], [77.19015, 28.436280000000004], [77.18958, 28.433100000000003], [77.19008000000001, 28.43051], [77.18883000000001, 28.429190000000002], [77.18786, 28.424500000000002], [77.19118, 28.420740000000002], [77.19741, 28.41627], [77.20102, 28.41485], [77.21300000000001, 28.413300000000003], [77.21309000000001, 28.41054], [77.20001, 28.408260000000002], [77.1924, 28.408220000000004], [77.19052, 28.40724], [77.18438, 28.410460000000004], [77.17795000000001, 28.407700000000002], [77.17450000000001, 28.40463], [77.17143, 28.40631], [77.17101000000001, 28.409290000000002], [77.16847, 28.41231], [77.16512, 28.414440000000003], [77.16589, 28.425600000000003], [77.16226, 28.428970000000003], [77.15462000000001, 28.432380000000002], [77.14844000000001, 28.43727], [77.14247, 28.43738], [77.14104, 28.436740000000004], [77.13229000000001, 28.43916], [77.13136, 28.44066], [77.1285, 28.440960000000004], [77.12382000000001, 28.445420000000002], [77.12185000000001, 28.458530000000003], [77.11686, 28.4629], [77.11093000000001, 28.47124], [77.11301, 28.471330000000002], [77.11486000000001, 28.481510000000004], [77.11861, 28.488020000000002], [77.12693, 28.486970000000003], [77.13236, 28.487640000000003], [77.13708000000001, 28.486760000000004], [77.1444, 28.48393], [77.1453, 28.48862], [77.1478, 28.492410000000003], [77.15001000000001, 28.4994], [77.14779, 28.49979], [77.14330000000001, 28.497580000000003], [77.13671000000001, 28.504340000000003], [77.12937000000001, 28.50682], [77.13118, 28.517850000000003], [77.13355, 28.521130000000003], [77.13419, 28.524040000000003], [77.14712, 28.523490000000002], [77.15614000000001, 28.521310000000003], [77.15959000000001, 28.525800000000004], [77.16403000000001, 28.526390000000003], [77.16961, 28.53347], [77.1748, 28.536030000000004], [77.17041, 28.54024], [77.16055, 28.545440000000003], [77.165, 28.54567], [77.16949000000001, 28.54792], [77.18114000000001, 28.54877], [77.18293000000001, 28.551650000000002], [77.18371, 28.554980000000004], [77.18168, 28.555190000000003], [77.18402, 28.557650000000002], [77.18139000000001, 28.558780000000002], [77.18316, 28.56088], [77.18762000000001, 28.56285], [77.18957, 28.565450000000002], [77.19004000000001, 28.579900000000002], [77.19159, 28.58235], [77.21017, 28.580170000000003], [77.20605, 28.565710000000003], [77.20588000000001, 28.56209], [77.20912000000001, 28.559030000000003], [77.20782000000001, 28.554660000000002], [77.20801, 28.545810000000003]]]}}, {"id": "34", "type": "Feature", "properties": {"state_name": "Delhi", "district_name": "North East", "block_name": "Karawal Nagar", "block_lgd": 6083, "district_lgd": 81}, "geometry": {"type": "Polygon", "coordinates": [[[77.22853, 28.78657], [77.23414000000001, 28.78376], [77.22186, 28.777430000000003], [77.22535, 28.77691], [77.23144, 28.77445], [77.23215, 28.77287], [77.23178, 28.770830000000004], [77.23587, 28.770770000000002], [77.23614, 28.763620000000003], [77.23454000000001, 28.760880000000004], [77.24882000000001, 28.75532], [77.25635000000001, 28.756120000000003], [77.25614, 28.754400000000004], [77.25883, 28.752740000000003], [77.25917000000001, 28.750040000000002], [77.25619, 28.743920000000003], [77.25455000000001, 28.7436], [77.25519000000001, 28.739780000000003], [77.26081, 28.7342], [77.27192000000001, 28.735500000000002], [77.2729, 28.736310000000003], [77.27643, 28.735490000000002], [77.28572000000001, 28.726250000000004], [77.28630000000001, 28.724600000000002], [77.29076, 28.722420000000003], [77.28882, 28.719610000000003], [77.28908000000001, 28.716860000000004], [77.28623, 28.714570000000002], [77.28741000000001, 28.711550000000003], [77.28008000000001, 28.7115], [77.27793000000001, 28.712940000000003], [77.27746, 28.715390000000003], [77.27223000000001, 28.716590000000004], [77.26563, 28.71946], [77.26349, 28.713990000000003], [77.26133, 28.71384], [77.25999, 28.71253], [77.25369, 28.71403], [77.25114, 28.712010000000003], [77.25094, 28.71317], [77.24203, 28.714160000000003], [77.23759000000001, 28.71271], [77.23700000000001, 28.71723], [77.23557000000001, 28.716150000000003], [77.23714000000001, 28.725], [77.23907000000001, 28.730400000000003], [77.23946000000001, 28.73355], [77.23878, 28.73675], [77.23998, 28.738500000000002], [77.24074, 28.74433], [77.22864000000001, 28.748680000000004], [77.22795, 28.74556], [77.22677, 28.745020000000004], [77.22338, 28.74659], [77.22263000000001, 28.7451], [77.22171, 28.744950000000003], [77.22298, 28.75061], [77.22129000000001, 28.750870000000003], [77.22201000000001, 28.751430000000003], [77.22201000000001, 28.75871], [77.21894, 28.76376], [77.21791, 28.76696], [77.22003000000001, 28.770280000000003], [77.22124000000001, 28.770360000000004], [77.22054, 28.771480000000004], [77.21765, 28.775330000000004], [77.21781, 28.77793], [77.21401, 28.779310000000002], [77.21051, 28.782120000000003], [77.20987000000001, 28.783690000000004], [77.21111, 28.786630000000002], [77.21429, 28.785280000000004], [77.22853, 28.78657]]]}}, {"id": "35", "type": "Feature", "properties": {"state_name": "Delhi", "district_name": "South West", "block_name": "Dwarka", "block_lgd": 6086, "district_lgd": 84}, "geometry": {"type": "Polygon", "coordinates": [[[76.98678000000001, 28.61754], [76.99058000000001, 28.62113], [76.99123, 28.620700000000003], [76.99718, 28.62665], [77.00068, 28.628210000000003], [77.00294000000001, 28.625400000000003], [77.00461, 28.625220000000002], [77.0078, 28.62411], [77.00947000000001, 28.625130000000002], [77.01419, 28.625410000000002], [77.01593000000001, 28.627170000000003], [77.02205000000001, 28.626450000000002], [77.02286000000001, 28.62348], [77.02251000000001, 28.620970000000003], [77.03049, 28.619030000000002], [77.03401000000001, 28.616600000000002], [77.03282, 28.615420000000004], [77.03263000000001, 28.61388], [77.03632, 28.604000000000003], [77.04481000000001, 28.60113], [77.0518, 28.597230000000003], [77.0554, 28.596220000000002], [77.05846000000001, 28.598250000000004], [77.05864000000001, 28.599410000000002], [77.05981000000001, 28.59842], [77.06194, 28.59963], [77.05233000000001, 28.607450000000004], [77.05489, 28.611680000000003], [77.05183000000001, 28.616300000000003], [77.05312, 28.61831], [77.06119000000001, 28.617760000000004], [77.06409000000001, 28.62123], [77.07956, 28.61201], [77.0805, 28.613780000000002], [77.08638, 28.615450000000003], [77.0874, 28.616970000000002], [77.08954, 28.618070000000003], [77.09559, 28.616500000000002], [77.10394000000001, 28.61276], [77.10277, 28.606260000000002], [77.10195, 28.606340000000003], [77.10193000000001, 28.605020000000003], [77.09883, 28.601020000000002], [77.10033, 28.599890000000002], [77.09970000000001, 28.598760000000002], [77.10324, 28.597420000000003], [77.10263, 28.596300000000003], [77.10021, 28.594920000000002], [77.09803000000001, 28.59119], [77.09624000000001, 28.591430000000003], [77.09609, 28.58808], [77.08114, 28.571180000000002], [77.07507000000001, 28.573680000000003], [77.06946, 28.574930000000002], [77.06782000000001, 28.573760000000004], [77.06558000000001, 28.56978], [77.05877000000001, 28.571460000000002], [77.05885, 28.573800000000002], [77.05657000000001, 28.576380000000004], [77.05657000000001, 28.58022], [77.04973000000001, 28.58573], [77.04459, 28.58724], [77.03737000000001, 28.582810000000002], [77.0368, 28.580810000000003], [77.03233, 28.580470000000002], [77.03214000000001, 28.57897], [77.02948, 28.57897], [77.01750000000001, 28.583060000000003], [77.01655000000001, 28.586230000000004], [77.01769, 28.590740000000004], [77.01683000000001, 28.591490000000004], [77.01265000000001, 28.58949], [77.01008, 28.59016], [77.01094, 28.594420000000003], [77.01388, 28.595750000000002], [77.01493, 28.59634], [77.0155, 28.598010000000002], [77.01531, 28.599590000000003], [77.01331, 28.601840000000003], [77.00970000000001, 28.600340000000003], [77.00371000000001, 28.600260000000002], [76.99763, 28.603260000000002], [76.99525000000001, 28.603260000000002], [76.99211000000001, 28.6046], [76.98641, 28.60836], [76.98222000000001, 28.604270000000003], [76.98032, 28.603600000000004], [76.97405, 28.60827], [76.97662000000001, 28.613200000000003], [76.97662000000001, 28.614610000000003], [76.97566, 28.614610000000003], [76.97405, 28.61053], [76.97053000000001, 28.61119], [76.96749000000001, 28.612190000000002], [76.96045000000001, 28.617620000000002], [76.95512000000001, 28.619880000000002], [76.95208000000001, 28.622300000000003], [76.95185000000001, 28.6306], [76.9586, 28.633860000000002], [76.95917, 28.634860000000003], [76.96311, 28.630560000000003], [76.98203000000001, 28.618630000000003], [76.98678000000001, 28.61754]]]}}]}