{"type": "FeatureCollection", "metadata": {"source": "Survey of India (per src_agency attribute in the source data)", "hosted_via": "National Water Data Portal (NWDP), NWIC, Ministry of Jal Shakti -- https://nwdp.nwic.gov.in/", "access": "public, no login required", "crs_original": "EPSG:7755 (WGS 84 / India NSF LCC)", "fetch_date": "2026-08-02", "quality": "verified-official -- Survey of India source", "state": "Goa", "processing": "reprojected to EPSG:4326, topology-preserving simplify (shared-arc, tolerance 0.0005 deg) so adjacent polygons never overlap/gap at shared borders, coords rounded 5dp, 0 feature(s) needed the per-feature fallback", "feature_count": 12, "level_note": "SoI sub-district (sdcode) -- the closest available Survey of India product to Block/Tehsil; SoI's own block/bkcode grouping has no separate boundary product."}, "features": [{"id": "0", "type": "Feature", "properties": {"state_name": "Goa", "district_name": "North Goa", "block_name": "Satari", "block_lgd": 5613, "district_lgd": 551}, "geometry": {"type": "Polygon", "coordinates": [[[74.19025, 15.680390000000001], [74.19083, 15.679020000000001], [74.1909, 15.676470000000002], [74.18609000000001, 15.674570000000001], [74.18687, 15.667510000000002], [74.20258000000001, 15.663210000000001], [74.20399, 15.663590000000001], [74.20174, 15.656410000000001], [74.20511, 15.651100000000001], [74.21585, 15.653110000000002], [74.21744000000001, 15.65281], [74.22207, 15.655690000000002], [74.2222, 15.656920000000001], [74.21782, 15.658380000000001], [74.21513, 15.66294], [74.21756, 15.66238], [74.21798000000001, 15.664280000000002], [74.22376000000001, 15.669050000000002], [74.22456000000001, 15.668260000000002], [74.22462, 15.66632], [74.22655, 15.665970000000002], [74.22840000000001, 15.664520000000001], [74.22977, 15.666450000000001], [74.23148, 15.666260000000001], [74.23333000000001, 15.668040000000001], [74.23635, 15.66862], [74.23708, 15.666350000000001], [74.23939, 15.66468], [74.2382, 15.663670000000002], [74.24297, 15.662500000000001], [74.24487, 15.658260000000002], [74.25032, 15.657330000000002], [74.25034000000001, 15.655930000000001], [74.25196000000001, 15.654380000000002], [74.24414, 15.626170000000002], [74.24824000000001, 15.62297], [74.25369, 15.626790000000002], [74.25839, 15.623520000000001], [74.25859000000001, 15.620930000000001], [74.26119, 15.619370000000002], [74.26427000000001, 15.615530000000001], [74.26201, 15.608740000000001], [74.25999, 15.606720000000001], [74.26078000000001, 15.60073], [74.25958, 15.596390000000001], [74.26023, 15.5927], [74.24875, 15.58041], [74.25052000000001, 15.577430000000001], [74.24528000000001, 15.566680000000002], [74.24919000000001, 15.567900000000002], [74.25518000000001, 15.563290000000002], [74.25844000000001, 15.561750000000002], [74.25947000000001, 15.562000000000001], [74.26127000000001, 15.56488], [74.26319000000001, 15.563920000000001], [74.26523, 15.558510000000002], [74.2779, 15.546170000000002], [74.28263000000001, 15.531480000000002], [74.28168000000001, 15.526200000000001], [74.27846000000001, 15.523650000000002], [74.27845, 15.517540000000002], [74.27645000000001, 15.514960000000002], [74.27146, 15.51092], [74.26028000000001, 15.506530000000001], [74.25515, 15.503140000000002], [74.25226, 15.499340000000002], [74.25106000000001, 15.491430000000001], [74.24822, 15.491220000000002], [74.24668000000001, 15.490760000000002], [74.24542000000001, 15.4884], [74.24181, 15.488270000000002], [74.23121, 15.483970000000001], [74.23010000000001, 15.482770000000002], [74.23027, 15.481040000000002], [74.22904000000001, 15.482080000000002], [74.22736, 15.48126], [74.22169000000001, 15.475360000000002], [74.2145, 15.473110000000002], [74.2116, 15.47113], [74.20547, 15.46986], [74.19943, 15.466510000000001], [74.19785, 15.46423], [74.19513, 15.462560000000002], [74.19315, 15.458940000000002], [74.18939, 15.45541], [74.1889, 15.446990000000001], [74.18728, 15.44438], [74.18233000000001, 15.442060000000001], [74.17868, 15.437230000000001], [74.17037, 15.439530000000001], [74.16810000000001, 15.44316], [74.16318000000001, 15.441250000000002], [74.16023000000001, 15.442090000000002], [74.15545, 15.43969], [74.15334, 15.440850000000001], [74.15286, 15.441970000000001], [74.15153000000001, 15.4418], [74.15097, 15.439560000000002], [74.14797, 15.438480000000002], [74.13823000000001, 15.438860000000002], [74.13690000000001, 15.43636], [74.13288, 15.434650000000001], [74.12414000000001, 15.437800000000001], [74.11944000000001, 15.43284], [74.11110000000001, 15.436040000000002], [74.10387, 15.440830000000002], [74.10026, 15.446060000000001], [74.09755000000001, 15.45752], [74.09308, 15.468630000000001], [74.09471, 15.46906], [74.09063, 15.476320000000001], [74.08537000000001, 15.47779], [74.08375000000001, 15.478830000000002], [74.08246000000001, 15.481150000000001], [74.08038, 15.481230000000002], [74.07272, 15.485930000000002], [74.06915000000001, 15.49261], [74.07037000000001, 15.49909], [74.06776, 15.5027], [74.06657000000001, 15.50261], [74.06171, 15.507460000000002], [74.05126, 15.511920000000002], [74.04651000000001, 15.51715], [74.04291, 15.524450000000002], [74.03906, 15.527610000000001], [74.0369, 15.530870000000002], [74.03874, 15.536240000000001], [74.03806, 15.53836], [74.04009, 15.539330000000001], [74.03880000000001, 15.539850000000001], [74.04025, 15.54034], [74.03916000000001, 15.542930000000002], [74.04260000000001, 15.54798], [74.04274000000001, 15.550530000000002], [74.05366000000001, 15.562140000000001], [74.05505000000001, 15.566920000000001], [74.05083, 15.571390000000001], [74.04262, 15.572280000000001], [74.03627, 15.56896], [74.03249000000001, 15.566020000000002], [74.02850000000001, 15.566230000000001], [74.02576, 15.567570000000002], [74.02295000000001, 15.565100000000001], [74.01902000000001, 15.564540000000001], [74.01625, 15.566840000000001], [74.01359000000001, 15.566390000000002], [74.01075, 15.56778], [74.00758, 15.567330000000002], [74.00512, 15.56854], [74.00282, 15.568220000000002], [73.99753000000001, 15.573160000000001], [73.99647, 15.57867], [73.99765000000001, 15.584030000000002], [74.00397000000001, 15.59017], [74.00865, 15.592160000000002], [74.01385, 15.59124], [74.01557000000001, 15.591990000000001], [74.01755, 15.59754], [74.01975, 15.600500000000002], [74.02119, 15.606230000000002], [74.02436, 15.609480000000001], [74.02640000000001, 15.609890000000002], [74.02762000000001, 15.616500000000002], [74.03084000000001, 15.62264], [74.0377, 15.623750000000001], [74.04901000000001, 15.62418], [74.05909000000001, 15.62662], [74.06107, 15.62798], [74.06382, 15.62803], [74.06704, 15.62949], [74.06956000000001, 15.62944], [74.07002, 15.628350000000001], [74.0772, 15.631390000000001], [74.07868, 15.630980000000001], [74.08372, 15.634170000000001], [74.08374, 15.635530000000001], [74.08592, 15.637020000000001], [74.09469, 15.641720000000001], [74.0982, 15.64042], [74.10210000000001, 15.64286], [74.10393, 15.645030000000002], [74.10998000000001, 15.647010000000002], [74.11305, 15.646180000000001], [74.11388000000001, 15.64849], [74.11577000000001, 15.649080000000001], [74.119, 15.65243], [74.12308, 15.65196], [74.12387000000001, 15.65103], [74.12728000000001, 15.651190000000001], [74.13553, 15.64844], [74.14110000000001, 15.65117], [74.14908000000001, 15.652040000000001], [74.15107, 15.651930000000002], [74.15428, 15.650030000000001], [74.15745000000001, 15.654750000000002], [74.1644, 15.653570000000002], [74.16557, 15.654440000000001], [74.165, 15.657980000000002], [74.16566, 15.66496], [74.1674, 15.672070000000001], [74.17160000000001, 15.673890000000002], [74.17443, 15.677120000000002], [74.17502, 15.678920000000002], [74.17839000000001, 15.681180000000001], [74.18191, 15.68228], [74.18578000000001, 15.681090000000001], [74.19025, 15.680390000000001]]]}}, {"id": "1", "type": "Feature", "properties": {"state_name": "Goa", "district_name": "North Goa", "block_name": "Ponda", "block_lgd": 5614, "district_lgd": 551}, "geometry": {"type": "Polygon", "coordinates": [[[73.97370000000001, 15.52386], [73.98708, 15.51936], [73.99512, 15.514090000000001], [73.99757000000001, 15.509730000000001], [73.99906, 15.50266], [74.00165000000001, 15.500240000000002], [74.00533, 15.499], [74.01572, 15.497470000000002], [74.01954, 15.494280000000002], [74.02159, 15.490490000000001], [74.02215000000001, 15.482450000000002], [74.02299000000001, 15.4806], [74.03087000000001, 15.47877], [74.03008000000001, 15.476280000000001], [74.02560000000001, 15.473780000000001], [74.02798, 15.47052], [74.03438000000001, 15.466700000000001], [74.03423000000001, 15.458870000000001], [74.03633, 15.456240000000001], [74.03876000000001, 15.455110000000001], [74.04176000000001, 15.450230000000001], [74.04703, 15.445540000000001], [74.05204, 15.443670000000001], [74.05325, 15.444160000000002], [74.05284, 15.451160000000002], [74.05011, 15.456880000000002], [74.05202000000001, 15.45911], [74.05907, 15.460780000000002], [74.06131, 15.460830000000001], [74.06473000000001, 15.458870000000001], [74.06686, 15.460080000000001], [74.06766, 15.463110000000002], [74.06559, 15.468210000000001], [74.06670000000001, 15.470550000000001], [74.06923, 15.46995], [74.07761, 15.461490000000001], [74.0824, 15.466270000000002], [74.09308, 15.468630000000001], [74.09755000000001, 15.45752], [74.10026, 15.446060000000001], [74.10387, 15.440830000000002], [74.11110000000001, 15.436040000000002], [74.11944000000001, 15.43284], [74.11828000000001, 15.431590000000002], [74.11362000000001, 15.430230000000002], [74.11068, 15.427830000000002], [74.10982, 15.418940000000001], [74.10350000000001, 15.427270000000002], [74.09114000000001, 15.42186], [74.08464000000001, 15.420270000000002], [74.08252, 15.41768], [74.07138, 15.412500000000001], [74.07438, 15.409390000000002], [74.07165, 15.404580000000001], [74.07392, 15.40107], [74.07635, 15.40055], [74.07708000000001, 15.399420000000001], [74.075, 15.396090000000001], [74.07607, 15.3916], [74.0768, 15.391190000000002], [74.07831, 15.392090000000001], [74.08032, 15.395480000000001], [74.08084000000001, 15.393620000000002], [74.08406000000001, 15.389780000000002], [74.08787000000001, 15.3914], [74.09056000000001, 15.38174], [74.09138, 15.382080000000002], [74.09158000000001, 15.383540000000002], [74.09413, 15.383300000000002], [74.09608, 15.382430000000001], [74.09848000000001, 15.37864], [74.09835000000001, 15.377790000000001], [74.09701000000001, 15.377580000000002], [74.09467000000001, 15.379570000000001], [74.09319, 15.375800000000002], [74.09333000000001, 15.374270000000001], [74.09569, 15.375860000000001], [74.09713, 15.375430000000001], [74.09796, 15.374], [74.10057, 15.373610000000001], [74.10075, 15.370930000000001], [74.10201, 15.369140000000002], [74.10131000000001, 15.365990000000002], [74.10426000000001, 15.364980000000001], [74.10428, 15.36273], [74.10221, 15.361910000000002], [74.10089, 15.358850000000002], [74.10395000000001, 15.354940000000001], [74.10270000000001, 15.353970000000002], [74.10147, 15.35513], [74.10004, 15.355100000000002], [74.09845, 15.351230000000001], [74.09934000000001, 15.34998], [74.10296000000001, 15.349430000000002], [74.10484000000001, 15.34669], [74.10343, 15.34589], [74.10165, 15.346760000000002], [74.09779, 15.346330000000002], [74.09578, 15.344890000000001], [74.09666, 15.343510000000002], [74.09450000000001, 15.338700000000001], [74.09508000000001, 15.33763], [74.0939, 15.33707], [74.09295, 15.334150000000001], [74.09067, 15.331660000000001], [74.08909000000001, 15.33153], [74.08358000000001, 15.327430000000001], [74.08257, 15.323100000000002], [74.08476, 15.318290000000001], [74.08765000000001, 15.317100000000002], [74.08637, 15.314940000000002], [74.08707000000001, 15.312120000000002], [74.08653000000001, 15.31098], [74.09048, 15.304290000000002], [74.08838, 15.302510000000002], [74.08799, 15.299760000000001], [74.09098, 15.298710000000002], [74.09117, 15.296700000000001], [74.09267000000001, 15.29573], [74.09521000000001, 15.295740000000002], [74.10181, 15.290120000000002], [74.10513, 15.287170000000001], [74.10447, 15.285050000000002], [74.10581, 15.28269], [74.10183, 15.275500000000001], [74.10147, 15.27222], [74.09912, 15.270700000000001], [74.09942000000001, 15.26941], [74.0913, 15.268270000000001], [74.08811, 15.272750000000002], [74.08303000000001, 15.277600000000001], [74.08065, 15.277050000000001], [74.07584, 15.274250000000002], [74.07362, 15.275660000000002], [74.07266, 15.278670000000002], [74.06876000000001, 15.28508], [74.07045000000001, 15.292080000000002], [74.06529, 15.296660000000001], [74.05532000000001, 15.299660000000001], [74.04431000000001, 15.29953], [74.04223, 15.301000000000002], [74.03883, 15.30709], [74.02882000000001, 15.302550000000002], [74.02534, 15.301860000000001], [74.01606000000001, 15.302370000000002], [74.0124, 15.304330000000002], [74.01140000000001, 15.305980000000002], [74.0117, 15.309600000000001], [74.00946, 15.314430000000002], [74.00458, 15.335680000000002], [74.00442000000001, 15.337880000000002], [74.00604000000001, 15.34411], [74.00487000000001, 15.34772], [74.00138000000001, 15.349660000000002], [73.99893, 15.352190000000002], [73.98855, 15.3557], [73.97703, 15.367550000000001], [73.97231000000001, 15.368810000000002], [73.96638, 15.368380000000002], [73.96263, 15.36926], [73.95843, 15.37212], [73.95678000000001, 15.37503], [73.95432000000001, 15.389750000000001], [73.94888, 15.40196], [73.94413, 15.40407], [73.92759000000001, 15.40618], [73.91731, 15.40929], [73.92079000000001, 15.416330000000002], [73.92661000000001, 15.42355], [73.92646, 15.429110000000001], [73.92862000000001, 15.432470000000002], [73.93301000000001, 15.435260000000001], [73.94019, 15.43655], [73.94585000000001, 15.439180000000002], [73.94634, 15.442480000000002], [73.94455, 15.448520000000002], [73.94591000000001, 15.45578], [73.94869, 15.46019], [73.95421, 15.461120000000001], [73.95716, 15.463550000000001], [73.95748, 15.46573], [73.9565, 15.469520000000001], [73.95182000000001, 15.473860000000002], [73.95047000000001, 15.477400000000001], [73.95132000000001, 15.481420000000002], [73.95488, 15.48535], [73.9552, 15.48722], [73.95516, 15.491030000000002], [73.95348, 15.49877], [73.95901, 15.501980000000001], [73.96153000000001, 15.502010000000002], [73.96175000000001, 15.503020000000001], [73.95762, 15.509670000000002], [73.95377, 15.510460000000002], [73.94918000000001, 15.5143], [73.94900000000001, 15.518040000000001], [73.94425000000001, 15.523270000000002], [73.94409, 15.52433], [73.94773, 15.524500000000002], [73.95338000000001, 15.527350000000002], [73.95494000000001, 15.531450000000001], [73.95738, 15.534820000000002], [73.95746000000001, 15.537020000000002], [73.96154, 15.539810000000001], [73.96452000000001, 15.537640000000001], [73.96649000000001, 15.534640000000001], [73.97015, 15.52584], [73.97370000000001, 15.52386]]]}}, {"id": "2", "type": "Feature", "properties": {"state_name": "Goa", "district_name": "North Goa", "block_name": "Pernem", "block_lgd": 5609, "district_lgd": 551}, "geometry": {"type": "MultiPolygon", "coordinates": [[[[73.87336, 15.777130000000001], [73.87581, 15.775190000000002], [73.87951000000001, 15.774080000000001], [73.87717, 15.768320000000001], [73.87469, 15.767500000000002], [73.87621, 15.764550000000002], [73.87199000000001, 15.758730000000002], [73.87216000000001, 15.755740000000001], [73.87368000000001, 15.752310000000001], [73.87631, 15.750050000000002], [73.8794, 15.749020000000002], [73.88600000000001, 15.749820000000001], [73.89269, 15.7483], [73.89410000000001, 15.747020000000001], [73.89652000000001, 15.74684], [73.89902000000001, 15.744900000000001], [73.90059000000001, 15.74586], [73.90593000000001, 15.746240000000002], [73.90685, 15.748240000000001], [73.90761, 15.748280000000001], [73.91469000000001, 15.7444], [73.91722, 15.74492], [73.92332, 15.744090000000002], [73.93214, 15.744290000000001], [73.93861000000001, 15.74271], [73.93896000000001, 15.740380000000002], [73.94053000000001, 15.737650000000002], [73.94144, 15.728470000000002], [73.94294000000001, 15.725430000000001], [73.94399, 15.724920000000001], [73.94576, 15.720260000000001], [73.94986, 15.717540000000001], [73.9501, 15.716520000000001], [73.95165, 15.71639], [73.95171, 15.71352], [73.94924, 15.710090000000001], [73.94718, 15.709290000000001], [73.94833000000001, 15.707920000000001], [73.94986, 15.708210000000001], [73.94851000000001, 15.702020000000001], [73.94594000000001, 15.699460000000002], [73.94361, 15.698500000000001], [73.93857000000001, 15.701110000000002], [73.93363000000001, 15.701360000000001], [73.92608000000001, 15.697740000000001], [73.92398, 15.695310000000001], [73.9201, 15.693170000000002], [73.91716000000001, 15.68992], [73.9149, 15.689350000000001], [73.91293, 15.68974], [73.91071000000001, 15.69194], [73.90780000000001, 15.693040000000002], [73.90646000000001, 15.69513], [73.90414000000001, 15.695940000000002], [73.9029, 15.699750000000002], [73.90148, 15.700940000000001], [73.89803, 15.70241], [73.89422, 15.702770000000001], [73.89302, 15.70226], [73.88422, 15.692400000000001], [73.88362000000001, 15.690270000000002], [73.88447000000001, 15.683990000000001], [73.88176, 15.682200000000002], [73.87360000000001, 15.679760000000002], [73.87041, 15.679570000000002], [73.86468, 15.680890000000002], [73.86254000000001, 15.680270000000002], [73.85990000000001, 15.678130000000001], [73.85501000000001, 15.675880000000001], [73.84985, 15.669070000000001], [73.84113, 15.66538], [73.84024000000001, 15.664480000000001], [73.83989000000001, 15.66214], [73.84126, 15.649720000000002], [73.84094, 15.648550000000002], [73.83896, 15.64699], [73.83743000000001, 15.647120000000001], [73.83246000000001, 15.65177], [73.82336000000001, 15.651110000000001], [73.8194, 15.65347], [73.81503000000001, 15.654420000000002], [73.80805000000001, 15.653210000000001], [73.79591, 15.64863], [73.78889000000001, 15.652190000000001], [73.78571000000001, 15.65286], [73.78191000000001, 15.652770000000002], [73.77816, 15.65164], [73.77188000000001, 15.640350000000002], [73.76509, 15.63685], [73.76142, 15.633500000000002], [73.75511, 15.63319], [73.74759, 15.6255], [73.74319000000001, 15.622720000000001], [73.74034, 15.618470000000002], [73.73949, 15.61307], [73.73996000000001, 15.611970000000001], [73.73602000000001, 15.611490000000002], [73.73389, 15.6134], [73.73093, 15.617780000000002], [73.72646, 15.627720000000002], [73.72266, 15.62986], [73.72144, 15.631400000000001], [73.71418, 15.650020000000001], [73.71219, 15.6598], [73.70978000000001, 15.666010000000002], [73.70539000000001, 15.673850000000002], [73.70366, 15.682960000000001], [73.70077, 15.690260000000002], [73.69838, 15.690990000000001], [73.69775, 15.69607], [73.69430000000001, 15.699520000000001], [73.69364, 15.702660000000002], [73.69409, 15.7047], [73.68937000000001, 15.718010000000001], [73.68956, 15.719370000000001], [73.69124000000001, 15.719220000000002], [73.69177, 15.719980000000001], [73.69368, 15.717960000000001], [73.69916, 15.718000000000002], [73.70076, 15.718570000000001], [73.70121, 15.720460000000001], [73.70395, 15.720900000000002], [73.71049000000001, 15.72408], [73.7133, 15.723440000000002], [73.7167, 15.724400000000001], [73.71995000000001, 15.723770000000002], [73.72214000000001, 15.720920000000001], [73.72460000000001, 15.719680000000002], [73.72351, 15.717270000000001], [73.72631000000001, 15.71705], [73.73185000000001, 15.720500000000001], [73.73485000000001, 15.72952], [73.74005000000001, 15.734910000000001], [73.74242000000001, 15.735650000000001], [73.76025, 15.734320000000002], [73.76555, 15.732940000000001], [73.77341000000001, 15.728190000000001], [73.77839, 15.72788], [73.78538, 15.725500000000002], [73.78874, 15.729040000000001], [73.78902000000001, 15.734320000000002], [73.79252000000001, 15.736070000000002], [73.7942, 15.73637], [73.79837, 15.73445], [73.80076000000001, 15.735090000000001], [73.80654000000001, 15.738290000000001], [73.80831, 15.74186], [73.80967000000001, 15.742770000000002], [73.81752, 15.739080000000001], [73.82304, 15.7399], [73.82462000000001, 15.740960000000001], [73.82713000000001, 15.747760000000001], [73.83073, 15.752670000000002], [73.83097000000001, 15.75833], [73.82954000000001, 15.762210000000001], [73.82967000000001, 15.764560000000001], [73.8305, 15.765380000000002], [73.83579, 15.766020000000001], [73.83771, 15.767140000000001], [73.8396, 15.77481], [73.84320000000001, 15.781170000000001], [73.84979000000001, 15.780030000000002], [73.85159, 15.780820000000002], [73.85053, 15.782790000000002], [73.84662, 15.786150000000001], [73.85004, 15.789200000000001], [73.85260000000001, 15.79728], [73.85557, 15.800620000000002], [73.85774, 15.800450000000001], [73.85942, 15.799790000000002], [73.85931000000001, 15.799000000000001], [73.86284, 15.798620000000001], [73.86718, 15.796570000000001], [73.86488, 15.79095], [73.86566, 15.784730000000001], [73.86892, 15.78349], [73.87042000000001, 15.781170000000001], [73.87336, 15.777130000000001]]], [[[73.69253, 15.727760000000002], [73.69372, 15.723010000000002], [73.69667000000001, 15.722790000000002], [73.69638, 15.722240000000001], [73.69283, 15.7215], [73.68786, 15.723580000000002], [73.68703000000001, 15.721240000000002], [73.68313, 15.72037], [73.68279000000001, 15.722320000000002], [73.67993000000001, 15.721150000000002], [73.68031, 15.72193], [73.67936, 15.722170000000002], [73.68098, 15.724280000000002], [73.68064000000001, 15.725170000000002], [73.67508000000001, 15.72681], [73.67668, 15.72769], [73.67678000000001, 15.729140000000001], [73.68586, 15.729690000000002], [73.69253, 15.727760000000002]]]]}}, {"id": "3", "type": "Feature", "properties": {"state_name": "Goa", "district_name": "North Goa", "block_name": "Bardez", "block_lgd": 5610, "district_lgd": 551}, "geometry": {"type": "Polygon", "coordinates": [[[73.89482000000001, 15.682660000000002], [73.89578, 15.680360000000002], [73.89756000000001, 15.67922], [73.89896, 15.677010000000001], [73.90001000000001, 15.673420000000002], [73.9034, 15.668210000000002], [73.90162000000001, 15.661470000000001], [73.90187, 15.659030000000001], [73.90046000000001, 15.656930000000001], [73.90162000000001, 15.655310000000002], [73.90075, 15.653190000000002], [73.89587, 15.650190000000002], [73.89018, 15.65102], [73.88483000000001, 15.647770000000001], [73.88194, 15.64826], [73.88008, 15.647620000000002], [73.88031000000001, 15.644300000000001], [73.88311, 15.642660000000001], [73.8857, 15.643360000000001], [73.88533000000001, 15.639310000000002], [73.8891, 15.63577], [73.88893, 15.634310000000001], [73.89021000000001, 15.634360000000001], [73.88979, 15.631290000000002], [73.89322, 15.631780000000001], [73.89793, 15.630370000000001], [73.90345, 15.633120000000002], [73.90502000000001, 15.63512], [73.90739, 15.635040000000002], [73.90965, 15.6376], [73.91057, 15.636400000000002], [73.91024, 15.635140000000002], [73.90722000000001, 15.63305], [73.90846, 15.6301], [73.90691000000001, 15.627220000000001], [73.90874000000001, 15.624810000000002], [73.90565000000001, 15.623410000000002], [73.90517000000001, 15.621220000000001], [73.90682000000001, 15.615540000000001], [73.90808000000001, 15.61452], [73.90046000000001, 15.614170000000001], [73.8991, 15.613230000000001], [73.89836000000001, 15.611220000000001], [73.89567000000001, 15.60978], [73.89420000000001, 15.611010000000002], [73.89263000000001, 15.6111], [73.88973, 15.61386], [73.88671000000001, 15.614180000000001], [73.88717000000001, 15.61161], [73.88541000000001, 15.61011], [73.88648, 15.608400000000001], [73.89020000000001, 15.606190000000002], [73.89119000000001, 15.604220000000002], [73.89104, 15.601060000000002], [73.89483000000001, 15.599770000000001], [73.89589000000001, 15.598630000000002], [73.89540000000001, 15.594920000000002], [73.89368, 15.591410000000002], [73.89216, 15.590130000000002], [73.89009, 15.58989], [73.88832000000001, 15.588070000000002], [73.88777, 15.585910000000002], [73.88828000000001, 15.583610000000002], [73.88683, 15.582260000000002], [73.88659000000001, 15.5774], [73.88827, 15.575590000000002], [73.88809, 15.573970000000001], [73.89057000000001, 15.57361], [73.89196000000001, 15.571890000000002], [73.89318, 15.573010000000002], [73.89528, 15.57323], [73.89625000000001, 15.57595], [73.90044, 15.575500000000002], [73.90168000000001, 15.568150000000001], [73.90496, 15.565450000000002], [73.90397, 15.563430000000002], [73.90227, 15.56253], [73.89943000000001, 15.565970000000002], [73.89705000000001, 15.56572], [73.89631, 15.563530000000002], [73.8977, 15.56004], [73.89641, 15.55671], [73.89461, 15.55638], [73.89054, 15.559160000000002], [73.89235000000001, 15.561770000000001], [73.89212, 15.563100000000002], [73.88717000000001, 15.565030000000002], [73.88502000000001, 15.569220000000001], [73.88316, 15.567250000000001], [73.87596, 15.564660000000002], [73.87254, 15.56436], [73.86852, 15.561600000000002], [73.86812, 15.559420000000001], [73.87021, 15.55239], [73.8686, 15.548110000000001], [73.86834, 15.543910000000002], [73.86957000000001, 15.54081], [73.87557000000001, 15.534880000000001], [73.87568, 15.532470000000002], [73.87405000000001, 15.529880000000002], [73.86201000000001, 15.524560000000001], [73.85388, 15.523280000000002], [73.85043, 15.521590000000002], [73.84466, 15.512530000000002], [73.84432000000001, 15.510050000000001], [73.84564, 15.505530000000002], [73.84241, 15.502770000000002], [73.83569, 15.501520000000001], [73.83000000000001, 15.503260000000001], [73.82390000000001, 15.50322], [73.81827000000001, 15.50585], [73.81635, 15.503540000000001], [73.81639000000001, 15.500700000000002], [73.81493, 15.497770000000001], [73.81146000000001, 15.494290000000001], [73.80442000000001, 15.492310000000002], [73.79671, 15.496850000000002], [73.79010000000001, 15.49909], [73.78638000000001, 15.497560000000002], [73.78722, 15.494720000000001], [73.78532000000001, 15.492350000000002], [73.77812, 15.491930000000002], [73.77499, 15.489780000000001], [73.76885, 15.490380000000002], [73.76485000000001, 15.495140000000001], [73.76474, 15.497430000000001], [73.76742, 15.498350000000002], [73.76747, 15.49984], [73.74995000000001, 15.558930000000002], [73.74784000000001, 15.5607], [73.74532, 15.55981], [73.74185, 15.56244], [73.74067000000001, 15.56736], [73.74128, 15.568510000000002], [73.74080000000001, 15.570610000000002], [73.73563, 15.585400000000002], [73.73467000000001, 15.58707], [73.73302000000001, 15.587320000000002], [73.73222000000001, 15.588590000000002], [73.73249000000001, 15.590270000000002], [73.73429, 15.592590000000001], [73.73246, 15.595900000000002], [73.73317, 15.59674], [73.73242, 15.59767], [73.7329, 15.600950000000001], [73.73207000000001, 15.606950000000001], [73.73854, 15.607780000000002], [73.74124, 15.605250000000002], [73.74467, 15.605690000000001], [73.74260000000001, 15.607000000000001], [73.73996000000001, 15.611970000000001], [73.73949, 15.61307], [73.74034, 15.618470000000002], [73.74319000000001, 15.622720000000001], [73.74759, 15.6255], [73.75511, 15.63319], [73.76142, 15.633500000000002], [73.76509, 15.63685], [73.77188000000001, 15.640350000000002], [73.77816, 15.65164], [73.78191000000001, 15.652770000000002], [73.78571000000001, 15.65286], [73.78889000000001, 15.652190000000001], [73.79591, 15.64863], [73.80805000000001, 15.653210000000001], [73.81503000000001, 15.654420000000002], [73.8194, 15.65347], [73.82336000000001, 15.651110000000001], [73.83246000000001, 15.65177], [73.83743000000001, 15.647120000000001], [73.83896, 15.64699], [73.84094, 15.648550000000002], [73.84126, 15.649720000000002], [73.83989000000001, 15.66214], [73.84024000000001, 15.664480000000001], [73.84113, 15.66538], [73.84985, 15.669070000000001], [73.85501000000001, 15.675880000000001], [73.85990000000001, 15.678130000000001], [73.86254000000001, 15.680270000000002], [73.86468, 15.680890000000002], [73.87041, 15.679570000000002], [73.87360000000001, 15.679760000000002], [73.88176, 15.682200000000002], [73.88447000000001, 15.683990000000001], [73.88711, 15.682910000000001], [73.89482000000001, 15.682660000000002]]]}}, {"id": "4", "type": "Feature", "properties": {"state_name": "Goa", "district_name": "North Goa", "block_name": "Tiswadi", "block_lgd": 5611, "district_lgd": 551}, "geometry": {"type": "Polygon", "coordinates": [[[73.89212, 15.563100000000002], [73.89235000000001, 15.561770000000001], [73.89054, 15.559160000000002], [73.89461, 15.55638], [73.89641, 15.55671], [73.8977, 15.56004], [73.89631, 15.563530000000002], [73.89705000000001, 15.56572], [73.89943000000001, 15.565970000000002], [73.90227, 15.56253], [73.90397, 15.563430000000002], [73.90514, 15.562930000000001], [73.90526000000001, 15.560770000000002], [73.90337000000001, 15.55831], [73.90603, 15.556400000000002], [73.90629000000001, 15.55366], [73.90994, 15.551070000000001], [73.91106, 15.5486], [73.91773, 15.54446], [73.92053, 15.540540000000002], [73.92377, 15.539280000000002], [73.927, 15.53644], [73.92868, 15.536040000000002], [73.93431000000001, 15.538750000000002], [73.9398, 15.54254], [73.94649000000001, 15.548580000000001], [73.95048000000001, 15.54949], [73.95609, 15.54601], [73.96154, 15.539810000000001], [73.95746000000001, 15.537020000000002], [73.95738, 15.534820000000002], [73.95494000000001, 15.531450000000001], [73.95338000000001, 15.527350000000002], [73.94773, 15.524500000000002], [73.94409, 15.52433], [73.94425000000001, 15.523270000000002], [73.94900000000001, 15.518040000000001], [73.94918000000001, 15.5143], [73.95377, 15.510460000000002], [73.95762, 15.509670000000002], [73.96175000000001, 15.503020000000001], [73.96153000000001, 15.502010000000002], [73.95901, 15.501980000000001], [73.95348, 15.49877], [73.95516, 15.491030000000002], [73.9552, 15.48722], [73.95488, 15.48535], [73.95132000000001, 15.481420000000002], [73.95047000000001, 15.477400000000001], [73.95182000000001, 15.473860000000002], [73.9565, 15.469520000000001], [73.95748, 15.46573], [73.95716, 15.463550000000001], [73.95421, 15.461120000000001], [73.94869, 15.46019], [73.94591000000001, 15.45578], [73.94455, 15.448520000000002], [73.94634, 15.442480000000002], [73.94585000000001, 15.439180000000002], [73.94019, 15.43655], [73.93301000000001, 15.435260000000001], [73.92862000000001, 15.432470000000002], [73.92646, 15.429110000000001], [73.92661000000001, 15.42355], [73.92079000000001, 15.416330000000002], [73.91731, 15.40929], [73.90803000000001, 15.41107], [73.89694, 15.410720000000001], [73.87787, 15.416190000000002], [73.87431000000001, 15.41745], [73.86132, 15.418450000000002], [73.84822000000001, 15.425350000000002], [73.83851, 15.42829], [73.80882000000001, 15.430800000000001], [73.78609, 15.438030000000001], [73.78863000000001, 15.46014], [73.78722, 15.463640000000002], [73.78882, 15.46508], [73.79898, 15.462420000000002], [73.80112000000001, 15.464810000000002], [73.8037, 15.473180000000001], [73.80550000000001, 15.48553], [73.80709, 15.489030000000001], [73.80442000000001, 15.492310000000002], [73.81146000000001, 15.494290000000001], [73.81493, 15.497770000000001], [73.81639000000001, 15.500700000000002], [73.81635, 15.503540000000001], [73.81827000000001, 15.50585], [73.82390000000001, 15.50322], [73.83000000000001, 15.503260000000001], [73.83569, 15.501520000000001], [73.84241, 15.502770000000002], [73.84564, 15.505530000000002], [73.84432000000001, 15.510050000000001], [73.84466, 15.512530000000002], [73.85043, 15.521590000000002], [73.85388, 15.523280000000002], [73.86201000000001, 15.524560000000001], [73.87405000000001, 15.529880000000002], [73.87568, 15.532470000000002], [73.87557000000001, 15.534880000000001], [73.86957000000001, 15.54081], [73.86834, 15.543910000000002], [73.8686, 15.548110000000001], [73.87021, 15.55239], [73.86812, 15.559420000000001], [73.86852, 15.561600000000002], [73.87254, 15.56436], [73.87596, 15.564660000000002], [73.88316, 15.567250000000001], [73.88502000000001, 15.569220000000001], [73.88717000000001, 15.565030000000002], [73.89212, 15.563100000000002]]]}}, {"id": "5", "type": "Feature", "properties": {"state_name": "Goa", "district_name": "North Goa", "block_name": "Bicholim", "block_lgd": 5612, "district_lgd": 551}, "geometry": {"type": "Polygon", "coordinates": [[[73.91716000000001, 15.68992], [73.9201, 15.693170000000002], [73.92398, 15.695310000000001], [73.92608000000001, 15.697740000000001], [73.93363000000001, 15.701360000000001], [73.93857000000001, 15.701110000000002], [73.94361, 15.698500000000001], [73.94511, 15.697930000000001], [73.9474, 15.698470000000002], [73.95112, 15.697320000000001], [73.95336, 15.699420000000002], [73.95651000000001, 15.699980000000002], [73.95795000000001, 15.69842], [73.95919, 15.699200000000001], [73.96041000000001, 15.69476], [73.96341000000001, 15.69217], [73.96394000000001, 15.689380000000002], [73.96277, 15.673460000000002], [73.96318000000001, 15.671080000000002], [73.96487, 15.670570000000001], [73.96555000000001, 15.669400000000001], [73.96769, 15.660020000000001], [73.9624, 15.651460000000002], [73.96081000000001, 15.645190000000001], [73.96132, 15.6415], [73.96721000000001, 15.63498], [73.96676000000001, 15.6323], [73.96755, 15.630250000000002], [73.96986000000001, 15.628840000000002], [73.97066000000001, 15.627260000000001], [73.97886000000001, 15.626980000000001], [73.98833, 15.615960000000001], [73.99069, 15.611640000000001], [73.99734000000001, 15.61053], [74.00336, 15.611770000000002], [74.02119, 15.606230000000002], [74.01975, 15.600500000000002], [74.01755, 15.59754], [74.01557000000001, 15.591990000000001], [74.01385, 15.59124], [74.00865, 15.592160000000002], [74.00397000000001, 15.59017], [73.99765000000001, 15.584030000000002], [73.99647, 15.57867], [73.99753000000001, 15.573160000000001], [74.00282, 15.568220000000002], [74.00512, 15.56854], [74.00758, 15.567330000000002], [74.01075, 15.56778], [74.01359000000001, 15.566390000000002], [74.01625, 15.566840000000001], [74.01902000000001, 15.564540000000001], [74.02295000000001, 15.565100000000001], [74.02576, 15.567570000000002], [74.02850000000001, 15.566230000000001], [74.03249000000001, 15.566020000000002], [74.03627, 15.56896], [74.04262, 15.572280000000001], [74.05083, 15.571390000000001], [74.05505000000001, 15.566920000000001], [74.05366000000001, 15.562140000000001], [74.04274000000001, 15.550530000000002], [74.04260000000001, 15.54798], [74.03916000000001, 15.542930000000002], [74.04025, 15.54034], [74.03880000000001, 15.539850000000001], [74.04009, 15.539330000000001], [74.03806, 15.53836], [74.03874, 15.536240000000001], [74.0369, 15.530870000000002], [74.03906, 15.527610000000001], [74.04291, 15.524450000000002], [74.04651000000001, 15.51715], [74.05126, 15.511920000000002], [74.06171, 15.507460000000002], [74.06657000000001, 15.50261], [74.06776, 15.5027], [74.07037000000001, 15.49909], [74.06915000000001, 15.49261], [74.07272, 15.485930000000002], [74.08038, 15.481230000000002], [74.08246000000001, 15.481150000000001], [74.08375000000001, 15.478830000000002], [74.08537000000001, 15.47779], [74.09063, 15.476320000000001], [74.09471, 15.46906], [74.09308, 15.468630000000001], [74.0824, 15.466270000000002], [74.07761, 15.461490000000001], [74.06923, 15.46995], [74.06670000000001, 15.470550000000001], [74.06559, 15.468210000000001], [74.06766, 15.463110000000002], [74.06686, 15.460080000000001], [74.06473000000001, 15.458870000000001], [74.06131, 15.460830000000001], [74.05907, 15.460780000000002], [74.05202000000001, 15.45911], [74.05011, 15.456880000000002], [74.05284, 15.451160000000002], [74.05325, 15.444160000000002], [74.05204, 15.443670000000001], [74.04703, 15.445540000000001], [74.04176000000001, 15.450230000000001], [74.03876000000001, 15.455110000000001], [74.03633, 15.456240000000001], [74.03423000000001, 15.458870000000001], [74.03438000000001, 15.466700000000001], [74.02798, 15.47052], [74.02560000000001, 15.473780000000001], [74.03008000000001, 15.476280000000001], [74.03087000000001, 15.47877], [74.02299000000001, 15.4806], [74.02215000000001, 15.482450000000002], [74.02159, 15.490490000000001], [74.01954, 15.494280000000002], [74.01572, 15.497470000000002], [74.00533, 15.499], [74.00165000000001, 15.500240000000002], [73.99906, 15.50266], [73.99757000000001, 15.509730000000001], [73.99512, 15.514090000000001], [73.98708, 15.51936], [73.97370000000001, 15.52386], [73.97015, 15.52584], [73.96649000000001, 15.534640000000001], [73.96452000000001, 15.537640000000001], [73.96154, 15.539810000000001], [73.95609, 15.54601], [73.95048000000001, 15.54949], [73.94649000000001, 15.548580000000001], [73.9398, 15.54254], [73.93431000000001, 15.538750000000002], [73.92868, 15.536040000000002], [73.927, 15.53644], [73.92377, 15.539280000000002], [73.92053, 15.540540000000002], [73.91773, 15.54446], [73.91106, 15.5486], [73.90994, 15.551070000000001], [73.90629000000001, 15.55366], [73.90603, 15.556400000000002], [73.90337000000001, 15.55831], [73.90526000000001, 15.560770000000002], [73.90514, 15.562930000000001], [73.90397, 15.563430000000002], [73.90496, 15.565450000000002], [73.90168000000001, 15.568150000000001], [73.90044, 15.575500000000002], [73.89625000000001, 15.57595], [73.89528, 15.57323], [73.89318, 15.573010000000002], [73.89196000000001, 15.571890000000002], [73.89057000000001, 15.57361], [73.88809, 15.573970000000001], [73.88827, 15.575590000000002], [73.88659000000001, 15.5774], [73.88683, 15.582260000000002], [73.88828000000001, 15.583610000000002], [73.88777, 15.585910000000002], [73.88832000000001, 15.588070000000002], [73.89009, 15.58989], [73.89216, 15.590130000000002], [73.89368, 15.591410000000002], [73.89540000000001, 15.594920000000002], [73.89589000000001, 15.598630000000002], [73.89483000000001, 15.599770000000001], [73.89104, 15.601060000000002], [73.89119000000001, 15.604220000000002], [73.89020000000001, 15.606190000000002], [73.88648, 15.608400000000001], [73.88541000000001, 15.61011], [73.88717000000001, 15.61161], [73.88671000000001, 15.614180000000001], [73.88973, 15.61386], [73.89263000000001, 15.6111], [73.89420000000001, 15.611010000000002], [73.89567000000001, 15.60978], [73.89836000000001, 15.611220000000001], [73.8991, 15.613230000000001], [73.90046000000001, 15.614170000000001], [73.90808000000001, 15.61452], [73.90682000000001, 15.615540000000001], [73.90517000000001, 15.621220000000001], [73.90565000000001, 15.623410000000002], [73.90874000000001, 15.624810000000002], [73.90691000000001, 15.627220000000001], [73.90846, 15.6301], [73.90722000000001, 15.63305], [73.91024, 15.635140000000002], [73.91057, 15.636400000000002], [73.90965, 15.6376], [73.90739, 15.635040000000002], [73.90502000000001, 15.63512], [73.90345, 15.633120000000002], [73.89793, 15.630370000000001], [73.89322, 15.631780000000001], [73.88979, 15.631290000000002], [73.89021000000001, 15.634360000000001], [73.88893, 15.634310000000001], [73.8891, 15.63577], [73.88533000000001, 15.639310000000002], [73.8857, 15.643360000000001], [73.88311, 15.642660000000001], [73.88031000000001, 15.644300000000001], [73.88008, 15.647620000000002], [73.88194, 15.64826], [73.88483000000001, 15.647770000000001], [73.89018, 15.65102], [73.89587, 15.650190000000002], [73.90075, 15.653190000000002], [73.90162000000001, 15.655310000000002], [73.90046000000001, 15.656930000000001], [73.90187, 15.659030000000001], [73.90162000000001, 15.661470000000001], [73.9034, 15.668210000000002], [73.90001000000001, 15.673420000000002], [73.89896, 15.677010000000001], [73.89756000000001, 15.67922], [73.89578, 15.680360000000002], [73.89482000000001, 15.682660000000002], [73.88711, 15.682910000000001], [73.88447000000001, 15.683990000000001], [73.88362000000001, 15.690270000000002], [73.88422, 15.692400000000001], [73.89302, 15.70226], [73.89422, 15.702770000000001], [73.89803, 15.70241], [73.90148, 15.700940000000001], [73.9029, 15.699750000000002], [73.90414000000001, 15.695940000000002], [73.90646000000001, 15.69513], [73.90780000000001, 15.693040000000002], [73.91071000000001, 15.69194], [73.91293, 15.68974], [73.9149, 15.689350000000001], [73.91716000000001, 15.68992]]]}}, {"id": "6", "type": "Feature", "properties": {"state_name": "Goa", "district_name": "South Goa", "block_name": "Mormugao", "block_lgd": 5615, "district_lgd": 552}, "geometry": {"type": "Polygon", "coordinates": [[[73.89694, 15.410720000000001], [73.90803000000001, 15.41107], [73.91731, 15.40929], [73.92759000000001, 15.40618], [73.94413, 15.40407], [73.94888, 15.40196], [73.95432000000001, 15.389750000000001], [73.95678000000001, 15.37503], [73.94951, 15.374670000000002], [73.94405, 15.37076], [73.93371, 15.370410000000001], [73.92581000000001, 15.374160000000002], [73.92492, 15.36541], [73.92366000000001, 15.364980000000001], [73.92259, 15.365680000000001], [73.92029000000001, 15.364580000000002], [73.91844, 15.368390000000002], [73.91687, 15.366640000000002], [73.91573000000001, 15.367170000000002], [73.91521, 15.364820000000002], [73.91615, 15.36476], [73.91502000000001, 15.360600000000002], [73.91544, 15.358720000000002], [73.91428, 15.358590000000001], [73.91426000000001, 15.357490000000002], [73.91130000000001, 15.356980000000002], [73.9119, 15.353990000000001], [73.91118, 15.351860000000002], [73.9106, 15.35195], [73.91049000000001, 15.349400000000001], [73.91220000000001, 15.34781], [73.91382, 15.343840000000002], [73.91482, 15.34331], [73.91327000000001, 15.340810000000001], [73.91355, 15.339580000000002], [73.91264000000001, 15.339010000000002], [73.91418, 15.336620000000002], [73.90602000000001, 15.332950000000002], [73.90702, 15.32553], [73.89605, 15.324840000000002], [73.88415, 15.35326], [73.87918, 15.361900000000002], [73.87284000000001, 15.368770000000001], [73.87078000000001, 15.369830000000002], [73.86706000000001, 15.369430000000001], [73.86351, 15.3686], [73.86247, 15.36546], [73.85479000000001, 15.365480000000002], [73.85316, 15.364840000000001], [73.85169, 15.36076], [73.84971, 15.36011], [73.84037000000001, 15.360170000000002], [73.83829, 15.36147], [73.83327000000001, 15.368350000000001], [73.83123, 15.368950000000002], [73.82986000000001, 15.367860000000002], [73.82413000000001, 15.369110000000001], [73.81996000000001, 15.372600000000002], [73.81663, 15.373030000000002], [73.81311000000001, 15.375060000000001], [73.81039000000001, 15.375060000000001], [73.80905, 15.376040000000001], [73.80719, 15.378710000000002], [73.80775000000001, 15.384580000000001], [73.80716000000001, 15.388650000000002], [73.80653000000001, 15.390600000000001], [73.80324, 15.39459], [73.79183, 15.393300000000002], [73.79051000000001, 15.39394], [73.78935000000001, 15.399920000000002], [73.78437000000001, 15.406630000000002], [73.78318, 15.409530000000002], [73.78444, 15.41276], [73.78691, 15.413190000000002], [73.78969000000001, 15.412110000000002], [73.79177, 15.417470000000002], [73.79190000000001, 15.419170000000001], [73.78609, 15.438030000000001], [73.80882000000001, 15.430800000000001], [73.83851, 15.42829], [73.84822000000001, 15.425350000000002], [73.86132, 15.418450000000002], [73.87431000000001, 15.41745], [73.87787, 15.416190000000002], [73.89694, 15.410720000000001]]]}}, {"id": "7", "type": "Feature", "properties": {"state_name": "Goa", "district_name": "South Goa", "block_name": "Salcete", "block_lgd": 5616, "district_lgd": 552}, "geometry": {"type": "Polygon", "coordinates": [[[73.94405, 15.37076], [73.94951, 15.374670000000002], [73.95678000000001, 15.37503], [73.95843, 15.37212], [73.96263, 15.36926], [73.96638, 15.368380000000002], [73.97231000000001, 15.368810000000002], [73.97703, 15.367550000000001], [73.98855, 15.3557], [73.99893, 15.352190000000002], [74.00138000000001, 15.349660000000002], [74.00487000000001, 15.34772], [74.00604000000001, 15.34411], [74.00442000000001, 15.337880000000002], [74.00458, 15.335680000000002], [74.00946, 15.314430000000002], [74.0117, 15.309600000000001], [74.01140000000001, 15.305980000000002], [74.0124, 15.304330000000002], [74.01606000000001, 15.302370000000002], [74.02534, 15.301860000000001], [74.02882000000001, 15.302550000000002], [74.03883, 15.30709], [74.04223, 15.301000000000002], [74.04431000000001, 15.29953], [74.05532000000001, 15.299660000000001], [74.06529, 15.296660000000001], [74.07045000000001, 15.292080000000002], [74.06876000000001, 15.28508], [74.07266, 15.278670000000002], [74.07362, 15.275660000000002], [74.07008, 15.272140000000002], [74.06871000000001, 15.2681], [74.06611000000001, 15.267280000000001], [74.06182000000001, 15.267850000000001], [74.06309, 15.261220000000002], [74.06245000000001, 15.260510000000002], [74.05788000000001, 15.25989], [74.05656, 15.25426], [74.05158, 15.254460000000002], [74.04844, 15.250760000000001], [74.04367, 15.247240000000001], [74.0454, 15.244620000000001], [74.04663000000001, 15.23976], [74.04554, 15.23061], [74.05529, 15.22624], [74.0605, 15.227990000000002], [74.06291, 15.22544], [74.06298000000001, 15.223550000000001], [74.06231000000001, 15.22193], [74.0591, 15.221040000000002], [74.05472, 15.217220000000001], [74.05125000000001, 15.21592], [74.04729, 15.216560000000001], [74.04442, 15.218230000000002], [74.04361, 15.217300000000002], [74.04549, 15.214800000000002], [74.04530000000001, 15.213210000000002], [74.04747, 15.207260000000002], [74.04637000000001, 15.206550000000002], [74.04652, 15.204210000000002], [74.04577, 15.20274], [74.04726000000001, 15.202330000000002], [74.04756, 15.20137], [74.04444000000001, 15.19907], [74.04103, 15.19447], [74.03437000000001, 15.193780000000002], [74.03452, 15.18566], [74.0404, 15.17777], [74.0385, 15.175810000000002], [74.03109, 15.175], [74.02265000000001, 15.172320000000001], [74.02367000000001, 15.166030000000001], [74.01696000000001, 15.16463], [74.01803000000001, 15.16271], [74.0154, 15.159830000000001], [74.01276, 15.159400000000002], [74.01272, 15.15717], [74.00845000000001, 15.152310000000002], [74.00508, 15.152940000000001], [74.00519000000001, 15.153900000000002], [73.99995000000001, 15.156300000000002], [73.99069, 15.15483], [73.9804, 15.149420000000001], [73.97932, 15.147000000000002], [73.97587, 15.14573], [73.97504, 15.146310000000001], [73.97475, 15.14455], [73.97289, 15.144570000000002], [73.97005, 15.142540000000002], [73.96959000000001, 15.14126], [73.96816000000001, 15.141520000000002], [73.96725, 15.14056], [73.96324, 15.14187], [73.96275, 15.14033], [73.96131000000001, 15.13991], [73.96021, 15.137880000000001], [73.95534, 15.136400000000002], [73.95320000000001, 15.140360000000001], [73.94884, 15.14399], [73.94682, 15.149120000000002], [73.93137, 15.210630000000002], [73.91213, 15.276620000000001], [73.89605, 15.324840000000002], [73.90702, 15.32553], [73.90602000000001, 15.332950000000002], [73.91418, 15.336620000000002], [73.91264000000001, 15.339010000000002], [73.91355, 15.339580000000002], [73.91327000000001, 15.340810000000001], [73.91482, 15.34331], [73.91382, 15.343840000000002], [73.91220000000001, 15.34781], [73.91049000000001, 15.349400000000001], [73.9106, 15.35195], [73.91118, 15.351860000000002], [73.9119, 15.353990000000001], [73.91130000000001, 15.356980000000002], [73.91426000000001, 15.357490000000002], [73.91428, 15.358590000000001], [73.91544, 15.358720000000002], [73.91502000000001, 15.360600000000002], [73.91615, 15.36476], [73.91521, 15.364820000000002], [73.91573000000001, 15.367170000000002], [73.91687, 15.366640000000002], [73.91844, 15.368390000000002], [73.92029000000001, 15.364580000000002], [73.92259, 15.365680000000001], [73.92366000000001, 15.364980000000001], [73.92492, 15.36541], [73.92581000000001, 15.374160000000002], [73.93371, 15.370410000000001], [73.94405, 15.37076]]]}}, {"id": "8", "type": "Feature", "properties": {"state_name": "Goa", "district_name": "South Goa", "block_name": "Quepem", "block_lgd": 5617, "district_lgd": 552}, "geometry": {"type": "Polygon", "coordinates": [[[74.08811, 15.272750000000002], [74.0913, 15.268270000000001], [74.09942000000001, 15.26941], [74.10287000000001, 15.266090000000002], [74.10941000000001, 15.26669], [74.11326000000001, 15.265220000000001], [74.11743000000001, 15.270240000000001], [74.11872000000001, 15.270750000000001], [74.12019000000001, 15.270240000000001], [74.12243000000001, 15.265200000000002], [74.12124, 15.259710000000002], [74.1237, 15.257980000000002], [74.12663, 15.258540000000002], [74.12769, 15.25711], [74.12734, 15.24876], [74.12888000000001, 15.248780000000002], [74.1298, 15.25101], [74.13233000000001, 15.252830000000001], [74.13455, 15.25298], [74.13802000000001, 15.249010000000002], [74.13703000000001, 15.246760000000002], [74.13769, 15.245680000000002], [74.14297, 15.244570000000001], [74.14352000000001, 15.239700000000001], [74.14452, 15.239450000000001], [74.14648000000001, 15.240900000000002], [74.14808000000001, 15.240340000000002], [74.14754, 15.23779], [74.14415000000001, 15.23727], [74.1423, 15.2337], [74.13829000000001, 15.23225], [74.13542000000001, 15.232410000000002], [74.12943, 15.228520000000001], [74.12725, 15.22568], [74.1276, 15.221520000000002], [74.1298, 15.216540000000002], [74.13342, 15.212810000000001], [74.13435000000001, 15.21038], [74.13758, 15.211020000000001], [74.14024, 15.210280000000001], [74.14431, 15.208070000000001], [74.14834, 15.204300000000002], [74.15171000000001, 15.203040000000001], [74.15923000000001, 15.196000000000002], [74.16067000000001, 15.192290000000002], [74.16708000000001, 15.19143], [74.17082, 15.192290000000002], [74.17299000000001, 15.18833], [74.1748, 15.18744], [74.17257000000001, 15.177520000000001], [74.17119000000001, 15.175930000000001], [74.16578000000001, 15.17388], [74.15601000000001, 15.172320000000001], [74.15384, 15.169990000000002], [74.14805000000001, 15.16745], [74.13065, 15.172460000000001], [74.12791, 15.170280000000002], [74.12591, 15.170740000000002], [74.12373000000001, 15.168830000000002], [74.12275000000001, 15.16899], [74.11947, 15.171070000000002], [74.11818000000001, 15.173900000000001], [74.11408, 15.177000000000001], [74.11297, 15.180850000000001], [74.11041, 15.18186], [74.10851000000001, 15.184260000000002], [74.10560000000001, 15.18932], [74.10613000000001, 15.190790000000002], [74.10142, 15.189810000000001], [74.09959, 15.188580000000002], [74.09673000000001, 15.188860000000002], [74.0959, 15.19053], [74.09097000000001, 15.188910000000002], [74.08908000000001, 15.186420000000002], [74.0865, 15.185500000000001], [74.08687, 15.183000000000002], [74.08469000000001, 15.183140000000002], [74.08152000000001, 15.181970000000002], [74.07881, 15.182430000000002], [74.07722000000001, 15.180230000000002], [74.07456, 15.179430000000002], [74.0729, 15.177920000000002], [74.07087, 15.17735], [74.06840000000001, 15.178560000000001], [74.06536000000001, 15.177190000000001], [74.06751000000001, 15.16815], [74.06335, 15.16149], [74.07036000000001, 15.156860000000002], [74.07599, 15.156870000000001], [74.07817, 15.154670000000001], [74.07987, 15.148480000000001], [74.07899, 15.147820000000001], [74.07965, 15.142540000000002], [74.08069, 15.141930000000002], [74.08157, 15.1392], [74.08508, 15.135580000000001], [74.08608000000001, 15.135220000000002], [74.08898, 15.136170000000002], [74.09633000000001, 15.135010000000001], [74.09654, 15.13212], [74.09769, 15.130690000000001], [74.09737000000001, 15.1292], [74.09939, 15.128200000000001], [74.09917, 15.125580000000001], [74.10010000000001, 15.1247], [74.09904, 15.1233], [74.09906000000001, 15.120940000000001], [74.10116000000001, 15.11747], [74.10184000000001, 15.1148], [74.10096, 15.114360000000001], [74.10220000000001, 15.112670000000001], [74.10192, 15.108390000000002], [74.10277, 15.10743], [74.10624, 15.108060000000002], [74.10714, 15.111110000000002], [74.10846000000001, 15.111740000000001], [74.10969, 15.115330000000002], [74.11046, 15.115680000000001], [74.11642, 15.116640000000002], [74.11981, 15.115430000000002], [74.12345, 15.11597], [74.12702, 15.120590000000002], [74.12572, 15.122190000000002], [74.12814, 15.12414], [74.12991000000001, 15.120880000000001], [74.13359000000001, 15.120040000000001], [74.13427, 15.11715], [74.13811000000001, 15.114720000000002], [74.14248, 15.11452], [74.15039, 15.118780000000001], [74.15322, 15.12179], [74.15562, 15.122430000000001], [74.15633000000001, 15.123510000000001], [74.15785000000001, 15.122530000000001], [74.15861000000001, 15.12339], [74.16491, 15.121830000000001], [74.16562, 15.119660000000001], [74.16812, 15.120360000000002], [74.16934, 15.119190000000001], [74.17062, 15.11686], [74.17014, 15.114550000000001], [74.17346, 15.114340000000002], [74.17382, 15.11259], [74.17811, 15.108110000000002], [74.17679000000001, 15.10612], [74.17453, 15.090950000000001], [74.17269, 15.089910000000001], [74.17083000000001, 15.090370000000002], [74.17236000000001, 15.087650000000002], [74.17161, 15.085980000000001], [74.17391, 15.085040000000001], [74.17449, 15.08247], [74.18123, 15.082260000000002], [74.18564, 15.08078], [74.18855, 15.08172], [74.19018000000001, 15.0814], [74.19463, 15.078360000000002], [74.19853, 15.07266], [74.19845000000001, 15.070960000000001], [74.19759, 15.07037], [74.18788, 15.068810000000001], [74.18982000000001, 15.068170000000002], [74.18939, 15.065890000000001], [74.19221, 15.06432], [74.19281000000001, 15.063200000000002], [74.19115000000001, 15.057350000000001], [74.18856000000001, 15.055690000000002], [74.18688, 15.053210000000002], [74.18544, 15.045560000000002], [74.18234000000001, 15.04123], [74.18092, 15.041860000000002], [74.17876000000001, 15.040450000000002], [74.17632, 15.040920000000002], [74.17412, 15.043160000000002], [74.16887000000001, 15.04493], [74.16631000000001, 15.04466], [74.16527, 15.045770000000001], [74.16542000000001, 15.048240000000002], [74.16161000000001, 15.04845], [74.16092, 15.049280000000001], [74.16184000000001, 15.051010000000002], [74.16365, 15.05263], [74.16713, 15.053400000000002], [74.17001, 15.05822], [74.1697, 15.05985], [74.16518, 15.062830000000002], [74.1623, 15.06591], [74.15966, 15.0668], [74.15718000000001, 15.06591], [74.14905, 15.067450000000001], [74.14277000000001, 15.06539], [74.13991, 15.067530000000001], [74.13544, 15.06798], [74.12952, 15.06609], [74.12753000000001, 15.066310000000001], [74.12439, 15.064570000000002], [74.11122, 15.06056], [74.10441, 15.05498], [74.09753, 15.042280000000002], [74.09440000000001, 15.04404], [74.09235000000001, 15.04789], [74.08358000000001, 15.052460000000002], [74.07993, 15.051580000000001], [74.07295, 15.054060000000002], [74.07065, 15.053880000000001], [74.06744, 15.051480000000002], [74.06057000000001, 15.052310000000002], [74.05209, 15.04737], [74.04663000000001, 15.049750000000001], [74.03645, 15.052270000000002], [74.03188, 15.050880000000001], [74.02646, 15.052090000000002], [74.02324, 15.05164], [74.01882, 15.053210000000002], [74.01447, 15.0532], [74.01283000000001, 15.058460000000002], [74.00946, 15.065010000000001], [74.01027, 15.064990000000002], [74.01055000000001, 15.066400000000002], [74.01353, 15.067330000000002], [74.01627, 15.071760000000001], [74.01353, 15.072610000000001], [74.01181000000001, 15.07492], [74.00746000000001, 15.077110000000001], [74.00434, 15.081330000000001], [74.00381, 15.084080000000002], [74.00281000000001, 15.08477], [74.00286000000001, 15.094240000000001], [74.00398000000001, 15.097570000000001], [74.00533, 15.099050000000002], [74.00041, 15.098210000000002], [73.99829000000001, 15.099630000000001], [73.9955, 15.098030000000001], [73.99288, 15.097850000000001], [73.99148000000001, 15.096530000000001], [73.99044, 15.098130000000001], [73.98671, 15.097280000000001], [73.98041, 15.098930000000001], [73.95824, 15.088750000000001], [73.95477000000001, 15.09387], [73.95209000000001, 15.096280000000002], [73.94747000000001, 15.106610000000002], [73.94329, 15.109820000000001], [73.94032, 15.11363], [73.93836, 15.116890000000001], [73.94058000000001, 15.117210000000002], [73.9409, 15.121050000000002], [73.93912, 15.12827], [73.93586, 15.132100000000001], [73.94221, 15.13549], [73.94586000000001, 15.141230000000002], [73.94948000000001, 15.140820000000001], [73.95631, 15.135270000000002], [73.95534, 15.136400000000002], [73.96021, 15.137880000000001], [73.96131000000001, 15.13991], [73.96275, 15.14033], [73.96324, 15.14187], [73.96725, 15.14056], [73.96816000000001, 15.141520000000002], [73.96959000000001, 15.14126], [73.97005, 15.142540000000002], [73.97289, 15.144570000000002], [73.97475, 15.14455], [73.97504, 15.146310000000001], [73.97587, 15.14573], [73.97932, 15.147000000000002], [73.9804, 15.149420000000001], [73.99069, 15.15483], [73.99995000000001, 15.156300000000002], [74.00519000000001, 15.153900000000002], [74.00508, 15.152940000000001], [74.00845000000001, 15.152310000000002], [74.01272, 15.15717], [74.01276, 15.159400000000002], [74.0154, 15.159830000000001], [74.01803000000001, 15.16271], [74.01696000000001, 15.16463], [74.02367000000001, 15.166030000000001], [74.02265000000001, 15.172320000000001], [74.03109, 15.175], [74.0385, 15.175810000000002], [74.0404, 15.17777], [74.03452, 15.18566], [74.03437000000001, 15.193780000000002], [74.04103, 15.19447], [74.04444000000001, 15.19907], [74.04756, 15.20137], [74.04726000000001, 15.202330000000002], [74.04577, 15.20274], [74.04652, 15.204210000000002], [74.04637000000001, 15.206550000000002], [74.04747, 15.207260000000002], [74.04530000000001, 15.213210000000002], [74.04549, 15.214800000000002], [74.04361, 15.217300000000002], [74.04442, 15.218230000000002], [74.04729, 15.216560000000001], [74.05125000000001, 15.21592], [74.05472, 15.217220000000001], [74.0591, 15.221040000000002], [74.06231000000001, 15.22193], [74.06298000000001, 15.223550000000001], [74.06291, 15.22544], [74.0605, 15.227990000000002], [74.05529, 15.22624], [74.04554, 15.23061], [74.04663000000001, 15.23976], [74.0454, 15.244620000000001], [74.04367, 15.247240000000001], [74.04844, 15.250760000000001], [74.05158, 15.254460000000002], [74.05656, 15.25426], [74.05788000000001, 15.25989], [74.06245000000001, 15.260510000000002], [74.06309, 15.261220000000002], [74.06182000000001, 15.267850000000001], [74.06611000000001, 15.267280000000001], [74.06871000000001, 15.2681], [74.07008, 15.272140000000002], [74.07362, 15.275660000000002], [74.07584, 15.274250000000002], [74.08065, 15.277050000000001], [74.08303000000001, 15.277600000000001], [74.08811, 15.272750000000002]]]}}, {"id": "9", "type": "Feature", "properties": {"state_name": "Goa", "district_name": "South Goa", "block_name": "Sanguem", "block_lgd": 5618, "district_lgd": 552}, "geometry": {"type": "Polygon", "coordinates": [[[74.17838, 15.336440000000001], [74.176, 15.334640000000002], [74.17627, 15.33168], [74.1798, 15.326520000000002], [74.18391000000001, 15.323570000000002], [74.18194000000001, 15.32159], [74.18512000000001, 15.31718], [74.18527, 15.311610000000002], [74.18769, 15.311940000000002], [74.19382, 15.310870000000001], [74.19702000000001, 15.311390000000001], [74.20334000000001, 15.309460000000001], [74.20665000000001, 15.309600000000001], [74.20888000000001, 15.31197], [74.21100000000001, 15.311330000000002], [74.21717000000001, 15.314470000000002], [74.22074, 15.315430000000001], [74.22545000000001, 15.319220000000001], [74.22661000000001, 15.321280000000002], [74.22819000000001, 15.321390000000001], [74.23005, 15.324570000000001], [74.23007000000001, 15.326130000000001], [74.23115, 15.325660000000001], [74.23191, 15.326210000000001], [74.23269, 15.324710000000001], [74.23691000000001, 15.32318], [74.23657, 15.321560000000002], [74.23753, 15.31882], [74.24171000000001, 15.314860000000001], [74.24518, 15.314950000000001], [74.24811000000001, 15.314100000000002], [74.24957, 15.304800000000002], [74.25608000000001, 15.302410000000002], [74.25867000000001, 15.304990000000002], [74.26053, 15.304240000000002], [74.26165, 15.302500000000002], [74.26672, 15.30502], [74.27222, 15.304990000000002], [74.27346, 15.306120000000002], [74.27718, 15.313690000000001], [74.27835, 15.31033], [74.28067, 15.308660000000001], [74.28123000000001, 15.307260000000001], [74.28099, 15.298660000000002], [74.28413, 15.29742], [74.28524, 15.295710000000001], [74.29431000000001, 15.289250000000001], [74.29326, 15.28457], [74.28763000000001, 15.28395], [74.28176, 15.28048], [74.2763, 15.283600000000002], [74.27146, 15.28119], [74.27000000000001, 15.276890000000002], [74.26513, 15.268960000000002], [74.26153000000001, 15.260790000000002], [74.25109, 15.258920000000002], [74.25467, 15.254140000000001], [74.2522, 15.251070000000002], [74.25528, 15.247580000000001], [74.25590000000001, 15.245090000000001], [74.25957000000001, 15.241080000000002], [74.28113, 15.236320000000001], [74.28669000000001, 15.232880000000002], [74.29149000000001, 15.233870000000001], [74.30159, 15.22441], [74.29983, 15.219990000000001], [74.30139000000001, 15.21723], [74.30218, 15.21807], [74.3045, 15.216780000000002], [74.30424000000001, 15.21409], [74.30547, 15.21268], [74.30572000000001, 15.209460000000002], [74.31002000000001, 15.206360000000002], [74.30860000000001, 15.201860000000002], [74.30931000000001, 15.1979], [74.31239000000001, 15.191160000000002], [74.31606000000001, 15.18791], [74.31732000000001, 15.183860000000001], [74.31415000000001, 15.180550000000002], [74.31422, 15.17758], [74.31154000000001, 15.175410000000001], [74.30462, 15.163670000000002], [74.29564, 15.15131], [74.29132000000001, 15.148980000000002], [74.28511, 15.1491], [74.28451000000001, 15.145470000000001], [74.2836, 15.145370000000002], [74.28355, 15.142940000000001], [74.28516, 15.136790000000001], [74.28417, 15.13286], [74.28475, 15.113930000000002], [74.28285000000001, 15.113100000000001], [74.28254000000001, 15.10678], [74.27652, 15.105440000000002], [74.27451, 15.10335], [74.27262, 15.097560000000001], [74.27513, 15.096060000000001], [74.27966, 15.088140000000001], [74.28070000000001, 15.068880000000002], [74.28370000000001, 15.066200000000002], [74.28948000000001, 15.064890000000002], [74.29023000000001, 15.053680000000002], [74.29288000000001, 15.05014], [74.29458000000001, 15.049240000000001], [74.29647, 15.04127], [74.28821, 15.036800000000001], [74.28323, 15.031570000000002], [74.28336, 15.023570000000001], [74.27242000000001, 15.014310000000002], [74.26907, 15.00918], [74.26644, 15.006860000000001], [74.26661, 15.004180000000002], [74.26792, 15.002040000000001], [74.26188, 15.00031], [74.25947000000001, 15.000570000000002], [74.25344000000001, 14.997850000000001], [74.24903, 15.00214], [74.24179000000001, 15.00332], [74.23577, 15.010380000000001], [74.23357, 15.015010000000002], [74.23122000000001, 15.024130000000001], [74.23059, 15.029330000000002], [74.23102, 15.033800000000001], [74.22852, 15.03673], [74.2192, 15.04231], [74.21654000000001, 15.045130000000002], [74.20748, 15.043300000000002], [74.18835, 15.0424], [74.18234000000001, 15.04123], [74.18544, 15.045560000000002], [74.18688, 15.053210000000002], [74.18856000000001, 15.055690000000002], [74.19115000000001, 15.057350000000001], [74.19281000000001, 15.063200000000002], [74.19221, 15.06432], [74.18939, 15.065890000000001], [74.18982000000001, 15.068170000000002], [74.18788, 15.068810000000001], [74.19759, 15.07037], [74.19845000000001, 15.070960000000001], [74.19853, 15.07266], [74.19463, 15.078360000000002], [74.19018000000001, 15.0814], [74.18855, 15.08172], [74.18564, 15.08078], [74.18123, 15.082260000000002], [74.17449, 15.08247], [74.17391, 15.085040000000001], [74.17161, 15.085980000000001], [74.17236000000001, 15.087650000000002], [74.17083000000001, 15.090370000000002], [74.17269, 15.089910000000001], [74.17453, 15.090950000000001], [74.17679000000001, 15.10612], [74.17811, 15.108110000000002], [74.17382, 15.11259], [74.17346, 15.114340000000002], [74.17014, 15.114550000000001], [74.17062, 15.11686], [74.16934, 15.119190000000001], [74.16812, 15.120360000000002], [74.16562, 15.119660000000001], [74.16491, 15.121830000000001], [74.15861000000001, 15.12339], [74.15785000000001, 15.122530000000001], [74.15633000000001, 15.123510000000001], [74.15562, 15.122430000000001], [74.15322, 15.12179], [74.15039, 15.118780000000001], [74.14248, 15.11452], [74.13811000000001, 15.114720000000002], [74.13427, 15.11715], [74.13359000000001, 15.120040000000001], [74.12991000000001, 15.120880000000001], [74.12814, 15.12414], [74.12572, 15.122190000000002], [74.12702, 15.120590000000002], [74.12345, 15.11597], [74.11981, 15.115430000000002], [74.11642, 15.116640000000002], [74.11046, 15.115680000000001], [74.10969, 15.115330000000002], [74.10846000000001, 15.111740000000001], [74.10714, 15.111110000000002], [74.10624, 15.108060000000002], [74.10277, 15.10743], [74.10192, 15.108390000000002], [74.10220000000001, 15.112670000000001], [74.10096, 15.114360000000001], [74.10184000000001, 15.1148], [74.10116000000001, 15.11747], [74.09906000000001, 15.120940000000001], [74.09904, 15.1233], [74.10010000000001, 15.1247], [74.09917, 15.125580000000001], [74.09939, 15.128200000000001], [74.09737000000001, 15.1292], [74.09769, 15.130690000000001], [74.09654, 15.13212], [74.09633000000001, 15.135010000000001], [74.08898, 15.136170000000002], [74.08608000000001, 15.135220000000002], [74.08508, 15.135580000000001], [74.08157, 15.1392], [74.08069, 15.141930000000002], [74.07965, 15.142540000000002], [74.07899, 15.147820000000001], [74.07987, 15.148480000000001], [74.07817, 15.154670000000001], [74.07599, 15.156870000000001], [74.07036000000001, 15.156860000000002], [74.06335, 15.16149], [74.06751000000001, 15.16815], [74.06536000000001, 15.177190000000001], [74.06840000000001, 15.178560000000001], [74.07087, 15.17735], [74.0729, 15.177920000000002], [74.07456, 15.179430000000002], [74.07722000000001, 15.180230000000002], [74.07881, 15.182430000000002], [74.08152000000001, 15.181970000000002], [74.08469000000001, 15.183140000000002], [74.08687, 15.183000000000002], [74.0865, 15.185500000000001], [74.08908000000001, 15.186420000000002], [74.09097000000001, 15.188910000000002], [74.0959, 15.19053], [74.09673000000001, 15.188860000000002], [74.09959, 15.188580000000002], [74.10142, 15.189810000000001], [74.10613000000001, 15.190790000000002], [74.10560000000001, 15.18932], [74.10851000000001, 15.184260000000002], [74.11041, 15.18186], [74.11297, 15.180850000000001], [74.11408, 15.177000000000001], [74.11818000000001, 15.173900000000001], [74.11947, 15.171070000000002], [74.12275000000001, 15.16899], [74.12373000000001, 15.168830000000002], [74.12591, 15.170740000000002], [74.12791, 15.170280000000002], [74.13065, 15.172460000000001], [74.14805000000001, 15.16745], [74.15384, 15.169990000000002], [74.15601000000001, 15.172320000000001], [74.16578000000001, 15.17388], [74.17119000000001, 15.175930000000001], [74.17257000000001, 15.177520000000001], [74.1748, 15.18744], [74.17299000000001, 15.18833], [74.17082, 15.192290000000002], [74.16708000000001, 15.19143], [74.16067000000001, 15.192290000000002], [74.15923000000001, 15.196000000000002], [74.15171000000001, 15.203040000000001], [74.14834, 15.204300000000002], [74.14431, 15.208070000000001], [74.14024, 15.210280000000001], [74.13758, 15.211020000000001], [74.13435000000001, 15.21038], [74.13342, 15.212810000000001], [74.1298, 15.216540000000002], [74.1276, 15.221520000000002], [74.12725, 15.22568], [74.12943, 15.228520000000001], [74.13542000000001, 15.232410000000002], [74.13829000000001, 15.23225], [74.1423, 15.2337], [74.14415000000001, 15.23727], [74.14754, 15.23779], [74.14808000000001, 15.240340000000002], [74.14648000000001, 15.240900000000002], [74.14452, 15.239450000000001], [74.14352000000001, 15.239700000000001], [74.14297, 15.244570000000001], [74.13769, 15.245680000000002], [74.13703000000001, 15.246760000000002], [74.13802000000001, 15.249010000000002], [74.13455, 15.25298], [74.13233000000001, 15.252830000000001], [74.1298, 15.25101], [74.12888000000001, 15.248780000000002], [74.12734, 15.24876], [74.12769, 15.25711], [74.12663, 15.258540000000002], [74.1237, 15.257980000000002], [74.12124, 15.259710000000002], [74.12243000000001, 15.265200000000002], [74.12019000000001, 15.270240000000001], [74.11872000000001, 15.270750000000001], [74.11743000000001, 15.270240000000001], [74.11326000000001, 15.265220000000001], [74.10941000000001, 15.26669], [74.10287000000001, 15.266090000000002], [74.09942000000001, 15.26941], [74.09912, 15.270700000000001], [74.10147, 15.27222], [74.10183, 15.275500000000001], [74.10581, 15.28269], [74.10447, 15.285050000000002], [74.10513, 15.287170000000001], [74.10181, 15.290120000000002], [74.10674, 15.294880000000001], [74.11831000000001, 15.294680000000001], [74.12118000000001, 15.29348], [74.12735, 15.292740000000002], [74.12833, 15.291630000000001], [74.12873, 15.289150000000001], [74.13339, 15.292110000000001], [74.13550000000001, 15.29649], [74.13666, 15.296420000000001], [74.14249000000001, 15.299410000000002], [74.14327, 15.30193], [74.14223000000001, 15.306780000000002], [74.14531000000001, 15.30807], [74.14733000000001, 15.30755], [74.15231, 15.309610000000001], [74.1607, 15.311160000000001], [74.16043, 15.312050000000001], [74.16192000000001, 15.312500000000002], [74.16191, 15.313440000000002], [74.1632, 15.313480000000002], [74.16448000000001, 15.311510000000002], [74.16914000000001, 15.31394], [74.16831, 15.317950000000002], [74.16952, 15.322780000000002], [74.16733, 15.322890000000001], [74.16649000000001, 15.324180000000002], [74.16735, 15.340000000000002], [74.17026, 15.34219], [74.17107, 15.34171], [74.17030000000001, 15.340130000000002], [74.17249000000001, 15.339900000000002], [74.17530000000001, 15.343090000000002], [74.17828, 15.34341], [74.179, 15.34307], [74.17809000000001, 15.341260000000002], [74.17885000000001, 15.34021], [74.17838, 15.336440000000001]]]}}, {"id": "10", "type": "Feature", "properties": {"state_name": "Goa", "district_name": "South Goa", "block_name": "Canacona", "block_lgd": 5619, "district_lgd": 552}, "geometry": {"type": "MultiPolygon", "coordinates": [[[[73.94329, 15.109820000000001], [73.94747000000001, 15.106610000000002], [73.95209000000001, 15.096280000000002], [73.95477000000001, 15.09387], [73.95824, 15.088750000000001], [73.98041, 15.098930000000001], [73.98671, 15.097280000000001], [73.99044, 15.098130000000001], [73.99148000000001, 15.096530000000001], [73.99288, 15.097850000000001], [73.9955, 15.098030000000001], [73.99829000000001, 15.099630000000001], [74.00041, 15.098210000000002], [74.00533, 15.099050000000002], [74.00398000000001, 15.097570000000001], [74.00286000000001, 15.094240000000001], [74.00281000000001, 15.08477], [74.00381, 15.084080000000002], [74.00434, 15.081330000000001], [74.00746000000001, 15.077110000000001], [74.01181000000001, 15.07492], [74.01353, 15.072610000000001], [74.01627, 15.071760000000001], [74.01353, 15.067330000000002], [74.01055000000001, 15.066400000000002], [74.01027, 15.064990000000002], [74.00946, 15.065010000000001], [74.01283000000001, 15.058460000000002], [74.01447, 15.0532], [74.01882, 15.053210000000002], [74.02324, 15.05164], [74.02646, 15.052090000000002], [74.03188, 15.050880000000001], [74.03645, 15.052270000000002], [74.04663000000001, 15.049750000000001], [74.05209, 15.04737], [74.06057000000001, 15.052310000000002], [74.06744, 15.051480000000002], [74.07065, 15.053880000000001], [74.07295, 15.054060000000002], [74.07993, 15.051580000000001], [74.08358000000001, 15.052460000000002], [74.09235000000001, 15.04789], [74.09440000000001, 15.04404], [74.09753, 15.042280000000002], [74.10441, 15.05498], [74.11122, 15.06056], [74.12439, 15.064570000000002], [74.12753000000001, 15.066310000000001], [74.12952, 15.06609], [74.13544, 15.06798], [74.13991, 15.067530000000001], [74.14277000000001, 15.06539], [74.14905, 15.067450000000001], [74.15718000000001, 15.06591], [74.15966, 15.0668], [74.1623, 15.06591], [74.16518, 15.062830000000002], [74.1697, 15.05985], [74.17001, 15.05822], [74.16713, 15.053400000000002], [74.16365, 15.05263], [74.16184000000001, 15.051010000000002], [74.16092, 15.049280000000001], [74.16161000000001, 15.04845], [74.16542000000001, 15.048240000000002], [74.16527, 15.045770000000001], [74.16631000000001, 15.04466], [74.16887000000001, 15.04493], [74.17412, 15.043160000000002], [74.17632, 15.040920000000002], [74.17876000000001, 15.040450000000002], [74.18092, 15.041860000000002], [74.18234000000001, 15.04123], [74.18835, 15.0424], [74.20748, 15.043300000000002], [74.21654000000001, 15.045130000000002], [74.2192, 15.04231], [74.22852, 15.03673], [74.23102, 15.033800000000001], [74.23059, 15.029330000000002], [74.23122000000001, 15.024130000000001], [74.23357, 15.015010000000002], [74.23577, 15.010380000000001], [74.24179000000001, 15.00332], [74.24903, 15.00214], [74.25344000000001, 14.997850000000001], [74.2519, 14.994010000000001], [74.25209000000001, 14.992750000000001], [74.25496000000001, 14.989460000000001], [74.25767, 14.9883], [74.26429, 14.97859], [74.26096000000001, 14.976540000000002], [74.25902, 14.970130000000001], [74.25524, 14.970490000000002], [74.25343000000001, 14.96372], [74.25371000000001, 14.96118], [74.25256, 14.95916], [74.25018, 14.959930000000002], [74.24931000000001, 14.959200000000001], [74.24752000000001, 14.961990000000002], [74.24556000000001, 14.961940000000002], [74.24425000000001, 14.963400000000002], [74.24137, 14.964380000000002], [74.23911000000001, 14.966790000000001], [74.23667, 14.96691], [74.23493, 14.964660000000002], [74.23283, 14.964190000000002], [74.23142, 14.958160000000001], [74.23172000000001, 14.95343], [74.22977, 14.950560000000001], [74.22727, 14.94987], [74.22593, 14.950520000000001], [74.22398000000001, 14.94898], [74.21997, 14.94809], [74.21752000000001, 14.94602], [74.21363000000001, 14.94776], [74.21161000000001, 14.943610000000001], [74.21260000000001, 14.94034], [74.2091, 14.938130000000001], [74.20412, 14.92834], [74.20151, 14.925790000000001], [74.19167, 14.93307], [74.19460000000001, 14.937120000000002], [74.19473, 14.940010000000001], [74.19123, 14.94508], [74.18524000000001, 14.947360000000002], [74.18214, 14.949180000000002], [74.18143, 14.950590000000002], [74.17969000000001, 14.950870000000002], [74.17833, 14.953740000000002], [74.17943000000001, 14.957120000000002], [74.17473000000001, 14.9586], [74.17134, 14.957260000000002], [74.17032, 14.958020000000001], [74.16358000000001, 14.95855], [74.16079, 14.955680000000001], [74.15912, 14.955800000000002], [74.15943, 14.954900000000002], [74.15811000000001, 14.953070000000002], [74.15869, 14.952190000000002], [74.15781000000001, 14.951300000000002], [74.15831, 14.949380000000001], [74.15530000000001, 14.946550000000002], [74.15499000000001, 14.944160000000002], [74.15413000000001, 14.9434], [74.15544000000001, 14.94227], [74.15423000000001, 14.939900000000002], [74.15621, 14.938930000000001], [74.15679, 14.93462], [74.15766, 14.9341], [74.15852000000001, 14.930290000000001], [74.15951000000001, 14.92848], [74.16255000000001, 14.926950000000001], [74.16588, 14.918660000000001], [74.16616, 14.916620000000002], [74.16209, 14.912210000000002], [74.15339, 14.916360000000001], [74.15339, 14.91721], [74.14569, 14.919010000000002], [74.14369, 14.921520000000001], [74.14012000000001, 14.923290000000001], [74.13501000000001, 14.922160000000002], [74.12979, 14.925540000000002], [74.12419000000001, 14.925390000000002], [74.12041, 14.919910000000002], [74.12157, 14.918040000000001], [74.11995, 14.916960000000001], [74.11458, 14.918420000000001], [74.11356, 14.91736], [74.11272000000001, 14.917800000000002], [74.10959000000001, 14.917040000000002], [74.10844, 14.91402], [74.10729, 14.914240000000001], [74.10476000000001, 14.912970000000001], [74.1016, 14.91586], [74.09449000000001, 14.91106], [74.09025000000001, 14.903480000000002], [74.08816, 14.903500000000001], [74.08531, 14.900380000000002], [74.08359, 14.900770000000001], [74.08426, 14.902280000000001], [74.08346, 14.903760000000002], [74.08421000000001, 14.90441], [74.08111000000001, 14.909080000000001], [74.07538000000001, 14.90854], [74.07133, 14.906110000000002], [74.07026, 14.906810000000002], [74.07013, 14.908170000000002], [74.06839000000001, 14.908330000000001], [74.06709000000001, 14.905830000000002], [74.06490000000001, 14.908260000000002], [74.06087000000001, 14.90914], [74.05711000000001, 14.913400000000001], [74.04798000000001, 14.914100000000001], [74.0442, 14.9166], [74.04279000000001, 14.92209], [74.04606000000001, 14.923490000000001], [74.0447, 14.92589], [74.04570000000001, 14.926770000000001], [74.0447, 14.928590000000002], [74.04718000000001, 14.929020000000001], [74.04764, 14.930390000000001], [74.04636, 14.931970000000002], [74.04786, 14.933340000000001], [74.04523, 14.939480000000001], [74.04367, 14.94067], [74.04349, 14.941870000000002], [74.04512000000001, 14.94447], [74.04453000000001, 14.945870000000001], [74.04267, 14.94654], [74.0425, 14.94762], [74.04416, 14.949370000000002], [74.04696000000001, 14.95057], [74.04939, 14.957410000000001], [74.04004, 14.9815], [74.03444, 14.981770000000001], [74.03415000000001, 14.98272], [74.03764000000001, 14.984060000000001], [74.03788, 14.98529], [74.03342, 14.99656], [74.03075000000001, 14.998140000000001], [74.02658000000001, 14.997000000000002], [74.02640000000001, 14.998320000000001], [74.02906, 15.000280000000002], [74.02839, 15.001050000000001], [74.02531, 15.000440000000001], [74.02402000000001, 15.00172], [74.02434000000001, 15.002810000000002], [74.02653000000001, 15.003350000000001], [74.02605000000001, 15.006380000000002], [74.02323000000001, 15.00918], [74.01754000000001, 15.010850000000001], [74.01549, 15.010470000000002], [74.01476000000001, 15.006400000000001], [74.01228, 15.006300000000001], [74.01096000000001, 15.00805], [74.01221000000001, 15.01063], [74.01145000000001, 15.011960000000002], [74.00797, 15.01383], [74.00713, 15.016000000000002], [74.00336, 15.01504], [74.00152, 15.018390000000002], [73.99962000000001, 15.017400000000002], [73.99772, 15.019950000000001], [73.99649000000001, 15.019580000000001], [73.99600000000001, 15.01819], [73.99386000000001, 15.01654], [73.98955000000001, 15.01884], [73.98965000000001, 15.022480000000002], [73.98847, 15.024400000000002], [73.98612, 15.024420000000001], [73.98814, 15.025660000000002], [73.9863, 15.027610000000001], [73.99043, 15.028770000000002], [73.99112000000001, 15.031640000000001], [73.98504000000001, 15.047030000000001], [73.98141000000001, 15.050960000000002], [73.97885000000001, 15.051280000000002], [73.97523000000001, 15.04892], [73.97273000000001, 15.050510000000001], [73.97035000000001, 15.058840000000002], [73.96889, 15.060830000000001], [73.96724, 15.06154], [73.96788000000001, 15.063020000000002], [73.96715, 15.06483], [73.96342, 15.064710000000002], [73.96233000000001, 15.06647], [73.95989, 15.067140000000002], [73.95745000000001, 15.069120000000002], [73.95469, 15.069160000000002], [73.95462, 15.072540000000002], [73.94921000000001, 15.074710000000001], [73.94035000000001, 15.074570000000001], [73.93650000000001, 15.077060000000001], [73.93252000000001, 15.077290000000001], [73.93144000000001, 15.07923], [73.93167000000001, 15.082410000000001], [73.92774, 15.083260000000001], [73.92645, 15.085110000000002], [73.92377, 15.085590000000002], [73.92119000000001, 15.084990000000001], [73.91721000000001, 15.082540000000002], [73.91605000000001, 15.083450000000001], [73.91210000000001, 15.082920000000001], [73.91287000000001, 15.085250000000002], [73.92205000000001, 15.09082], [73.92642000000001, 15.095880000000001], [73.9252, 15.103480000000001], [73.92292, 15.106290000000001], [73.91857, 15.106020000000001], [73.91798, 15.107030000000002], [73.93191, 15.112100000000002], [73.93560000000001, 15.111960000000002], [73.93647, 15.112770000000001], [73.93679, 15.115240000000002], [73.93836, 15.116890000000001], [73.94032, 15.11363], [73.94329, 15.109820000000001]]], [[[74.11906, 14.755180000000001], [74.11952000000001, 14.752910000000002], [74.11147000000001, 14.75534], [74.10967000000001, 14.75393], [74.11049000000001, 14.756440000000001], [74.10817, 14.757750000000001], [74.10807000000001, 14.759630000000001], [74.10983, 14.76186], [74.11135, 14.76162], [74.11122, 14.760130000000002], [74.11213000000001, 14.75895], [74.11614, 14.755670000000002], [74.11906, 14.755180000000001]]]]}}, {"id": "11", "type": "Feature", "properties": {"state_name": "Goa", "district_name": "South Goa", "block_name": "Dharbandora", "block_lgd": 5931, "district_lgd": 552}, "geometry": {"type": "Polygon", "coordinates": [[[74.25106000000001, 15.491430000000001], [74.25827000000001, 15.482120000000002], [74.26396000000001, 15.472420000000001], [74.27543, 15.449250000000001], [74.27628, 15.442980000000002], [74.27734000000001, 15.440560000000001], [74.27674, 15.437930000000001], [74.27510000000001, 15.436480000000001], [74.27687, 15.43528], [74.26989, 15.426060000000001], [74.26879000000001, 15.419110000000002], [74.27039, 15.416030000000001], [74.27430000000001, 15.41365], [74.27622000000001, 15.408460000000002], [74.27828000000001, 15.40576], [74.27585, 15.391660000000002], [74.28293000000001, 15.383040000000001], [74.29870000000001, 15.381990000000002], [74.30858, 15.37452], [74.32318000000001, 15.367740000000001], [74.31624000000001, 15.362960000000001], [74.31602000000001, 15.360040000000001], [74.32182, 15.343660000000002], [74.31722, 15.335170000000002], [74.31768000000001, 15.33398], [74.31700000000001, 15.329180000000001], [74.32441, 15.309980000000001], [74.33642, 15.295010000000001], [74.33072, 15.28757], [74.32634, 15.283800000000001], [74.32054000000001, 15.284770000000002], [74.31960000000001, 15.283510000000001], [74.30793000000001, 15.283400000000002], [74.29431000000001, 15.289250000000001], [74.28524, 15.295710000000001], [74.28413, 15.29742], [74.28099, 15.298660000000002], [74.28123000000001, 15.307260000000001], [74.28067, 15.308660000000001], [74.27835, 15.31033], [74.27718, 15.313690000000001], [74.27346, 15.306120000000002], [74.27222, 15.304990000000002], [74.26672, 15.30502], [74.26165, 15.302500000000002], [74.26053, 15.304240000000002], [74.25867000000001, 15.304990000000002], [74.25608000000001, 15.302410000000002], [74.24957, 15.304800000000002], [74.24811000000001, 15.314100000000002], [74.24518, 15.314950000000001], [74.24171000000001, 15.314860000000001], [74.23753, 15.31882], [74.23657, 15.321560000000002], [74.23691000000001, 15.32318], [74.23269, 15.324710000000001], [74.23191, 15.326210000000001], [74.23115, 15.325660000000001], [74.23007000000001, 15.326130000000001], [74.23005, 15.324570000000001], [74.22819000000001, 15.321390000000001], [74.22661000000001, 15.321280000000002], [74.22545000000001, 15.319220000000001], [74.22074, 15.315430000000001], [74.21717000000001, 15.314470000000002], [74.21100000000001, 15.311330000000002], [74.20888000000001, 15.31197], [74.20665000000001, 15.309600000000001], [74.20334000000001, 15.309460000000001], [74.19702000000001, 15.311390000000001], [74.19382, 15.310870000000001], [74.18769, 15.311940000000002], [74.18527, 15.311610000000002], [74.18512000000001, 15.31718], [74.18194000000001, 15.32159], [74.18391000000001, 15.323570000000002], [74.1798, 15.326520000000002], [74.17627, 15.33168], [74.176, 15.334640000000002], [74.17838, 15.336440000000001], [74.17885000000001, 15.34021], [74.17809000000001, 15.341260000000002], [74.179, 15.34307], [74.17828, 15.34341], [74.17530000000001, 15.343090000000002], [74.17249000000001, 15.339900000000002], [74.17030000000001, 15.340130000000002], [74.17107, 15.34171], [74.17026, 15.34219], [74.16735, 15.340000000000002], [74.16649000000001, 15.324180000000002], [74.16733, 15.322890000000001], [74.16952, 15.322780000000002], [74.16831, 15.317950000000002], [74.16914000000001, 15.31394], [74.16448000000001, 15.311510000000002], [74.1632, 15.313480000000002], [74.16191, 15.313440000000002], [74.16192000000001, 15.312500000000002], [74.16043, 15.312050000000001], [74.1607, 15.311160000000001], [74.15231, 15.309610000000001], [74.14733000000001, 15.30755], [74.14531000000001, 15.30807], [74.14223000000001, 15.306780000000002], [74.14327, 15.30193], [74.14249000000001, 15.299410000000002], [74.13666, 15.296420000000001], [74.13550000000001, 15.29649], [74.13339, 15.292110000000001], [74.12873, 15.289150000000001], [74.12833, 15.291630000000001], [74.12735, 15.292740000000002], [74.12118000000001, 15.29348], [74.11831000000001, 15.294680000000001], [74.10674, 15.294880000000001], [74.10181, 15.290120000000002], [74.09521000000001, 15.295740000000002], [74.09267000000001, 15.29573], [74.09117, 15.296700000000001], [74.09098, 15.298710000000002], [74.08799, 15.299760000000001], [74.08838, 15.302510000000002], [74.09048, 15.304290000000002], [74.08653000000001, 15.31098], [74.08707000000001, 15.312120000000002], [74.08637, 15.314940000000002], [74.08765000000001, 15.317100000000002], [74.08476, 15.318290000000001], [74.08257, 15.323100000000002], [74.08358000000001, 15.327430000000001], [74.08909000000001, 15.33153], [74.09067, 15.331660000000001], [74.09295, 15.334150000000001], [74.0939, 15.33707], [74.09508000000001, 15.33763], [74.09450000000001, 15.338700000000001], [74.09666, 15.343510000000002], [74.09578, 15.344890000000001], [74.09779, 15.346330000000002], [74.10165, 15.346760000000002], [74.10343, 15.34589], [74.10484000000001, 15.34669], [74.10296000000001, 15.349430000000002], [74.09934000000001, 15.34998], [74.09845, 15.351230000000001], [74.10004, 15.355100000000002], [74.10147, 15.35513], [74.10270000000001, 15.353970000000002], [74.10395000000001, 15.354940000000001], [74.10089, 15.358850000000002], [74.10221, 15.361910000000002], [74.10428, 15.36273], [74.10426000000001, 15.364980000000001], [74.10131000000001, 15.365990000000002], [74.10201, 15.369140000000002], [74.10075, 15.370930000000001], [74.10057, 15.373610000000001], [74.09796, 15.374], [74.09713, 15.375430000000001], [74.09569, 15.375860000000001], [74.09333000000001, 15.374270000000001], [74.09319, 15.375800000000002], [74.09467000000001, 15.379570000000001], [74.09701000000001, 15.377580000000002], [74.09835000000001, 15.377790000000001], [74.09848000000001, 15.37864], [74.09608, 15.382430000000001], [74.09413, 15.383300000000002], [74.09158000000001, 15.383540000000002], [74.09138, 15.382080000000002], [74.09056000000001, 15.38174], [74.08787000000001, 15.3914], [74.08406000000001, 15.389780000000002], [74.08084000000001, 15.393620000000002], [74.08032, 15.395480000000001], [74.07831, 15.392090000000001], [74.0768, 15.391190000000002], [74.07607, 15.3916], [74.075, 15.396090000000001], [74.07708000000001, 15.399420000000001], [74.07635, 15.40055], [74.07392, 15.40107], [74.07165, 15.404580000000001], [74.07438, 15.409390000000002], [74.07138, 15.412500000000001], [74.08252, 15.41768], [74.08464000000001, 15.420270000000002], [74.09114000000001, 15.42186], [74.10350000000001, 15.427270000000002], [74.10982, 15.418940000000001], [74.11068, 15.427830000000002], [74.11362000000001, 15.430230000000002], [74.11828000000001, 15.431590000000002], [74.11944000000001, 15.43284], [74.12414000000001, 15.437800000000001], [74.13288, 15.434650000000001], [74.13690000000001, 15.43636], [74.13823000000001, 15.438860000000002], [74.14797, 15.438480000000002], [74.15097, 15.439560000000002], [74.15153000000001, 15.4418], [74.15286, 15.441970000000001], [74.15334, 15.440850000000001], [74.15545, 15.43969], [74.16023000000001, 15.442090000000002], [74.16318000000001, 15.441250000000002], [74.16810000000001, 15.44316], [74.17037, 15.439530000000001], [74.17868, 15.437230000000001], [74.18233000000001, 15.442060000000001], [74.18728, 15.44438], [74.1889, 15.446990000000001], [74.18939, 15.45541], [74.19315, 15.458940000000002], [74.19513, 15.462560000000002], [74.19785, 15.46423], [74.19943, 15.466510000000001], [74.20547, 15.46986], [74.2116, 15.47113], [74.2145, 15.473110000000002], [74.22169000000001, 15.475360000000002], [74.22736, 15.48126], [74.22904000000001, 15.482080000000002], [74.23027, 15.481040000000002], [74.23010000000001, 15.482770000000002], [74.23121, 15.483970000000001], [74.24181, 15.488270000000002], [74.24542000000001, 15.4884], [74.24668000000001, 15.490760000000002], [74.24822, 15.491220000000002], [74.25106000000001, 15.491430000000001]]]}}]}