{"type": "FeatureCollection", "metadata": {"source": "Survey of India (per src_agency attribute in the source data)", "hosted_via": "National Water Data Portal (NWDP), NWIC, Ministry of Jal Shakti -- https://nwdp.nwic.gov.in/", "access": "public, no login required", "crs_original": "EPSG:7755 (WGS 84 / India NSF LCC)", "fetch_date": "2026-08-02", "quality": "verified-official -- Survey of India source", "state": "Puducherry", "processing": "reprojected to EPSG:4326, topology-preserving simplify (shared-arc, tolerance 0.0005 deg) so adjacent polygons never overlap/gap at shared borders, coords rounded 5dp, 0 feature(s) needed the per-feature fallback", "feature_count": 8, "level_note": "SoI sub-district (sdcode) -- the closest available Survey of India product to Block/Tehsil; SoI's own block/bkcode grouping has no separate boundary product."}, "features": [{"id": "0", "type": "Feature", "properties": {"state_name": "Puducherry", "district_name": "Pondicherry", "block_name": "Bahour Taluk", "block_lgd": 5912, "district_lgd": 600}, "geometry": {"type": "MultiPolygon", "coordinates": [[[[79.7389, 11.84356], [79.73955000000001, 11.84232], [79.74858, 11.84065], [79.75067, 11.83858], [79.7556, 11.83749], [79.75561, 11.836820000000001], [79.76439, 11.833480000000002], [79.76523, 11.831850000000001], [79.76495000000001, 11.824110000000001], [79.76765, 11.823300000000001], [79.76772000000001, 11.82266], [79.76992000000001, 11.822600000000001], [79.77000000000001, 11.82333], [79.77294, 11.82262], [79.77328, 11.82628], [79.77429000000001, 11.8269], [79.77470000000001, 11.828570000000001], [79.77608000000001, 11.82862], [79.77828000000001, 11.83167], [79.78012000000001, 11.831800000000001], [79.78632, 11.83093], [79.78729000000001, 11.829310000000001], [79.79226000000001, 11.8275], [79.79571, 11.82845], [79.79616, 11.826870000000001], [79.79502000000001, 11.825740000000001], [79.7959, 11.82465], [79.79737, 11.824510000000002], [79.79833, 11.82745], [79.80043, 11.82904], [79.80061, 11.83059], [79.79859, 11.833260000000001], [79.79360000000001, 11.83242], [79.79378000000001, 11.833480000000002], [79.79804, 11.834600000000002], [79.79761, 11.837750000000002], [79.79819, 11.838650000000001], [79.80033, 11.837610000000002], [79.80216, 11.83384], [79.80820000000001, 11.833480000000002], [79.79814, 11.79765], [79.79692, 11.78518], [79.78433000000001, 11.78729], [79.78298000000001, 11.7849], [79.78114000000001, 11.78425], [79.7804, 11.78114], [79.77489000000001, 11.78241], [79.77468, 11.781860000000002], [79.77184000000001, 11.782140000000002], [79.77012, 11.783380000000001], [79.77028, 11.787090000000001], [79.77099000000001, 11.78809], [79.77057, 11.789470000000001], [79.76876, 11.78908], [79.76872, 11.790680000000002], [79.76581, 11.791780000000001], [79.76306000000001, 11.790510000000001], [79.76179, 11.790700000000001], [79.76086000000001, 11.786890000000001], [79.75986, 11.786890000000001], [79.75750000000001, 11.7834], [79.75586000000001, 11.775310000000001], [79.75500000000001, 11.77519], [79.74968000000001, 11.776040000000002], [79.74017, 11.780850000000001], [79.7318, 11.78072], [79.72608000000001, 11.782470000000002], [79.72176, 11.78682], [79.71978, 11.7849], [79.71282000000001, 11.790790000000001], [79.71228, 11.791440000000001], [79.71383, 11.79625], [79.71666, 11.796420000000001], [79.71687, 11.797490000000002], [79.72272000000001, 11.79644], [79.72342, 11.79901], [79.72253, 11.799570000000001], [79.72306, 11.802900000000001], [79.72516, 11.802990000000001], [79.72543, 11.80578], [79.72414, 11.80746], [79.72442000000001, 11.81038], [79.72977, 11.809980000000001], [79.72970000000001, 11.80921], [79.73562000000001, 11.809280000000001], [79.73582, 11.81239], [79.73457, 11.81305], [79.73419000000001, 11.814300000000001], [79.7347, 11.81681], [79.73291, 11.81808], [79.73266000000001, 11.823760000000002], [79.73156, 11.82435], [79.73229, 11.833350000000001], [79.72935000000001, 11.836910000000001], [79.7381, 11.83694], [79.73663, 11.84416], [79.73733, 11.84426], [79.73758000000001, 11.843020000000001], [79.7389, 11.84356]]], [[[79.68574000000001, 11.81244], [79.68844, 11.81023], [79.68844, 11.80381], [79.68765, 11.802480000000001], [79.68416, 11.80178], [79.68145000000001, 11.800180000000001], [79.68141, 11.79766], [79.67866000000001, 11.79869], [79.6747, 11.806750000000001], [79.67583, 11.814250000000001], [79.67982, 11.814390000000001], [79.68574000000001, 11.81244]]], [[[79.70291, 11.813300000000002], [79.70184, 11.812460000000002], [79.69614, 11.813440000000002], [79.6922, 11.81292], [79.69307, 11.816020000000002], [79.69207, 11.820910000000001], [79.69236000000001, 11.82328], [79.70023, 11.82286], [79.70092000000001, 11.815740000000002], [79.70227000000001, 11.814620000000001], [79.70291, 11.813300000000002]]], [[[79.66403000000001, 11.83252], [79.66413, 11.83168], [79.66399000000001, 11.826600000000001], [79.66249, 11.822140000000001], [79.66333, 11.81253], [79.66231, 11.809180000000001], [79.65988, 11.807400000000001], [79.65121, 11.80887], [79.64980000000001, 11.81094], [79.64815, 11.811750000000002], [79.6469, 11.81549], [79.64433000000001, 11.81872], [79.64880000000001, 11.82816], [79.64887, 11.830670000000001], [79.6474, 11.83266], [79.64743, 11.83392], [79.65029000000001, 11.838510000000001], [79.65408000000001, 11.83773], [79.66016, 11.83351], [79.66403000000001, 11.83252]]], [[[79.73335, 11.885040000000002], [79.74184000000001, 11.88559], [79.74472, 11.883540000000002], [79.74707000000001, 11.88507], [79.75136, 11.8848], [79.75167, 11.88103], [79.75092000000001, 11.878620000000002], [79.75211, 11.871550000000001], [79.75456000000001, 11.869650000000002], [79.75487000000001, 11.867180000000001], [79.75378, 11.865950000000002], [79.75447000000001, 11.865770000000001], [79.75363, 11.862060000000001], [79.75423, 11.860990000000001], [79.75356000000001, 11.858770000000002], [79.75383000000001, 11.85008], [79.75095, 11.84796], [79.74942, 11.84795], [79.74859000000001, 11.84903], [79.74301000000001, 11.84828], [79.74236, 11.851540000000002], [79.74295000000001, 11.85275], [79.74396, 11.852870000000001], [79.74350000000001, 11.858530000000002], [79.74185, 11.86275], [79.73961000000001, 11.864600000000001], [79.73259, 11.865570000000002], [79.7325, 11.862570000000002], [79.72102000000001, 11.86246], [79.71936000000001, 11.856700000000002], [79.71962, 11.853040000000002], [79.7188, 11.853240000000001], [79.71333000000001, 11.86062], [79.71348, 11.863460000000002], [79.71257, 11.866620000000001], [79.70817000000001, 11.869040000000002], [79.70918, 11.88255], [79.71174, 11.882040000000002], [79.71445000000001, 11.882950000000001], [79.71780000000001, 11.880500000000001], [79.72397000000001, 11.88221], [79.72786, 11.88183], [79.73064000000001, 11.8848], [79.73085, 11.886120000000002], [79.73178, 11.886400000000002], [79.73335, 11.885040000000002]]], [[[79.63843, 11.87724], [79.63989000000001, 11.878490000000001], [79.63938, 11.882290000000001], [79.64627, 11.881430000000002], [79.64703, 11.87794], [79.65037000000001, 11.876460000000002], [79.65225000000001, 11.87357], [79.65266000000001, 11.867450000000002], [79.65397, 11.86555], [79.65892000000001, 11.86532], [79.66125000000001, 11.863280000000001], [79.66488000000001, 11.861930000000001], [79.66621, 11.8572], [79.66331000000001, 11.851590000000002], [79.65995000000001, 11.848310000000001], [79.65431000000001, 11.84562], [79.6503, 11.84496], [79.64876000000001, 11.845160000000002], [79.64691, 11.846820000000001], [79.64135, 11.846660000000002], [79.63514, 11.8498], [79.63069, 11.84928], [79.62999, 11.85172], [79.63139000000001, 11.859620000000001], [79.63332000000001, 11.860640000000002], [79.63158, 11.86668], [79.62455000000001, 11.86551], [79.62306000000001, 11.862720000000001], [79.62316000000001, 11.85927], [79.62233, 11.858490000000002], [79.61841000000001, 11.85843], [79.61668, 11.85618], [79.61391, 11.8566], [79.60751, 11.85344], [79.60574000000001, 11.854270000000001], [79.60544, 11.864400000000002], [79.60682000000001, 11.86564], [79.6066, 11.867790000000001], [79.60491, 11.869150000000001], [79.60368000000001, 11.87916], [79.60446, 11.879550000000002], [79.60873000000001, 11.87808], [79.6123, 11.87368], [79.61411000000001, 11.873780000000002], [79.61835, 11.87845], [79.62383000000001, 11.88183], [79.62502, 11.88668], [79.62627, 11.88789], [79.63354000000001, 11.884820000000001], [79.63421000000001, 11.883360000000001], [79.6337, 11.87936], [79.63626000000001, 11.877630000000002], [79.63843, 11.87724]]]]}}, {"id": "1", "type": "Feature", "properties": {"state_name": "Puducherry", "district_name": "Karaikal", "block_name": "Karaikal Taluk", "block_lgd": 5914, "district_lgd": 598}, "geometry": {"type": "MultiPolygon", "coordinates": [[[[79.82112000000001, 10.99816], [79.82192, 11.000340000000001], [79.82288000000001, 11.000720000000001], [79.82567, 10.998270000000002], [79.82781, 10.998090000000001], [79.8292, 11.00214], [79.83183000000001, 11.002770000000002], [79.84001, 11.001430000000001], [79.83932, 10.995790000000001], [79.84230000000001, 10.995730000000002], [79.84294000000001, 10.994720000000001], [79.85141, 10.99388], [79.85175000000001, 10.992460000000001], [79.85058000000001, 10.990200000000002], [79.85055000000001, 10.987340000000001], [79.85182, 10.9838], [79.85381000000001, 10.983170000000001], [79.85248, 10.93346], [79.85405, 10.91671], [79.85286, 10.905050000000001], [79.85311, 10.889830000000002], [79.85192, 10.87841], [79.85196, 10.84702], [79.85244, 10.845120000000001], [79.85437, 10.84369], [79.85870000000001, 10.84275], [79.86135, 10.83918], [79.86063, 10.837280000000002], [79.85870000000001, 10.83609], [79.85221, 10.8337], [79.8525, 10.827240000000002], [79.85194000000001, 10.827820000000001], [79.84125, 10.82789], [79.83095, 10.827340000000001], [79.82996, 10.83722], [79.82924000000001, 10.8381], [79.83015, 10.83825], [79.82797000000001, 10.849630000000001], [79.82514, 10.84689], [79.82096, 10.84551], [79.81913, 10.847330000000001], [79.81931, 10.84909], [79.81364, 10.849920000000001], [79.80798, 10.855200000000002], [79.80719, 10.85989], [79.80737, 10.865400000000001], [79.80954000000001, 10.865620000000002], [79.80945000000001, 10.863880000000002], [79.81158, 10.859610000000002], [79.81785, 10.8634], [79.82479000000001, 10.864780000000001], [79.82469, 10.86899], [79.8232, 10.870000000000001], [79.82229000000001, 10.87419], [79.81672, 10.87432], [79.81099, 10.875530000000001], [79.81118000000001, 10.88029], [79.8169, 10.88058], [79.81919, 10.87991], [79.82089, 10.881310000000001], [79.82270000000001, 10.88019], [79.82366, 10.881010000000002], [79.82453000000001, 10.880450000000002], [79.82533000000001, 10.881350000000001], [79.82795, 10.88166], [79.82869000000001, 10.883420000000001], [79.82702, 10.884640000000001], [79.82315000000001, 10.884220000000001], [79.81858000000001, 10.8864], [79.81441000000001, 10.88677], [79.81123000000001, 10.888390000000001], [79.80871, 10.887300000000002], [79.80699000000001, 10.887450000000001], [79.80595000000001, 10.887830000000001], [79.80421000000001, 10.891010000000001], [79.80096, 10.89004], [79.79983, 10.88888], [79.79973000000001, 10.88734], [79.79458000000001, 10.8876], [79.79559, 10.889550000000002], [79.79516000000001, 10.8908], [79.79364000000001, 10.89117], [79.79269000000001, 10.89357], [79.79024000000001, 10.89483], [79.78987000000001, 10.89033], [79.78362000000001, 10.8884], [79.78203, 10.890300000000002], [79.78238, 10.895190000000001], [79.78773000000001, 10.895460000000002], [79.7894, 10.896690000000001], [79.79108000000001, 10.89601], [79.79233, 10.89835], [79.79376, 10.89874], [79.79188, 10.90019], [79.79124, 10.90479], [79.79458000000001, 10.90207], [79.79529000000001, 10.902690000000002], [79.79412, 10.90384], [79.79740000000001, 10.90235], [79.80004000000001, 10.903640000000001], [79.80346, 10.902180000000001], [79.80524000000001, 10.90845], [79.80640000000001, 10.909120000000001], [79.80925, 10.90883], [79.80902, 10.910530000000001], [79.80753, 10.91159], [79.80691, 10.92392], [79.80662000000001, 10.92487], [79.80457000000001, 10.925640000000001], [79.80457000000001, 10.92694], [79.80497000000001, 10.928400000000002], [79.80668, 10.928730000000002], [79.80999000000001, 10.93237], [79.80885, 10.93293], [79.8097, 10.9359], [79.81164000000001, 10.936570000000001], [79.80845000000001, 10.945200000000002], [79.81529, 10.945340000000002], [79.81541, 10.945870000000001], [79.81404, 10.95354], [79.81215, 10.95602], [79.81233, 10.95864], [79.80882000000001, 10.97343], [79.80659, 10.97488], [79.80403000000001, 10.981150000000001], [79.79936000000001, 10.982800000000001], [79.79912, 10.9861], [79.80235, 10.988370000000002], [79.80388, 10.986910000000002], [79.80355, 10.98901], [79.80452000000001, 10.99102], [79.8037, 10.99197], [79.80499, 10.992750000000001], [79.80559000000001, 10.991840000000002], [79.80605000000001, 10.992600000000001], [79.80301, 10.995500000000002], [79.80485, 10.9984], [79.80803, 10.99984], [79.81306000000001, 10.9991], [79.81477000000001, 11.001410000000002], [79.81400000000001, 11.00308], [79.81538, 11.003820000000001], [79.81699, 11.002740000000001], [79.81921000000001, 10.99909], [79.82112000000001, 10.99816]]], [[[79.77730000000001, 10.908900000000001], [79.77695000000001, 10.90708], [79.77913000000001, 10.905990000000001], [79.77912, 10.905230000000001], [79.77658000000001, 10.905360000000002], [79.77688, 10.896560000000001], [79.76503000000001, 10.896230000000001], [79.76517000000001, 10.89433], [79.76771000000001, 10.89348], [79.76783, 10.892420000000001], [79.76402, 10.89259], [79.76389, 10.89193], [79.75824, 10.892700000000001], [79.75775, 10.891430000000001], [79.75617000000001, 10.891710000000002], [79.75670000000001, 10.89263], [79.75574, 10.89456], [79.75729000000001, 10.895420000000001], [79.75716000000001, 10.894580000000001], [79.75769000000001, 10.89474], [79.75874, 10.896040000000001], [79.75855, 10.897160000000001], [79.75948000000001, 10.89661], [79.76077000000001, 10.89798], [79.76226000000001, 10.89794], [79.76217000000001, 10.89916], [79.76346000000001, 10.89972], [79.76125, 10.901710000000001], [79.76083000000001, 10.90061], [79.76239000000001, 10.90038], [79.76163000000001, 10.8992], [79.76085, 10.89892], [79.76146, 10.899650000000001], [79.76017, 10.900440000000001], [79.75971000000001, 10.89849], [79.75788, 10.89832], [79.75744, 10.8963], [79.75691, 10.89643], [79.75777000000001, 10.901860000000001], [79.75915, 10.90089], [79.75938000000001, 10.90182], [79.75760000000001, 10.90548], [79.75745, 10.907810000000001], [79.76085, 10.91234], [79.76293000000001, 10.913440000000001], [79.76954, 10.91107], [79.76953, 10.90909], [79.77457000000001, 10.908470000000001], [79.77730000000001, 10.908900000000001]]]]}}, {"id": "2", "type": "Feature", "properties": {"state_name": "Puducherry", "district_name": "Yanam", "block_name": "Yanam Taluk", "block_lgd": 5908, "district_lgd": 601}, "geometry": {"type": "Polygon", "coordinates": [[[82.22758, 16.756890000000002], [82.21783, 16.74331], [82.21879000000001, 16.739990000000002], [82.22258000000001, 16.737270000000002], [82.22824000000001, 16.730400000000003], [82.23485000000001, 16.72927], [82.25276000000001, 16.731070000000003], [82.2715, 16.73151], [82.28851, 16.734910000000003], [82.29287000000001, 16.746660000000002], [82.29688, 16.753120000000003], [82.3015, 16.755180000000003], [82.30553, 16.75253], [82.30885, 16.745510000000003], [82.31062, 16.73504], [82.30727, 16.72634], [82.30264000000001, 16.71826], [82.293, 16.709660000000003], [82.28417, 16.70533], [82.27252, 16.702740000000002], [82.26128000000001, 16.70192], [82.25439, 16.70361], [82.23524, 16.71677], [82.22327000000001, 16.721860000000003], [82.21037000000001, 16.71976], [82.20141000000001, 16.72052], [82.18691000000001, 16.72833], [82.18245, 16.73711], [82.18814, 16.7401], [82.19656, 16.739220000000003], [82.20459000000001, 16.74848], [82.21502000000001, 16.75572], [82.21892000000001, 16.76023], [82.22547, 16.7637], [82.22961000000001, 16.76236], [82.22834, 16.75892], [82.22758, 16.756890000000002]]]}}, {"id": "3", "type": "Feature", "properties": {"state_name": "Puducherry", "district_name": "Pondicherry", "block_name": "Puducherry Taluk", "block_lgd": 5909, "district_lgd": 600}, "geometry": {"type": "Polygon", "coordinates": [[[79.84059, 11.95574], [79.83775, 11.9443], [79.83697000000001, 11.93557], [79.83506000000001, 11.927190000000001], [79.83006, 11.910100000000002], [79.83216, 11.907480000000001], [79.83216, 11.905100000000001], [79.82468, 11.87668], [79.81985, 11.867840000000001], [79.8091, 11.836120000000001], [79.80646, 11.83703], [79.80613000000001, 11.839070000000001], [79.80615, 11.84204], [79.80811000000001, 11.845210000000002], [79.80764, 11.846680000000001], [79.80528000000001, 11.847610000000001], [79.80495, 11.84933], [79.80300000000001, 11.85069], [79.80260000000001, 11.85396], [79.80058000000001, 11.855220000000001], [79.79451, 11.854730000000002], [79.78154, 11.85565], [79.78006, 11.848070000000002], [79.77834, 11.847560000000001], [79.77662000000001, 11.845160000000002], [79.77578000000001, 11.838370000000001], [79.77387, 11.83666], [79.77234, 11.836570000000002], [79.76606000000001, 11.8405], [79.76423000000001, 11.846820000000001], [79.76207000000001, 11.848350000000002], [79.76319000000001, 11.851790000000001], [79.76504000000001, 11.851890000000001], [79.76686000000001, 11.85796], [79.76941000000001, 11.858220000000001], [79.77075, 11.86123], [79.77016, 11.86476], [79.76918, 11.86503], [79.76995000000001, 11.874500000000001], [79.77276, 11.875300000000001], [79.77335000000001, 11.87512], [79.77380000000001, 11.876500000000002], [79.7762, 11.878150000000002], [79.77958000000001, 11.877870000000001], [79.77981000000001, 11.872340000000001], [79.7791, 11.868630000000001], [79.77776, 11.86658], [79.77833000000001, 11.8665], [79.77838000000001, 11.863240000000001], [79.78501, 11.862940000000002], [79.78718, 11.873380000000001], [79.78949, 11.877110000000002], [79.79228, 11.876800000000001], [79.79203000000001, 11.88028], [79.79459, 11.8853], [79.79665, 11.894240000000002], [79.79641000000001, 11.899840000000001], [79.79048, 11.897070000000001], [79.78757, 11.896790000000001], [79.78017000000001, 11.90365], [79.78197, 11.90634], [79.78261, 11.910990000000002], [79.78503, 11.91797], [79.79409000000001, 11.91792], [79.79479, 11.92023], [79.79666, 11.92214], [79.80889, 11.92383], [79.80884, 11.931650000000001], [79.80537000000001, 11.931420000000001], [79.80523000000001, 11.933000000000002], [79.80694000000001, 11.93365], [79.80832000000001, 11.940620000000001], [79.81336, 11.94007], [79.8164, 11.937930000000001], [79.82348, 11.936300000000001], [79.83066000000001, 11.952810000000001], [79.83004000000001, 11.953930000000001], [79.83172, 11.95686], [79.83271, 11.956470000000001], [79.84059, 11.95574]]]}}, {"id": "4", "type": "Feature", "properties": {"state_name": "Puducherry", "district_name": "Pondicherry", "block_name": "Ozhukarai Taluk", "block_lgd": 5910, "district_lgd": 600}, "geometry": {"type": "MultiPolygon", "coordinates": [[[[79.83066000000001, 11.952810000000001], [79.82348, 11.936300000000001], [79.8164, 11.937930000000001], [79.81336, 11.94007], [79.80832000000001, 11.940620000000001], [79.80694000000001, 11.93365], [79.80523000000001, 11.933000000000002], [79.80537000000001, 11.931420000000001], [79.80884, 11.931650000000001], [79.80889, 11.92383], [79.79666, 11.92214], [79.79479, 11.92023], [79.79369000000001, 11.920340000000001], [79.7933, 11.922730000000001], [79.79147, 11.923380000000002], [79.78964, 11.925640000000001], [79.78451000000001, 11.92534], [79.78444, 11.926960000000001], [79.78327, 11.926960000000001], [79.78175, 11.923480000000001], [79.77227, 11.92224], [79.77258, 11.92403], [79.77541000000001, 11.924360000000002], [79.77531, 11.925170000000001], [79.77068000000001, 11.9252], [79.76915000000001, 11.928980000000001], [79.76632000000001, 11.92988], [79.76568, 11.930980000000002], [79.76639, 11.931930000000001], [79.7729, 11.93195], [79.77321, 11.94156], [79.77143000000001, 11.943840000000002], [79.77314000000001, 11.94898], [79.77383, 11.949810000000001], [79.77501000000001, 11.94969], [79.7767, 11.95359], [79.77929, 11.953560000000001], [79.78071000000001, 11.95644], [79.78338000000001, 11.956320000000002], [79.78463, 11.95982], [79.78808000000001, 11.960230000000001], [79.78832000000001, 11.959650000000002], [79.79163000000001, 11.959330000000001], [79.80325, 11.953090000000001], [79.80498, 11.95321], [79.80515000000001, 11.963120000000002], [79.80638, 11.96798], [79.80972000000001, 11.975180000000002], [79.81251, 11.97784], [79.81573, 11.978890000000002], [79.81841, 11.97784], [79.82161, 11.969470000000001], [79.82226, 11.965720000000001], [79.82478, 11.961480000000002], [79.82944, 11.957740000000001], [79.83172, 11.95686], [79.83004000000001, 11.953930000000001], [79.83066000000001, 11.952810000000001]]], [[[79.77807, 12.016810000000001], [79.77745, 12.017700000000001], [79.77857, 12.022020000000001], [79.77837000000001, 12.024400000000002], [79.77936000000001, 12.024540000000002], [79.78256, 12.022590000000001], [79.79272, 12.021070000000002], [79.79276, 12.01702], [79.79145000000001, 12.014750000000001], [79.79028000000001, 12.014410000000002], [79.77807, 12.016810000000001]]], [[[79.85509, 12.00055], [79.83873000000001, 12.005350000000002], [79.83170000000001, 12.00857], [79.82162000000001, 12.01124], [79.82497000000001, 12.032990000000002], [79.82666, 12.03429], [79.82801, 12.04376], [79.82960000000001, 12.045570000000001], [79.83659, 12.041120000000001], [79.85289, 12.033990000000001], [79.86847, 12.030740000000002], [79.85554, 12.00298], [79.85509, 12.00055]]]]}}, {"id": "5", "type": "Feature", "properties": {"state_name": "Puducherry", "district_name": "Pondicherry", "block_name": "Villianur Taluk", "block_lgd": 5911, "district_lgd": 600}, "geometry": {"type": "MultiPolygon", "coordinates": [[[[79.77321, 11.94156], [79.7729, 11.93195], [79.76639, 11.931930000000001], [79.76568, 11.930980000000002], [79.76632000000001, 11.92988], [79.76915000000001, 11.928980000000001], [79.77068000000001, 11.9252], [79.77531, 11.925170000000001], [79.77541000000001, 11.924360000000002], [79.77258, 11.92403], [79.77227, 11.92224], [79.78175, 11.923480000000001], [79.78327, 11.926960000000001], [79.78444, 11.926960000000001], [79.78451000000001, 11.92534], [79.78964, 11.925640000000001], [79.79147, 11.923380000000002], [79.7933, 11.922730000000001], [79.79369000000001, 11.920340000000001], [79.79479, 11.92023], [79.79409000000001, 11.91792], [79.78503, 11.91797], [79.78261, 11.910990000000002], [79.78197, 11.90634], [79.78017000000001, 11.90365], [79.77872, 11.9046], [79.77529000000001, 11.904940000000002], [79.77506000000001, 11.90178], [79.76975, 11.902730000000002], [79.76916000000001, 11.901700000000002], [79.76910000000001, 11.900620000000002], [79.77279, 11.900400000000001], [79.77044000000001, 11.89084], [79.77186, 11.885250000000001], [79.77075, 11.883970000000001], [79.77340000000001, 11.883210000000002], [79.77276, 11.875300000000001], [79.76995000000001, 11.874500000000001], [79.76831, 11.875890000000002], [79.76578, 11.876270000000002], [79.76443, 11.87541], [79.76389, 11.87692], [79.76060000000001, 11.876750000000001], [79.76010000000001, 11.875670000000001], [79.75733000000001, 11.87602], [79.75769000000001, 11.87227], [79.75867000000001, 11.871620000000002], [79.75859000000001, 11.86842], [79.75487000000001, 11.867180000000001], [79.75456000000001, 11.869650000000002], [79.75211, 11.871550000000001], [79.75092000000001, 11.878620000000002], [79.75167, 11.88103], [79.75136, 11.8848], [79.74707000000001, 11.88507], [79.74472, 11.883540000000002], [79.74184000000001, 11.88559], [79.73335, 11.885040000000002], [79.73178, 11.886400000000002], [79.73085, 11.886120000000002], [79.73064000000001, 11.8848], [79.72786, 11.88183], [79.72397000000001, 11.88221], [79.71780000000001, 11.880500000000001], [79.71445000000001, 11.882950000000001], [79.71174, 11.882040000000002], [79.70918, 11.88255], [79.70946, 11.885420000000002], [79.71062, 11.887550000000001], [79.70983000000001, 11.887830000000001], [79.70983000000001, 11.889180000000001], [79.69952, 11.88907], [79.69676000000001, 11.88854], [79.69649000000001, 11.88662], [79.68491, 11.885990000000001], [79.6855, 11.88471], [79.68496, 11.880920000000001], [79.67393000000001, 11.880650000000001], [79.67375000000001, 11.891570000000002], [79.68273, 11.89192], [79.68253, 11.88874], [79.68675, 11.888840000000002], [79.68707, 11.894490000000001], [79.69529, 11.89475], [79.69564000000001, 11.902370000000001], [79.69753, 11.90238], [79.69781, 11.90469], [79.69766000000001, 11.90755], [79.69551000000001, 11.907850000000002], [79.69609000000001, 11.919030000000001], [79.71857, 11.91899], [79.71786, 11.91332], [79.70651000000001, 11.913580000000001], [79.70652000000001, 11.905140000000001], [79.70886, 11.90426], [79.70844000000001, 11.901530000000001], [79.70733000000001, 11.90146], [79.70596, 11.899310000000002], [79.70518000000001, 11.893870000000001], [79.70935, 11.892940000000001], [79.70968, 11.891620000000001], [79.7111, 11.89066], [79.71257, 11.891770000000001], [79.71366, 11.89104], [79.7168, 11.892750000000001], [79.71882000000001, 11.89034], [79.72869, 11.89015], [79.72945, 11.891610000000002], [79.73041, 11.891680000000001], [79.73062, 11.901950000000001], [79.73121, 11.903160000000002], [79.73334000000001, 11.904020000000001], [79.73805, 11.904150000000001], [79.7406, 11.90539], [79.73212000000001, 11.913670000000002], [79.72542, 11.923110000000001], [79.71744000000001, 11.92894], [79.72080000000001, 11.94485], [79.70958, 11.949910000000001], [79.70901, 11.947470000000001], [79.7082, 11.947640000000002], [79.70782000000001, 11.946610000000002], [79.70786000000001, 11.941880000000001], [79.71112000000001, 11.93302], [79.70648000000001, 11.93523], [79.70644, 11.937230000000001], [79.7042, 11.940130000000002], [79.70152, 11.94138], [79.69721000000001, 11.94171], [79.69586000000001, 11.94448], [79.69566, 11.94766], [79.69387, 11.94908], [79.69368, 11.95021], [79.69157000000001, 11.951270000000001], [79.69282000000001, 11.95738], [79.69344000000001, 11.957210000000002], [79.69560000000001, 11.96386], [79.69788000000001, 11.96044], [79.70007000000001, 11.96277], [79.70095, 11.96263], [79.70193, 11.96485], [79.70358, 11.965430000000001], [79.70251, 11.966980000000001], [79.70573, 11.96709], [79.70598000000001, 11.966320000000001], [79.71012, 11.96574], [79.7116, 11.967530000000002], [79.71407, 11.96695], [79.71493000000001, 11.967590000000001], [79.71592000000001, 11.97098], [79.71216000000001, 11.974340000000002], [79.71078, 11.974520000000002], [79.71071, 11.97563], [79.70925000000001, 11.975800000000001], [79.71048, 11.97742], [79.71237, 11.986460000000001], [79.71456, 11.98634], [79.71441, 11.98493], [79.7158, 11.984800000000002], [79.71931000000001, 11.9892], [79.72046, 11.99267], [79.72302, 11.992450000000002], [79.72333, 11.99309], [79.72821, 11.992260000000002], [79.72894000000001, 11.993570000000002], [79.73332, 11.99322], [79.7347, 11.997420000000002], [79.73741000000001, 11.99844], [79.73763000000001, 12.000860000000001], [79.74132, 12.00126], [79.74143000000001, 12.003900000000002], [79.74363000000001, 12.00359], [79.74456, 12.005880000000001], [79.74640000000001, 12.00763], [79.76228, 12.002640000000001], [79.76199000000001, 11.99319], [79.76033000000001, 11.989160000000002], [79.75543, 11.988240000000001], [79.75425000000001, 11.986070000000002], [79.75322000000001, 11.986], [79.75173000000001, 11.984290000000001], [79.74803, 11.984710000000002], [79.74362, 11.97981], [79.74276, 11.97784], [79.74185, 11.977620000000002], [79.73549000000001, 11.979120000000002], [79.73190000000001, 11.981430000000001], [79.73181000000001, 11.982520000000001], [79.73014, 11.983170000000001], [79.72949000000001, 11.984630000000001], [79.73031, 11.985890000000001], [79.72642, 11.98568], [79.72353000000001, 11.97799], [79.72371000000001, 11.974120000000001], [79.72447000000001, 11.97122], [79.72954, 11.97062], [79.74444000000001, 11.964910000000001], [79.74860000000001, 11.94392], [79.74923000000001, 11.922110000000002], [79.75046, 11.922500000000001], [79.75098000000001, 11.921610000000001], [79.75018, 11.919860000000002], [79.75618, 11.920340000000001], [79.75630000000001, 11.924220000000002], [79.75503, 11.924360000000002], [79.75503, 11.925920000000001], [79.75629, 11.92604], [79.75719000000001, 11.928070000000002], [79.7621, 11.928500000000001], [79.76208000000001, 11.93077], [79.7609, 11.930650000000002], [79.76061, 11.931980000000001], [79.75985, 11.94355], [79.77143000000001, 11.943840000000002], [79.77321, 11.94156]]], [[[79.69454, 11.859670000000001], [79.69513, 11.869940000000001], [79.69599000000001, 11.87377], [79.69813, 11.87377], [79.69777, 11.86114], [79.69677, 11.86017], [79.69454, 11.859670000000001]]], [[[79.66502000000001, 11.93322], [79.66925, 11.934500000000002], [79.67079000000001, 11.933470000000002], [79.6722, 11.933840000000002], [79.67386, 11.931870000000002], [79.67381, 11.927520000000001], [79.67502, 11.92506], [79.67383000000001, 11.914280000000002], [79.66528000000001, 11.914670000000001], [79.66518, 11.90849], [79.66138000000001, 11.90925], [79.65999000000001, 11.908280000000001], [79.65857000000001, 11.904860000000001], [79.65520000000001, 11.90403], [79.65182, 11.904760000000001], [79.65052, 11.90352], [79.64500000000001, 11.9037], [79.64301, 11.899700000000001], [79.63856000000001, 11.89882], [79.63214, 11.89934], [79.63041000000001, 11.900970000000001], [79.63165000000001, 11.905080000000002], [79.63108000000001, 11.91581], [79.62832, 11.91802], [79.62259, 11.920250000000001], [79.62389, 11.940650000000002], [79.62788, 11.940380000000001], [79.63264000000001, 11.941300000000002], [79.63586000000001, 11.9395], [79.63895000000001, 11.93974], [79.64148, 11.938130000000001], [79.64585000000001, 11.937990000000001], [79.65398, 11.938970000000001], [79.65627, 11.94382], [79.66093000000001, 11.943940000000001], [79.66502000000001, 11.93322]]], [[[79.68706, 11.961070000000001], [79.68642000000001, 11.95856], [79.68649, 11.94949], [79.6877, 11.948110000000002], [79.679, 11.942960000000001], [79.67587, 11.944230000000001], [79.67324, 11.94433], [79.66695, 11.947280000000001], [79.66395, 11.94599], [79.65741000000001, 11.95166], [79.65692, 11.95372], [79.65798000000001, 11.95589], [79.66189, 11.95359], [79.66452000000001, 11.95404], [79.66510000000001, 11.956010000000001], [79.66431, 11.957970000000001], [79.66718, 11.961120000000001], [79.66747000000001, 11.963370000000001], [79.67226000000001, 11.96254], [79.67525, 11.963080000000001], [79.67661000000001, 11.961860000000001], [79.68063000000001, 11.96321], [79.68295, 11.96578], [79.68671, 11.967170000000001], [79.68899, 11.966560000000001], [79.69073, 11.96465], [79.68878000000001, 11.96268], [79.68706, 11.961070000000001]]], [[[79.64854000000001, 12.02449], [79.65457, 12.020040000000002], [79.65521000000001, 12.018640000000001], [79.65284000000001, 12.016020000000001], [79.65132000000001, 12.012590000000001], [79.65001000000001, 12.00228], [79.64675000000001, 12.00032], [79.64462, 11.996300000000002], [79.6396, 11.992790000000001], [79.64005, 11.991240000000001], [79.64325000000001, 11.98933], [79.64377, 11.987870000000001], [79.64378, 11.98404], [79.64088000000001, 11.97906], [79.64121, 11.97417], [79.63548, 11.972740000000002], [79.63468, 11.970770000000002], [79.6336, 11.97043], [79.63316, 11.966990000000001], [79.63033, 11.964480000000002], [79.62993, 11.962760000000001], [79.62482, 11.96504], [79.62415, 11.967970000000001], [79.62767000000001, 11.970730000000001], [79.62791, 11.976820000000002], [79.6235, 11.979930000000001], [79.62087000000001, 11.983770000000002], [79.62197, 11.98507], [79.62628000000001, 11.985430000000001], [79.62955000000001, 11.994620000000001], [79.62843000000001, 11.99637], [79.62536, 11.996910000000002], [79.62476000000001, 12.00913], [79.61768000000001, 12.01345], [79.61906, 12.01609], [79.62496, 12.018770000000002], [79.6252, 12.02026], [79.62281, 12.028300000000002], [79.62276, 12.03007], [79.62384, 12.031390000000002], [79.63145, 12.028620000000002], [79.63692, 12.02795], [79.64393000000001, 12.024500000000002], [79.64854000000001, 12.02449]]], [[[79.69437, 12.030510000000001], [79.69852, 12.030470000000001], [79.70176000000001, 12.028], [79.70786000000001, 12.02715], [79.70959, 12.025530000000002], [79.70973000000001, 12.023330000000001], [79.7065, 12.01285], [79.70708, 12.00497], [79.71605000000001, 11.99629], [79.71746, 11.99324], [79.70856, 11.987810000000001], [79.70612000000001, 11.98769], [79.70209000000001, 11.985090000000001], [79.69804, 11.98596], [79.69671000000001, 11.984480000000001], [79.69482, 11.983970000000001], [79.68916, 11.9859], [79.68816000000001, 11.984960000000001], [79.68723, 11.98154], [79.68378000000001, 11.979220000000002], [79.68084, 11.984470000000002], [79.67749, 11.98821], [79.67629000000001, 11.98858], [79.67025000000001, 11.987330000000002], [79.66756000000001, 11.98474], [79.66352, 11.98545], [79.66203, 11.98783], [79.66164, 11.990450000000001], [79.66470000000001, 12.009070000000001], [79.66305000000001, 12.01021], [79.66577000000001, 12.01092], [79.66677, 12.011940000000001], [79.67008000000001, 12.023010000000001], [79.67496000000001, 12.02144], [79.67652000000001, 12.021920000000001], [79.67847, 12.025160000000001], [79.68147, 12.027610000000001], [79.68372000000001, 12.02804], [79.68504, 12.031870000000001], [79.68707, 12.033040000000002], [79.68843000000001, 12.032620000000001], [79.69437, 12.030510000000001]]]]}}, {"id": "6", "type": "Feature", "properties": {"state_name": "Puducherry", "district_name": "Mahe", "block_name": "Mahe Taluk", "block_lgd": 5913, "district_lgd": 599}, "geometry": {"type": "MultiPolygon", "coordinates": [[[[75.55429000000001, 11.730540000000001], [75.55785, 11.726410000000001], [75.55831, 11.72245], [75.55658000000001, 11.71954], [75.55436, 11.71883], [75.55246000000001, 11.719360000000002], [75.54815, 11.716560000000001], [75.54342000000001, 11.716920000000002], [75.53967, 11.71541], [75.53498, 11.718440000000001], [75.53334000000001, 11.716370000000001], [75.53352000000001, 11.71446], [75.53444, 11.713540000000002], [75.53679000000001, 11.713610000000001], [75.53688000000001, 11.712050000000001], [75.53247, 11.710560000000001], [75.53297, 11.70898], [75.52992, 11.709000000000001], [75.52891000000001, 11.710840000000001], [75.53020000000001, 11.711860000000001], [75.53138000000001, 11.715890000000002], [75.53024, 11.71704], [75.5275, 11.717220000000001], [75.52690000000001, 11.723450000000001], [75.52795, 11.72832], [75.52939, 11.73043], [75.52913000000001, 11.733130000000001], [75.53132000000001, 11.735330000000001], [75.53703, 11.73468], [75.53958, 11.738380000000001], [75.53968, 11.7451], [75.53867000000001, 11.747290000000001], [75.53589000000001, 11.74876], [75.53216, 11.75398], [75.53251, 11.757100000000001], [75.53481000000001, 11.759630000000001], [75.54270000000001, 11.760620000000001], [75.54519, 11.758970000000001], [75.54455, 11.755590000000002], [75.5455, 11.75248], [75.54472000000001, 11.744670000000001], [75.54551000000001, 11.740540000000001], [75.54409000000001, 11.735280000000001], [75.55429000000001, 11.730540000000001]]], [[[75.54133, 11.695010000000002], [75.53995, 11.69522], [75.53658, 11.693060000000001], [75.53375000000001, 11.69799], [75.53232000000001, 11.699110000000001], [75.53160000000001, 11.698760000000002], [75.53133000000001, 11.7003], [75.52904000000001, 11.70129], [75.52886000000001, 11.702280000000002], [75.53195000000001, 11.70382], [75.53389, 11.707910000000002], [75.53866000000001, 11.708580000000001], [75.54409000000001, 11.703740000000002], [75.54162000000001, 11.69978], [75.54133, 11.695010000000002]]]]}}, {"id": "7", "type": "Feature", "properties": {"state_name": "Puducherry", "district_name": "Karaikal", "block_name": "Thirunallar Taluk", "block_lgd": 5915, "district_lgd": 598}, "geometry": {"type": "Polygon", "coordinates": [[[79.75873, 11.00186], [79.75995, 10.998970000000002], [79.76203000000001, 11.00131], [79.76315000000001, 10.99906], [79.76478, 10.99886], [79.76663, 10.997300000000001], [79.76831, 10.99788], [79.77061, 10.99713], [79.77191, 10.99796], [79.77622000000001, 10.997530000000001], [79.77975, 10.998560000000001], [79.77877000000001, 10.996870000000001], [79.78347000000001, 10.99474], [79.78344000000001, 10.996640000000001], [79.78647000000001, 10.99717], [79.78892, 10.991200000000001], [79.78593000000001, 10.990250000000001], [79.78843, 10.988100000000001], [79.78816, 10.987430000000002], [79.7895, 10.987200000000001], [79.79381000000001, 10.98304], [79.79936000000001, 10.982800000000001], [79.80403000000001, 10.981150000000001], [79.80659, 10.97488], [79.80882000000001, 10.97343], [79.81233, 10.95864], [79.81215, 10.95602], [79.81404, 10.95354], [79.81541, 10.945870000000001], [79.81529, 10.945340000000002], [79.80845000000001, 10.945200000000002], [79.81164000000001, 10.936570000000001], [79.8097, 10.9359], [79.80885, 10.93293], [79.80999000000001, 10.93237], [79.80668, 10.928730000000002], [79.80497000000001, 10.928400000000002], [79.80457000000001, 10.92694], [79.80457000000001, 10.925640000000001], [79.80662000000001, 10.92487], [79.80691, 10.92392], [79.80753, 10.91159], [79.80902, 10.910530000000001], [79.80925, 10.90883], [79.80640000000001, 10.909120000000001], [79.80524000000001, 10.90845], [79.80346, 10.902180000000001], [79.80004000000001, 10.903640000000001], [79.79740000000001, 10.90235], [79.79412, 10.90384], [79.79173, 10.90699], [79.78965000000001, 10.908280000000001], [79.78212, 10.906220000000001], [79.77989000000001, 10.908700000000001], [79.77730000000001, 10.908900000000001], [79.77457000000001, 10.908470000000001], [79.76953, 10.90909], [79.76954, 10.91107], [79.76293000000001, 10.913440000000001], [79.75885000000001, 10.91656], [79.75421, 10.916120000000001], [79.75365000000001, 10.914000000000001], [79.74326, 10.914790000000002], [79.74339, 10.916030000000001], [79.745, 10.91609], [79.74546000000001, 10.91943], [79.74324, 10.91754], [79.74199, 10.91815], [79.74227, 10.918890000000001], [79.74368000000001, 10.919120000000001], [79.74300000000001, 10.925], [79.73966, 10.924650000000002], [79.73953, 10.923490000000001], [79.73869, 10.92341], [79.7394, 10.92645], [79.73742, 10.9258], [79.73825000000001, 10.92481], [79.73544000000001, 10.92482], [79.73588000000001, 10.927560000000001], [79.73309, 10.92838], [79.7303, 10.92744], [79.72969, 10.92759], [79.73015000000001, 10.928460000000001], [79.72496000000001, 10.929120000000001], [79.72485, 10.932], [79.72578, 10.93425], [79.72711000000001, 10.93523], [79.72807, 10.93415], [79.72947, 10.93411], [79.72948000000001, 10.936240000000002], [79.72672, 10.93646], [79.72673, 10.935530000000002], [79.72488000000001, 10.936290000000001], [79.72318000000001, 10.93514], [79.72326000000001, 10.936140000000002], [79.72731, 10.937890000000001], [79.72617000000001, 10.938730000000001], [79.72517, 10.938360000000001], [79.72537000000001, 10.941130000000001], [79.72481, 10.94068], [79.72395, 10.9413], [79.72563000000001, 10.943280000000001], [79.73082000000001, 10.94439], [79.73069000000001, 10.945860000000001], [79.73206, 10.94776], [79.73706, 10.94902], [79.73744, 10.952530000000001], [79.7365, 10.953000000000001], [79.73659, 10.95738], [79.73346000000001, 10.9572], [79.73364000000001, 10.95475], [79.73243000000001, 10.95509], [79.73257000000001, 10.95138], [79.73031, 10.951530000000002], [79.72983, 10.95085], [79.72983, 10.951600000000001], [79.72737000000001, 10.95132], [79.72742000000001, 10.95207], [79.72462, 10.951170000000001], [79.72382, 10.951960000000001], [79.72250000000001, 10.951440000000002], [79.72213, 10.95228], [79.72141, 10.95151], [79.72123, 10.95223], [79.72073, 10.951830000000001], [79.71986000000001, 10.95255], [79.71962, 10.954400000000001], [79.72134000000001, 10.954120000000001], [79.72139, 10.955660000000002], [79.72065, 10.95575], [79.72093000000001, 10.95673], [79.71923000000001, 10.95635], [79.71907, 10.95714], [79.72036, 10.95794], [79.72091, 10.965010000000001], [79.71957, 10.96846], [79.72154, 10.969130000000002], [79.72189, 10.968200000000001], [79.72354, 10.969710000000001], [79.72592, 10.968820000000001], [79.72625000000001, 10.96939], [79.73, 10.96945], [79.73108, 10.97047], [79.7318, 10.96926], [79.73516000000001, 10.969360000000002], [79.73541, 10.96746], [79.73884000000001, 10.96724], [79.73999, 10.964310000000001], [79.74173, 10.96639], [79.74557, 10.965660000000002], [79.7463, 10.964950000000002], [79.74609000000001, 10.962890000000002], [79.74537000000001, 10.96268], [79.74534000000001, 10.956760000000001], [79.74598, 10.956240000000001], [79.74690000000001, 10.957490000000002], [79.74926, 10.95841], [79.75172, 10.957820000000002], [79.75341, 10.95878], [79.75564, 10.95836], [79.75875, 10.960550000000001], [79.76041000000001, 10.959700000000002], [79.76384, 10.95972], [79.76158000000001, 10.964960000000001], [79.76166, 10.96629], [79.76217000000001, 10.965430000000001], [79.76268, 10.96649], [79.76045, 10.968060000000001], [79.75946, 10.97188], [79.75662000000001, 10.97286], [79.75466, 10.97184], [79.75467, 10.97513], [79.75357000000001, 10.976930000000001], [79.75273, 10.976840000000001], [79.75258000000001, 10.9777], [79.75548, 10.97793], [79.75558000000001, 10.97939], [79.75833, 10.979800000000001], [79.75839, 10.98347], [79.75636, 10.983910000000002], [79.75497, 10.982890000000001], [79.75278, 10.98282], [79.75249000000001, 10.98797], [79.74727, 10.988290000000001], [79.74831, 10.990020000000001], [79.74851000000001, 10.995270000000001], [79.74718, 11.002880000000001], [79.75245000000001, 11.003150000000002], [79.75388000000001, 11.00253], [79.75562000000001, 11.003730000000001], [79.75676, 11.002590000000001], [79.75873, 11.00186]]]}}]}