{"type": "FeatureCollection", "metadata": {"source": "Survey of India (per src_agency attribute in the source data)", "hosted_via": "National Water Data Portal (NWDP), NWIC, Ministry of Jal Shakti -- https://nwdp.nwic.gov.in/", "access": "public, no login required", "crs_original": "EPSG:7755 (WGS 84 / India NSF LCC)", "fetch_date": "2026-08-02", "quality": "verified-official -- Survey of India source", "state": "Sikkim", "processing": "reprojected to EPSG:4326, topology-preserving simplify (shared-arc, tolerance 0.0005 deg) so adjacent polygons never overlap/gap at shared borders, coords rounded 5dp, 0 feature(s) needed the per-feature fallback", "feature_count": 9, "level_note": "SoI sub-district (sdcode) -- the closest available Survey of India product to Block/Tehsil; SoI's own block/bkcode grouping has no separate boundary product."}, "features": [{"id": "0", "type": "Feature", "properties": {"state_name": "Sikkim", "district_name": "Namchi", "block_name": "Ravong", "block_lgd": 1552, "district_lgd": 227}, "geometry": {"type": "Polygon", "coordinates": [[[88.43547000000001, 27.401020000000003], [88.44346, 27.393500000000003], [88.45367, 27.388530000000003], [88.46390000000001, 27.38745], [88.47042, 27.385540000000002], [88.47848, 27.381040000000002], [88.48597000000001, 27.37835], [88.48101000000001, 27.36632], [88.48025000000001, 27.36044], [88.48171, 27.35262], [88.48823, 27.342480000000002], [88.48623, 27.333630000000003], [88.48261000000001, 27.32872], [88.47392, 27.323750000000004], [88.46700000000001, 27.321880000000004], [88.46169, 27.317610000000002], [88.45444, 27.315310000000004], [88.45179, 27.30591], [88.44694000000001, 27.300880000000003], [88.44822, 27.29597], [88.44254000000001, 27.281200000000002], [88.44152000000001, 27.273920000000004], [88.44343, 27.2665], [88.44539, 27.263530000000003], [88.43999000000001, 27.263220000000004], [88.43693, 27.26087], [88.43316, 27.259660000000004], [88.42165000000001, 27.251], [88.41889, 27.249900000000004], [88.42003000000001, 27.248500000000003], [88.42084000000001, 27.244840000000003], [88.40479, 27.232470000000003], [88.39713, 27.23355], [88.38935000000001, 27.23034], [88.37448, 27.226300000000002], [88.34792, 27.225260000000002], [88.33478000000001, 27.222790000000003], [88.328, 27.222350000000002], [88.32793000000001, 27.21722], [88.32485000000001, 27.215600000000002], [88.32301000000001, 27.2205], [88.31991000000001, 27.223200000000002], [88.31041, 27.224780000000003], [88.30767, 27.226080000000003], [88.30334, 27.236690000000003], [88.30554000000001, 27.246100000000002], [88.30565000000001, 27.25654], [88.30398000000001, 27.260930000000002], [88.29656000000001, 27.266280000000002], [88.28936, 27.27316], [88.28396000000001, 27.27558], [88.28107000000001, 27.278200000000002], [88.27842000000001, 27.28161], [88.27919000000001, 27.286440000000002], [88.28054, 27.28836], [88.29062, 27.294890000000002], [88.29592000000001, 27.29707], [88.30642, 27.29951], [88.30936000000001, 27.30263], [88.311, 27.305860000000003], [88.31065000000001, 27.31565], [88.30846000000001, 27.318920000000002], [88.3053, 27.321250000000003], [88.30025, 27.323300000000003], [88.29681000000001, 27.32675], [88.29807000000001, 27.330940000000002], [88.30036000000001, 27.334130000000002], [88.30495, 27.337600000000002], [88.31965000000001, 27.345950000000002], [88.32272, 27.349310000000003], [88.32795, 27.364900000000002], [88.33063000000001, 27.368730000000003], [88.3392, 27.37206], [88.34931, 27.37402], [88.35826, 27.378280000000004], [88.35738, 27.38435], [88.35832, 27.389940000000003], [88.35758000000001, 27.39928], [88.35498000000001, 27.402900000000002], [88.35075, 27.411900000000003], [88.34794000000001, 27.414060000000003], [88.34303000000001, 27.411080000000002], [88.33891000000001, 27.40631], [88.33374, 27.41054], [88.33106000000001, 27.4171], [88.32557000000001, 27.417500000000004], [88.31627, 27.41533], [88.30582000000001, 27.41681], [88.30027000000001, 27.414460000000002], [88.29542000000001, 27.41036], [88.28399, 27.405170000000002], [88.27919000000001, 27.405800000000003], [88.27504, 27.411500000000004], [88.2746, 27.41963], [88.26656000000001, 27.461810000000003], [88.26609, 27.489510000000003], [88.26838000000001, 27.498140000000003], [88.27144000000001, 27.503470000000004], [88.27646, 27.509200000000003], [88.28163, 27.512880000000003], [88.29122000000001, 27.518860000000004], [88.31956000000001, 27.52709], [88.32894, 27.52803], [88.34258000000001, 27.526310000000002], [88.35600000000001, 27.521060000000002], [88.36108, 27.517270000000003], [88.36472, 27.510270000000002], [88.37554, 27.497580000000003], [88.39871000000001, 27.47895], [88.40552000000001, 27.47566], [88.40729, 27.470260000000003], [88.40709000000001, 27.46338], [88.40872, 27.45848], [88.41590000000001, 27.446710000000003], [88.41423, 27.439380000000003], [88.41457000000001, 27.429550000000003], [88.41666000000001, 27.423540000000003], [88.41953000000001, 27.4186], [88.42736000000001, 27.41214], [88.43547000000001, 27.401020000000003]]]}}, {"id": "1", "type": "Feature", "properties": {"state_name": "Sikkim", "district_name": "Gangtok", "block_name": "Rongli", "block_lgd": 1555, "district_lgd": 225}, "geometry": {"type": "Polygon", "coordinates": [[[88.91139000000001, 27.286430000000003], [88.90843000000001, 27.28205], [88.90774, 27.277040000000003], [88.90377000000001, 27.27295], [88.90235000000001, 27.272530000000003], [88.89986, 27.274250000000002], [88.89768000000001, 27.270190000000003], [88.88657, 27.267960000000002], [88.88166000000001, 27.264960000000002], [88.87911000000001, 27.26114], [88.86659, 27.264630000000004], [88.83213, 27.262330000000002], [88.82816000000001, 27.257240000000003], [88.8031, 27.247840000000004], [88.80420000000001, 27.236480000000004], [88.80274000000001, 27.232950000000002], [88.80205000000001, 27.227770000000003], [88.80327000000001, 27.220000000000002], [88.79881, 27.207580000000004], [88.79647000000001, 27.20577], [88.78909, 27.193830000000002], [88.78923, 27.189100000000003], [88.7882, 27.184580000000004], [88.78676, 27.181990000000003], [88.7839, 27.181890000000003], [88.77885, 27.18353], [88.76874000000001, 27.180120000000002], [88.76461, 27.177020000000002], [88.76240000000001, 27.172590000000003], [88.75719000000001, 27.165390000000002], [88.75810000000001, 27.161220000000004], [88.75721, 27.15867], [88.75946, 27.156080000000003], [88.7604, 27.152700000000003], [88.75688000000001, 27.148200000000003], [88.7493, 27.147440000000003], [88.74615000000001, 27.14421], [88.74789000000001, 27.143800000000002], [88.74513, 27.142260000000004], [88.73849000000001, 27.136090000000003], [88.73417, 27.134710000000002], [88.72639000000001, 27.134760000000004], [88.71788000000001, 27.13988], [88.71656, 27.141420000000004], [88.71633000000001, 27.15378], [88.71479000000001, 27.157120000000003], [88.71027000000001, 27.161170000000002], [88.70678000000001, 27.166130000000003], [88.69986, 27.167900000000003], [88.68583000000001, 27.17601], [88.67785, 27.176650000000002], [88.67241000000001, 27.174750000000003], [88.66482, 27.167970000000004], [88.65894, 27.160600000000002], [88.65515, 27.1595], [88.65020000000001, 27.160770000000003], [88.6474, 27.162620000000004], [88.64320000000001, 27.16325], [88.63989000000001, 27.162480000000002], [88.63633, 27.16288], [88.6336, 27.165470000000003], [88.63225000000001, 27.17143], [88.62497, 27.17491], [88.62351000000001, 27.1763], [88.62257000000001, 27.179360000000003], [88.61633, 27.18157], [88.61007000000001, 27.1809], [88.60754, 27.185660000000002], [88.60796, 27.18868], [88.60995000000001, 27.190990000000003], [88.61579, 27.193040000000003], [88.62453000000001, 27.19227], [88.63573000000001, 27.19321], [88.63935000000001, 27.194810000000004], [88.64267000000001, 27.195110000000003], [88.64416000000001, 27.196040000000004], [88.64381, 27.199550000000002], [88.6486, 27.201620000000002], [88.65828, 27.203120000000002], [88.67053000000001, 27.20269], [88.67639000000001, 27.20417], [88.67760000000001, 27.20642], [88.67785, 27.20942], [88.68397, 27.216120000000004], [88.68657, 27.217520000000004], [88.69552, 27.21833], [88.70070000000001, 27.219810000000003], [88.71519, 27.23156], [88.71951000000001, 27.236340000000002], [88.71958000000001, 27.240750000000002], [88.72139000000001, 27.245880000000003], [88.72251000000001, 27.25279], [88.72244, 27.257320000000004], [88.72363000000001, 27.259690000000003], [88.72253, 27.26311], [88.72242000000001, 27.27381], [88.72496000000001, 27.27981], [88.72975000000001, 27.280320000000003], [88.73643000000001, 27.278560000000002], [88.75175, 27.278540000000003], [88.75276000000001, 27.27914], [88.78295000000001, 27.296360000000004], [88.78916000000001, 27.295720000000003], [88.82583000000001, 27.287640000000003], [88.86553, 27.283980000000003], [88.91139000000001, 27.286430000000003]]]}}, {"id": "2", "type": "Feature", "properties": {"state_name": "Sikkim", "district_name": "Mangan", "block_name": "Mangan", "block_lgd": 1548, "district_lgd": 226}, "geometry": {"type": "Polygon", "coordinates": [[[88.24941000000001, 27.67395], [88.25623, 27.669390000000003], [88.26383000000001, 27.66786], [88.29661, 27.656540000000003], [88.30650000000001, 27.656200000000002], [88.31863000000001, 27.646610000000003], [88.33833000000001, 27.621240000000004], [88.34229, 27.621100000000002], [88.34969000000001, 27.61625], [88.3618, 27.610370000000003], [88.3639, 27.604740000000003], [88.37513000000001, 27.600360000000002], [88.38220000000001, 27.599210000000003], [88.39792000000001, 27.59861], [88.41365, 27.595670000000002], [88.41914000000001, 27.596010000000003], [88.43168000000001, 27.576860000000003], [88.43501, 27.576330000000002], [88.43825000000001, 27.587190000000003], [88.44199, 27.59521], [88.44498, 27.596280000000004], [88.4435, 27.577090000000002], [88.45724000000001, 27.57419], [88.46812000000001, 27.57287], [88.49487, 27.565820000000002], [88.50329, 27.56436], [88.50952000000001, 27.561880000000002], [88.52367000000001, 27.55946], [88.54051000000001, 27.55544], [88.54034, 27.54728], [88.54887000000001, 27.5465], [88.57412000000001, 27.54999], [88.57681000000001, 27.52972], [88.60342000000001, 27.541580000000003], [88.61533, 27.545730000000002], [88.63076000000001, 27.54671], [88.63910000000001, 27.53674], [88.64094, 27.532270000000004], [88.64932, 27.525660000000002], [88.66141, 27.521500000000003], [88.68553000000001, 27.519280000000002], [88.71897000000001, 27.511070000000004], [88.72759, 27.510530000000003], [88.75496000000001, 27.504780000000004], [88.76493, 27.511190000000003], [88.77466000000001, 27.51253], [88.78097000000001, 27.51574], [88.78680000000001, 27.530450000000002], [88.79095000000001, 27.531560000000002], [88.79193000000001, 27.530780000000004], [88.79278000000001, 27.529020000000003], [88.79221000000001, 27.526490000000003], [88.79279000000001, 27.52485], [88.79153000000001, 27.523470000000003], [88.78838, 27.522140000000004], [88.78903000000001, 27.51779], [88.79059000000001, 27.515800000000002], [88.78977, 27.513150000000003], [88.78752, 27.511480000000002], [88.78563000000001, 27.50654], [88.78693000000001, 27.503670000000003], [88.78332, 27.500400000000003], [88.78332, 27.495490000000004], [88.78657000000001, 27.488170000000004], [88.78290000000001, 27.482940000000003], [88.78062000000001, 27.4812], [88.78342, 27.477050000000002], [88.78372, 27.474750000000004], [88.77797000000001, 27.470360000000003], [88.77699000000001, 27.468460000000004], [88.77977000000001, 27.462030000000002], [88.78442000000001, 27.458650000000002], [88.78319, 27.456080000000004], [88.783, 27.453110000000002], [88.78364, 27.45202], [88.78254000000001, 27.44975], [88.78432000000001, 27.448420000000002], [88.78929000000001, 27.446810000000003], [88.79634, 27.447210000000002], [88.79450000000001, 27.44553], [88.79429, 27.44048], [88.79166000000001, 27.438430000000004], [88.79557000000001, 27.42826], [88.79642000000001, 27.42724], [88.79987000000001, 27.426440000000003], [88.80082, 27.422590000000003], [88.80904000000001, 27.4234], [88.80738000000001, 27.421350000000004], [88.80477, 27.41523], [88.79711, 27.416490000000003], [88.7873, 27.4217], [88.78242, 27.42284], [88.77308000000001, 27.416430000000002], [88.76700000000001, 27.413750000000004], [88.75351, 27.41476], [88.73127000000001, 27.41928], [88.71871, 27.416680000000003], [88.71219, 27.41214], [88.70018, 27.40173], [88.69487000000001, 27.39844], [88.68688, 27.398130000000002], [88.67927, 27.40002], [88.67514000000001, 27.400140000000004], [88.66342, 27.393100000000004], [88.65873, 27.39111], [88.64898000000001, 27.391880000000004], [88.64081, 27.390900000000002], [88.63747000000001, 27.388540000000003], [88.62676, 27.387290000000004], [88.61575, 27.38775], [88.59966000000001, 27.39075], [88.59367, 27.392370000000003], [88.59069000000001, 27.396310000000003], [88.58194, 27.394460000000002], [88.5548, 27.392360000000004], [88.54378000000001, 27.39403], [88.53375000000001, 27.396620000000002], [88.52893, 27.396130000000003], [88.52318000000001, 27.39712], [88.51912, 27.394530000000003], [88.51375, 27.3895], [88.50124000000001, 27.38249], [88.49118000000001, 27.378660000000004], [88.48597000000001, 27.37835], [88.47848, 27.381040000000002], [88.47042, 27.385540000000002], [88.46390000000001, 27.38745], [88.45367, 27.388530000000003], [88.44346, 27.393500000000003], [88.43547000000001, 27.401020000000003], [88.42736000000001, 27.41214], [88.41953000000001, 27.4186], [88.41666000000001, 27.423540000000003], [88.41457000000001, 27.429550000000003], [88.41423, 27.439380000000003], [88.41590000000001, 27.446710000000003], [88.40872, 27.45848], [88.40709000000001, 27.46338], [88.40729, 27.470260000000003], [88.40552000000001, 27.47566], [88.39871000000001, 27.47895], [88.37554, 27.497580000000003], [88.36472, 27.510270000000002], [88.36108, 27.517270000000003], [88.35600000000001, 27.521060000000002], [88.34258000000001, 27.526310000000002], [88.32894, 27.52803], [88.31956000000001, 27.52709], [88.29122000000001, 27.518860000000004], [88.28163, 27.512880000000003], [88.27252000000001, 27.519280000000002], [88.26347000000001, 27.525660000000002], [88.24796, 27.531470000000002], [88.24148000000001, 27.534860000000002], [88.23764000000001, 27.540640000000003], [88.23195000000001, 27.557190000000002], [88.21792, 27.573600000000003], [88.20984000000001, 27.581190000000003], [88.16364, 27.600080000000002], [88.12710000000001, 27.611320000000003], [88.11511, 27.61785], [88.11697000000001, 27.62017], [88.11661000000001, 27.62404], [88.11984000000001, 27.627560000000003], [88.11698000000001, 27.629810000000003], [88.12063, 27.638430000000003], [88.12021, 27.64525], [88.12452, 27.650000000000002], [88.13027000000001, 27.65351], [88.13215000000001, 27.656200000000002], [88.13734000000001, 27.657400000000003], [88.13850000000001, 27.658330000000003], [88.13915, 27.660370000000004], [88.14204000000001, 27.66317], [88.14370000000001, 27.66373], [88.14721, 27.674670000000003], [88.14694, 27.679340000000003], [88.14868000000001, 27.68223], [88.15220000000001, 27.681320000000003], [88.23707, 27.67818], [88.24156, 27.67669], [88.24941000000001, 27.67395]]]}}, {"id": "3", "type": "Feature", "properties": {"state_name": "Sikkim", "district_name": "Gyalshing", "block_name": "Gyalshing", "block_lgd": 1549, "district_lgd": 228}, "geometry": {"type": "Polygon", "coordinates": [[[88.28163, 27.512880000000003], [88.27646, 27.509200000000003], [88.27144000000001, 27.503470000000004], [88.26838000000001, 27.498140000000003], [88.26609, 27.489510000000003], [88.26656000000001, 27.461810000000003], [88.2746, 27.41963], [88.27504, 27.411500000000004], [88.27919000000001, 27.405800000000003], [88.28399, 27.405170000000002], [88.29542000000001, 27.41036], [88.30027000000001, 27.414460000000002], [88.30582000000001, 27.41681], [88.31627, 27.41533], [88.32557000000001, 27.417500000000004], [88.33106000000001, 27.4171], [88.33374, 27.41054], [88.33891000000001, 27.40631], [88.34303000000001, 27.411080000000002], [88.34794000000001, 27.414060000000003], [88.35075, 27.411900000000003], [88.35498000000001, 27.402900000000002], [88.35758000000001, 27.39928], [88.35832, 27.389940000000003], [88.35738, 27.38435], [88.35826, 27.378280000000004], [88.34931, 27.37402], [88.3392, 27.37206], [88.33063000000001, 27.368730000000003], [88.32795, 27.364900000000002], [88.32272, 27.349310000000003], [88.31965000000001, 27.345950000000002], [88.30495, 27.337600000000002], [88.30036000000001, 27.334130000000002], [88.29807000000001, 27.330940000000002], [88.29681000000001, 27.32675], [88.30025, 27.323300000000003], [88.3053, 27.321250000000003], [88.30846000000001, 27.318920000000002], [88.31065000000001, 27.31565], [88.311, 27.305860000000003], [88.30936000000001, 27.30263], [88.30642, 27.29951], [88.29592000000001, 27.29707], [88.29062, 27.294890000000002], [88.28054, 27.28836], [88.27919000000001, 27.286440000000002], [88.27842000000001, 27.28161], [88.28107000000001, 27.278200000000002], [88.28396000000001, 27.27558], [88.28936, 27.27316], [88.29656000000001, 27.266280000000002], [88.30398000000001, 27.260930000000002], [88.30565000000001, 27.25654], [88.30554000000001, 27.246100000000002], [88.30334, 27.236690000000003], [88.29165, 27.233210000000003], [88.28259000000001, 27.232020000000002], [88.27669, 27.23354], [88.28160000000001, 27.24171], [88.28070000000001, 27.243820000000003], [88.27740000000001, 27.24547], [88.27176, 27.237470000000002], [88.25838, 27.248400000000004], [88.25538, 27.242390000000004], [88.25067000000001, 27.24088], [88.23734, 27.240660000000002], [88.23385, 27.23693], [88.23216000000001, 27.236200000000004], [88.22572000000001, 27.23647], [88.21988, 27.238300000000002], [88.21572, 27.241090000000003], [88.20985, 27.23759], [88.20193, 27.23655], [88.19761000000001, 27.23298], [88.18482, 27.231170000000002], [88.17053000000001, 27.224480000000003], [88.16763, 27.22709], [88.16471000000001, 27.232570000000003], [88.14556, 27.23497], [88.13779000000001, 27.231820000000003], [88.13405, 27.233670000000004], [88.13319000000001, 27.2391], [88.12334000000001, 27.238560000000003], [88.11934000000001, 27.234990000000003], [88.11386, 27.235380000000003], [88.10891000000001, 27.242220000000003], [88.09281000000001, 27.251230000000003], [88.08544, 27.263990000000003], [88.08228000000001, 27.267100000000003], [88.08119, 27.268040000000003], [88.07596000000001, 27.26742], [88.06290000000001, 27.26863], [88.05416000000001, 27.26715], [88.04942000000001, 27.264960000000002], [88.04207000000001, 27.258580000000002], [88.03485, 27.25477], [88.03143, 27.249940000000002], [88.03075000000001, 27.249920000000003], [88.03030000000001, 27.255250000000004], [88.03120000000001, 27.2615], [88.03069, 27.262850000000004], [88.03188, 27.2649], [88.03161, 27.269240000000003], [88.03043000000001, 27.27194], [88.03134, 27.277070000000002], [88.03281000000001, 27.28038], [88.03205000000001, 27.28639], [88.03862000000001, 27.29192], [88.04124, 27.291140000000002], [88.04315000000001, 27.291500000000003], [88.04461, 27.293250000000004], [88.04404000000001, 27.29596], [88.04087000000001, 27.301370000000002], [88.04154000000001, 27.304080000000003], [88.04489000000001, 27.30964], [88.04879000000001, 27.312810000000002], [88.04894, 27.315030000000004], [88.04982000000001, 27.31529], [88.04938000000001, 27.31829], [88.0523, 27.324220000000004], [88.05974, 27.32834], [88.06006000000001, 27.330050000000004], [88.06346, 27.33433], [88.06693000000001, 27.335770000000004], [88.06486000000001, 27.341140000000003], [88.06368, 27.3408], [88.0613, 27.34476], [88.06149, 27.34727], [88.05898, 27.351350000000004], [88.05762000000001, 27.35621], [88.05325, 27.35836], [88.05073, 27.358430000000002], [88.04763000000001, 27.36166], [88.04684, 27.36417], [88.04183, 27.37029], [88.04172000000001, 27.373510000000003], [88.04484000000001, 27.379870000000004], [88.04406, 27.384770000000003], [88.04511000000001, 27.388270000000002], [88.04472000000001, 27.389640000000004], [88.04578000000001, 27.39269], [88.04576, 27.3958], [88.04842000000001, 27.401030000000002], [88.0468, 27.40593], [88.04963000000001, 27.40725], [88.05071000000001, 27.41298], [88.05507, 27.417910000000003], [88.05691, 27.418860000000002], [88.05819000000001, 27.418450000000004], [88.06014, 27.420700000000004], [88.06779, 27.425330000000002], [88.07409000000001, 27.426810000000003], [88.07315000000001, 27.430780000000002], [88.07506000000001, 27.433220000000002], [88.06782000000001, 27.438340000000004], [88.07244, 27.44582], [88.06725, 27.44948], [88.06703, 27.45153], [88.06435, 27.453650000000003], [88.06630000000001, 27.455070000000003], [88.06686, 27.457870000000003], [88.06052000000001, 27.460770000000004], [88.05936000000001, 27.46356], [88.05718, 27.465770000000003], [88.05714, 27.466910000000002], [88.0537, 27.468780000000002], [88.05158, 27.471390000000003], [88.04859, 27.472420000000003], [88.04414000000001, 27.4781], [88.04554, 27.481520000000003], [88.04416, 27.484180000000002], [88.04408000000001, 27.489410000000003], [88.04508000000001, 27.49349], [88.04408000000001, 27.495690000000003], [88.04662, 27.500950000000003], [88.04909, 27.501990000000003], [88.05058000000001, 27.503930000000004], [88.05515000000001, 27.504440000000002], [88.05732, 27.506750000000004], [88.05786, 27.509200000000003], [88.06187000000001, 27.51217], [88.05810000000001, 27.51572], [88.05842000000001, 27.52042], [88.05940000000001, 27.520680000000002], [88.06101000000001, 27.524900000000002], [88.06627, 27.527220000000003], [88.0655, 27.529470000000003], [88.06187000000001, 27.52999], [88.05954000000001, 27.531900000000004], [88.05865000000001, 27.534820000000003], [88.05952, 27.53544], [88.06120000000001, 27.540290000000002], [88.06426, 27.54201], [88.06501, 27.54425], [88.06716, 27.54463], [88.06880000000001, 27.546260000000004], [88.06826000000001, 27.550570000000004], [88.06906000000001, 27.554910000000003], [88.07506000000001, 27.557460000000003], [88.07862, 27.56041], [88.08105, 27.565050000000003], [88.07944, 27.5682], [88.07771000000001, 27.568870000000004], [88.07548000000001, 27.57157], [88.07747, 27.57525], [88.08055, 27.577620000000003], [88.07911000000001, 27.57909], [88.0806, 27.580340000000003], [88.08183000000001, 27.584220000000002], [88.08923, 27.594440000000002], [88.09302000000001, 27.597880000000004], [88.10623000000001, 27.60262], [88.10902, 27.60639], [88.11282000000001, 27.609], [88.11404, 27.611050000000002], [88.11261, 27.614790000000003], [88.11511, 27.61785], [88.12710000000001, 27.611320000000003], [88.16364, 27.600080000000002], [88.20984000000001, 27.581190000000003], [88.21792, 27.573600000000003], [88.23195000000001, 27.557190000000002], [88.23764000000001, 27.540640000000003], [88.24148000000001, 27.534860000000002], [88.24796, 27.531470000000002], [88.26347000000001, 27.525660000000002], [88.27252000000001, 27.519280000000002], [88.28163, 27.512880000000003]]]}}, {"id": "4", "type": "Feature", "properties": {"state_name": "Sikkim", "district_name": "Gyalshing", "block_name": "Soreng", "block_lgd": 1550, "district_lgd": 228}, "geometry": {"type": "Polygon", "coordinates": [[[88.08544, 27.263990000000003], [88.09281000000001, 27.251230000000003], [88.10891000000001, 27.242220000000003], [88.11386, 27.235380000000003], [88.11934000000001, 27.234990000000003], [88.12334000000001, 27.238560000000003], [88.13319000000001, 27.2391], [88.13405, 27.233670000000004], [88.13779000000001, 27.231820000000003], [88.14556, 27.23497], [88.16471000000001, 27.232570000000003], [88.16763, 27.22709], [88.17053000000001, 27.224480000000003], [88.18482, 27.231170000000002], [88.19761000000001, 27.23298], [88.20193, 27.23655], [88.20985, 27.23759], [88.21572, 27.241090000000003], [88.21988, 27.238300000000002], [88.22572000000001, 27.23647], [88.23216000000001, 27.236200000000004], [88.23385, 27.23693], [88.23734, 27.240660000000002], [88.25067000000001, 27.24088], [88.25538, 27.242390000000004], [88.25838, 27.248400000000004], [88.27176, 27.237470000000002], [88.27740000000001, 27.24547], [88.28070000000001, 27.243820000000003], [88.28160000000001, 27.24171], [88.27669, 27.23354], [88.28259000000001, 27.232020000000002], [88.29165, 27.233210000000003], [88.30334, 27.236690000000003], [88.30767, 27.226080000000003], [88.31041, 27.224780000000003], [88.31991000000001, 27.223200000000002], [88.32301000000001, 27.2205], [88.32485000000001, 27.215600000000002], [88.32901000000001, 27.204480000000004], [88.33179000000001, 27.20126], [88.33171, 27.198750000000004], [88.33433000000001, 27.19451], [88.32888000000001, 27.19188], [88.33063000000001, 27.188840000000003], [88.32860000000001, 27.18757], [88.31961000000001, 27.18559], [88.3121, 27.181680000000004], [88.30948000000001, 27.17808], [88.3044, 27.176420000000004], [88.30081000000001, 27.173650000000002], [88.30001, 27.169040000000003], [88.29641000000001, 27.16429], [88.29413000000001, 27.16326], [88.29038000000001, 27.154180000000004], [88.28698000000001, 27.15106], [88.28457, 27.150720000000003], [88.28216, 27.14881], [88.28149, 27.144510000000004], [88.28005, 27.14253], [88.28323, 27.127390000000002], [88.27875, 27.130450000000003], [88.27577000000001, 27.129870000000004], [88.27067000000001, 27.12732], [88.26736000000001, 27.12713], [88.26534000000001, 27.125870000000003], [88.25483000000001, 27.123870000000004], [88.24852000000001, 27.125040000000002], [88.24264000000001, 27.120330000000003], [88.23878, 27.118900000000004], [88.23224, 27.118420000000004], [88.22770000000001, 27.12057], [88.22466000000001, 27.123720000000002], [88.22214000000001, 27.12403], [88.21561000000001, 27.131480000000003], [88.21400000000001, 27.131750000000004], [88.21061, 27.12974], [88.20952000000001, 27.13107], [88.20498, 27.13331], [88.18173, 27.132430000000003], [88.17894000000001, 27.130200000000002], [88.17366000000001, 27.128480000000003], [88.17215, 27.127100000000002], [88.17103, 27.124060000000004], [88.16513, 27.11764], [88.16416000000001, 27.115230000000004], [88.16239, 27.113480000000003], [88.16037, 27.11324], [88.15621, 27.11016], [88.15365000000001, 27.10969], [88.15189000000001, 27.110780000000002], [88.15129, 27.112450000000003], [88.147, 27.113190000000003], [88.14469000000001, 27.11522], [88.13730000000001, 27.11579], [88.13586000000001, 27.120140000000003], [88.13372000000001, 27.121710000000004], [88.12662, 27.122080000000004], [88.12104000000001, 27.123820000000002], [88.11148, 27.12995], [88.10180000000001, 27.132810000000003], [88.09619, 27.133360000000003], [88.08977, 27.141700000000004], [88.08844, 27.14459], [88.08896, 27.15593], [88.08667000000001, 27.164500000000004], [88.07823, 27.172500000000003], [88.07874000000001, 27.177000000000003], [88.07795, 27.180590000000002], [88.07440000000001, 27.18551], [88.07363000000001, 27.191010000000002], [88.07436000000001, 27.192790000000002], [88.07983, 27.197480000000002], [88.07895, 27.201020000000003], [88.06917000000001, 27.20782], [88.06495000000001, 27.213250000000002], [88.0588, 27.214910000000003], [88.05304000000001, 27.21498], [88.03976, 27.220570000000002], [88.02849, 27.22052], [88.01861000000001, 27.216160000000002], [88.01482, 27.211530000000003], [88.01435000000001, 27.212020000000003], [88.01236, 27.21611], [88.01453000000001, 27.221090000000004], [88.01676, 27.22314], [88.01715, 27.225500000000004], [88.0189, 27.224980000000002], [88.01975, 27.23139], [88.01928000000001, 27.235680000000002], [88.02162000000001, 27.237520000000004], [88.02463, 27.237620000000003], [88.02431000000001, 27.24208], [88.02678, 27.24604], [88.02783000000001, 27.249470000000002], [88.03075000000001, 27.249920000000003], [88.03143, 27.249940000000002], [88.03485, 27.25477], [88.04207000000001, 27.258580000000002], [88.04942000000001, 27.264960000000002], [88.05416000000001, 27.26715], [88.06290000000001, 27.26863], [88.07596000000001, 27.26742], [88.08119, 27.268040000000003], [88.08228000000001, 27.267100000000003], [88.08544, 27.263990000000003]]]}}, {"id": "5", "type": "Feature", "properties": {"state_name": "Sikkim", "district_name": "Namchi", "block_name": "Namchi", "block_lgd": 1551, "district_lgd": 227}, "geometry": {"type": "Polygon", "coordinates": [[[88.49221000000001, 27.218470000000003], [88.49101, 27.202330000000003], [88.49676000000001, 27.19329], [88.50368, 27.18513], [88.52539, 27.17819], [88.52510000000001, 27.175040000000003], [88.52981000000001, 27.170320000000004], [88.52565000000001, 27.17022], [88.52531, 27.16814], [88.52721000000001, 27.166220000000003], [88.53199000000001, 27.164500000000004], [88.53343000000001, 27.163240000000002], [88.52807000000001, 27.159250000000004], [88.52666, 27.156430000000004], [88.53061000000001, 27.153900000000004], [88.52989000000001, 27.14797], [88.52249, 27.14805], [88.51709000000001, 27.145740000000004], [88.51541, 27.143990000000002], [88.51389, 27.139640000000004], [88.50929000000001, 27.135970000000004], [88.50450000000001, 27.134430000000002], [88.5022, 27.13146], [88.49859000000001, 27.130620000000004], [88.49699000000001, 27.12946], [88.49667000000001, 27.126990000000003], [88.49810000000001, 27.12395], [88.4966, 27.122320000000002], [88.49296000000001, 27.12225], [88.48914, 27.123690000000003], [88.48620000000001, 27.123790000000003], [88.48496, 27.12271], [88.48365000000001, 27.118260000000003], [88.47930000000001, 27.121060000000003], [88.47527000000001, 27.120720000000002], [88.46616, 27.11192], [88.46466000000001, 27.108060000000002], [88.46436000000001, 27.10086], [88.45973000000001, 27.095370000000003], [88.45873, 27.08959], [88.45624000000001, 27.087360000000004], [88.44526, 27.082420000000003], [88.43711, 27.082310000000003], [88.43069000000001, 27.07936], [88.423, 27.081470000000003], [88.41295000000001, 27.08623], [88.39709, 27.08855], [88.38192000000001, 27.09436], [88.36913000000001, 27.09486], [88.36289000000001, 27.09428], [88.35665, 27.095250000000004], [88.3555, 27.09674], [88.35582000000001, 27.098450000000003], [88.35506000000001, 27.099310000000003], [88.35010000000001, 27.099570000000003], [88.34797, 27.10123], [88.34192, 27.10966], [88.33833000000001, 27.109830000000002], [88.33364, 27.10601], [88.32899, 27.106340000000003], [88.32445000000001, 27.105390000000003], [88.32173, 27.11191], [88.32154000000001, 27.11682], [88.31747, 27.119860000000003], [88.31662, 27.12555], [88.31354, 27.126500000000004], [88.30876, 27.126050000000003], [88.30204, 27.128860000000003], [88.29843000000001, 27.128140000000002], [88.29523, 27.125850000000003], [88.29025, 27.127390000000002], [88.28323, 27.127390000000002], [88.28005, 27.14253], [88.28149, 27.144510000000004], [88.28216, 27.14881], [88.28457, 27.150720000000003], [88.28698000000001, 27.15106], [88.29038000000001, 27.154180000000004], [88.29413000000001, 27.16326], [88.29641000000001, 27.16429], [88.30001, 27.169040000000003], [88.30081000000001, 27.173650000000002], [88.3044, 27.176420000000004], [88.30948000000001, 27.17808], [88.3121, 27.181680000000004], [88.31961000000001, 27.18559], [88.32860000000001, 27.18757], [88.33063000000001, 27.188840000000003], [88.32888000000001, 27.19188], [88.33433000000001, 27.19451], [88.33171, 27.198750000000004], [88.33179000000001, 27.20126], [88.32901000000001, 27.204480000000004], [88.32485000000001, 27.215600000000002], [88.32793000000001, 27.21722], [88.328, 27.222350000000002], [88.33478000000001, 27.222790000000003], [88.34792, 27.225260000000002], [88.37448, 27.226300000000002], [88.38935000000001, 27.23034], [88.39713, 27.23355], [88.40479, 27.232470000000003], [88.42084000000001, 27.244840000000003], [88.42003000000001, 27.248500000000003], [88.41889, 27.249900000000004], [88.42165000000001, 27.251], [88.43316, 27.259660000000004], [88.43693, 27.26087], [88.43999000000001, 27.263220000000004], [88.44539, 27.263530000000003], [88.44692, 27.26123], [88.45887, 27.255940000000002], [88.46465, 27.25053], [88.47525, 27.247410000000002], [88.48079000000001, 27.246720000000003], [88.4907, 27.239530000000002], [88.4945, 27.230520000000002], [88.49404000000001, 27.228060000000003], [88.49221000000001, 27.218470000000003]]]}}, {"id": "6", "type": "Feature", "properties": {"state_name": "Sikkim", "district_name": "Gangtok", "block_name": "Gangtok", "block_lgd": 1553, "district_lgd": 225}, "geometry": {"type": "Polygon", "coordinates": [[[88.86553, 27.283980000000003], [88.82583000000001, 27.287640000000003], [88.78916000000001, 27.295720000000003], [88.78295000000001, 27.296360000000004], [88.76993, 27.298270000000002], [88.73060000000001, 27.31537], [88.72635000000001, 27.315320000000003], [88.68054000000001, 27.299180000000003], [88.68204, 27.29548], [88.68224000000001, 27.2923], [88.68207000000001, 27.289900000000003], [88.68066, 27.287180000000003], [88.67363, 27.280310000000004], [88.66224000000001, 27.27128], [88.65279000000001, 27.268210000000003], [88.64496000000001, 27.273920000000004], [88.63091000000001, 27.279400000000003], [88.61941, 27.28208], [88.60629, 27.283250000000002], [88.60494000000001, 27.281900000000004], [88.59879000000001, 27.280020000000004], [88.59469000000001, 27.26921], [88.59075000000001, 27.265990000000002], [88.58264000000001, 27.264210000000002], [88.56863000000001, 27.262900000000002], [88.56528, 27.260170000000002], [88.56093000000001, 27.258720000000004], [88.55712000000001, 27.254620000000003], [88.55912000000001, 27.25308], [88.56063, 27.248030000000004], [88.56178000000001, 27.247760000000003], [88.56388000000001, 27.243830000000003], [88.57001000000001, 27.23871], [88.57215000000001, 27.23768], [88.58271, 27.239290000000004], [88.58625, 27.23497], [88.58623, 27.23383], [88.58289, 27.231990000000003], [88.58126, 27.2295], [88.57836, 27.228530000000003], [88.57747, 27.226530000000004], [88.57093, 27.223470000000002], [88.56152, 27.220830000000003], [88.5579, 27.210060000000002], [88.55722, 27.202640000000002], [88.55806000000001, 27.20099], [88.55622000000001, 27.191070000000003], [88.55583, 27.184070000000002], [88.54794000000001, 27.18091], [88.5413, 27.18165], [88.537, 27.176890000000004], [88.53186000000001, 27.176170000000003], [88.53095, 27.171750000000003], [88.52981000000001, 27.170320000000004], [88.52510000000001, 27.175040000000003], [88.52539, 27.17819], [88.50368, 27.18513], [88.49676000000001, 27.19329], [88.49101, 27.202330000000003], [88.49221000000001, 27.218470000000003], [88.49404000000001, 27.228060000000003], [88.4945, 27.230520000000002], [88.4907, 27.239530000000002], [88.48079000000001, 27.246720000000003], [88.47525, 27.247410000000002], [88.46465, 27.25053], [88.45887, 27.255940000000002], [88.44692, 27.26123], [88.44539, 27.263530000000003], [88.44343, 27.2665], [88.44152000000001, 27.273920000000004], [88.44254000000001, 27.281200000000002], [88.44822, 27.29597], [88.44694000000001, 27.300880000000003], [88.45179, 27.30591], [88.45444, 27.315310000000004], [88.46169, 27.317610000000002], [88.46700000000001, 27.321880000000004], [88.47392, 27.323750000000004], [88.48261000000001, 27.32872], [88.48623, 27.333630000000003], [88.48823, 27.342480000000002], [88.48171, 27.35262], [88.48025000000001, 27.36044], [88.48101000000001, 27.36632], [88.48597000000001, 27.37835], [88.49118000000001, 27.378660000000004], [88.50124000000001, 27.38249], [88.51375, 27.3895], [88.51912, 27.394530000000003], [88.52318000000001, 27.39712], [88.52893, 27.396130000000003], [88.53375000000001, 27.396620000000002], [88.54378000000001, 27.39403], [88.5548, 27.392360000000004], [88.58194, 27.394460000000002], [88.59069000000001, 27.396310000000003], [88.59367, 27.392370000000003], [88.59966000000001, 27.39075], [88.61575, 27.38775], [88.62676, 27.387290000000004], [88.63747000000001, 27.388540000000003], [88.64081, 27.390900000000002], [88.64898000000001, 27.391880000000004], [88.65873, 27.39111], [88.66342, 27.393100000000004], [88.67514000000001, 27.400140000000004], [88.67927, 27.40002], [88.68688, 27.398130000000002], [88.69487000000001, 27.39844], [88.70018, 27.40173], [88.71219, 27.41214], [88.71871, 27.416680000000003], [88.73127000000001, 27.41928], [88.75351, 27.41476], [88.76700000000001, 27.413750000000004], [88.77308000000001, 27.416430000000002], [88.78242, 27.42284], [88.7873, 27.4217], [88.79711, 27.416490000000003], [88.80477, 27.41523], [88.80683, 27.413140000000002], [88.80748000000001, 27.411260000000002], [88.8062, 27.4068], [88.80953000000001, 27.404970000000002], [88.81258000000001, 27.40125], [88.81659, 27.402340000000002], [88.81843, 27.401460000000004], [88.82096000000001, 27.398580000000003], [88.82331, 27.390580000000003], [88.83051, 27.38997], [88.83139000000001, 27.385830000000002], [88.83595000000001, 27.3823], [88.83767, 27.379160000000002], [88.84575000000001, 27.384880000000003], [88.85003, 27.383920000000003], [88.85334, 27.384790000000002], [88.85663000000001, 27.384400000000003], [88.85950000000001, 27.385230000000004], [88.86095, 27.386540000000004], [88.86216, 27.384010000000004], [88.86197000000001, 27.38193], [88.86428000000001, 27.378650000000004], [88.86305, 27.37505], [88.86281000000001, 27.36982], [88.86675000000001, 27.365810000000003], [88.87462000000001, 27.362710000000003], [88.87609, 27.360280000000003], [88.88099000000001, 27.360470000000003], [88.88165000000001, 27.35799], [88.88063000000001, 27.35254], [88.88194, 27.350980000000003], [88.88537000000001, 27.35115], [88.88217, 27.34673], [88.88223, 27.34476], [88.88489000000001, 27.34194], [88.89147000000001, 27.33911], [88.89485, 27.332300000000004], [88.89962000000001, 27.332770000000004], [88.90312, 27.331210000000002], [88.90578000000001, 27.328590000000002], [88.91265000000001, 27.32954], [88.9154, 27.330710000000003], [88.9192, 27.32797], [88.91926000000001, 27.32062], [88.91857, 27.31829], [88.91607, 27.31602], [88.91367000000001, 27.30992], [88.90864, 27.303420000000003], [88.90942000000001, 27.29916], [88.91157000000001, 27.29577], [88.91356, 27.290090000000003], [88.91139000000001, 27.286430000000003], [88.86553, 27.283980000000003]]]}}, {"id": "7", "type": "Feature", "properties": {"state_name": "Sikkim", "district_name": "Gangtok", "block_name": "Pakyong", "block_lgd": 1554, "district_lgd": 225}, "geometry": {"type": "Polygon", "coordinates": [[[88.75175, 27.278540000000003], [88.73643000000001, 27.278560000000002], [88.72975000000001, 27.280320000000003], [88.72496000000001, 27.27981], [88.72242000000001, 27.27381], [88.72253, 27.26311], [88.72363000000001, 27.259690000000003], [88.72244, 27.257320000000004], [88.72251000000001, 27.25279], [88.72139000000001, 27.245880000000003], [88.71958000000001, 27.240750000000002], [88.71951000000001, 27.236340000000002], [88.71519, 27.23156], [88.70070000000001, 27.219810000000003], [88.69552, 27.21833], [88.68657, 27.217520000000004], [88.68397, 27.216120000000004], [88.67785, 27.20942], [88.67760000000001, 27.20642], [88.67639000000001, 27.20417], [88.67053000000001, 27.20269], [88.65828, 27.203120000000002], [88.6486, 27.201620000000002], [88.64381, 27.199550000000002], [88.64416000000001, 27.196040000000004], [88.64267000000001, 27.195110000000003], [88.63935000000001, 27.194810000000004], [88.63573000000001, 27.19321], [88.62453000000001, 27.19227], [88.61579, 27.193040000000003], [88.60995000000001, 27.190990000000003], [88.60796, 27.18868], [88.60754, 27.185660000000002], [88.61007000000001, 27.1809], [88.60694000000001, 27.18098], [88.60205, 27.1838], [88.59814, 27.18465], [88.59716, 27.188170000000003], [88.59580000000001, 27.18924], [88.59377, 27.18926], [88.59195000000001, 27.187990000000003], [88.59043000000001, 27.188080000000003], [88.58909000000001, 27.18924], [88.58526, 27.185150000000004], [88.58437, 27.185480000000002], [88.58404, 27.18804], [88.58292, 27.188200000000002], [88.57964000000001, 27.186280000000004], [88.57950000000001, 27.18729], [88.57789000000001, 27.18747], [88.57282000000001, 27.186030000000002], [88.56711000000001, 27.18579], [88.56025000000001, 27.18371], [88.55583, 27.184070000000002], [88.55622000000001, 27.191070000000003], [88.55806000000001, 27.20099], [88.55722, 27.202640000000002], [88.5579, 27.210060000000002], [88.56152, 27.220830000000003], [88.57093, 27.223470000000002], [88.57747, 27.226530000000004], [88.57836, 27.228530000000003], [88.58126, 27.2295], [88.58289, 27.231990000000003], [88.58623, 27.23383], [88.58625, 27.23497], [88.58271, 27.239290000000004], [88.57215000000001, 27.23768], [88.57001000000001, 27.23871], [88.56388000000001, 27.243830000000003], [88.56178000000001, 27.247760000000003], [88.56063, 27.248030000000004], [88.55912000000001, 27.25308], [88.55712000000001, 27.254620000000003], [88.56093000000001, 27.258720000000004], [88.56528, 27.260170000000002], [88.56863000000001, 27.262900000000002], [88.58264000000001, 27.264210000000002], [88.59075000000001, 27.265990000000002], [88.59469000000001, 27.26921], [88.59879000000001, 27.280020000000004], [88.60494000000001, 27.281900000000004], [88.60629, 27.283250000000002], [88.61941, 27.28208], [88.63091000000001, 27.279400000000003], [88.64496000000001, 27.273920000000004], [88.65279000000001, 27.268210000000003], [88.66224000000001, 27.27128], [88.67363, 27.280310000000004], [88.68066, 27.287180000000003], [88.68207000000001, 27.289900000000003], [88.68224000000001, 27.2923], [88.68204, 27.29548], [88.68054000000001, 27.299180000000003], [88.72635000000001, 27.315320000000003], [88.73060000000001, 27.31537], [88.76993, 27.298270000000002], [88.78295000000001, 27.296360000000004], [88.75276000000001, 27.27914], [88.75175, 27.278540000000003]]]}}, {"id": "8", "type": "Feature", "properties": {"state_name": "Sikkim", "district_name": "Mangan", "block_name": "Chungthang", "block_lgd": 1547, "district_lgd": 226}, "geometry": {"type": "Polygon", "coordinates": [[[88.65441000000001, 28.09465], [88.6564, 28.09241], [88.65686000000001, 28.090040000000002], [88.66135000000001, 28.089640000000003], [88.66434000000001, 28.087410000000002], [88.6654, 28.085420000000003], [88.66516, 28.08264], [88.66640000000001, 28.079780000000003], [88.66668000000001, 28.076100000000004], [88.67206, 28.072340000000004], [88.67844000000001, 28.071460000000002], [88.68135000000001, 28.07691], [88.68681000000001, 28.07794], [88.69344000000001, 28.077630000000003], [88.69720000000001, 28.075930000000003], [88.70325000000001, 28.07626], [88.70955000000001, 28.077640000000002], [88.72042, 28.074330000000003], [88.73485000000001, 28.074350000000003], [88.7471, 28.076040000000003], [88.75629, 28.07597], [88.76565000000001, 28.070470000000004], [88.77093, 28.065870000000004], [88.77415, 28.062300000000004], [88.7776, 28.05412], [88.78378000000001, 28.053950000000004], [88.78741000000001, 28.05038], [88.79288000000001, 28.048640000000002], [88.79385, 28.043400000000002], [88.79758000000001, 28.040940000000003], [88.80307, 28.031810000000004], [88.80588, 28.02916], [88.80777, 28.028430000000004], [88.81359, 28.022440000000003], [88.81688000000001, 28.020680000000002], [88.82015000000001, 28.02147], [88.82261000000001, 28.020860000000003], [88.83628, 28.01481], [88.83779000000001, 28.008540000000004], [88.83798, 28.000490000000003], [88.83928, 27.997740000000004], [88.84371, 27.993250000000003], [88.84381, 27.990420000000004], [88.84317, 27.985380000000003], [88.84140000000001, 27.981740000000002], [88.84299, 27.975260000000002], [88.84084000000001, 27.966340000000002], [88.84240000000001, 27.963630000000002], [88.84289000000001, 27.95278], [88.84177000000001, 27.94956], [88.84134, 27.944150000000004], [88.83871, 27.94273], [88.83921000000001, 27.94065], [88.83765000000001, 27.93663], [88.83694000000001, 27.928780000000003], [88.84358, 27.928810000000002], [88.85265000000001, 27.925780000000003], [88.86041, 27.92715], [88.86370000000001, 27.92134], [88.87002000000001, 27.9156], [88.86933, 27.913000000000004], [88.87015000000001, 27.91015], [88.86918000000001, 27.907590000000003], [88.86953000000001, 27.905440000000002], [88.87217000000001, 27.901190000000003], [88.87181000000001, 27.89852], [88.88263, 27.890770000000003], [88.88066, 27.88662], [88.88078, 27.88228], [88.87849000000001, 27.879730000000002], [88.87781000000001, 27.875760000000003], [88.87937000000001, 27.867160000000002], [88.88505, 27.86154], [88.88767000000001, 27.856180000000002], [88.88130000000001, 27.849750000000004], [88.88176000000001, 27.846950000000003], [88.88051, 27.844590000000004], [88.87994, 27.840080000000004], [88.88207000000001, 27.83763], [88.88269000000001, 27.834270000000004], [88.88055000000001, 27.83179], [88.88045000000001, 27.82918], [88.87171000000001, 27.825590000000002], [88.86393000000001, 27.819720000000004], [88.85581, 27.815210000000004], [88.85834000000001, 27.811100000000003], [88.85891000000001, 27.807330000000004], [88.85810000000001, 27.8042], [88.86023, 27.802950000000003], [88.85966, 27.800980000000003], [88.86123, 27.798790000000004], [88.86145, 27.79699], [88.85982000000001, 27.794690000000003], [88.85928000000001, 27.79023], [88.85492, 27.783500000000004], [88.85468, 27.777500000000003], [88.85591000000001, 27.770770000000002], [88.85356, 27.769170000000003], [88.85328000000001, 27.764480000000002], [88.85449000000001, 27.762950000000004], [88.85445000000001, 27.756420000000002], [88.85609000000001, 27.752290000000002], [88.85839000000001, 27.753940000000004], [88.85989000000001, 27.7539], [88.86161000000001, 27.75249], [88.86409, 27.746660000000002], [88.8636, 27.74425], [88.86514000000001, 27.742250000000002], [88.85942000000001, 27.738110000000002], [88.85866, 27.733780000000003], [88.85669, 27.73167], [88.85751, 27.726820000000004], [88.85579000000001, 27.72521], [88.85559, 27.722430000000003], [88.85424, 27.72012], [88.85583000000001, 27.718580000000003], [88.8563, 27.71655], [88.85470000000001, 27.716350000000002], [88.85263, 27.71449], [88.8498, 27.71439], [88.83979000000001, 27.711230000000004], [88.83798, 27.706290000000003], [88.83827000000001, 27.70379], [88.84263000000001, 27.702880000000004], [88.84360000000001, 27.700160000000004], [88.84604, 27.69807], [88.84766, 27.69356], [88.84234000000001, 27.68418], [88.84192, 27.6822], [88.84243000000001, 27.680580000000003], [88.84438, 27.679650000000002], [88.84457, 27.677090000000003], [88.84759000000001, 27.675440000000002], [88.84839000000001, 27.668010000000002], [88.84309, 27.659910000000004], [88.83913000000001, 27.65698], [88.83825, 27.654930000000004], [88.83572000000001, 27.653620000000004], [88.83551000000001, 27.650340000000003], [88.83385000000001, 27.649510000000003], [88.83153, 27.64666], [88.82885, 27.645860000000003], [88.82795, 27.644260000000003], [88.82278000000001, 27.643530000000002], [88.81946, 27.646390000000004], [88.81677, 27.647180000000002], [88.81526000000001, 27.64609], [88.81413, 27.642450000000004], [88.81157, 27.63878], [88.81119000000001, 27.636540000000004], [88.80868000000001, 27.63444], [88.80852, 27.631120000000003], [88.80652, 27.628650000000004], [88.80491, 27.623510000000003], [88.80801000000001, 27.622040000000002], [88.81166, 27.61839], [88.80823000000001, 27.613400000000002], [88.80633, 27.60892], [88.80903, 27.60253], [88.80754, 27.6015], [88.80473, 27.59436], [88.80314000000001, 27.594340000000003], [88.79469, 27.59025], [88.79142, 27.5865], [88.78837, 27.584930000000004], [88.79083000000001, 27.58116], [88.79119, 27.57504], [88.78801000000001, 27.574790000000004], [88.78444, 27.573280000000004], [88.78139, 27.569920000000003], [88.77000000000001, 27.571260000000002], [88.76594, 27.56846], [88.76375, 27.565070000000002], [88.77173, 27.55807], [88.77393000000001, 27.553790000000003], [88.77301000000001, 27.54896], [88.77518, 27.544520000000002], [88.77310000000001, 27.540760000000002], [88.77645000000001, 27.53385], [88.77828000000001, 27.531740000000003], [88.78332, 27.529180000000004], [88.78482000000001, 27.530630000000002], [88.78680000000001, 27.530450000000002], [88.78097000000001, 27.51574], [88.77466000000001, 27.51253], [88.76493, 27.511190000000003], [88.75496000000001, 27.504780000000004], [88.72759, 27.510530000000003], [88.71897000000001, 27.511070000000004], [88.68553000000001, 27.519280000000002], [88.66141, 27.521500000000003], [88.64932, 27.525660000000002], [88.64094, 27.532270000000004], [88.63910000000001, 27.53674], [88.63076000000001, 27.54671], [88.61533, 27.545730000000002], [88.60342000000001, 27.541580000000003], [88.57681000000001, 27.52972], [88.57412000000001, 27.54999], [88.54887000000001, 27.5465], [88.54034, 27.54728], [88.54051000000001, 27.55544], [88.52367000000001, 27.55946], [88.50952000000001, 27.561880000000002], [88.50329, 27.56436], [88.49487, 27.565820000000002], [88.46812000000001, 27.57287], [88.45724000000001, 27.57419], [88.4435, 27.577090000000002], [88.44498, 27.596280000000004], [88.44199, 27.59521], [88.43825000000001, 27.587190000000003], [88.43501, 27.576330000000002], [88.43168000000001, 27.576860000000003], [88.41914000000001, 27.596010000000003], [88.41365, 27.595670000000002], [88.39792000000001, 27.59861], [88.38220000000001, 27.599210000000003], [88.37513000000001, 27.600360000000002], [88.3639, 27.604740000000003], [88.3618, 27.610370000000003], [88.34969000000001, 27.61625], [88.34229, 27.621100000000002], [88.33833000000001, 27.621240000000004], [88.31863000000001, 27.646610000000003], [88.30650000000001, 27.656200000000002], [88.29661, 27.656540000000003], [88.26383000000001, 27.66786], [88.25623, 27.669390000000003], [88.24941000000001, 27.67395], [88.24156, 27.67669], [88.23707, 27.67818], [88.15220000000001, 27.681320000000003], [88.14868000000001, 27.68223], [88.15415, 27.6918], [88.15114000000001, 27.69609], [88.15084, 27.69853], [88.14965000000001, 27.699180000000002], [88.14757, 27.702800000000003], [88.14909, 27.704880000000003], [88.14903000000001, 27.708150000000003], [88.15280000000001, 27.711720000000003], [88.15537, 27.717350000000003], [88.15451, 27.720540000000003], [88.15447, 27.728540000000002], [88.15617, 27.736110000000004], [88.15795000000001, 27.737940000000002], [88.15848000000001, 27.74057], [88.16285, 27.739770000000004], [88.16594, 27.74104], [88.16991, 27.74114], [88.17421, 27.74292], [88.17592, 27.745610000000003], [88.17837, 27.746180000000003], [88.17892, 27.749950000000002], [88.17767, 27.758440000000004], [88.18228, 27.762620000000002], [88.18366, 27.766700000000004], [88.18179, 27.76941], [88.18220000000001, 27.77577], [88.18546, 27.777140000000003], [88.18957, 27.782280000000004], [88.19529000000001, 27.786260000000002], [88.19717000000001, 27.79117], [88.19397000000001, 27.79641], [88.19197000000001, 27.796920000000004], [88.18742, 27.8011], [88.18626, 27.804660000000002], [88.18654000000001, 27.807420000000004], [88.18549, 27.808590000000002], [88.18566000000001, 27.810460000000003], [88.17927, 27.815450000000002], [88.17409, 27.817370000000004], [88.17359, 27.820600000000002], [88.18284000000001, 27.823120000000003], [88.18801, 27.825460000000003], [88.19144000000001, 27.829480000000004], [88.19255000000001, 27.832960000000003], [88.19563000000001, 27.835300000000004], [88.20182000000001, 27.836720000000003], [88.20280000000001, 27.838800000000003], [88.20166, 27.84288], [88.19860000000001, 27.84533], [88.19738000000001, 27.84879], [88.19762, 27.851340000000004], [88.19522, 27.854540000000004], [88.18901000000001, 27.854380000000003], [88.18556000000001, 27.856530000000003], [88.18321, 27.857000000000003], [88.17895, 27.85648], [88.17407, 27.86266], [88.16706, 27.86606], [88.16493000000001, 27.8683], [88.15781000000001, 27.87066], [88.15475, 27.870720000000002], [88.15312, 27.873030000000004], [88.14899000000001, 27.876410000000003], [88.14408, 27.877950000000002], [88.14007000000001, 27.87741], [88.13669, 27.881230000000002], [88.13501000000001, 27.88162], [88.13624, 27.88454], [88.13794, 27.885640000000002], [88.13990000000001, 27.88915], [88.13430000000001, 27.897050000000004], [88.13083, 27.898920000000004], [88.12263, 27.90837], [88.12191000000001, 27.911700000000003], [88.11958000000001, 27.916000000000004], [88.12125, 27.92197], [88.12549000000001, 27.92453], [88.13065, 27.92575], [88.13049000000001, 27.929370000000002], [88.13207000000001, 27.93287], [88.13472, 27.935480000000002], [88.13786, 27.937150000000003], [88.13560000000001, 27.943990000000003], [88.13275, 27.947180000000003], [88.12939, 27.94931], [88.13434000000001, 27.951320000000003], [88.14521, 27.964080000000003], [88.14885000000001, 27.960790000000003], [88.1543, 27.957400000000003], [88.16389000000001, 27.957680000000003], [88.16511000000001, 27.95597], [88.17056000000001, 27.952450000000002], [88.17907000000001, 27.94919], [88.18547000000001, 27.94349], [88.18991000000001, 27.942890000000002], [88.19534, 27.944160000000004], [88.20059, 27.94169], [88.2064, 27.941670000000002], [88.20493, 27.949410000000004], [88.20646, 27.959680000000002], [88.20796000000001, 27.961660000000002], [88.21275000000001, 27.964270000000003], [88.21476000000001, 27.963060000000002], [88.22505000000001, 27.960420000000003], [88.22915, 27.9659], [88.23717, 27.970850000000002], [88.24151, 27.957150000000002], [88.24739000000001, 27.949790000000004], [88.24877000000001, 27.94543], [88.25108, 27.94235], [88.25410000000001, 27.945280000000004], [88.26112, 27.94713], [88.2647, 27.956080000000004], [88.26624000000001, 27.957300000000004], [88.26819, 27.957130000000003], [88.27394000000001, 27.954500000000003], [88.27564000000001, 27.954700000000003], [88.28056000000001, 27.957050000000002], [88.28604000000001, 27.966260000000002], [88.29334, 27.96582], [88.29995000000001, 27.967280000000002], [88.30347, 27.96581], [88.30821, 27.96711], [88.31117, 27.970290000000002], [88.31320000000001, 27.970840000000003], [88.31541000000001, 27.97651], [88.31792, 27.978800000000003], [88.32597000000001, 27.97624], [88.33040000000001, 27.973180000000003], [88.33193000000001, 27.974780000000003], [88.33672000000001, 27.984150000000003], [88.34134, 27.985560000000003], [88.34566000000001, 27.985020000000002], [88.35227, 27.989950000000004], [88.36227000000001, 27.9887], [88.36958000000001, 27.989330000000002], [88.37115000000001, 27.989870000000003], [88.37177000000001, 27.991080000000004], [88.37701000000001, 27.989870000000003], [88.379, 27.98523], [88.38091000000001, 27.98307], [88.38618000000001, 27.981420000000004], [88.3875, 27.979400000000002], [88.39907000000001, 27.978040000000004], [88.40060000000001, 27.98092], [88.40302000000001, 27.982630000000004], [88.4068, 27.981730000000002], [88.41077000000001, 27.98328], [88.41149, 27.98506], [88.41083, 27.988080000000004], [88.41222, 27.994500000000002], [88.41470000000001, 27.998880000000003], [88.41823000000001, 28.00082], [88.42461, 28.001600000000003], [88.43059000000001, 28.008090000000003], [88.43476000000001, 28.007990000000003], [88.44375000000001, 28.009380000000004], [88.45638000000001, 28.014920000000004], [88.46079, 28.014550000000003], [88.46238000000001, 28.016150000000003], [88.46782, 28.01714], [88.47263000000001, 28.02661], [88.47444, 28.033870000000004], [88.47853, 28.038470000000004], [88.48036, 28.042540000000002], [88.48247, 28.043730000000004], [88.48805, 28.044480000000004], [88.49562, 28.05393], [88.49655000000001, 28.053900000000002], [88.50448, 28.04782], [88.50962000000001, 28.041190000000004], [88.51968000000001, 28.043550000000003], [88.52185, 28.03629], [88.52351, 28.03499], [88.52753000000001, 28.037770000000002], [88.53271000000001, 28.033320000000003], [88.54364000000001, 28.033250000000002], [88.55080000000001, 28.037570000000002], [88.55107000000001, 28.039350000000002], [88.54897000000001, 28.043080000000003], [88.54872, 28.04689], [88.55174000000001, 28.05479], [88.55392, 28.067380000000004], [88.55622000000001, 28.073480000000004], [88.55255000000001, 28.08142], [88.5597, 28.083930000000002], [88.56349, 28.088540000000002], [88.56627, 28.09033], [88.57071, 28.088790000000003], [88.57494000000001, 28.08462], [88.58148000000001, 28.082990000000002], [88.584, 28.08331], [88.58788000000001, 28.087280000000003], [88.59123000000001, 28.089260000000003], [88.59742000000001, 28.088600000000003], [88.60259, 28.089170000000003], [88.60214, 28.092050000000004], [88.60521000000001, 28.09756], [88.61160000000001, 28.099050000000002], [88.61934000000001, 28.098080000000003], [88.61771, 28.110000000000003], [88.61770000000001, 28.117770000000004], [88.60858, 28.122600000000002], [88.60996, 28.128690000000002], [88.62402, 28.12618], [88.62874000000001, 28.12442], [88.63577000000001, 28.117910000000002], [88.64595000000001, 28.098750000000003], [88.65081, 28.09682], [88.65441000000001, 28.09465]]]}}]}