{"type": "FeatureCollection", "metadata": {"source": "Survey of India (per src_agency attribute in the source data)", "hosted_via": "National Water Data Portal (NWDP), NWIC, Ministry of Jal Shakti -- https://nwdp.nwic.gov.in/", "access": "public, no login required", "crs_original": "EPSG:7755 (WGS 84 / India NSF LCC)", "fetch_date": "2026-08-02", "quality": "verified-official -- Survey of India source", "state": "Arunachal Pradesh", "district": "East Siang", "processing": "reprojected to EPSG:4326, topology-preserving simplify (shared-arc, tolerance 0.0005 deg) so adjacent polygons never overlap/gap at shared borders, coords rounded 5dp, 0 feature(s) needed the per-feature fallback", "feature_count": 82}, "features": [{"id": "0", "type": "Feature", "properties": {"village_name": "Debing", "vil_lgd": 263861, "district_name": "East Siang", "dist_lgd": 232, "subdistrict_name": "Ruksin ADC", "sdcode": 1653, "block_name": "Ruksin", "block_lgd": 49.0, "gp_name": "", "state_name": "ARUNANCHAL PRADESH", "state_lgd": 12, "population": 897, "households": 174}, "geometry": {"type": "Polygon", "coordinates": [[[95.14643000000001, 27.858110000000003], [95.14732000000001, 27.858960000000003], [95.14821, 27.858110000000003], [95.14745, 27.857400000000002], [95.14643000000001, 27.858110000000003]]]}}, {"id": "1", "type": "Feature", "properties": {"village_name": "Ledum", "vil_lgd": 263854, "district_name": "East Siang", "dist_lgd": 232, "subdistrict_name": "Bilat Circle", "sdcode": 1652, "block_name": "Ruksin", "block_lgd": 49.0, "gp_name": "", "state_name": "ARUNANCHAL PRADESH", "state_lgd": 12, "population": 560, "households": 118}, "geometry": {"type": "Polygon", "coordinates": [[[95.12645, 27.945200000000003], [95.12587, 27.9462], [95.12671, 27.946740000000002], [95.1276, 27.945890000000002], [95.12685, 27.94518], [95.12645, 27.945200000000003]]]}}, {"id": "2", "type": "Feature", "properties": {"village_name": "Lesing T E", "vil_lgd": 263855, "district_name": "East Siang", "dist_lgd": 232, "subdistrict_name": "Bilat Circle", "sdcode": 1652, "block_name": "Ruksin", "block_lgd": 49.0, "gp_name": "", "state_name": "ARUNANCHAL PRADESH", "state_lgd": 12, "population": 67, "households": 18}, "geometry": {"type": "Polygon", "coordinates": [[[95.14149, 27.972530000000003], [95.1409, 27.973530000000004], [95.14175, 27.97407], [95.14264000000001, 27.97322], [95.14188000000001, 27.972510000000003], [95.14149, 27.972530000000003]]]}}, {"id": "3", "type": "Feature", "properties": {"village_name": "Lingka", "vil_lgd": 263862, "district_name": "East Siang", "dist_lgd": 232, "subdistrict_name": "Ruksin ADC", "sdcode": 1653, "block_name": "Ruksin", "block_lgd": 49.0, "gp_name": "", "state_name": "ARUNANCHAL PRADESH", "state_lgd": 12, "population": 234, "households": 33}, "geometry": {"type": "Polygon", "coordinates": [[[95.26565000000001, 27.869660000000003], [95.26685, 27.870050000000003], [95.26725, 27.86898], [95.26624000000001, 27.86858], [95.26565000000001, 27.869660000000003]]]}}, {"id": "4", "type": "Feature", "properties": {"village_name": "Ngorlung", "vil_lgd": 263863, "district_name": "East Siang", "dist_lgd": 232, "subdistrict_name": "Ruksin ADC", "sdcode": 1653, "block_name": "Ruksin", "block_lgd": 49.0, "gp_name": "", "state_name": "ARUNANCHAL PRADESH", "state_lgd": 12, "population": 800, "households": 152}, "geometry": {"type": "Polygon", "coordinates": [[[95.22116000000001, 27.873240000000003], [95.22157000000001, 27.87431], [95.2228, 27.87385], [95.22222000000001, 27.872840000000004], [95.22116000000001, 27.873240000000003]]]}}, {"id": "5", "type": "Feature", "properties": {"village_name": "Ralung", "vil_lgd": 263864, "district_name": "East Siang", "dist_lgd": 232, "subdistrict_name": "Ruksin ADC", "sdcode": 1653, "block_name": "Ruksin", "block_lgd": 49.0, "gp_name": "", "state_name": "ARUNANCHAL PRADESH", "state_lgd": 12, "population": 542, "households": 100}, "geometry": {"type": "Polygon", "coordinates": [[[95.22378, 27.885060000000003], [95.2232, 27.88606], [95.22404, 27.8866], [95.22493000000001, 27.88575], [95.22418, 27.885040000000004], [95.22378, 27.885060000000003]]]}}, {"id": "6", "type": "Feature", "properties": {"village_name": "Niglok", "vil_lgd": 263865, "district_name": "East Siang", "dist_lgd": 232, "subdistrict_name": "Ruksin ADC", "sdcode": 1653, "block_name": "Ruksin", "block_lgd": 49.0, "gp_name": "", "state_name": "ARUNANCHAL PRADESH", "state_lgd": 12, "population": 361, "households": 65}, "geometry": {"type": "Polygon", "coordinates": [[[95.21340000000001, 27.897420000000004], [95.21463000000001, 27.89788], [95.21504, 27.896810000000002], [95.21411, 27.896400000000003], [95.21340000000001, 27.897420000000004]]]}}, {"id": "7", "type": "Feature", "properties": {"village_name": "Rayang", "vil_lgd": 263866, "district_name": "East Siang", "dist_lgd": 232, "subdistrict_name": "Ruksin ADC", "sdcode": 1653, "block_name": "Ruksin", "block_lgd": 49.0, "gp_name": "", "state_name": "ARUNANCHAL PRADESH", "state_lgd": 12, "population": 844, "households": 120}, "geometry": {"type": "Polygon", "coordinates": [[[95.17404, 27.857760000000003], [95.17527000000001, 27.858220000000003], [95.17568000000001, 27.85714], [95.17475, 27.856730000000002], [95.17404, 27.857760000000003]]]}}, {"id": "8", "type": "Feature", "properties": {"village_name": "Rayang Moli", "vil_lgd": 263867, "district_name": "East Siang", "dist_lgd": 232, "subdistrict_name": "Ruksin ADC", "sdcode": 1653, "block_name": "Ruksin", "block_lgd": 49.0, "gp_name": "", "state_name": "ARUNANCHAL PRADESH", "state_lgd": 12, "population": 174, "households": 27}, "geometry": {"type": "Polygon", "coordinates": [[[95.19491000000001, 27.8576], [95.19432, 27.858610000000002], [95.19517, 27.859140000000004], [95.19606, 27.858300000000003], [95.1953, 27.857580000000002], [95.19491000000001, 27.8576]]]}}, {"id": "9", "type": "Feature", "properties": {"village_name": "Ruksin", "vil_lgd": 263868, "district_name": "East Siang", "dist_lgd": 232, "subdistrict_name": "Ruksin ADC", "sdcode": 1653, "block_name": "Ruksin", "block_lgd": 49.0, "gp_name": "", "state_name": "ARUNANCHAL PRADESH", "state_lgd": 12, "population": 463, "households": 82}, "geometry": {"type": "Polygon", "coordinates": [[[95.2167, 27.85818], [95.21785000000001, 27.858670000000004], [95.21838000000001, 27.857640000000004], [95.21733, 27.857170000000004], [95.2167, 27.85818]]]}}, {"id": "10", "type": "Feature", "properties": {"village_name": "Ruksin H Q", "vil_lgd": 263869, "district_name": "East Siang", "dist_lgd": 232, "subdistrict_name": "Ruksin ADC", "sdcode": 1653, "block_name": "Ruksin", "block_lgd": 49.0, "gp_name": "", "state_name": "ARUNANCHAL PRADESH", "state_lgd": 12, "population": 1123, "households": 247}, "geometry": {"type": "Polygon", "coordinates": [[[95.22213, 27.852320000000002], [95.22264000000001, 27.85309], [95.22369, 27.8529], [95.22315, 27.85161], [95.22213, 27.852320000000002]]]}}, {"id": "11", "type": "Feature", "properties": {"village_name": "Shantiban T E", "vil_lgd": 263870, "district_name": "East Siang", "dist_lgd": 232, "subdistrict_name": "Ruksin ADC", "sdcode": 1653, "block_name": "Ruksin", "block_lgd": 49.0, "gp_name": "", "state_name": "ARUNANCHAL PRADESH", "state_lgd": 12, "population": 241, "households": 57}, "geometry": {"type": "Polygon", "coordinates": [[[95.25015, 27.870820000000002], [95.25065000000001, 27.87159], [95.25193, 27.870900000000002], [95.25082, 27.870120000000004], [95.25015, 27.870820000000002]]]}}, {"id": "12", "type": "Feature", "properties": {"village_name": "Oyan Camp", "vil_lgd": 263871, "district_name": "East Siang", "dist_lgd": 232, "subdistrict_name": "Oyan Circle", "sdcode": 1654, "block_name": "Ruksin", "block_lgd": 49.0, "gp_name": "", "state_name": "ARUNANCHAL PRADESH", "state_lgd": 12, "population": 751, "households": 151}, "geometry": {"type": "Polygon", "coordinates": [[[95.31975000000001, 27.873070000000002], [95.32099000000001, 27.873530000000002], [95.32139000000001, 27.872460000000004], [95.32047000000001, 27.872040000000002], [95.31975000000001, 27.873070000000002]]]}}, {"id": "13", "type": "Feature", "properties": {"village_name": "Kemi Check Gate", "vil_lgd": 263872, "district_name": "East Siang", "dist_lgd": 232, "subdistrict_name": "Oyan Circle", "sdcode": 1654, "block_name": "Ruksin", "block_lgd": 49.0, "gp_name": "", "state_name": "ARUNANCHAL PRADESH", "state_lgd": 12, "population": 453, "households": 90}, "geometry": {"type": "Polygon", "coordinates": [[[95.35545, 27.870960000000004], [95.35487, 27.87197], [95.35571, 27.872500000000002], [95.35660000000001, 27.871660000000002], [95.35584000000001, 27.87094], [95.35545, 27.870960000000004]]]}}, {"id": "14", "type": "Feature", "properties": {"village_name": "Donyi Polo T E", "vil_lgd": 263873, "district_name": "East Siang", "dist_lgd": 232, "subdistrict_name": "Oyan Circle", "sdcode": 1654, "block_name": "Ruksin", "block_lgd": 49.0, "gp_name": "", "state_name": "ARUNANCHAL PRADESH", "state_lgd": 12, "population": 866, "households": 228}, "geometry": {"type": "Polygon", "coordinates": [[[95.31807, 27.86719], [95.31798, 27.86832], [95.31904, 27.86851], [95.31944000000001, 27.867440000000002], [95.31852, 27.867030000000003], [95.31807, 27.86719]]]}}, {"id": "15", "type": "Feature", "properties": {"village_name": "Sille Camp", "vil_lgd": 263874, "district_name": "East Siang", "dist_lgd": 232, "subdistrict_name": "Oyan Circle", "sdcode": 1654, "block_name": "Ruksin", "block_lgd": 49.0, "gp_name": "", "state_name": "ARUNANCHAL PRADESH", "state_lgd": 12, "population": 346, "households": 83}, "geometry": {"type": "Polygon", "coordinates": [[[95.31094, 27.89166], [95.31035000000001, 27.892660000000003], [95.31120000000001, 27.893200000000004], [95.31209000000001, 27.892350000000004], [95.31133000000001, 27.891640000000002], [95.31094, 27.89166]]]}}, {"id": "16", "type": "Feature", "properties": {"village_name": "Sille", "vil_lgd": 263875, "district_name": "East Siang", "dist_lgd": 232, "subdistrict_name": "Oyan Circle", "sdcode": 1654, "block_name": "Ruksin", "block_lgd": 49.0, "gp_name": "", "state_name": "ARUNANCHAL PRADESH", "state_lgd": 12, "population": 1091, "households": 194}, "geometry": {"type": "Polygon", "coordinates": [[[95.30828000000001, 27.900280000000002], [95.30769000000001, 27.901280000000003], [95.30854000000001, 27.90182], [95.30943, 27.90097], [95.30867, 27.900260000000003], [95.30828000000001, 27.900280000000002]]]}}, {"id": "17", "type": "Feature", "properties": {"village_name": "10Th Mile Oyan", "vil_lgd": 263876, "district_name": "East Siang", "dist_lgd": 232, "subdistrict_name": "Oyan Circle", "sdcode": 1654, "block_name": "Ruksin", "block_lgd": 49.0, "gp_name": "", "state_name": "ARUNANCHAL PRADESH", "state_lgd": 12, "population": 76, "households": 13}, "geometry": {"type": "Polygon", "coordinates": [[[95.29372000000001, 27.86671], [95.29492, 27.8671], [95.29532, 27.866030000000002], [95.29431000000001, 27.865630000000003], [95.29372000000001, 27.86671]]]}}, {"id": "18", "type": "Feature", "properties": {"village_name": "12Th Mile", "vil_lgd": 263877, "district_name": "East Siang", "dist_lgd": 232, "subdistrict_name": "Oyan Circle", "sdcode": 1654, "block_name": "Ruksin", "block_lgd": 49.0, "gp_name": "", "state_name": "ARUNANCHAL PRADESH", "state_lgd": 12, "population": 212, "households": 36}, "geometry": {"type": "Polygon", "coordinates": [[[95.29427000000001, 27.88774], [95.29368000000001, 27.888740000000002], [95.29453000000001, 27.889280000000003], [95.29542000000001, 27.888430000000003], [95.29466000000001, 27.88772], [95.29427000000001, 27.88774]]]}}, {"id": "19", "type": "Feature", "properties": {"village_name": "Mangnang", "vil_lgd": 263878, "district_name": "East Siang", "dist_lgd": 232, "subdistrict_name": "Oyan Circle", "sdcode": 1654, "block_name": "Ruksin", "block_lgd": 49.0, "gp_name": "", "state_name": "ARUNANCHAL PRADESH", "state_lgd": 12, "population": 431, "households": 74}, "geometry": {"type": "Polygon", "coordinates": [[[95.26562000000001, 27.916200000000003], [95.26685, 27.916660000000004], [95.26726000000001, 27.91559], [95.26633000000001, 27.915170000000003], [95.26562000000001, 27.916200000000003]]]}}, {"id": "20", "type": "Feature", "properties": {"village_name": "Sikabamin", "vil_lgd": 263879, "district_name": "East Siang", "dist_lgd": 232, "subdistrict_name": "Oyan Circle", "sdcode": 1654, "block_name": "Ruksin", "block_lgd": 49.0, "gp_name": "", "state_name": "ARUNANCHAL PRADESH", "state_lgd": 12, "population": 1451, "households": 284}, "geometry": {"type": "Polygon", "coordinates": [[[95.34726, 27.91485], [95.34668, 27.915850000000002], [95.34753, 27.916390000000003], [95.34842, 27.915540000000004], [95.34766, 27.914830000000002], [95.34726, 27.91485]]]}}, {"id": "21", "type": "Feature", "properties": {"village_name": "Sika Tode", "vil_lgd": 263880, "district_name": "East Siang", "dist_lgd": 232, "subdistrict_name": "Oyan Circle", "sdcode": 1654, "block_name": "Ruksin", "block_lgd": 49.0, "gp_name": "", "state_name": "ARUNANCHAL PRADESH", "state_lgd": 12, "population": 671, "households": 119}, "geometry": {"type": "Polygon", "coordinates": [[[95.34449000000001, 27.93392], [95.34569, 27.934300000000004], [95.3461, 27.933230000000002], [95.34509000000001, 27.932830000000003], [95.34449000000001, 27.93392]]]}}, {"id": "22", "type": "Feature", "properties": {"village_name": "Rani", "vil_lgd": 263881, "district_name": "East Siang", "dist_lgd": 232, "subdistrict_name": "Oyan Circle", "sdcode": 1654, "block_name": "Ruksin", "block_lgd": 49.0, "gp_name": "", "state_name": "ARUNANCHAL PRADESH", "state_lgd": 12, "population": 1924, "households": 334}, "geometry": {"type": "Polygon", "coordinates": [[[95.33614000000001, 27.949250000000003], [95.33734000000001, 27.949640000000002], [95.33775000000001, 27.948570000000004], [95.33673, 27.94817], [95.33614000000001, 27.949250000000003]]]}}, {"id": "23", "type": "Feature", "properties": {"village_name": "Oyan Village", "vil_lgd": 263882, "district_name": "East Siang", "dist_lgd": 232, "subdistrict_name": "Oyan Circle", "sdcode": 1654, "block_name": "Ruksin", "block_lgd": 49.0, "gp_name": "", "state_name": "ARUNANCHAL PRADESH", "state_lgd": 12, "population": 1443, "households": 266}, "geometry": {"type": "Polygon", "coordinates": [[[95.31554000000001, 27.878280000000004], [95.31496000000001, 27.87928], [95.31581000000001, 27.879820000000002], [95.31670000000001, 27.878970000000002], [95.31594000000001, 27.87826], [95.31554000000001, 27.878280000000004]]]}}, {"id": "24", "type": "Feature", "properties": {"village_name": "Bamin", "vil_lgd": 263853, "district_name": "East Siang", "dist_lgd": 232, "subdistrict_name": "Bilat Circle", "sdcode": 1652, "block_name": "Ruksin", "block_lgd": 49.0, "gp_name": "", "state_name": "ARUNANCHAL PRADESH", "state_lgd": 12, "population": 1057, "households": 184}, "geometry": {"type": "Polygon", "coordinates": [[[95.18507000000001, 27.945390000000003], [95.18449000000001, 27.94639], [95.18534000000001, 27.946930000000002], [95.18623000000001, 27.946080000000002], [95.18547000000001, 27.945370000000004], [95.18507000000001, 27.945390000000003]]]}}, {"id": "25", "type": "Feature", "properties": {"village_name": "Remi", "vil_lgd": 263856, "district_name": "East Siang", "dist_lgd": 232, "subdistrict_name": "Bilat Circle", "sdcode": 1652, "block_name": "Ruksin", "block_lgd": 49.0, "gp_name": "", "state_name": "ARUNANCHAL PRADESH", "state_lgd": 12, "population": 325, "households": 49}, "geometry": {"type": "Polygon", "coordinates": [[[95.23287, 27.969300000000004], [95.23410000000001, 27.96976], [95.23451000000001, 27.968690000000002], [95.23358, 27.968280000000004], [95.23287, 27.969300000000004]]]}}, {"id": "26", "type": "Feature", "properties": {"village_name": "Miglung", "vil_lgd": 263857, "district_name": "East Siang", "dist_lgd": 232, "subdistrict_name": "Bilat Circle", "sdcode": 1652, "block_name": "Ruksin", "block_lgd": 49.0, "gp_name": "", "state_name": "ARUNANCHAL PRADESH", "state_lgd": 12, "population": 287, "households": 53}, "geometry": {"type": "Polygon", "coordinates": [[[95.22677, 27.97257], [95.22792000000001, 27.973060000000004], [95.22844, 27.972030000000004], [95.22739000000001, 27.971560000000004], [95.22677, 27.97257]]]}}, {"id": "27", "type": "Feature", "properties": {"village_name": "Mikung", "vil_lgd": 263858, "district_name": "East Siang", "dist_lgd": 232, "subdistrict_name": "Bilat Circle", "sdcode": 1652, "block_name": "Ruksin", "block_lgd": 49.0, "gp_name": "", "state_name": "ARUNANCHAL PRADESH", "state_lgd": 12, "population": 629, "households": 116}, "geometry": {"type": "Polygon", "coordinates": [[[95.23330000000001, 27.917130000000004], [95.23454000000001, 27.91759], [95.23494000000001, 27.916520000000002], [95.23402, 27.916100000000004], [95.23330000000001, 27.917130000000004]]]}}, {"id": "28", "type": "Feature", "properties": {"village_name": "Mirem", "vil_lgd": 263859, "district_name": "East Siang", "dist_lgd": 232, "subdistrict_name": "Bilat Circle", "sdcode": 1652, "block_name": "Ruksin", "block_lgd": 49.0, "gp_name": "", "state_name": "ARUNANCHAL PRADESH", "state_lgd": 12, "population": 1450, "households": 273}, "geometry": {"type": "Polygon", "coordinates": [[[95.20410000000001, 27.95756], [95.20534, 27.95802], [95.20574, 27.956950000000003], [95.20482000000001, 27.956540000000004], [95.20410000000001, 27.95756]]]}}, {"id": "29", "type": "Feature", "properties": {"village_name": "Bilat H Q", "vil_lgd": 263860, "district_name": "East Siang", "dist_lgd": 232, "subdistrict_name": "Bilat Circle", "sdcode": 1652, "block_name": "Ruksin", "block_lgd": 49.0, "gp_name": "", "state_name": "ARUNANCHAL PRADESH", "state_lgd": 12, "population": 359, "households": 87}, "geometry": {"type": "Polygon", "coordinates": [[[95.19662000000001, 27.93596], [95.19604000000001, 27.936960000000003], [95.19689000000001, 27.937500000000004], [95.19778000000001, 27.936650000000004], [95.19702000000001, 27.935940000000002], [95.19662000000001, 27.93596]]]}}, {"id": "30", "type": "Feature", "properties": {"village_name": "Yagrung", "vil_lgd": 263901, "district_name": "East Siang", "dist_lgd": 232, "subdistrict_name": "Pasighat HQ", "sdcode": 6118, "block_name": "Pasighat", "block_lgd": 50.0, "gp_name": "", "state_name": "ARUNANCHAL PRADESH", "state_lgd": 12, "population": 905, "households": 167}, "geometry": {"type": "Polygon", "coordinates": [[[95.32268, 28.001130000000003], [95.32345000000001, 28.00186], [95.32445000000001, 28.001130000000003], [95.32355000000001, 28.000310000000002], [95.32268, 28.001130000000003]]]}}, {"id": "31", "type": "Feature", "properties": {"village_name": "Berung", "vil_lgd": 263902, "district_name": "East Siang", "dist_lgd": 232, "subdistrict_name": "Pasighat HQ", "sdcode": 6118, "block_name": "Pasighat", "block_lgd": 50.0, "gp_name": "", "state_name": "ARUNANCHAL PRADESH", "state_lgd": 12, "population": 360, "households": 76}, "geometry": {"type": "Polygon", "coordinates": [[[95.34069000000001, 27.98036], [95.34146000000001, 27.981090000000002], [95.34246, 27.98036], [95.34156, 27.979540000000004], [95.34069000000001, 27.98036]]]}}, {"id": "32", "type": "Feature", "properties": {"village_name": "Muralali Pillumuk F Camp", "vil_lgd": 263903, "district_name": "East Siang", "dist_lgd": 232, "subdistrict_name": "Pasighat HQ", "sdcode": 6118, "block_name": "Pasighat", "block_lgd": 50.0, "gp_name": "", "state_name": "ARUNANCHAL PRADESH", "state_lgd": 12, "population": 203, "households": 55}, "geometry": {"type": "Polygon", "coordinates": [[[95.35239000000001, 27.983580000000003], [95.35196, 27.984630000000003], [95.35302, 27.98504], [95.35364000000001, 27.984330000000003], [95.35277, 27.983510000000003], [95.35239000000001, 27.983580000000003]]]}}, {"id": "33", "type": "Feature", "properties": {"village_name": "Tigra", "vil_lgd": 263883, "district_name": "East Siang", "dist_lgd": 232, "subdistrict_name": "Pasighat HQ", "sdcode": 6118, "block_name": "Pasighat", "block_lgd": 50.0, "gp_name": "", "state_name": "ARUNANCHAL PRADESH", "state_lgd": 12, "population": 137, "households": 20}, "geometry": {"type": "Polygon", "coordinates": [[[95.28673, 28.074430000000003], [95.28750000000001, 28.075170000000004], [95.28850000000001, 28.074430000000003], [95.28760000000001, 28.073610000000002], [95.28673, 28.074430000000003]]]}}, {"id": "34", "type": "Feature", "properties": {"village_name": "Rasam", "vil_lgd": 263884, "district_name": "East Siang", "dist_lgd": 232, "subdistrict_name": "Pasighat HQ", "sdcode": 6118, "block_name": "Pasighat", "block_lgd": 50.0, "gp_name": "", "state_name": "ARUNANCHAL PRADESH", "state_lgd": 12, "population": 187, "households": 28}, "geometry": {"type": "Polygon", "coordinates": [[[95.28020000000001, 28.072280000000003], [95.28101000000001, 28.073140000000002], [95.28196000000001, 28.072400000000002], [95.28102000000001, 28.07158], [95.28020000000001, 28.072280000000003]]]}}, {"id": "35", "type": "Feature", "properties": {"village_name": "Gunne", "vil_lgd": 263885, "district_name": "East Siang", "dist_lgd": 232, "subdistrict_name": "Pasighat HQ", "sdcode": 6118, "block_name": "Pasighat", "block_lgd": 50.0, "gp_name": "", "state_name": "ARUNANCHAL PRADESH", "state_lgd": 12, "population": 129, "households": 19}, "geometry": {"type": "Polygon", "coordinates": [[[95.28080000000001, 28.079130000000003], [95.28156000000001, 28.079870000000003], [95.28257, 28.079130000000003], [95.28167, 28.078310000000002], [95.28080000000001, 28.079130000000003]]]}}, {"id": "36", "type": "Feature", "properties": {"village_name": "Roying", "vil_lgd": 263886, "district_name": "East Siang", "dist_lgd": 232, "subdistrict_name": "Pasighat HQ", "sdcode": 6118, "block_name": "Pasighat", "block_lgd": 50.0, "gp_name": "", "state_name": "ARUNANCHAL PRADESH", "state_lgd": 12, "population": 43, "households": 7}, "geometry": {"type": "Polygon", "coordinates": [[[95.27196, 28.068230000000003], [95.27296000000001, 28.068970000000004], [95.27373000000001, 28.068230000000003], [95.27283000000001, 28.067410000000002], [95.27196, 28.068230000000003]]]}}, {"id": "37", "type": "Feature", "properties": {"village_name": "Kelek", "vil_lgd": 263887, "district_name": "East Siang", "dist_lgd": 232, "subdistrict_name": "Pasighat HQ", "sdcode": 6118, "block_name": "Pasighat", "block_lgd": 50.0, "gp_name": "", "state_name": "ARUNANCHAL PRADESH", "state_lgd": 12, "population": 131, "households": 21}, "geometry": {"type": "Polygon", "coordinates": [[[95.28080000000001, 28.06631], [95.28156000000001, 28.067050000000002], [95.28257, 28.06631], [95.2817, 28.065490000000004], [95.28080000000001, 28.06631]]]}}, {"id": "38", "type": "Feature", "properties": {"village_name": "Mongku", "vil_lgd": 263888, "district_name": "East Siang", "dist_lgd": 232, "subdistrict_name": "Pasighat HQ", "sdcode": 6118, "block_name": "Pasighat", "block_lgd": 50.0, "gp_name": "", "state_name": "ARUNANCHAL PRADESH", "state_lgd": 12, "population": 372, "households": 62}, "geometry": {"type": "Polygon", "coordinates": [[[95.27952, 28.06173], [95.27986000000001, 28.06265], [95.28115000000001, 28.062340000000003], [95.28036, 28.061220000000002], [95.27952, 28.06173]]]}}, {"id": "39", "type": "Feature", "properties": {"village_name": "Sibo", "vil_lgd": 263890, "district_name": "East Siang", "dist_lgd": 232, "subdistrict_name": "Pasighat HQ", "sdcode": 6118, "block_name": "Pasighat", "block_lgd": 50.0, "gp_name": "", "state_name": "ARUNANCHAL PRADESH", "state_lgd": 12, "population": 160, "households": 31}, "geometry": {"type": "Polygon", "coordinates": [[[95.29024000000001, 28.063850000000002], [95.29101000000001, 28.064590000000003], [95.29201, 28.063850000000002], [95.29114000000001, 28.06303], [95.29024000000001, 28.063850000000002]]]}}, {"id": "40", "type": "Feature", "properties": {"village_name": "Boying", "vil_lgd": 263891, "district_name": "East Siang", "dist_lgd": 232, "subdistrict_name": "Pasighat HQ", "sdcode": 6118, "block_name": "Pasighat", "block_lgd": 50.0, "gp_name": "", "state_name": "ARUNANCHAL PRADESH", "state_lgd": 12, "population": 618, "households": 102}, "geometry": {"type": "Polygon", "coordinates": [[[95.27142, 28.06192], [95.27096, 28.062980000000003], [95.27234000000001, 28.06322], [95.2724, 28.06211], [95.27142, 28.06192]]]}}, {"id": "41", "type": "Feature", "properties": {"village_name": "Dapi", "vil_lgd": 263892, "district_name": "East Siang", "dist_lgd": 232, "subdistrict_name": "Pasighat HQ", "sdcode": 6118, "block_name": "Pasighat", "block_lgd": 50.0, "gp_name": "", "state_name": "ARUNANCHAL PRADESH", "state_lgd": 12, "population": 772, "households": 164}, "geometry": {"type": "Polygon", "coordinates": [[[95.33170000000001, 28.066000000000003], [95.33194, 28.066860000000002], [95.33302, 28.066920000000003], [95.33336000000001, 28.066000000000003], [95.33254000000001, 28.065490000000004], [95.33170000000001, 28.066000000000003]]]}}, {"id": "42", "type": "Feature", "properties": {"village_name": "Mirku", "vil_lgd": 263893, "district_name": "East Siang", "dist_lgd": 232, "subdistrict_name": "Pasighat HQ", "sdcode": 6118, "block_name": "Pasighat", "block_lgd": 50.0, "gp_name": "", "state_name": "ARUNANCHAL PRADESH", "state_lgd": 12, "population": 935, "households": 154}, "geometry": {"type": "Polygon", "coordinates": [[[95.32245, 28.062240000000003], [95.32292000000001, 28.063010000000002], [95.32412000000001, 28.06266], [95.32346000000001, 28.061550000000004], [95.32245, 28.062240000000003]]]}}, {"id": "43", "type": "Feature", "properties": {"village_name": "Mirsam", "vil_lgd": 263894, "district_name": "East Siang", "dist_lgd": 232, "subdistrict_name": "Pasighat HQ", "sdcode": 6118, "block_name": "Pasighat", "block_lgd": 50.0, "gp_name": "", "state_name": "ARUNANCHAL PRADESH", "state_lgd": 12, "population": 798, "households": 136}, "geometry": {"type": "Polygon", "coordinates": [[[95.31578, 28.060720000000003], [95.31563000000001, 28.061590000000002], [95.31669000000001, 28.062], [95.31731, 28.061290000000003], [95.31644000000001, 28.060470000000002], [95.31578, 28.060720000000003]]]}}, {"id": "44", "type": "Feature", "properties": {"village_name": "Mirbuk", "vil_lgd": 263895, "district_name": "East Siang", "dist_lgd": 232, "subdistrict_name": "Pasighat HQ", "sdcode": 6118, "block_name": "Pasighat", "block_lgd": 50.0, "gp_name": "", "state_name": "ARUNANCHAL PRADESH", "state_lgd": 12, "population": 1554, "households": 265}, "geometry": {"type": "Polygon", "coordinates": [[[95.30897, 28.069070000000004], [95.31057000000001, 28.069070000000004], [95.30978, 28.067950000000003], [95.30897, 28.069070000000004]]]}}, {"id": "45", "type": "Feature", "properties": {"village_name": "Napit", "vil_lgd": 263896, "district_name": "East Siang", "dist_lgd": 232, "subdistrict_name": "Pasighat HQ", "sdcode": 6118, "block_name": "Pasighat", "block_lgd": 50.0, "gp_name": "", "state_name": "ARUNANCHAL PRADESH", "state_lgd": 12, "population": 197, "households": 37}, "geometry": {"type": "Polygon", "coordinates": [[[95.28071000000001, 28.05082], [95.28028, 28.05187], [95.28119000000001, 28.052300000000002], [95.28196000000001, 28.05157], [95.28109, 28.05075], [95.28071000000001, 28.05082]]]}}, {"id": "46", "type": "Feature", "properties": {"village_name": "Runne", "vil_lgd": 263897, "district_name": "East Siang", "dist_lgd": 232, "subdistrict_name": "Pasighat HQ", "sdcode": 6118, "block_name": "Pasighat", "block_lgd": 50.0, "gp_name": "", "state_name": "ARUNANCHAL PRADESH", "state_lgd": 12, "population": 273, "households": 47}, "geometry": {"type": "Polygon", "coordinates": [[[95.25656000000001, 28.048550000000002], [95.25598000000001, 28.04932], [95.25693000000001, 28.050060000000002], [95.25775, 28.049210000000002], [95.25697000000001, 28.048510000000004], [95.25656000000001, 28.048550000000002]]]}}, {"id": "47", "type": "Feature", "properties": {"village_name": "Taki Lalung", "vil_lgd": 263898, "district_name": "East Siang", "dist_lgd": 232, "subdistrict_name": "Pasighat HQ", "sdcode": 6118, "block_name": "Pasighat", "block_lgd": 50.0, "gp_name": "", "state_name": "ARUNANCHAL PRADESH", "state_lgd": 12, "population": 905, "households": 141}, "geometry": {"type": "Polygon", "coordinates": [[[95.25880000000001, 28.030510000000003], [95.25837000000001, 28.031570000000002], [95.25928, 28.032000000000004], [95.26005, 28.031270000000003], [95.25918000000001, 28.030450000000002], [95.25880000000001, 28.030510000000003]]]}}, {"id": "48", "type": "Feature", "properties": {"village_name": "Sibut", "vil_lgd": 263899, "district_name": "East Siang", "dist_lgd": 232, "subdistrict_name": "Pasighat HQ", "sdcode": 6118, "block_name": "Pasighat", "block_lgd": 50.0, "gp_name": "", "state_name": "ARUNANCHAL PRADESH", "state_lgd": 12, "population": 467, "households": 70}, "geometry": {"type": "Polygon", "coordinates": [[[95.24325, 28.022260000000003], [95.24266, 28.02304], [95.24361, 28.023780000000002], [95.24443000000001, 28.022920000000003], [95.24365, 28.02222], [95.24325, 28.022260000000003]]]}}, {"id": "49", "type": "Feature", "properties": {"village_name": "Tekang", "vil_lgd": 263900, "district_name": "East Siang", "dist_lgd": 232, "subdistrict_name": "Pasighat HQ", "sdcode": 6118, "block_name": "Pasighat", "block_lgd": 50.0, "gp_name": "", "state_name": "ARUNANCHAL PRADESH", "state_lgd": 12, "population": 674, "households": 104}, "geometry": {"type": "Polygon", "coordinates": [[[95.23362, 28.038320000000002], [95.23319000000001, 28.03937], [95.23425, 28.03977], [95.23487, 28.039070000000002], [95.23400000000001, 28.03825], [95.23362, 28.038320000000002]]]}}, {"id": "50", "type": "Feature", "properties": {"village_name": "3Rd Mile", "vil_lgd": 263904, "district_name": "East Siang", "dist_lgd": 232, "subdistrict_name": "Pasighat HQ", "sdcode": 6118, "block_name": "Pasighat", "block_lgd": 50.0, "gp_name": "", "state_name": "ARUNANCHAL PRADESH", "state_lgd": 12, "population": 353, "households": 59}, "geometry": {"type": "Polygon", "coordinates": [[[95.33169000000001, 28.056240000000003], [95.33306, 28.05685], [95.33340000000001, 28.055930000000004], [95.33259000000001, 28.05542], [95.33169000000001, 28.056240000000003]]]}}, {"id": "51", "type": "Feature", "properties": {"village_name": "7Th Mile Camp", "vil_lgd": 263905, "district_name": "East Siang", "dist_lgd": 232, "subdistrict_name": "Pasighat HQ", "sdcode": 6118, "block_name": "Pasighat", "block_lgd": 50.0, "gp_name": "", "state_name": "ARUNANCHAL PRADESH", "state_lgd": 12, "population": 155, "households": 32}, "geometry": {"type": "Polygon", "coordinates": [[[95.34571000000001, 28.02745], [95.34731000000001, 28.02745], [95.34649, 28.02633], [95.34571000000001, 28.02745]]]}}, {"id": "52", "type": "Feature", "properties": {"village_name": "Rengging", "vil_lgd": 263907, "district_name": "East Siang", "dist_lgd": 232, "subdistrict_name": "Pasighat HQ", "sdcode": 6118, "block_name": "Pasighat", "block_lgd": 50.0, "gp_name": "", "state_name": "ARUNANCHAL PRADESH", "state_lgd": 12, "population": 254, "households": 43}, "geometry": {"type": "Polygon", "coordinates": [[[95.27469, 28.148310000000002], [95.27411000000001, 28.149310000000003], [95.27495, 28.14985], [95.27584, 28.149], [95.27508, 28.148290000000003], [95.27469, 28.148310000000002]]]}}, {"id": "53", "type": "Feature", "properties": {"village_name": "Diking", "vil_lgd": 263908, "district_name": "East Siang", "dist_lgd": 232, "subdistrict_name": "Pasighat HQ", "sdcode": 6118, "block_name": "Pasighat", "block_lgd": 50.0, "gp_name": "", "state_name": "ARUNANCHAL PRADESH", "state_lgd": 12, "population": 447, "households": 90}, "geometry": {"type": "Polygon", "coordinates": [[[95.27302, 28.152490000000004], [95.27426000000001, 28.15295], [95.27466000000001, 28.151880000000002], [95.27374, 28.151470000000003], [95.27302, 28.152490000000004]]]}}, {"id": "54", "type": "Feature", "properties": {"village_name": "Pasighat Nt", "vil_lgd": 249707, "district_name": "East Siang", "dist_lgd": 232, "subdistrict_name": "Pasighat HQ", "sdcode": 6118, "block_name": "", "block_lgd": 0.0, "gp_name": "", "state_name": "ARUNANCHAL PRADESH", "state_lgd": 12, "population": 24656, "households": 5537}, "geometry": {"type": "Polygon", "coordinates": [[[95.31859000000001, 28.077330000000003], [95.31815, 28.078380000000003], [95.31922, 28.07879], [95.31983000000001, 28.078080000000003], [95.31897000000001, 28.077260000000003], [95.31859000000001, 28.077330000000003]]]}}, {"id": "55", "type": "Feature", "properties": {"village_name": "Balek", "vil_lgd": 263889, "district_name": "East Siang", "dist_lgd": 232, "subdistrict_name": "Pasighat HQ", "sdcode": 6118, "block_name": "Pasighat", "block_lgd": 50.0, "gp_name": "", "state_name": "ARUNANCHAL PRADESH", "state_lgd": 12, "population": 254, "households": 38}, "geometry": {"type": "Polygon", "coordinates": [[[95.28515, 28.069830000000003], [95.28472000000001, 28.070750000000004], [95.28585000000001, 28.071260000000002], [95.28640000000001, 28.07025], [95.28515, 28.069830000000003]]]}}, {"id": "56", "type": "Feature", "properties": {"village_name": "Bodak", "vil_lgd": 263909, "district_name": "East Siang", "dist_lgd": 232, "subdistrict_name": "Mebo ADC", "sdcode": 1656, "block_name": "Mebo", "block_lgd": 51.0, "gp_name": "", "state_name": "ARUNANCHAL PRADESH", "state_lgd": 12, "population": 163, "households": 34}, "geometry": {"type": "Polygon", "coordinates": [[[95.2698, 28.169700000000002], [95.26934000000001, 28.17075], [95.27041000000001, 28.171170000000004], [95.27104000000001, 28.170440000000003], [95.27015, 28.16964], [95.2698, 28.169700000000002]]]}}, {"id": "57", "type": "Feature", "properties": {"village_name": "Ayeng", "vil_lgd": 263910, "district_name": "East Siang", "dist_lgd": 232, "subdistrict_name": "Mebo ADC", "sdcode": 1656, "block_name": "Mebo", "block_lgd": 51.0, "gp_name": "", "state_name": "ARUNANCHAL PRADESH", "state_lgd": 12, "population": 1187, "households": 205}, "geometry": {"type": "Polygon", "coordinates": [[[95.35397, 28.164510000000003], [95.35339, 28.16551], [95.35424, 28.166040000000002], [95.35513, 28.165200000000002], [95.35437, 28.16449], [95.35397, 28.164510000000003]]]}}, {"id": "58", "type": "Feature", "properties": {"village_name": "Ranaghat", "vil_lgd": 263911, "district_name": "East Siang", "dist_lgd": 232, "subdistrict_name": "Mebo ADC", "sdcode": 1656, "block_name": "Mebo", "block_lgd": 51.0, "gp_name": "", "state_name": "ARUNANCHAL PRADESH", "state_lgd": 12, "population": 102, "households": 27}, "geometry": {"type": "Polygon", "coordinates": [[[95.29736000000001, 28.12722], [95.29857000000001, 28.12761], [95.29897000000001, 28.126540000000002], [95.29796, 28.126140000000003], [95.29736000000001, 28.12722]]]}}, {"id": "59", "type": "Feature", "properties": {"village_name": "Tajum", "vil_lgd": 263906, "district_name": "East Siang", "dist_lgd": 232, "subdistrict_name": "Pasighat HQ", "sdcode": 6118, "block_name": "Pasighat", "block_lgd": 50.0, "gp_name": "", "state_name": "ARUNANCHAL PRADESH", "state_lgd": 12, "population": 415, "households": 79}, "geometry": {"type": "Polygon", "coordinates": [[[95.25999, 28.116380000000003], [95.25940000000001, 28.117390000000004], [95.26025000000001, 28.11792], [95.26114000000001, 28.11708], [95.26038000000001, 28.116360000000004], [95.25999, 28.116380000000003]]]}}, {"id": "60", "type": "Feature", "properties": {"village_name": "Data Partially Available", "vil_lgd": 999999, "district_name": "East Siang", "dist_lgd": 232, "subdistrict_name": "Oyan Circle", "sdcode": 1654, "block_name": "", "block_lgd": null, "gp_name": "", "state_name": "ARUNANCHAL PRADESH", "state_lgd": 12, "population": 0, "households": 0}, "geometry": {"type": "Polygon", "coordinates": [[[95.32988, 27.948860000000003], [95.33064, 27.95541], [95.33559000000001, 27.95877], [95.33863000000001, 27.955070000000003], [95.33901, 27.95071], [95.34015000000001, 27.94987], [95.34224, 27.95003], [95.34319, 27.951380000000004], [95.34357000000001, 27.954570000000004], [95.3451, 27.953560000000003], [95.34586, 27.951880000000003], [95.34586, 27.945330000000002], [95.34129, 27.941470000000002], [95.34129, 27.93962], [95.34357000000001, 27.937770000000004], [95.34586, 27.9371], [95.39567000000001, 27.937770000000004], [95.42401000000001, 27.93559], [95.42515, 27.93475], [95.42572000000001, 27.927190000000003], [95.42343000000001, 27.909720000000004], [95.42477000000001, 27.865520000000004], [95.42629000000001, 27.858290000000004], [95.42601, 27.853330000000003], [95.37958, 27.839180000000002], [95.30876, 27.86801], [95.26571000000001, 27.854920000000003], [95.26638000000001, 27.86081], [95.27417000000001, 27.865850000000002], [95.27075, 27.87459], [95.26714000000001, 27.88115], [95.26695000000001, 27.888040000000004], [95.25478000000001, 27.89711], [95.23957000000001, 27.905520000000003], [95.24432, 27.90921], [95.24584, 27.91308], [95.24546000000001, 27.91711], [95.24831, 27.922490000000003], [95.25154, 27.923830000000002], [95.26428000000001, 27.921310000000002], [95.27094000000001, 27.922320000000003], [95.27208, 27.919290000000004], [95.28159000000001, 27.91946], [95.28349000000001, 27.92097], [95.28387000000001, 27.924170000000004], [95.29186000000001, 27.93643], [95.29357, 27.940630000000002], [95.30650000000001, 27.952550000000002], [95.30954000000001, 27.956750000000003], [95.30954000000001, 27.961460000000002], [95.31201, 27.9628], [95.31581000000001, 27.962460000000004], [95.31733000000001, 27.96045], [95.32019000000001, 27.959780000000002], [95.32114000000001, 27.958260000000003], [95.32095000000001, 27.955070000000003], [95.3238, 27.953390000000002], [95.32741000000001, 27.949360000000002], [95.32988, 27.948860000000003]], [[95.33775000000001, 27.948570000000004], [95.33734000000001, 27.949640000000002], [95.33614000000001, 27.949250000000003], [95.33673, 27.94817], [95.33775000000001, 27.948570000000004]], [[95.3461, 27.933230000000002], [95.34569, 27.934300000000004], [95.34449000000001, 27.93392], [95.34509000000001, 27.932830000000003], [95.3461, 27.933230000000002]], [[95.34766, 27.914830000000002], [95.34842, 27.915540000000004], [95.34753, 27.916390000000003], [95.34668, 27.915850000000002], [95.34726, 27.91485], [95.34766, 27.914830000000002]], [[95.26726000000001, 27.91559], [95.26685, 27.916660000000004], [95.26562000000001, 27.916200000000003], [95.26633000000001, 27.915170000000003], [95.26726000000001, 27.91559]], [[95.30867, 27.900260000000003], [95.30943, 27.90097], [95.30854000000001, 27.90182], [95.30769000000001, 27.901280000000003], [95.30828000000001, 27.900280000000002], [95.30867, 27.900260000000003]], [[95.31133000000001, 27.891640000000002], [95.31209000000001, 27.892350000000004], [95.31120000000001, 27.893200000000004], [95.31035000000001, 27.892660000000003], [95.31094, 27.89166], [95.31133000000001, 27.891640000000002]], [[95.29466000000001, 27.88772], [95.29542000000001, 27.888430000000003], [95.29453000000001, 27.889280000000003], [95.29368000000001, 27.888740000000002], [95.29427000000001, 27.88774], [95.29466000000001, 27.88772]], [[95.31594000000001, 27.87826], [95.31670000000001, 27.878970000000002], [95.31581000000001, 27.879820000000002], [95.31496000000001, 27.87928], [95.31554000000001, 27.878280000000004], [95.31594000000001, 27.87826]], [[95.35584000000001, 27.87094], [95.35660000000001, 27.871660000000002], [95.35571, 27.872500000000002], [95.35487, 27.87197], [95.35545, 27.870960000000004], [95.35584000000001, 27.87094]], [[95.32139000000001, 27.872460000000004], [95.32099000000001, 27.873530000000002], [95.31975000000001, 27.873070000000002], [95.32047000000001, 27.872040000000002], [95.32139000000001, 27.872460000000004]], [[95.31852, 27.867030000000003], [95.31944000000001, 27.867440000000002], [95.31904, 27.86851], [95.31798, 27.86832], [95.31807, 27.86719], [95.31852, 27.867030000000003]], [[95.29532, 27.866030000000002], [95.29492, 27.8671], [95.29372000000001, 27.86671], [95.29431000000001, 27.865630000000003], [95.29532, 27.866030000000002]]]}}, {"id": "61", "type": "Feature", "properties": {"village_name": "Data Partially Available", "vil_lgd": 999999, "district_name": "East Siang", "dist_lgd": 232, "subdistrict_name": "Bilat Circle", "sdcode": 1652, "block_name": "", "block_lgd": null, "gp_name": "", "state_name": "ARUNANCHAL PRADESH", "state_lgd": 12, "population": 0, "households": 0}, "geometry": {"type": "Polygon", "coordinates": [[[95.22775000000001, 28.03732], [95.23143, 28.034080000000003], [95.23326, 28.031070000000003], [95.23484, 28.017870000000002], [95.23751000000001, 28.01725], [95.23781000000001, 28.012790000000003], [95.24019000000001, 28.008070000000004], [95.25237000000001, 28.004920000000002], [95.25326000000001, 27.999940000000002], [95.25891000000001, 28.00099], [95.26633000000001, 27.999150000000004], [95.26871000000001, 28.001250000000002], [95.27317000000001, 28.001250000000002], [95.2797, 27.998890000000003], [95.28386, 27.99548], [95.28624, 27.991550000000004], [95.28891, 27.992070000000002], [95.29456, 27.989710000000002], [95.29456, 27.987350000000003], [95.28921000000001, 27.97266], [95.28921000000001, 27.966620000000002], [95.29010000000001, 27.96373], [95.29188, 27.96111], [95.29456, 27.96242], [95.29396000000001, 27.964520000000004], [95.29485000000001, 27.96636], [95.30109, 27.96505], [95.30954000000001, 27.961460000000002], [95.30954000000001, 27.956750000000003], [95.30650000000001, 27.952550000000002], [95.29357, 27.940630000000002], [95.29186000000001, 27.93643], [95.28387000000001, 27.924170000000004], [95.28349000000001, 27.92097], [95.28159000000001, 27.91946], [95.27208, 27.919290000000004], [95.27094000000001, 27.922320000000003], [95.26428000000001, 27.921310000000002], [95.25154, 27.923830000000002], [95.24831, 27.922490000000003], [95.24546000000001, 27.91711], [95.24584, 27.91308], [95.24432, 27.90921], [95.23957000000001, 27.905520000000003], [95.23312000000001, 27.910140000000002], [95.22409, 27.91035], [95.21862, 27.908880000000003], [95.20816, 27.90867], [95.20364000000001, 27.909930000000003], [95.19842000000001, 27.913710000000002], [95.19319, 27.914970000000004], [95.18320000000001, 27.914340000000003], [95.16752000000001, 27.911610000000003], [95.15991000000001, 27.908880000000003], [95.12069000000001, 27.90349], [95.11094000000001, 27.904130000000002], [95.08577000000001, 27.909900000000004], [95.07185000000001, 27.91597], [95.07527, 27.940060000000003], [95.08812, 27.951960000000003], [95.08907, 27.967660000000002], [95.08574, 27.980990000000002], [95.07385000000001, 27.990510000000004], [95.06737000000001, 28.023450000000004], [95.08004000000001, 28.021960000000004], [95.09197, 28.023450000000004], [95.11509000000001, 28.02419], [95.13075, 28.030910000000002], [95.14268000000001, 28.033140000000003], [95.15386000000001, 28.03985], [95.17697000000001, 28.048050000000003], [95.21724, 28.05626], [95.22395, 28.048050000000003], [95.23298000000001, 28.04764], [95.22775000000001, 28.03732]], [[95.22844, 27.972030000000004], [95.22792000000001, 27.973060000000004], [95.22677, 27.97257], [95.22739000000001, 27.971560000000004], [95.22844, 27.972030000000004]], [[95.23451000000001, 27.968690000000002], [95.23410000000001, 27.96976], [95.23287, 27.969300000000004], [95.23358, 27.968280000000004], [95.23451000000001, 27.968690000000002]], [[95.14188000000001, 27.972510000000003], [95.14264000000001, 27.97322], [95.14175, 27.97407], [95.1409, 27.973530000000004], [95.14149, 27.972530000000003], [95.14188000000001, 27.972510000000003]], [[95.20574, 27.956950000000003], [95.20534, 27.95802], [95.20410000000001, 27.95756], [95.20482000000001, 27.956540000000004], [95.20574, 27.956950000000003]], [[95.18547000000001, 27.945370000000004], [95.18623000000001, 27.946080000000002], [95.18534000000001, 27.946930000000002], [95.18449000000001, 27.94639], [95.18507000000001, 27.945390000000003], [95.18547000000001, 27.945370000000004]], [[95.12685, 27.94518], [95.1276, 27.945890000000002], [95.12671, 27.946740000000002], [95.12587, 27.9462], [95.12645, 27.945200000000003], [95.12685, 27.94518]], [[95.19702000000001, 27.935940000000002], [95.19778000000001, 27.936650000000004], [95.19689000000001, 27.937500000000004], [95.19604000000001, 27.936960000000003], [95.19662000000001, 27.93596], [95.19702000000001, 27.935940000000002]], [[95.23494000000001, 27.916520000000002], [95.23454000000001, 27.91759], [95.23330000000001, 27.917130000000004], [95.23402, 27.916100000000004], [95.23494000000001, 27.916520000000002]]]}}, {"id": "62", "type": "Feature", "properties": {"village_name": "Data Partially Available", "vil_lgd": 999999, "district_name": "East Siang", "dist_lgd": 232, "subdistrict_name": "Ruksin ADC", "sdcode": 1653, "block_name": "", "block_lgd": null, "gp_name": "", "state_name": "ARUNANCHAL PRADESH", "state_lgd": 12, "population": 0, "households": 0}, "geometry": {"type": "Polygon", "coordinates": [[[95.20816, 27.90867], [95.21862, 27.908880000000003], [95.22409, 27.91035], [95.23312000000001, 27.910140000000002], [95.23957000000001, 27.905520000000003], [95.25478000000001, 27.89711], [95.26695000000001, 27.888040000000004], [95.26714000000001, 27.88115], [95.27075, 27.87459], [95.27417000000001, 27.865850000000002], [95.26638000000001, 27.86081], [95.26571000000001, 27.854920000000003], [95.22172, 27.840930000000004], [95.20886, 27.837760000000003], [95.13635000000001, 27.81567], [95.12283000000001, 27.84821], [95.11522000000001, 27.85678], [95.12069000000001, 27.90349], [95.15991000000001, 27.908880000000003], [95.16752000000001, 27.911610000000003], [95.18320000000001, 27.914340000000003], [95.19319, 27.914970000000004], [95.19842000000001, 27.913710000000002], [95.20364000000001, 27.909930000000003], [95.20816, 27.90867]], [[95.21504, 27.896810000000002], [95.21463000000001, 27.89788], [95.21340000000001, 27.897420000000004], [95.21411, 27.896400000000003], [95.21504, 27.896810000000002]], [[95.22418, 27.885040000000004], [95.22493000000001, 27.88575], [95.22404, 27.8866], [95.2232, 27.88606], [95.22378, 27.885060000000003], [95.22418, 27.885040000000004]], [[95.25015, 27.870820000000002], [95.25082, 27.870120000000004], [95.25193, 27.870900000000002], [95.25065000000001, 27.87159], [95.25015, 27.870820000000002]], [[95.26725, 27.86898], [95.26685, 27.870050000000003], [95.26565000000001, 27.869660000000003], [95.26624000000001, 27.86858], [95.26725, 27.86898]], [[95.2228, 27.87385], [95.22157000000001, 27.87431], [95.22116000000001, 27.873240000000003], [95.22222000000001, 27.872840000000004], [95.2228, 27.87385]], [[95.21838000000001, 27.857640000000004], [95.21785000000001, 27.858670000000004], [95.2167, 27.85818], [95.21733, 27.857170000000004], [95.21838000000001, 27.857640000000004]], [[95.1953, 27.857580000000002], [95.19606, 27.858300000000003], [95.19517, 27.859140000000004], [95.19432, 27.858610000000002], [95.19491000000001, 27.8576], [95.1953, 27.857580000000002]], [[95.17568000000001, 27.85714], [95.17527000000001, 27.858220000000003], [95.17404, 27.857760000000003], [95.17475, 27.856730000000002], [95.17568000000001, 27.85714]], [[95.22315, 27.85161], [95.22369, 27.8529], [95.22264000000001, 27.85309], [95.22213, 27.852320000000002], [95.22315, 27.85161]], [[95.14643000000001, 27.858110000000003], [95.14745, 27.857400000000002], [95.14821, 27.858110000000003], [95.14732000000001, 27.858960000000003], [95.14643000000001, 27.858110000000003]]]}}, {"id": "63", "type": "Feature", "properties": {"village_name": "Data Partially Available", "vil_lgd": 999999, "district_name": "East Siang", "dist_lgd": 232, "subdistrict_name": "Pasighat HQ", "sdcode": 6118, "block_name": "", "block_lgd": null, "gp_name": "", "state_name": "ARUNANCHAL PRADESH", "state_lgd": 12, "population": 0, "households": 0}, "geometry": {"type": "Polygon", "coordinates": [[[95.25262000000001, 28.169040000000003], [95.25761000000001, 28.164310000000004], [95.2672, 28.162280000000003], [95.27027000000001, 28.159240000000004], [95.28178000000001, 28.153150000000004], [95.28599000000001, 28.149430000000002], [95.29251000000001, 28.141650000000002], [95.29635, 28.13116], [95.29100000000001, 28.124340000000004], [95.28523000000001, 28.122370000000004], [95.28254000000001, 28.118990000000004], [95.28139, 28.115940000000002], [95.28139, 28.110870000000002], [95.28934000000001, 28.10628], [95.30834, 28.105030000000003], [95.32795, 28.098110000000002], [95.33829000000001, 28.09119], [95.34613, 28.084280000000003], [95.35683, 28.079240000000002], [95.36859000000001, 28.077980000000004], [95.39997000000001, 28.070120000000003], [95.42421, 28.061940000000003], [95.4317, 28.057540000000003], [95.43491, 28.052190000000003], [95.43491, 28.04306], [95.43348, 28.035510000000002], [95.42706000000001, 28.018520000000002], [95.42528, 28.00907], [95.42492000000001, 27.990190000000002], [95.42635000000001, 27.97444], [95.4235, 27.95492], [95.42564, 27.94075], [95.42515, 27.93475], [95.42401000000001, 27.93559], [95.39567000000001, 27.937770000000004], [95.34586, 27.9371], [95.34357000000001, 27.937770000000004], [95.34129, 27.93962], [95.34129, 27.941470000000002], [95.34586, 27.945330000000002], [95.34586, 27.951880000000003], [95.3451, 27.953560000000003], [95.34357000000001, 27.954570000000004], [95.34319, 27.951380000000004], [95.34224, 27.95003], [95.34015000000001, 27.94987], [95.33901, 27.95071], [95.33863000000001, 27.955070000000003], [95.33559000000001, 27.95877], [95.33064, 27.95541], [95.32988, 27.948860000000003], [95.32741000000001, 27.949360000000002], [95.3238, 27.953390000000002], [95.32095000000001, 27.955070000000003], [95.32114000000001, 27.958260000000003], [95.32019000000001, 27.959780000000002], [95.31733000000001, 27.96045], [95.31581000000001, 27.962460000000004], [95.31201, 27.9628], [95.30954000000001, 27.961460000000002], [95.30109, 27.96505], [95.29485000000001, 27.96636], [95.29396000000001, 27.964520000000004], [95.29456, 27.96242], [95.29188, 27.96111], [95.29010000000001, 27.96373], [95.28921000000001, 27.966620000000002], [95.28921000000001, 27.97266], [95.29456, 27.987350000000003], [95.29456, 27.989710000000002], [95.28891, 27.992070000000002], [95.28624, 27.991550000000004], [95.28386, 27.99548], [95.2797, 27.998890000000003], [95.27317000000001, 28.001250000000002], [95.26871000000001, 28.001250000000002], [95.26633000000001, 27.999150000000004], [95.25891000000001, 28.00099], [95.25326000000001, 27.999940000000002], [95.25237000000001, 28.004920000000002], [95.24019000000001, 28.008070000000004], [95.23781000000001, 28.012790000000003], [95.23751000000001, 28.01725], [95.23484, 28.017870000000002], [95.23326, 28.031070000000003], [95.23143, 28.034080000000003], [95.22775000000001, 28.03732], [95.23298000000001, 28.04764], [95.23541, 28.063560000000003], [95.23499000000001, 28.065690000000004], [95.23258000000001, 28.06717], [95.22021000000001, 28.06846], [95.21654000000001, 28.072810000000004], [95.21497000000001, 28.0803], [95.21759, 28.082710000000002], [95.22420000000001, 28.09232], [95.22231000000001, 28.096390000000003], [95.22147000000001, 28.100830000000002], [95.22262, 28.108780000000003], [95.22105, 28.11119], [95.21109000000001, 28.11793], [95.21288000000001, 28.122280000000003], [95.22000000000001, 28.127460000000003], [95.22126, 28.13041], [95.22294000000001, 28.13171], [95.22357000000001, 28.134670000000003], [95.21948, 28.139470000000003], [95.21927000000001, 28.1428], [95.22032, 28.144560000000002], [95.22367000000001, 28.145760000000003], [95.22483000000001, 28.14788], [95.22260000000001, 28.15238], [95.21172000000001, 28.154410000000002], [95.20041, 28.16317], [95.20141000000001, 28.16354], [95.20043000000001, 28.165940000000003], [95.20031, 28.170880000000004], [95.20186000000001, 28.174670000000003], [95.20811, 28.178420000000003], [95.21261000000001, 28.17752], [95.21805, 28.173700000000004], [95.22347, 28.173880000000004], [95.22744, 28.172980000000003], [95.23279000000001, 28.174640000000004], [95.23862000000001, 28.17772], [95.24488000000001, 28.178430000000002], [95.24879000000001, 28.174110000000002], [95.25262000000001, 28.169040000000003]], [[95.27466000000001, 28.151880000000002], [95.27426000000001, 28.15295], [95.27302, 28.152490000000004], [95.27374, 28.151470000000003], [95.27466000000001, 28.151880000000002]], [[95.27508, 28.148290000000003], [95.27584, 28.149], [95.27495, 28.14985], [95.27411000000001, 28.149310000000003], [95.27469, 28.148310000000002], [95.27508, 28.148290000000003]], [[95.26038000000001, 28.116360000000004], [95.26114000000001, 28.11708], [95.26025000000001, 28.11792], [95.25940000000001, 28.117390000000004], [95.25999, 28.116380000000003], [95.26038000000001, 28.116360000000004]], [[95.31897000000001, 28.077260000000003], [95.31983000000001, 28.078080000000003], [95.31922, 28.07879], [95.31815, 28.078380000000003], [95.31859000000001, 28.077330000000003], [95.31897000000001, 28.077260000000003]], [[95.28257, 28.079130000000003], [95.28156000000001, 28.079870000000003], [95.28080000000001, 28.079130000000003], [95.28167, 28.078310000000002], [95.28257, 28.079130000000003]], [[95.28850000000001, 28.074430000000003], [95.28750000000001, 28.075170000000004], [95.28673, 28.074430000000003], [95.28760000000001, 28.073610000000002], [95.28850000000001, 28.074430000000003]], [[95.28196000000001, 28.072400000000002], [95.28101000000001, 28.073140000000002], [95.28020000000001, 28.072280000000003], [95.28102000000001, 28.07158], [95.28196000000001, 28.072400000000002]], [[95.30978, 28.067950000000003], [95.31057000000001, 28.069070000000004], [95.30897, 28.069070000000004], [95.30978, 28.067950000000003]], [[95.33254000000001, 28.065490000000004], [95.33336000000001, 28.066000000000003], [95.33302, 28.066920000000003], [95.33194, 28.066860000000002], [95.33170000000001, 28.066000000000003], [95.33254000000001, 28.065490000000004]], [[95.28585000000001, 28.071260000000002], [95.28472000000001, 28.070750000000004], [95.28515, 28.069830000000003], [95.28640000000001, 28.07025], [95.28585000000001, 28.071260000000002]], [[95.27373000000001, 28.068230000000003], [95.27296000000001, 28.068970000000004], [95.27196, 28.068230000000003], [95.27283000000001, 28.067410000000002], [95.27373000000001, 28.068230000000003]], [[95.32245, 28.062240000000003], [95.32346000000001, 28.061550000000004], [95.32412000000001, 28.06266], [95.32292000000001, 28.063010000000002], [95.32245, 28.062240000000003]], [[95.28080000000001, 28.06631], [95.2817, 28.065490000000004], [95.28257, 28.06631], [95.28156000000001, 28.067050000000002], [95.28080000000001, 28.06631]], [[95.29024000000001, 28.063850000000002], [95.29114000000001, 28.06303], [95.29201, 28.063850000000002], [95.29101000000001, 28.064590000000003], [95.29024000000001, 28.063850000000002]], [[95.31644000000001, 28.060470000000002], [95.31731, 28.061290000000003], [95.31669000000001, 28.062], [95.31563000000001, 28.061590000000002], [95.31578, 28.060720000000003], [95.31644000000001, 28.060470000000002]], [[95.27952, 28.06173], [95.28036, 28.061220000000002], [95.28115000000001, 28.062340000000003], [95.27986000000001, 28.06265], [95.27952, 28.06173]], [[95.33259000000001, 28.05542], [95.33340000000001, 28.055930000000004], [95.33306, 28.05685], [95.33169000000001, 28.056240000000003], [95.33259000000001, 28.05542]], [[95.27234000000001, 28.06322], [95.27096, 28.062980000000003], [95.27142, 28.06192], [95.2724, 28.06211], [95.27234000000001, 28.06322]], [[95.28109, 28.05075], [95.28196000000001, 28.05157], [95.28119000000001, 28.052300000000002], [95.28028, 28.05187], [95.28071000000001, 28.05082], [95.28109, 28.05075]], [[95.25697000000001, 28.048510000000004], [95.25775, 28.049210000000002], [95.25693000000001, 28.050060000000002], [95.25598000000001, 28.04932], [95.25656000000001, 28.048550000000002], [95.25697000000001, 28.048510000000004]], [[95.23400000000001, 28.03825], [95.23487, 28.039070000000002], [95.23425, 28.03977], [95.23319000000001, 28.03937], [95.23362, 28.038320000000002], [95.23400000000001, 28.03825]], [[95.34649, 28.02633], [95.34731000000001, 28.02745], [95.34571000000001, 28.02745], [95.34649, 28.02633]], [[95.25918000000001, 28.030450000000002], [95.26005, 28.031270000000003], [95.25928, 28.032000000000004], [95.25837000000001, 28.031570000000002], [95.25880000000001, 28.030510000000003], [95.25918000000001, 28.030450000000002]], [[95.24365, 28.02222], [95.24443000000001, 28.022920000000003], [95.24361, 28.023780000000002], [95.24266, 28.02304], [95.24325, 28.022260000000003], [95.24365, 28.02222]], [[95.32445000000001, 28.001130000000003], [95.32345000000001, 28.00186], [95.32268, 28.001130000000003], [95.32355000000001, 28.000310000000002], [95.32445000000001, 28.001130000000003]], [[95.35277, 27.983510000000003], [95.35364000000001, 27.984330000000003], [95.35302, 27.98504], [95.35196, 27.984630000000003], [95.35239000000001, 27.983580000000003], [95.35277, 27.983510000000003]], [[95.34246, 27.98036], [95.34146000000001, 27.981090000000002], [95.34069000000001, 27.98036], [95.34156, 27.979540000000004], [95.34246, 27.98036]]]}}, {"id": "64", "type": "Feature", "properties": {"village_name": "Seram", "vil_lgd": 263923, "district_name": "East Siang", "dist_lgd": 232, "subdistrict_name": "Namsing Circle", "sdcode": 6115, "block_name": "Mebo", "block_lgd": 51.0, "gp_name": "", "state_name": "ARUNANCHAL PRADESH", "state_lgd": 12, "population": 829, "households": 148}, "geometry": {"type": "Polygon", "coordinates": [[[95.47568000000001, 28.002200000000002], [95.47649000000001, 28.00306], [95.47744, 28.00232], [95.4765, 28.001500000000004], [95.47568000000001, 28.002200000000002]]]}}, {"id": "65", "type": "Feature", "properties": {"village_name": "Kongkul", "vil_lgd": 263924, "district_name": "East Siang", "dist_lgd": 232, "subdistrict_name": "Namsing Circle", "sdcode": 6115, "block_name": "Mebo", "block_lgd": 51.0, "gp_name": "", "state_name": "ARUNANCHAL PRADESH", "state_lgd": 12, "population": 187, "households": 25}, "geometry": {"type": "Polygon", "coordinates": [[[95.49730000000001, 27.97959], [95.49686000000001, 27.98064], [95.49793000000001, 27.981040000000004], [95.49854, 27.98034], [95.49767000000001, 27.97952], [95.49730000000001, 27.97959]]]}}, {"id": "66", "type": "Feature", "properties": {"village_name": "Namsing", "vil_lgd": 263925, "district_name": "East Siang", "dist_lgd": 232, "subdistrict_name": "Namsing Circle", "sdcode": 6115, "block_name": "Mebo", "block_lgd": 51.0, "gp_name": "", "state_name": "ARUNANCHAL PRADESH", "state_lgd": 12, "population": 1589, "households": 299}, "geometry": {"type": "Polygon", "coordinates": [[[95.4865, 27.933380000000003], [95.48731000000001, 27.934240000000003], [95.48826000000001, 27.933500000000002], [95.48732000000001, 27.93268], [95.4865, 27.933380000000003]]]}}, {"id": "67", "type": "Feature", "properties": {"village_name": "Gadum", "vil_lgd": 263926, "district_name": "East Siang", "dist_lgd": 232, "subdistrict_name": "Namsing Circle", "sdcode": 6115, "block_name": "Mebo", "block_lgd": 51.0, "gp_name": "", "state_name": "ARUNANCHAL PRADESH", "state_lgd": 12, "population": 349, "households": 60}, "geometry": {"type": "Polygon", "coordinates": [[[95.51100000000001, 27.900560000000002], [95.51057, 27.90161], [95.51148, 27.902050000000003], [95.51225000000001, 27.901310000000002], [95.51138, 27.90049], [95.51100000000001, 27.900560000000002]]]}}, {"id": "68", "type": "Feature", "properties": {"village_name": "Mer", "vil_lgd": 263927, "district_name": "East Siang", "dist_lgd": 232, "subdistrict_name": "Namsing Circle", "sdcode": 6115, "block_name": "Mebo", "block_lgd": 51.0, "gp_name": "", "state_name": "ARUNANCHAL PRADESH", "state_lgd": 12, "population": 776, "households": 120}, "geometry": {"type": "Polygon", "coordinates": [[[95.49730000000001, 27.88127], [95.49686000000001, 27.882320000000004], [95.49793000000001, 27.882730000000002], [95.49854, 27.88202], [95.49767000000001, 27.881200000000003], [95.49730000000001, 27.88127]]]}}, {"id": "69", "type": "Feature", "properties": {"village_name": "Ngopok", "vil_lgd": 263919, "district_name": "East Siang", "dist_lgd": 232, "subdistrict_name": "Namsing Circle", "sdcode": 6115, "block_name": "Mebo", "block_lgd": 51.0, "gp_name": "", "state_name": "ARUNANCHAL PRADESH", "state_lgd": 12, "population": 1589, "households": 295}, "geometry": {"type": "Polygon", "coordinates": [[[95.48054, 28.076020000000003], [95.48154000000001, 28.076760000000004], [95.48231000000001, 28.076020000000003], [95.48141000000001, 28.075200000000002], [95.48054, 28.076020000000003]]]}}, {"id": "70", "type": "Feature", "properties": {"village_name": "Kiyit", "vil_lgd": 263920, "district_name": "East Siang", "dist_lgd": 232, "subdistrict_name": "Namsing Circle", "sdcode": 6115, "block_name": "Mebo", "block_lgd": 51.0, "gp_name": "", "state_name": "ARUNANCHAL PRADESH", "state_lgd": 12, "population": 1237, "households": 216}, "geometry": {"type": "Polygon", "coordinates": [[[95.47511, 28.06556], [95.47468, 28.06661], [95.47574, 28.067020000000003], [95.47636000000001, 28.06631], [95.47549000000001, 28.065490000000004], [95.47511, 28.06556]]]}}, {"id": "71", "type": "Feature", "properties": {"village_name": "Borguli", "vil_lgd": 263921, "district_name": "East Siang", "dist_lgd": 232, "subdistrict_name": "Namsing Circle", "sdcode": 6115, "block_name": "Mebo", "block_lgd": 51.0, "gp_name": "", "state_name": "ARUNANCHAL PRADESH", "state_lgd": 12, "population": 664, "households": 121}, "geometry": {"type": "Polygon", "coordinates": [[[95.46844, 28.05872], [95.468, 28.059770000000004], [95.46892000000001, 28.06021], [95.46969000000001, 28.05947], [95.46882000000001, 28.058650000000004], [95.46844, 28.05872]]]}}, {"id": "72", "type": "Feature", "properties": {"village_name": "New Borguli", "vil_lgd": 263922, "district_name": "East Siang", "dist_lgd": 232, "subdistrict_name": "Namsing Circle", "sdcode": 6115, "block_name": "Mebo", "block_lgd": 51.0, "gp_name": "", "state_name": "ARUNANCHAL PRADESH", "state_lgd": 12, "population": 239, "households": 39}, "geometry": {"type": "Polygon", "coordinates": [[[95.47405, 28.038300000000003], [95.47482000000001, 28.039040000000004], [95.47582000000001, 28.038300000000003], [95.47492000000001, 28.037480000000002], [95.47405, 28.038300000000003]]]}}, {"id": "73", "type": "Feature", "properties": {"village_name": "Mebo Village", "vil_lgd": 263912, "district_name": "East Siang", "dist_lgd": 232, "subdistrict_name": "Mebo ADC", "sdcode": 1656, "block_name": "Mebo", "block_lgd": 51.0, "gp_name": "", "state_name": "ARUNANCHAL PRADESH", "state_lgd": 12, "population": 1547, "households": 280}, "geometry": {"type": "Polygon", "coordinates": [[[95.41321, 28.192800000000002], [95.41445, 28.193260000000002], [95.41485, 28.192190000000004], [95.41393000000001, 28.19178], [95.41321, 28.192800000000002]]]}}, {"id": "74", "type": "Feature", "properties": {"village_name": "Mebo H Q", "vil_lgd": 263913, "district_name": "East Siang", "dist_lgd": 232, "subdistrict_name": "Mebo ADC", "sdcode": 1656, "block_name": "Mebo", "block_lgd": 51.0, "gp_name": "", "state_name": "ARUNANCHAL PRADESH", "state_lgd": 12, "population": 1587, "households": 375}, "geometry": {"type": "Polygon", "coordinates": [[[95.40166, 28.178890000000003], [95.40108000000001, 28.179890000000004], [95.40193000000001, 28.18043], [95.40282, 28.17958], [95.40206, 28.178870000000003], [95.40166, 28.178890000000003]]]}}, {"id": "75", "type": "Feature", "properties": {"village_name": "Silluk", "vil_lgd": 263914, "district_name": "East Siang", "dist_lgd": 232, "subdistrict_name": "Mebo ADC", "sdcode": 1656, "block_name": "Mebo", "block_lgd": 51.0, "gp_name": "", "state_name": "ARUNANCHAL PRADESH", "state_lgd": 12, "population": 859, "households": 139}, "geometry": {"type": "Polygon", "coordinates": [[[95.49022000000001, 28.19103], [95.49142, 28.19141], [95.49183000000001, 28.190340000000003], [95.49081000000001, 28.189950000000003], [95.49022000000001, 28.19103]]]}}, {"id": "76", "type": "Feature", "properties": {"village_name": "Motum Vill", "vil_lgd": 263916, "district_name": "East Siang", "dist_lgd": 232, "subdistrict_name": "Mebo ADC", "sdcode": 1656, "block_name": "Mebo", "block_lgd": 51.0, "gp_name": "", "state_name": "ARUNANCHAL PRADESH", "state_lgd": 12, "population": 714, "households": 125}, "geometry": {"type": "Polygon", "coordinates": [[[95.45186000000001, 28.09109], [95.45128000000001, 28.092090000000002], [95.45213000000001, 28.092630000000003], [95.45302000000001, 28.091780000000004], [95.45226000000001, 28.091070000000002], [95.45186000000001, 28.09109]]]}}, {"id": "77", "type": "Feature", "properties": {"village_name": "Ralling", "vil_lgd": 263917, "district_name": "East Siang", "dist_lgd": 232, "subdistrict_name": "Mebo ADC", "sdcode": 1656, "block_name": "Mebo", "block_lgd": 51.0, "gp_name": "", "state_name": "ARUNANCHAL PRADESH", "state_lgd": 12, "population": 241, "households": 35}, "geometry": {"type": "Polygon", "coordinates": [[[95.44057000000001, 28.10068], [95.43999000000001, 28.10169], [95.44083, 28.102220000000003], [95.44172, 28.101380000000002], [95.44096, 28.10067], [95.44057000000001, 28.10068]]]}}, {"id": "78", "type": "Feature", "properties": {"village_name": "Sigar", "vil_lgd": 263918, "district_name": "East Siang", "dist_lgd": 232, "subdistrict_name": "Mebo ADC", "sdcode": 1656, "block_name": "Mebo", "block_lgd": 51.0, "gp_name": "", "state_name": "ARUNANCHAL PRADESH", "state_lgd": 12, "population": 399, "households": 68}, "geometry": {"type": "Polygon", "coordinates": [[[95.40083000000001, 28.099580000000003], [95.40024000000001, 28.10058], [95.40109000000001, 28.101110000000002], [95.40198000000001, 28.100270000000002], [95.40122000000001, 28.099560000000004], [95.40083000000001, 28.099580000000003]]]}}, {"id": "79", "type": "Feature", "properties": {"village_name": "Data Partially Available", "vil_lgd": 999999, "district_name": "East Siang", "dist_lgd": 232, "subdistrict_name": "Namsing Circle", "sdcode": 6115, "block_name": "", "block_lgd": null, "gp_name": "", "state_name": "ARUNANCHAL PRADESH", "state_lgd": 12, "population": 0, "households": 0}, "geometry": {"type": "Polygon", "coordinates": [[[95.56439, 28.142840000000003], [95.56754000000001, 28.138890000000004], [95.56919, 28.131280000000004], [95.56895, 28.12432], [95.56997000000001, 28.112190000000002], [95.56843, 28.10206], [95.56748, 28.078480000000003], [95.56137000000001, 28.044710000000002], [95.55823000000001, 28.03534], [95.55275, 28.028330000000004], [95.54726000000001, 28.023670000000003], [95.54415, 28.018040000000003], [95.54049, 28.005360000000003], [95.53340000000001, 27.990170000000003], [95.50670000000001, 27.968590000000003], [95.50345, 27.96431], [95.50276000000001, 27.957700000000003], [95.50000000000001, 27.951810000000002], [95.49874000000001, 27.946160000000003], [95.50733000000001, 27.931130000000003], [95.50941, 27.92424], [95.51468000000001, 27.911990000000003], [95.51555, 27.90153], [95.51834000000001, 27.886250000000004], [95.51534000000001, 27.879710000000003], [95.49125000000001, 27.873150000000003], [95.42601, 27.853330000000003], [95.42629000000001, 27.858290000000004], [95.42477000000001, 27.865520000000004], [95.42343000000001, 27.909720000000004], [95.42572000000001, 27.927190000000003], [95.42515, 27.93475], [95.42564, 27.94075], [95.4235, 27.95492], [95.42635000000001, 27.97444], [95.42492000000001, 27.990190000000002], [95.42528, 28.00907], [95.42706000000001, 28.018520000000002], [95.43348, 28.035510000000002], [95.43491, 28.04306], [95.43491, 28.052190000000003], [95.4317, 28.057540000000003], [95.45416, 28.057640000000003], [95.46058000000001, 28.061100000000003], [95.462, 28.0696], [95.45772000000001, 28.076200000000004], [95.46521000000001, 28.09916], [95.46699000000001, 28.10734], [95.47163, 28.11268], [95.48446000000001, 28.119920000000004], [95.50086, 28.12778], [95.54258, 28.1457], [95.56172000000001, 28.155340000000002], [95.56313, 28.14694], [95.56439, 28.142840000000003]], [[95.48231000000001, 28.076020000000003], [95.48154000000001, 28.076760000000004], [95.48054, 28.076020000000003], [95.48141000000001, 28.075200000000002], [95.48231000000001, 28.076020000000003]], [[95.47549000000001, 28.065490000000004], [95.47636000000001, 28.06631], [95.47574, 28.067020000000003], [95.47468, 28.06661], [95.47511, 28.06556], [95.47549000000001, 28.065490000000004]], [[95.46882000000001, 28.058650000000004], [95.46969000000001, 28.05947], [95.46892000000001, 28.06021], [95.468, 28.059770000000004], [95.46844, 28.05872], [95.46882000000001, 28.058650000000004]], [[95.47582000000001, 28.038300000000003], [95.47482000000001, 28.039040000000004], [95.47405, 28.038300000000003], [95.47492000000001, 28.037480000000002], [95.47582000000001, 28.038300000000003]], [[95.47744, 28.00232], [95.47649000000001, 28.00306], [95.47568000000001, 28.002200000000002], [95.4765, 28.001500000000004], [95.47744, 28.00232]], [[95.49767000000001, 27.97952], [95.49854, 27.98034], [95.49793000000001, 27.981040000000004], [95.49686000000001, 27.98064], [95.49730000000001, 27.97959], [95.49767000000001, 27.97952]], [[95.48826000000001, 27.933500000000002], [95.48731000000001, 27.934240000000003], [95.4865, 27.933380000000003], [95.48732000000001, 27.93268], [95.48826000000001, 27.933500000000002]], [[95.51138, 27.90049], [95.51225000000001, 27.901310000000002], [95.51148, 27.902050000000003], [95.51057, 27.90161], [95.51100000000001, 27.900560000000002], [95.51138, 27.90049]], [[95.49767000000001, 27.881200000000003], [95.49854, 27.88202], [95.49793000000001, 27.882730000000002], [95.49686000000001, 27.882320000000004], [95.49730000000001, 27.88127], [95.49767000000001, 27.881200000000003]]]}}, {"id": "80", "type": "Feature", "properties": {"village_name": "Data Partially Available", "vil_lgd": 999999, "district_name": "East Siang", "dist_lgd": 232, "subdistrict_name": "Mebo ADC", "sdcode": 1656, "block_name": "", "block_lgd": null, "gp_name": "", "state_name": "ARUNANCHAL PRADESH", "state_lgd": 12, "population": 0, "households": 0}, "geometry": {"type": "Polygon", "coordinates": [[[95.38524000000001, 28.30805], [95.39507, 28.3119], [95.39714000000001, 28.314790000000002], [95.41056, 28.316110000000002], [95.41471000000001, 28.31294], [95.43503000000001, 28.31453], [95.43761, 28.31086], [95.44584, 28.304510000000004], [95.44965, 28.29744], [95.44974, 28.289690000000004], [95.45643000000001, 28.283890000000003], [95.46041000000001, 28.27877], [95.46199000000001, 28.274250000000002], [95.4612, 28.265140000000002], [95.46294, 28.261550000000003], [95.46555000000001, 28.259210000000003], [95.47274, 28.26441], [95.47666000000001, 28.26544], [95.47927000000001, 28.26883], [95.48578, 28.272230000000004], [95.49212000000001, 28.27061], [95.51162000000001, 28.274040000000003], [95.52667000000001, 28.281350000000003], [95.53143000000001, 28.28253], [95.53338000000001, 28.285010000000003], [95.53542, 28.28618], [95.54106, 28.280170000000002], [95.54166000000001, 28.275270000000003], [95.54855, 28.275370000000002], [95.54982000000001, 28.27409], [95.5493, 28.268240000000002], [95.55199, 28.264170000000004], [95.56127000000001, 28.258490000000002], [95.56366000000001, 28.254880000000004], [95.56397000000001, 28.235350000000004], [95.5605, 28.206190000000003], [95.5596, 28.167980000000004], [95.56172000000001, 28.155340000000002], [95.54258, 28.1457], [95.50086, 28.12778], [95.48446000000001, 28.119920000000004], [95.47163, 28.11268], [95.46699000000001, 28.10734], [95.46521000000001, 28.09916], [95.45772000000001, 28.076200000000004], [95.462, 28.0696], [95.46058000000001, 28.061100000000003], [95.45416, 28.057640000000003], [95.4317, 28.057540000000003], [95.42421, 28.061940000000003], [95.39997000000001, 28.070120000000003], [95.36859000000001, 28.077980000000004], [95.35683, 28.079240000000002], [95.34613, 28.084280000000003], [95.33829000000001, 28.09119], [95.32795, 28.098110000000002], [95.30834, 28.105030000000003], [95.28934000000001, 28.10628], [95.28139, 28.110870000000002], [95.28139, 28.115940000000002], [95.28254000000001, 28.118990000000004], [95.28523000000001, 28.122370000000004], [95.29100000000001, 28.124340000000004], [95.29635, 28.13116], [95.29251000000001, 28.141650000000002], [95.28599000000001, 28.149430000000002], [95.28178000000001, 28.153150000000004], [95.27027000000001, 28.159240000000004], [95.2672, 28.162280000000003], [95.25761000000001, 28.164310000000004], [95.25262000000001, 28.169040000000003], [95.24879000000001, 28.174110000000002], [95.24488000000001, 28.178430000000002], [95.24698000000001, 28.17948], [95.25048000000001, 28.184590000000004], [95.25503, 28.186400000000003], [95.25554000000001, 28.193990000000003], [95.25894000000001, 28.198150000000002], [95.26396000000001, 28.200300000000002], [95.26851, 28.20013], [95.27539, 28.20212], [95.28481000000001, 28.20137], [95.28784, 28.202250000000003], [95.28993000000001, 28.20381], [95.2913, 28.207710000000002], [95.29073000000001, 28.216580000000004], [95.28845000000001, 28.221870000000003], [95.28309, 28.229920000000003], [95.28266, 28.232100000000003], [95.28595000000001, 28.234180000000002], [95.28614, 28.236530000000002], [95.29149000000001, 28.239220000000003], [95.29736000000001, 28.23813], [95.30409, 28.238350000000004], [95.30940000000001, 28.23663], [95.31262000000001, 28.2373], [95.31465000000001, 28.2386], [95.31289000000001, 28.250690000000002], [95.31398, 28.252840000000003], [95.32846, 28.265990000000002], [95.32728, 28.270360000000004], [95.32398, 28.276980000000002], [95.32408000000001, 28.28224], [95.32018000000001, 28.28498], [95.32018000000001, 28.28834], [95.32845, 28.29407], [95.32985000000001, 28.297870000000003], [95.33339000000001, 28.301800000000004], [95.33825, 28.30263], [95.35598, 28.300990000000002], [95.36339000000001, 28.303990000000002], [95.36560000000001, 28.311460000000004], [95.36863000000001, 28.317680000000003], [95.36868000000001, 28.32015], [95.37168000000001, 28.32043], [95.37439, 28.322680000000002], [95.37509000000001, 28.3196], [95.38159, 28.310810000000004], [95.38524000000001, 28.30805]], [[95.54454000000001, 28.247110000000003], [95.54413000000001, 28.24818], [95.5429, 28.24772], [95.54361, 28.2467], [95.54454000000001, 28.247110000000003]], [[95.49183000000001, 28.190340000000003], [95.49142, 28.19141], [95.49022000000001, 28.19103], [95.49081000000001, 28.189950000000003], [95.49183000000001, 28.190340000000003]], [[95.41485, 28.192190000000004], [95.41445, 28.193260000000002], [95.41321, 28.192800000000002], [95.41393000000001, 28.19178], [95.41485, 28.192190000000004]], [[95.40206, 28.178870000000003], [95.40282, 28.17958], [95.40193000000001, 28.18043], [95.40108000000001, 28.179890000000004], [95.40166, 28.178890000000003], [95.40206, 28.178870000000003]], [[95.35437, 28.16449], [95.35513, 28.165200000000002], [95.35424, 28.166040000000002], [95.35339, 28.16551], [95.35397, 28.164510000000003], [95.35437, 28.16449]], [[95.27015, 28.16964], [95.27104000000001, 28.170440000000003], [95.27041000000001, 28.171170000000004], [95.26934000000001, 28.17075], [95.2698, 28.169700000000002], [95.27015, 28.16964]], [[95.29897000000001, 28.126540000000002], [95.29857000000001, 28.12761], [95.29736000000001, 28.12722], [95.29796, 28.126140000000003], [95.29897000000001, 28.126540000000002]], [[95.44096, 28.10067], [95.44172, 28.101380000000002], [95.44083, 28.102220000000003], [95.43999000000001, 28.10169], [95.44057000000001, 28.10068], [95.44096, 28.10067]], [[95.40122000000001, 28.099560000000004], [95.40198000000001, 28.100270000000002], [95.40109000000001, 28.101110000000002], [95.40024000000001, 28.10058], [95.40083000000001, 28.099580000000003], [95.40122000000001, 28.099560000000004]], [[95.45226000000001, 28.091070000000002], [95.45302000000001, 28.091780000000004], [95.45213000000001, 28.092630000000003], [95.45128000000001, 28.092090000000002], [95.45186000000001, 28.09109], [95.45226000000001, 28.091070000000002]]]}}, {"id": "81", "type": "Feature", "properties": {"village_name": "Aohali", "vil_lgd": 263915, "district_name": "East Siang", "dist_lgd": 232, "subdistrict_name": "Mebo ADC", "sdcode": 1656, "block_name": "Mebo", "block_lgd": 51.0, "gp_name": "", "state_name": "ARUNANCHAL PRADESH", "state_lgd": 12, "population": 216, "households": 40}, "geometry": {"type": "Polygon", "coordinates": [[[95.5429, 28.24772], [95.54413000000001, 28.24818], [95.54454000000001, 28.247110000000003], [95.54361, 28.2467], [95.5429, 28.24772]]]}}]}