{"type": "FeatureCollection", "metadata": {"source": "Survey of India (per src_agency attribute in the source data)", "hosted_via": "National Water Data Portal (NWDP), NWIC, Ministry of Jal Shakti -- https://nwdp.nwic.gov.in/", "access": "public, no login required", "crs_original": "EPSG:7755 (WGS 84 / India NSF LCC)", "fetch_date": "2026-08-02", "quality": "verified-official -- Survey of India source", "state": "Arunachal Pradesh", "district": "Leparada", "processing": "reprojected to EPSG:4326, topology-preserving simplify (shared-arc, tolerance 0.0005 deg) so adjacent polygons never overlap/gap at shared borders, coords rounded 5dp, 0 feature(s) needed the per-feature fallback", "feature_count": 76}, "features": [{"id": "0", "type": "Feature", "properties": {"village_name": "Data Partially Available", "vil_lgd": 999999, "district_name": "Leparada", "dist_lgd": 724, "subdistrict_name": "Basar ADC", "sdcode": 1636, "block_name": "", "block_lgd": null, "gp_name": "", "state_name": "ARUNANCHAL PRADESH", "state_lgd": 12, "population": 0, "households": 0}, "geometry": {"type": "Polygon", "coordinates": [[[94.87274000000001, 27.94346], [94.86296, 27.950110000000002], [94.85829000000001, 27.950640000000003], [94.85317, 27.949980000000004], [94.84835000000001, 27.94798], [94.83871, 27.940130000000003], [94.83434000000001, 27.93521], [94.82711, 27.929750000000002], [94.81477000000001, 27.9219], [94.80528000000001, 27.917250000000003], [94.79700000000001, 27.916050000000002], [94.78947000000001, 27.91645], [94.78465000000001, 27.91831], [94.78013000000001, 27.921640000000004], [94.77380000000001, 27.928290000000004], [94.77094000000001, 27.929620000000003], [94.76748, 27.93015], [94.76567000000001, 27.931620000000002], [94.76010000000001, 27.933480000000003], [94.75212, 27.93361], [94.73525000000001, 27.930950000000003], [94.72848, 27.930950000000003], [94.71989, 27.92922], [94.70333000000001, 27.925230000000003], [94.68375, 27.918440000000004], [94.67848000000001, 27.917780000000004], [94.66974, 27.918440000000004], [94.65875000000001, 27.91738], [94.64905, 27.91495], [94.6422, 27.911920000000002], [94.63137, 27.91008], [94.62414000000001, 27.91024], [94.60303, 27.902680000000004], [94.59467000000001, 27.901510000000002], [94.58611, 27.898650000000004], [94.5801, 27.894340000000003], [94.56664, 27.898680000000002], [94.55806000000001, 27.902400000000004], [94.5545, 27.910210000000003], [94.54257000000001, 27.925410000000003], [94.53778000000001, 27.93334], [94.53584000000001, 27.943870000000004], [94.53096000000001, 27.952250000000003], [94.52513, 27.9582], [94.52279000000001, 27.966400000000004], [94.52403000000001, 27.971490000000003], [94.52610000000001, 27.971410000000002], [94.52799, 27.97258], [94.52899000000001, 27.971210000000003], [94.53214000000001, 27.971890000000002], [94.53434000000001, 27.971310000000003], [94.53654, 27.972620000000003], [94.53903000000001, 27.9721], [94.53998000000001, 27.97331], [94.54194000000001, 27.9722], [94.54319000000001, 27.97388], [94.5467, 27.973620000000004], [94.54765, 27.97493], [94.55300000000001, 27.973670000000002], [94.55406, 27.97199], [94.5571, 27.972890000000003], [94.55912000000001, 27.972150000000003], [94.55995000000001, 27.973150000000004], [94.56298000000001, 27.973940000000002], [94.56565, 27.973250000000004], [94.56773000000001, 27.970200000000002], [94.56880000000001, 27.97059], [94.5694, 27.972520000000003], [94.57214, 27.971950000000003], [94.57900000000001, 27.97425], [94.58042, 27.973160000000004], [94.58290000000001, 27.975590000000004], [94.58518000000001, 27.97341], [94.5943, 27.972910000000002], [94.59554000000001, 27.975170000000002], [94.59744, 27.973920000000003], [94.60001000000001, 27.97509], [94.60039, 27.97643], [94.60315000000001, 27.97333], [94.60514, 27.972910000000002], [94.60467000000001, 27.971560000000004], [94.60628000000001, 27.971230000000002], [94.60837000000001, 27.968290000000003], [94.61047, 27.968040000000002], [94.61627000000001, 27.969300000000004], [94.61997000000001, 27.96711], [94.62111, 27.9677], [94.6213, 27.969300000000004], [94.62235000000001, 27.969880000000003], [94.62101000000001, 27.972600000000003], [94.62307000000001, 27.974870000000003], [94.62568, 27.974670000000003], [94.62767000000001, 27.972910000000002], [94.62929000000001, 27.972820000000002], [94.63138000000001, 27.975260000000002], [94.6311, 27.976940000000003], [94.62939, 27.977610000000002], [94.62843000000001, 27.97979], [94.63499, 27.98298], [94.63766000000001, 27.985670000000002], [94.63633, 27.989030000000003], [94.64146000000001, 27.99331], [94.63947, 27.995020000000004], [94.643, 27.997500000000002], [94.64113, 27.999190000000002], [94.64769000000001, 28.002840000000003], [94.64869, 28.005860000000002], [94.64811, 28.00775], [94.6551, 28.010640000000002], [94.65624000000001, 28.01178], [94.65582, 28.014170000000004], [94.64983000000001, 28.016430000000003], [94.65254, 28.020840000000003], [94.64954, 28.022980000000004], [94.64883, 28.025250000000003], [94.64553000000001, 28.02398], [94.64625000000001, 28.030900000000003], [94.65013, 28.04277], [94.66896000000001, 28.04127], [94.69974, 28.019190000000002], [94.73811, 28.009240000000002], [94.75239, 28.011380000000003], [94.77910000000001, 27.99341], [94.79111, 27.987050000000004], [94.82002000000001, 27.98579], [94.89564000000001, 28.015940000000004], [94.90172000000001, 28.020380000000003], [94.90387000000001, 28.025940000000002], [94.90863, 28.019820000000003], [94.90638000000001, 28.016270000000002], [94.90125, 28.01245], [94.8999, 28.009790000000002], [94.89453, 28.008010000000002], [94.89328, 28.005480000000002], [94.89339000000001, 28.0026], [94.89132000000001, 27.99998], [94.88927000000001, 27.999070000000003], [94.88081000000001, 27.99997], [94.88610000000001, 27.994100000000003], [94.88961, 27.987330000000004], [94.89593, 27.979110000000002], [94.89981, 27.971970000000002], [94.89777000000001, 27.967820000000003], [94.89593, 27.961140000000004], [94.89334000000001, 27.95877], [94.89422, 27.953780000000002], [94.89235000000001, 27.95231], [94.88561000000001, 27.95078], [94.88415, 27.94836], [94.88423, 27.943420000000003], [94.87871000000001, 27.93822], [94.87274000000001, 27.94346]], [[94.71609000000001, 27.99707], [94.71553, 27.996060000000003], [94.7167, 27.995600000000003], [94.71716, 27.996660000000002], [94.71609000000001, 27.99707]], [[94.73464000000001, 27.995990000000003], [94.73364000000001, 27.996720000000003], [94.73287, 27.995990000000003], [94.73374000000001, 27.99517], [94.73464000000001, 27.995990000000003]], [[94.71165, 27.999840000000003], [94.71052, 27.999330000000004], [94.71095000000001, 27.998410000000003], [94.71220000000001, 27.99883], [94.71165, 27.999840000000003]], [[94.77035000000001, 27.992670000000004], [94.7694, 27.99341], [94.76858000000001, 27.99255], [94.7694, 27.991850000000003], [94.77035000000001, 27.992670000000004]], [[94.70351000000001, 28.000560000000004], [94.70345, 27.999450000000003], [94.70475, 27.999450000000003], [94.70458, 28.00063], [94.70351000000001, 28.000560000000004]], [[94.68744000000001, 28.003020000000003], [94.68667, 28.002280000000003], [94.68754000000001, 28.00146], [94.68844000000001, 28.002280000000003], [94.68744000000001, 28.003020000000003]], [[94.69172, 28.003210000000003], [94.69095, 28.003940000000004], [94.68995000000001, 28.003210000000003], [94.69082, 28.002390000000002], [94.69172, 28.003210000000003]], [[94.72311, 28.006300000000003], [94.72234, 28.005560000000003], [94.72321000000001, 28.00474], [94.72411000000001, 28.005560000000003], [94.72311, 28.006300000000003]], [[94.75939000000001, 28.002080000000003], [94.76020000000001, 28.0026], [94.75967000000001, 28.003600000000002], [94.75857, 28.003200000000003], [94.75901, 28.002150000000004], [94.75939000000001, 28.002080000000003]], [[94.74418000000001, 28.007990000000003], [94.74508, 28.007170000000002], [94.74595000000001, 28.007990000000003], [94.74518, 28.008730000000003], [94.74418000000001, 28.007990000000003]], [[94.68036000000001, 28.014850000000003], [94.68002000000001, 28.01394], [94.68122000000001, 28.01349], [94.68165, 28.014540000000004], [94.68036000000001, 28.014850000000003]], [[94.68025, 28.02633], [94.68115, 28.02551], [94.68202000000001, 28.02633], [94.68102, 28.027070000000002], [94.68025, 28.02633]], [[94.79851000000001, 27.984550000000002], [94.79774, 27.985290000000003], [94.79674000000001, 27.984550000000002], [94.79761, 27.98373], [94.79851000000001, 27.984550000000002]], [[94.83754, 27.97801], [94.83841000000001, 27.978830000000002], [94.8378, 27.979540000000004], [94.83673, 27.97914], [94.83717000000001, 27.978080000000002], [94.83754, 27.97801]], [[94.70541000000001, 27.989060000000002], [94.70441000000001, 27.989800000000002], [94.70364000000001, 27.989060000000002], [94.70451000000001, 27.98824], [94.70541000000001, 27.989060000000002]], [[94.67607000000001, 27.975640000000002], [94.67507, 27.976380000000002], [94.67431, 27.975640000000002], [94.67517000000001, 27.97482], [94.67607000000001, 27.975640000000002]], [[94.68466000000001, 27.973760000000002], [94.68544000000001, 27.97446], [94.68496, 27.975240000000003], [94.68397, 27.975130000000004], [94.68391000000001, 27.974010000000003], [94.68466000000001, 27.973760000000002]], [[94.65906000000001, 27.975080000000002], [94.65806, 27.975820000000002], [94.65729, 27.975080000000002], [94.65816000000001, 27.97426], [94.65906000000001, 27.975080000000002]], [[94.69114, 27.966310000000004], [94.69198, 27.966820000000002], [94.69164, 27.967740000000003], [94.69027000000001, 27.96713], [94.69114, 27.966310000000004]], [[94.7313, 27.95868], [94.73018, 27.959190000000003], [94.72963000000001, 27.958180000000002], [94.73056000000001, 27.957670000000004], [94.7313, 27.95868]], [[94.62934000000001, 27.96778], [94.63021, 27.966960000000004], [94.63111, 27.96778], [94.63011, 27.968510000000002], [94.62934000000001, 27.96778]], [[94.67118, 27.959030000000002], [94.67202, 27.958520000000004], [94.67281000000001, 27.959640000000004], [94.67152, 27.959950000000003], [94.67118, 27.959030000000002]], [[94.69484000000001, 27.954990000000002], [94.69566, 27.95447], [94.69647, 27.95559], [94.69508, 27.955840000000002], [94.69484000000001, 27.954990000000002]], [[94.75487000000001, 27.948220000000003], [94.75569, 27.94873], [94.75544000000001, 27.94959], [94.75397000000001, 27.949040000000004], [94.75487000000001, 27.948220000000003]], [[94.58301, 27.96205], [94.58377, 27.962770000000003], [94.58288, 27.963610000000003], [94.58203, 27.96308], [94.58262, 27.96207], [94.58301, 27.96205]], [[94.73049, 27.944530000000004], [94.73136000000001, 27.94535], [94.73060000000001, 27.94609], [94.72968, 27.945660000000004], [94.73012000000001, 27.9446], [94.73049, 27.944530000000004]], [[94.70623, 27.94319], [94.70710000000001, 27.942370000000004], [94.70800000000001, 27.94319], [94.70685, 27.943890000000003], [94.70623, 27.94319]], [[94.67355, 27.945980000000002], [94.67442000000001, 27.94516], [94.67532000000001, 27.945980000000002], [94.67432000000001, 27.946720000000003], [94.67355, 27.945980000000002]], [[94.766, 27.93345], [94.76687000000001, 27.93427], [94.76626, 27.934970000000003], [94.76519, 27.93457], [94.76534000000001, 27.9337], [94.766, 27.93345]], [[94.69751000000001, 27.938940000000002], [94.69850000000001, 27.938240000000004], [94.69928, 27.93906], [94.69833000000001, 27.9398], [94.69751000000001, 27.938940000000002]], [[94.71797000000001, 27.934250000000002], [94.71884000000001, 27.935070000000003], [94.71823, 27.93578], [94.71716, 27.935370000000002], [94.71759, 27.934320000000003], [94.71797000000001, 27.934250000000002]]]}}, {"id": "1", "type": "Feature", "properties": {"village_name": "Old Bam", "vil_lgd": 263644, "district_name": "Leparada", "dist_lgd": 724, "subdistrict_name": "Basar ADC", "sdcode": 1636, "block_name": "Basar", "block_lgd": 42.0, "gp_name": "", "state_name": "ARUNANCHAL PRADESH", "state_lgd": 12, "population": 762, "households": 153}, "geometry": {"type": "Polygon", "coordinates": [[[94.68995000000001, 28.003210000000003], [94.69095, 28.003940000000004], [94.69172, 28.003210000000003], [94.69082, 28.002390000000002], [94.68995000000001, 28.003210000000003]]]}}, {"id": "2", "type": "Feature", "properties": {"village_name": "Padi", "vil_lgd": 263674, "district_name": "Leparada", "dist_lgd": 724, "subdistrict_name": "Daring Circle", "sdcode": 1637, "block_name": "Basar", "block_lgd": 42.0, "gp_name": "", "state_name": "ARUNANCHAL PRADESH", "state_lgd": 12, "population": 326, "households": 74}, "geometry": {"type": "Polygon", "coordinates": [[[94.74567, 27.89898], [94.74524000000001, 27.90003], [94.7463, 27.900440000000003], [94.74692, 27.89973], [94.74605000000001, 27.89891], [94.74567, 27.89898]]]}}, {"id": "3", "type": "Feature", "properties": {"village_name": "Lite", "vil_lgd": 263620, "district_name": "Leparada", "dist_lgd": 724, "subdistrict_name": "Tirbin EAC", "sdcode": 1635, "block_name": "Tirbin", "block_lgd": 41.0, "gp_name": "", "state_name": "ARUNANCHAL PRADESH", "state_lgd": 12, "population": 98, "households": 18}, "geometry": {"type": "Polygon", "coordinates": [[[94.55668000000001, 28.00345], [94.55791, 28.0039], [94.55832000000001, 28.002830000000003], [94.55739000000001, 28.00242], [94.55668000000001, 28.00345]]]}}, {"id": "4", "type": "Feature", "properties": {"village_name": "Lutak", "vil_lgd": 263627, "district_name": "Leparada", "dist_lgd": 724, "subdistrict_name": "Tirbin EAC", "sdcode": 1635, "block_name": "Tirbin", "block_lgd": 41.0, "gp_name": "", "state_name": "ARUNANCHAL PRADESH", "state_lgd": 12, "population": 142, "households": 33}, "geometry": {"type": "Polygon", "coordinates": [[[94.58472, 27.995050000000003], [94.58596000000001, 27.995510000000003], [94.58636000000001, 27.99444], [94.58544, 27.994030000000002], [94.58472, 27.995050000000003]]]}}, {"id": "5", "type": "Feature", "properties": {"village_name": "Tiri", "vil_lgd": 263628, "district_name": "Leparada", "dist_lgd": 724, "subdistrict_name": "Tirbin EAC", "sdcode": 1635, "block_name": "Tirbin", "block_lgd": 41.0, "gp_name": "", "state_name": "ARUNANCHAL PRADESH", "state_lgd": 12, "population": 67, "households": 14}, "geometry": {"type": "Polygon", "coordinates": [[[94.57513, 28.002860000000002], [94.57455, 28.003870000000003], [94.5754, 28.004400000000004], [94.57629000000001, 28.003560000000004], [94.57553000000001, 28.002840000000003], [94.57513, 28.002860000000002]]]}}, {"id": "6", "type": "Feature", "properties": {"village_name": "Ngensi", "vil_lgd": 263629, "district_name": "Leparada", "dist_lgd": 724, "subdistrict_name": "Tirbin EAC", "sdcode": 1635, "block_name": "Tirbin", "block_lgd": 41.0, "gp_name": "", "state_name": "ARUNANCHAL PRADESH", "state_lgd": 12, "population": 126, "households": 23}, "geometry": {"type": "Polygon", "coordinates": [[[94.56379000000001, 27.99415], [94.56531000000001, 27.99388], [94.56433000000001, 27.99285], [94.56379000000001, 27.99415]]]}}, {"id": "7", "type": "Feature", "properties": {"village_name": "Tai", "vil_lgd": 263639, "district_name": "Leparada", "dist_lgd": 724, "subdistrict_name": "Tirbin EAC", "sdcode": 1635, "block_name": "Tirbin", "block_lgd": 41.0, "gp_name": "", "state_name": "ARUNANCHAL PRADESH", "state_lgd": 12, "population": 361, "households": 76}, "geometry": {"type": "Polygon", "coordinates": [[[94.51247000000001, 27.996900000000004], [94.51370000000001, 27.997360000000004], [94.51411, 27.996290000000002], [94.51318, 27.995870000000004], [94.51247000000001, 27.996900000000004]]]}}, {"id": "8", "type": "Feature", "properties": {"village_name": "Badak", "vil_lgd": 263640, "district_name": "Leparada", "dist_lgd": 724, "subdistrict_name": "Tirbin EAC", "sdcode": 1635, "block_name": "Tirbin", "block_lgd": 41.0, "gp_name": "", "state_name": "ARUNANCHAL PRADESH", "state_lgd": 12, "population": 186, "households": 36}, "geometry": {"type": "Polygon", "coordinates": [[[94.56932, 27.981790000000004], [94.57055000000001, 27.982250000000004], [94.57096000000001, 27.981180000000002], [94.57003, 27.980760000000004], [94.56932, 27.981790000000004]]]}}, {"id": "9", "type": "Feature", "properties": {"village_name": "Yiga", "vil_lgd": 263641, "district_name": "Leparada", "dist_lgd": 724, "subdistrict_name": "Tirbin EAC", "sdcode": 1635, "block_name": "Tirbin", "block_lgd": 41.0, "gp_name": "", "state_name": "ARUNANCHAL PRADESH", "state_lgd": 12, "population": 91, "households": 20}, "geometry": {"type": "Polygon", "coordinates": [[[94.53071000000001, 27.98073], [94.53191000000001, 27.98111], [94.53231000000001, 27.980040000000002], [94.5313, 27.979640000000003], [94.53071000000001, 27.98073]]]}}, {"id": "10", "type": "Feature", "properties": {"village_name": "Kardo", "vil_lgd": 263642, "district_name": "Leparada", "dist_lgd": 724, "subdistrict_name": "Tirbin EAC", "sdcode": 1635, "block_name": "Tirbin", "block_lgd": 41.0, "gp_name": "", "state_name": "ARUNANCHAL PRADESH", "state_lgd": 12, "population": 154, "households": 29}, "geometry": {"type": "Polygon", "coordinates": [[[94.54511000000001, 27.99697], [94.54631, 27.997360000000004], [94.54672000000001, 27.996290000000002], [94.54570000000001, 27.995890000000003], [94.54511000000001, 27.99697]]]}}, {"id": "11", "type": "Feature", "properties": {"village_name": "Gite", "vil_lgd": 263643, "district_name": "Leparada", "dist_lgd": 724, "subdistrict_name": "Tirbin EAC", "sdcode": 1635, "block_name": "Tirbin", "block_lgd": 41.0, "gp_name": "", "state_name": "ARUNANCHAL PRADESH", "state_lgd": 12, "population": 6, "households": 1}, "geometry": {"type": "Polygon", "coordinates": [[[94.54012, 27.990930000000002], [94.54132000000001, 27.991310000000002], [94.54173, 27.990240000000004], [94.54071, 27.98985], [94.54012, 27.990930000000002]]]}}, {"id": "12", "type": "Feature", "properties": {"village_name": "Ampir", "vil_lgd": 263646, "district_name": "Leparada", "dist_lgd": 724, "subdistrict_name": "Basar ADC", "sdcode": 1636, "block_name": "Basar", "block_lgd": 42.0, "gp_name": "", "state_name": "ARUNANCHAL PRADESH", "state_lgd": 12, "population": 60, "households": 9}, "geometry": {"type": "Polygon", "coordinates": [[[94.68754000000001, 28.00146], [94.68667, 28.002280000000003], [94.68744000000001, 28.003020000000003], [94.68844000000001, 28.002280000000003], [94.68754000000001, 28.00146]]]}}, {"id": "13", "type": "Feature", "properties": {"village_name": "Angu", "vil_lgd": 263649, "district_name": "Leparada", "dist_lgd": 724, "subdistrict_name": "Basar ADC", "sdcode": 1636, "block_name": "Basar", "block_lgd": 42.0, "gp_name": "", "state_name": "ARUNANCHAL PRADESH", "state_lgd": 12, "population": 135, "households": 30}, "geometry": {"type": "Polygon", "coordinates": [[[94.71095000000001, 27.998410000000003], [94.71052, 27.999330000000004], [94.71165, 27.999840000000003], [94.71220000000001, 27.99883], [94.71095000000001, 27.998410000000003]]]}}, {"id": "14", "type": "Feature", "properties": {"village_name": "Tare", "vil_lgd": 263650, "district_name": "Leparada", "dist_lgd": 724, "subdistrict_name": "Basar ADC", "sdcode": 1636, "block_name": "Basar", "block_lgd": 42.0, "gp_name": "", "state_name": "ARUNANCHAL PRADESH", "state_lgd": 12, "population": 131, "households": 25}, "geometry": {"type": "Polygon", "coordinates": [[[94.7167, 27.995600000000003], [94.71553, 27.996060000000003], [94.71609000000001, 27.99707], [94.71716, 27.996660000000002], [94.7167, 27.995600000000003]]]}}, {"id": "15", "type": "Feature", "properties": {"village_name": "Bumpek", "vil_lgd": 263651, "district_name": "Leparada", "dist_lgd": 724, "subdistrict_name": "Basar ADC", "sdcode": 1636, "block_name": "Basar", "block_lgd": 42.0, "gp_name": "", "state_name": "ARUNANCHAL PRADESH", "state_lgd": 12, "population": 384, "households": 80}, "geometry": {"type": "Polygon", "coordinates": [[[94.70475, 27.999450000000003], [94.70345, 27.999450000000003], [94.70351000000001, 28.000560000000004], [94.70458, 28.00063], [94.70475, 27.999450000000003]]]}}, {"id": "16", "type": "Feature", "properties": {"village_name": "Gori", "vil_lgd": 263652, "district_name": "Leparada", "dist_lgd": 724, "subdistrict_name": "Basar ADC", "sdcode": 1636, "block_name": "Basar", "block_lgd": 42.0, "gp_name": "", "state_name": "ARUNANCHAL PRADESH", "state_lgd": 12, "population": 303, "households": 53}, "geometry": {"type": "Polygon", "coordinates": [[[94.70364000000001, 27.989060000000002], [94.70441000000001, 27.989800000000002], [94.70541000000001, 27.989060000000002], [94.70451000000001, 27.98824], [94.70364000000001, 27.989060000000002]]]}}, {"id": "17", "type": "Feature", "properties": {"village_name": "Pajo", "vil_lgd": 263653, "district_name": "Leparada", "dist_lgd": 724, "subdistrict_name": "Basar ADC", "sdcode": 1636, "block_name": "Basar", "block_lgd": 42.0, "gp_name": "", "state_name": "ARUNANCHAL PRADESH", "state_lgd": 12, "population": 71, "households": 17}, "geometry": {"type": "Polygon", "coordinates": [[[94.73287, 27.995990000000003], [94.73364000000001, 27.996720000000003], [94.73464000000001, 27.995990000000003], [94.73374000000001, 27.99517], [94.73287, 27.995990000000003]]]}}, {"id": "18", "type": "Feature", "properties": {"village_name": "Rete Potu", "vil_lgd": 263654, "district_name": "Leparada", "dist_lgd": 724, "subdistrict_name": "Basar ADC", "sdcode": 1636, "block_name": "Basar", "block_lgd": 42.0, "gp_name": "", "state_name": "ARUNANCHAL PRADESH", "state_lgd": 12, "population": 83, "households": 16}, "geometry": {"type": "Polygon", "coordinates": [[[94.73012000000001, 27.9446], [94.72968, 27.945660000000004], [94.73060000000001, 27.94609], [94.73136000000001, 27.94535], [94.73049, 27.944530000000004], [94.73012000000001, 27.9446]]]}}, {"id": "19", "type": "Feature", "properties": {"village_name": "Kadi", "vil_lgd": 263655, "district_name": "Leparada", "dist_lgd": 724, "subdistrict_name": "Basar ADC", "sdcode": 1636, "block_name": "Basar", "block_lgd": 42.0, "gp_name": "", "state_name": "ARUNANCHAL PRADESH", "state_lgd": 12, "population": 355, "households": 64}, "geometry": {"type": "Polygon", "coordinates": [[[94.76534000000001, 27.9337], [94.76519, 27.93457], [94.76626, 27.934970000000003], [94.76687000000001, 27.93427], [94.766, 27.93345], [94.76534000000001, 27.9337]]]}}, {"id": "20", "type": "Feature", "properties": {"village_name": "Chirne", "vil_lgd": 263656, "district_name": "Leparada", "dist_lgd": 724, "subdistrict_name": "Basar ADC", "sdcode": 1636, "block_name": "Basar", "block_lgd": 42.0, "gp_name": "", "state_name": "ARUNANCHAL PRADESH", "state_lgd": 12, "population": 404, "households": 91}, "geometry": {"type": "Polygon", "coordinates": [[[94.67355, 27.945980000000002], [94.67432000000001, 27.946720000000003], [94.67532000000001, 27.945980000000002], [94.67442000000001, 27.94516], [94.67355, 27.945980000000002]]]}}, {"id": "21", "type": "Feature", "properties": {"village_name": "Nyobom Old Market", "vil_lgd": 263657, "district_name": "Leparada", "dist_lgd": 724, "subdistrict_name": "Basar ADC", "sdcode": 1636, "block_name": "Basar", "block_lgd": 42.0, "gp_name": "", "state_name": "ARUNANCHAL PRADESH", "state_lgd": 12, "population": 861, "households": 182}, "geometry": {"type": "Polygon", "coordinates": [[[94.69751000000001, 27.938940000000002], [94.69833000000001, 27.9398], [94.69928, 27.93906], [94.69850000000001, 27.938240000000004], [94.69751000000001, 27.938940000000002]]]}}, {"id": "22", "type": "Feature", "properties": {"village_name": "Nyodu", "vil_lgd": 263658, "district_name": "Leparada", "dist_lgd": 724, "subdistrict_name": "Basar ADC", "sdcode": 1636, "block_name": "Basar", "block_lgd": 42.0, "gp_name": "", "state_name": "ARUNANCHAL PRADESH", "state_lgd": 12, "population": 291, "households": 46}, "geometry": {"type": "Polygon", "coordinates": [[[94.65729, 27.975080000000002], [94.65806, 27.975820000000002], [94.65906000000001, 27.975080000000002], [94.65816000000001, 27.97426], [94.65729, 27.975080000000002]]]}}, {"id": "23", "type": "Feature", "properties": {"village_name": "Galu", "vil_lgd": 263659, "district_name": "Leparada", "dist_lgd": 724, "subdistrict_name": "Basar ADC", "sdcode": 1636, "block_name": "Basar", "block_lgd": 42.0, "gp_name": "", "state_name": "ARUNANCHAL PRADESH", "state_lgd": 12, "population": 265, "households": 25}, "geometry": {"type": "Polygon", "coordinates": [[[94.67118, 27.959030000000002], [94.67152, 27.959950000000003], [94.67281000000001, 27.959640000000004], [94.67202, 27.958520000000004], [94.67118, 27.959030000000002]]]}}, {"id": "24", "type": "Feature", "properties": {"village_name": "Siru", "vil_lgd": 263660, "district_name": "Leparada", "dist_lgd": 724, "subdistrict_name": "Basar ADC", "sdcode": 1636, "block_name": "Basar", "block_lgd": 42.0, "gp_name": "", "state_name": "ARUNANCHAL PRADESH", "state_lgd": 12, "population": 49, "households": 9}, "geometry": {"type": "Polygon", "coordinates": [[[94.58262, 27.96207], [94.58203, 27.96308], [94.58288, 27.963610000000003], [94.58377, 27.962770000000003], [94.58301, 27.96205], [94.58262, 27.96207]]]}}, {"id": "25", "type": "Feature", "properties": {"village_name": "Sibe", "vil_lgd": 263661, "district_name": "Leparada", "dist_lgd": 724, "subdistrict_name": "Basar ADC", "sdcode": 1636, "block_name": "Basar", "block_lgd": 42.0, "gp_name": "", "state_name": "ARUNANCHAL PRADESH", "state_lgd": 12, "population": 52, "households": 10}, "geometry": {"type": "Polygon", "coordinates": [[[94.62934000000001, 27.96778], [94.63011, 27.968510000000002], [94.63111, 27.96778], [94.63021, 27.966960000000004], [94.62934000000001, 27.96778]]]}}, {"id": "26", "type": "Feature", "properties": {"village_name": "Kamdak", "vil_lgd": 263662, "district_name": "Leparada", "dist_lgd": 724, "subdistrict_name": "Basar ADC", "sdcode": 1636, "block_name": "Basar", "block_lgd": 42.0, "gp_name": "", "state_name": "ARUNANCHAL PRADESH", "state_lgd": 12, "population": 38, "households": 10}, "geometry": {"type": "Polygon", "coordinates": [[[94.70623, 27.94319], [94.70685, 27.943890000000003], [94.70800000000001, 27.94319], [94.70710000000001, 27.942370000000004], [94.70623, 27.94319]]]}}, {"id": "27", "type": "Feature", "properties": {"village_name": "Taba Everest", "vil_lgd": 263663, "district_name": "Leparada", "dist_lgd": 724, "subdistrict_name": "Basar ADC", "sdcode": 1636, "block_name": "Basar", "block_lgd": 42.0, "gp_name": "", "state_name": "ARUNANCHAL PRADESH", "state_lgd": 12, "population": 74, "households": 19}, "geometry": {"type": "Polygon", "coordinates": [[[94.71759, 27.934320000000003], [94.71716, 27.935370000000002], [94.71823, 27.93578], [94.71884000000001, 27.935070000000003], [94.71797000000001, 27.934250000000002], [94.71759, 27.934320000000003]]]}}, {"id": "28", "type": "Feature", "properties": {"village_name": "Nyigam", "vil_lgd": 263664, "district_name": "Leparada", "dist_lgd": 724, "subdistrict_name": "Basar ADC", "sdcode": 1636, "block_name": "Basar", "block_lgd": 42.0, "gp_name": "", "state_name": "ARUNANCHAL PRADESH", "state_lgd": 12, "population": 856, "households": 135}, "geometry": {"type": "Polygon", "coordinates": [[[94.69484000000001, 27.954990000000002], [94.69508, 27.955840000000002], [94.69647, 27.95559], [94.69566, 27.95447], [94.69484000000001, 27.954990000000002]]]}}, {"id": "29", "type": "Feature", "properties": {"village_name": "Pagi", "vil_lgd": 263665, "district_name": "Leparada", "dist_lgd": 724, "subdistrict_name": "Basar ADC", "sdcode": 1636, "block_name": "Basar", "block_lgd": 42.0, "gp_name": "", "state_name": "ARUNANCHAL PRADESH", "state_lgd": 12, "population": 402, "households": 88}, "geometry": {"type": "Polygon", "coordinates": [[[94.72963000000001, 27.958180000000002], [94.73018, 27.959190000000003], [94.7313, 27.95868], [94.73056000000001, 27.957670000000004], [94.72963000000001, 27.958180000000002]]]}}, {"id": "30", "type": "Feature", "properties": {"village_name": "Disi", "vil_lgd": 263666, "district_name": "Leparada", "dist_lgd": 724, "subdistrict_name": "Basar ADC", "sdcode": 1636, "block_name": "Basar", "block_lgd": 42.0, "gp_name": "", "state_name": "ARUNANCHAL PRADESH", "state_lgd": 12, "population": 287, "households": 46}, "geometry": {"type": "Polygon", "coordinates": [[[94.75397000000001, 27.949040000000004], [94.75544000000001, 27.94959], [94.75569, 27.94873], [94.75487000000001, 27.948220000000003], [94.75397000000001, 27.949040000000004]]]}}, {"id": "31", "type": "Feature", "properties": {"village_name": "Regi", "vil_lgd": 263667, "district_name": "Leparada", "dist_lgd": 724, "subdistrict_name": "Basar ADC", "sdcode": 1636, "block_name": "Basar", "block_lgd": 42.0, "gp_name": "", "state_name": "ARUNANCHAL PRADESH", "state_lgd": 12, "population": 235, "households": 46}, "geometry": {"type": "Polygon", "coordinates": [[[94.69027000000001, 27.96713], [94.69164, 27.967740000000003], [94.69198, 27.966820000000002], [94.69114, 27.966310000000004], [94.69027000000001, 27.96713]]]}}, {"id": "32", "type": "Feature", "properties": {"village_name": "Soi", "vil_lgd": 263668, "district_name": "Leparada", "dist_lgd": 724, "subdistrict_name": "Basar ADC", "sdcode": 1636, "block_name": "Basar", "block_lgd": 42.0, "gp_name": "", "state_name": "ARUNANCHAL PRADESH", "state_lgd": 12, "population": 242, "households": 38}, "geometry": {"type": "Polygon", "coordinates": [[[94.72321000000001, 28.00474], [94.72234, 28.005560000000003], [94.72311, 28.006300000000003], [94.72411000000001, 28.005560000000003], [94.72321000000001, 28.00474]]]}}, {"id": "33", "type": "Feature", "properties": {"village_name": "Echi Chiku", "vil_lgd": 263669, "district_name": "Leparada", "dist_lgd": 724, "subdistrict_name": "Basar ADC", "sdcode": 1636, "block_name": "Basar", "block_lgd": 42.0, "gp_name": "", "state_name": "ARUNANCHAL PRADESH", "state_lgd": 12, "population": 259, "households": 46}, "geometry": {"type": "Polygon", "coordinates": [[[94.75901, 28.002150000000004], [94.75857, 28.003200000000003], [94.75967000000001, 28.003600000000002], [94.76020000000001, 28.0026], [94.75939000000001, 28.002080000000003], [94.75901, 28.002150000000004]]]}}, {"id": "34", "type": "Feature", "properties": {"village_name": "Lipu Namchi", "vil_lgd": 263670, "district_name": "Leparada", "dist_lgd": 724, "subdistrict_name": "Basar ADC", "sdcode": 1636, "block_name": "Basar", "block_lgd": 42.0, "gp_name": "", "state_name": "ARUNANCHAL PRADESH", "state_lgd": 12, "population": 141, "households": 27}, "geometry": {"type": "Polygon", "coordinates": [[[94.74418000000001, 28.007990000000003], [94.74518, 28.008730000000003], [94.74595000000001, 28.007990000000003], [94.74508, 28.007170000000002], [94.74418000000001, 28.007990000000003]]]}}, {"id": "35", "type": "Feature", "properties": {"village_name": "Sago", "vil_lgd": 263671, "district_name": "Leparada", "dist_lgd": 724, "subdistrict_name": "Basar ADC", "sdcode": 1636, "block_name": "Basar", "block_lgd": 42.0, "gp_name": "", "state_name": "ARUNANCHAL PRADESH", "state_lgd": 12, "population": 262, "households": 54}, "geometry": {"type": "Polygon", "coordinates": [[[94.79674000000001, 27.984550000000002], [94.79774, 27.985290000000003], [94.79851000000001, 27.984550000000002], [94.79761, 27.98373], [94.79674000000001, 27.984550000000002]]]}}, {"id": "36", "type": "Feature", "properties": {"village_name": "Piri", "vil_lgd": 263672, "district_name": "Leparada", "dist_lgd": 724, "subdistrict_name": "Basar ADC", "sdcode": 1636, "block_name": "Basar", "block_lgd": 42.0, "gp_name": "", "state_name": "ARUNANCHAL PRADESH", "state_lgd": 12, "population": 325, "households": 34}, "geometry": {"type": "Polygon", "coordinates": [[[94.83717000000001, 27.978080000000002], [94.83673, 27.97914], [94.8378, 27.979540000000004], [94.83841000000001, 27.978830000000002], [94.83754, 27.97801], [94.83717000000001, 27.978080000000002]]]}}, {"id": "37", "type": "Feature", "properties": {"village_name": "Ego Yamin", "vil_lgd": 263673, "district_name": "Leparada", "dist_lgd": 724, "subdistrict_name": "Basar ADC", "sdcode": 1636, "block_name": "Basar", "block_lgd": 42.0, "gp_name": "", "state_name": "ARUNANCHAL PRADESH", "state_lgd": 12, "population": 300, "households": 53}, "geometry": {"type": "Polygon", "coordinates": [[[94.76858000000001, 27.99255], [94.7694, 27.99341], [94.77035000000001, 27.992670000000004], [94.7694, 27.991850000000003], [94.76858000000001, 27.99255]]]}}, {"id": "38", "type": "Feature", "properties": {"village_name": "Basar Nt", "vil_lgd": 249706, "district_name": "Leparada", "dist_lgd": 724, "subdistrict_name": "Basar ADC", "sdcode": 1636, "block_name": "", "block_lgd": 0.0, "gp_name": "", "state_name": "ARUNANCHAL PRADESH", "state_lgd": 12, "population": 4284, "households": 1064}, "geometry": {"type": "Polygon", "coordinates": [[[94.67431, 27.975640000000002], [94.67507, 27.976380000000002], [94.67607000000001, 27.975640000000002], [94.67517000000001, 27.97482], [94.67431, 27.975640000000002]]]}}, {"id": "39", "type": "Feature", "properties": {"village_name": "Dali", "vil_lgd": 263675, "district_name": "Leparada", "dist_lgd": 724, "subdistrict_name": "Daring Circle", "sdcode": 1637, "block_name": "Basar", "block_lgd": 42.0, "gp_name": "", "state_name": "ARUNANCHAL PRADESH", "state_lgd": 12, "population": 142, "households": 29}, "geometry": {"type": "Polygon", "coordinates": [[[94.76926, 27.882220000000004], [94.77003, 27.88296], [94.77103000000001, 27.882220000000004], [94.77013000000001, 27.881400000000003], [94.76926, 27.882220000000004]]]}}, {"id": "40", "type": "Feature", "properties": {"village_name": "Chisi", "vil_lgd": 263676, "district_name": "Leparada", "dist_lgd": 724, "subdistrict_name": "Daring Circle", "sdcode": 1637, "block_name": "Basar", "block_lgd": 42.0, "gp_name": "", "state_name": "ARUNANCHAL PRADESH", "state_lgd": 12, "population": 166, "households": 31}, "geometry": {"type": "Polygon", "coordinates": [[[94.75533, 27.893400000000003], [94.75489, 27.894450000000003], [94.75596, 27.89486], [94.75658000000001, 27.894150000000003], [94.75571000000001, 27.893330000000002], [94.75533, 27.893400000000003]]]}}, {"id": "41", "type": "Feature", "properties": {"village_name": "New Daring", "vil_lgd": 263677, "district_name": "Leparada", "dist_lgd": 724, "subdistrict_name": "Daring Circle", "sdcode": 1637, "block_name": "Basar", "block_lgd": 42.0, "gp_name": "", "state_name": "ARUNANCHAL PRADESH", "state_lgd": 12, "population": 358, "households": 63}, "geometry": {"type": "Polygon", "coordinates": [[[94.82001000000001, 27.878760000000003], [94.81946, 27.879530000000003], [94.82041000000001, 27.880270000000003], [94.82122000000001, 27.879410000000004], [94.82041000000001, 27.87871], [94.82001000000001, 27.878760000000003]]]}}, {"id": "42", "type": "Feature", "properties": {"village_name": "Echi Siku Edijog", "vil_lgd": 263678, "district_name": "Leparada", "dist_lgd": 724, "subdistrict_name": "Daring Circle", "sdcode": 1637, "block_name": "Basar", "block_lgd": 42.0, "gp_name": "", "state_name": "ARUNANCHAL PRADESH", "state_lgd": 12, "population": 65, "households": 15}, "geometry": {"type": "Polygon", "coordinates": [[[94.81280000000001, 27.904400000000003], [94.81357000000001, 27.905140000000003], [94.81457, 27.904400000000003], [94.81367, 27.90358], [94.81280000000001, 27.904400000000003]]]}}, {"id": "43", "type": "Feature", "properties": {"village_name": "Tapo", "vil_lgd": 263679, "district_name": "Leparada", "dist_lgd": 724, "subdistrict_name": "Daring Circle", "sdcode": 1637, "block_name": "Basar", "block_lgd": 42.0, "gp_name": "", "state_name": "ARUNANCHAL PRADESH", "state_lgd": 12, "population": 158, "households": 27}, "geometry": {"type": "Polygon", "coordinates": [[[94.80419, 27.85104], [94.80376000000001, 27.852090000000004], [94.80468, 27.85253], [94.80544, 27.85179], [94.80457000000001, 27.850970000000004], [94.80419, 27.85104]]]}}, {"id": "44", "type": "Feature", "properties": {"village_name": "Rilu", "vil_lgd": 263680, "district_name": "Leparada", "dist_lgd": 724, "subdistrict_name": "Daring Circle", "sdcode": 1637, "block_name": "Basar", "block_lgd": 42.0, "gp_name": "", "state_name": "ARUNANCHAL PRADESH", "state_lgd": 12, "population": 206, "households": 46}, "geometry": {"type": "Polygon", "coordinates": [[[94.78105000000001, 27.843890000000002], [94.78181000000001, 27.844630000000002], [94.78282, 27.843890000000002], [94.78192000000001, 27.84307], [94.78105000000001, 27.843890000000002]]]}}, {"id": "45", "type": "Feature", "properties": {"village_name": "Old Daring", "vil_lgd": 263681, "district_name": "Leparada", "dist_lgd": 724, "subdistrict_name": "Daring Circle", "sdcode": 1637, "block_name": "Basar", "block_lgd": 42.0, "gp_name": "", "state_name": "ARUNANCHAL PRADESH", "state_lgd": 12, "population": 358, "households": 70}, "geometry": {"type": "Polygon", "coordinates": [[[94.80629, 27.862470000000002], [94.80585, 27.86353], [94.80692, 27.863930000000003], [94.80753000000001, 27.863220000000002], [94.80666000000001, 27.8624], [94.80629, 27.862470000000002]]]}}, {"id": "46", "type": "Feature", "properties": {"village_name": "Zirdo", "vil_lgd": 263682, "district_name": "Leparada", "dist_lgd": 724, "subdistrict_name": "Daring Circle", "sdcode": 1637, "block_name": "Basar", "block_lgd": 42.0, "gp_name": "", "state_name": "ARUNANCHAL PRADESH", "state_lgd": 12, "population": 197, "households": 39}, "geometry": {"type": "Polygon", "coordinates": [[[94.86067000000001, 27.895580000000002], [94.86023, 27.89664], [94.86115000000001, 27.897070000000003], [94.86192000000001, 27.896340000000002], [94.86105, 27.89551], [94.86067000000001, 27.895580000000002]]]}}, {"id": "47", "type": "Feature", "properties": {"village_name": "Jime", "vil_lgd": 263683, "district_name": "Leparada", "dist_lgd": 724, "subdistrict_name": "Daring Circle", "sdcode": 1637, "block_name": "Basar", "block_lgd": 42.0, "gp_name": "", "state_name": "ARUNANCHAL PRADESH", "state_lgd": 12, "population": 91, "households": 17}, "geometry": {"type": "Polygon", "coordinates": [[[94.88990000000001, 27.87731], [94.89149, 27.87731], [94.89071000000001, 27.87619], [94.88990000000001, 27.87731]]]}}, {"id": "48", "type": "Feature", "properties": {"village_name": "Dali Camp Including Dali Hydel", "vil_lgd": 263684, "district_name": "Leparada", "dist_lgd": 724, "subdistrict_name": "Daring Circle", "sdcode": 1637, "block_name": "Basar", "block_lgd": 42.0, "gp_name": "", "state_name": "ARUNANCHAL PRADESH", "state_lgd": 12, "population": 91, "households": 25}, "geometry": {"type": "Polygon", "coordinates": [[[94.76298000000001, 27.8881], [94.76375, 27.888840000000002], [94.76475, 27.8881], [94.76388000000001, 27.88728], [94.76298000000001, 27.8881]]]}}, {"id": "49", "type": "Feature", "properties": {"village_name": "Ego Camp", "vil_lgd": 263685, "district_name": "Leparada", "dist_lgd": 724, "subdistrict_name": "Daring Circle", "sdcode": 1637, "block_name": "Basar", "block_lgd": 42.0, "gp_name": "", "state_name": "ARUNANCHAL PRADESH", "state_lgd": 12, "population": 108, "households": 24}, "geometry": {"type": "Polygon", "coordinates": [[[94.79107, 27.870040000000003], [94.79064000000001, 27.871090000000002], [94.79156, 27.871530000000003], [94.79232, 27.870790000000003], [94.79145000000001, 27.869970000000002], [94.79107, 27.870040000000003]]]}}, {"id": "50", "type": "Feature", "properties": {"village_name": "Basar Hq", "vil_lgd": 263648, "district_name": "Leparada", "dist_lgd": 724, "subdistrict_name": "Basar ADC", "sdcode": 1636, "block_name": "Basar", "block_lgd": 42.0, "gp_name": "", "state_name": "ARUNANCHAL PRADESH", "state_lgd": 12, "population": 0, "households": 0}, "geometry": {"type": "Polygon", "coordinates": [[[94.68391000000001, 27.974010000000003], [94.68397, 27.975130000000004], [94.68496, 27.975240000000003], [94.68544000000001, 27.97446], [94.68466000000001, 27.973760000000002], [94.68391000000001, 27.974010000000003]]]}}, {"id": "51", "type": "Feature", "properties": {"village_name": "Sodo Doke", "vil_lgd": 263614, "district_name": "Leparada", "dist_lgd": 724, "subdistrict_name": "Tirbin EAC", "sdcode": 1635, "block_name": "Tirbin", "block_lgd": 41.0, "gp_name": "", "state_name": "ARUNANCHAL PRADESH", "state_lgd": 12, "population": 242, "households": 37}, "geometry": {"type": "Polygon", "coordinates": [[[94.6323, 28.036430000000003], [94.63264000000001, 28.037340000000004], [94.63393, 28.03703], [94.63314000000001, 28.03591], [94.6323, 28.036430000000003]]]}}, {"id": "52", "type": "Feature", "properties": {"village_name": "Ragi Doke", "vil_lgd": 263615, "district_name": "Leparada", "dist_lgd": 724, "subdistrict_name": "Tirbin EAC", "sdcode": 1635, "block_name": "Tirbin", "block_lgd": 41.0, "gp_name": "", "state_name": "ARUNANCHAL PRADESH", "state_lgd": 12, "population": 290, "households": 38}, "geometry": {"type": "Polygon", "coordinates": [[[94.61852, 28.03196], [94.61893, 28.033030000000004], [94.62016000000001, 28.032570000000003], [94.61945000000001, 28.031550000000003], [94.61852, 28.03196]]]}}, {"id": "53", "type": "Feature", "properties": {"village_name": "Dedu Doke", "vil_lgd": 263616, "district_name": "Leparada", "dist_lgd": 724, "subdistrict_name": "Tirbin EAC", "sdcode": 1635, "block_name": "Tirbin", "block_lgd": 41.0, "gp_name": "", "state_name": "ARUNANCHAL PRADESH", "state_lgd": 12, "population": 162, "households": 19}, "geometry": {"type": "Polygon", "coordinates": [[[94.61406000000001, 28.0286], [94.61418, 28.029480000000003], [94.61524000000001, 28.029670000000003], [94.61574, 28.028900000000004], [94.61498, 28.028190000000002], [94.61406000000001, 28.0286]]]}}, {"id": "54", "type": "Feature", "properties": {"village_name": "Moba Doke", "vil_lgd": 263617, "district_name": "Leparada", "dist_lgd": 724, "subdistrict_name": "Tirbin EAC", "sdcode": 1635, "block_name": "Tirbin", "block_lgd": 41.0, "gp_name": "", "state_name": "ARUNANCHAL PRADESH", "state_lgd": 12, "population": 135, "households": 27}, "geometry": {"type": "Polygon", "coordinates": [[[94.60556000000001, 28.025440000000003], [94.60497000000001, 28.02644], [94.60582000000001, 28.026980000000002], [94.60671, 28.026130000000002], [94.60595, 28.025420000000004], [94.60556000000001, 28.025440000000003]]]}}, {"id": "55", "type": "Feature", "properties": {"village_name": "Kagi", "vil_lgd": 263618, "district_name": "Leparada", "dist_lgd": 724, "subdistrict_name": "Tirbin EAC", "sdcode": 1635, "block_name": "Tirbin", "block_lgd": 41.0, "gp_name": "", "state_name": "ARUNANCHAL PRADESH", "state_lgd": 12, "population": 166, "households": 23}, "geometry": {"type": "Polygon", "coordinates": [[[94.59713, 28.04379], [94.59726, 28.044670000000004], [94.59877, 28.044400000000003], [94.59806, 28.043380000000003], [94.59713, 28.04379]]]}}, {"id": "56", "type": "Feature", "properties": {"village_name": "Old Takom", "vil_lgd": 263619, "district_name": "Leparada", "dist_lgd": 724, "subdistrict_name": "Tirbin EAC", "sdcode": 1635, "block_name": "Tirbin", "block_lgd": 41.0, "gp_name": "", "state_name": "ARUNANCHAL PRADESH", "state_lgd": 12, "population": 160, "households": 19}, "geometry": {"type": "Polygon", "coordinates": [[[94.58696, 28.046390000000002], [94.58709, 28.04727], [94.58860000000001, 28.047], [94.58789, 28.045980000000004], [94.58696, 28.046390000000002]]]}}, {"id": "57", "type": "Feature", "properties": {"village_name": "Deke", "vil_lgd": 263621, "district_name": "Leparada", "dist_lgd": 724, "subdistrict_name": "Tirbin EAC", "sdcode": 1635, "block_name": "Tirbin", "block_lgd": 41.0, "gp_name": "", "state_name": "ARUNANCHAL PRADESH", "state_lgd": 12, "population": 275, "households": 40}, "geometry": {"type": "Polygon", "coordinates": [[[94.57031, 28.043910000000004], [94.57183, 28.04418], [94.57129, 28.042890000000003], [94.57031, 28.043910000000004]]]}}, {"id": "58", "type": "Feature", "properties": {"village_name": "Degom", "vil_lgd": 263622, "district_name": "Leparada", "dist_lgd": 724, "subdistrict_name": "Tirbin EAC", "sdcode": 1635, "block_name": "Tirbin", "block_lgd": 41.0, "gp_name": "", "state_name": "ARUNANCHAL PRADESH", "state_lgd": 12, "population": 130, "households": 15}, "geometry": {"type": "Polygon", "coordinates": [[[94.57909000000001, 28.047990000000002], [94.57846, 28.04868], [94.57927000000001, 28.04952], [94.58024, 28.04869], [94.57949, 28.047970000000003], [94.57909000000001, 28.047990000000002]]]}}, {"id": "59", "type": "Feature", "properties": {"village_name": "Jirigi New Takom", "vil_lgd": 263623, "district_name": "Leparada", "dist_lgd": 724, "subdistrict_name": "Tirbin EAC", "sdcode": 1635, "block_name": "Tirbin", "block_lgd": 41.0, "gp_name": "", "state_name": "ARUNANCHAL PRADESH", "state_lgd": 12, "population": 115, "households": 14}, "geometry": {"type": "Polygon", "coordinates": [[[94.59728000000001, 28.052880000000002], [94.59670000000001, 28.053880000000003], [94.59755000000001, 28.054420000000004], [94.59844000000001, 28.05357], [94.59768000000001, 28.052860000000003], [94.59728000000001, 28.052880000000002]]]}}, {"id": "60", "type": "Feature", "properties": {"village_name": "Lama Doke", "vil_lgd": 263624, "district_name": "Leparada", "dist_lgd": 724, "subdistrict_name": "Tirbin EAC", "sdcode": 1635, "block_name": "Tirbin", "block_lgd": 41.0, "gp_name": "", "state_name": "ARUNANCHAL PRADESH", "state_lgd": 12, "population": 79, "households": 10}, "geometry": {"type": "Polygon", "coordinates": [[[94.56904, 28.04653], [94.57005000000001, 28.047240000000002], [94.57081000000001, 28.046540000000004], [94.57002000000001, 28.04567], [94.56904, 28.04653]]]}}, {"id": "61", "type": "Feature", "properties": {"village_name": "Chekor Lombi", "vil_lgd": 263625, "district_name": "Leparada", "dist_lgd": 724, "subdistrict_name": "Tirbin EAC", "sdcode": 1635, "block_name": "Tirbin", "block_lgd": 41.0, "gp_name": "", "state_name": "ARUNANCHAL PRADESH", "state_lgd": 12, "population": 332, "households": 57}, "geometry": {"type": "Polygon", "coordinates": [[[94.58382, 28.01715], [94.58432, 28.017920000000004], [94.58532000000001, 28.01779], [94.58554000000001, 28.016920000000002], [94.58449, 28.016450000000003], [94.58382, 28.01715]]]}}, {"id": "62", "type": "Feature", "properties": {"village_name": "Pira", "vil_lgd": 263626, "district_name": "Leparada", "dist_lgd": 724, "subdistrict_name": "Tirbin EAC", "sdcode": 1635, "block_name": "Tirbin", "block_lgd": 41.0, "gp_name": "", "state_name": "ARUNANCHAL PRADESH", "state_lgd": 12, "population": 226, "households": 40}, "geometry": {"type": "Polygon", "coordinates": [[[94.58768, 28.00983], [94.5871, 28.010830000000002], [94.58794, 28.011370000000003], [94.58884, 28.010520000000003], [94.58808, 28.00981], [94.58768, 28.00983]]]}}, {"id": "63", "type": "Feature", "properties": {"village_name": "Tirbin Hq", "vil_lgd": 263630, "district_name": "Leparada", "dist_lgd": 724, "subdistrict_name": "Tirbin EAC", "sdcode": 1635, "block_name": "Tirbin", "block_lgd": 41.0, "gp_name": "", "state_name": "ARUNANCHAL PRADESH", "state_lgd": 12, "population": 1016, "households": 192}, "geometry": {"type": "Polygon", "coordinates": [[[94.57479000000001, 28.035200000000003], [94.57568, 28.036040000000003], [94.57657, 28.035200000000003], [94.57581, 28.034480000000002], [94.57479000000001, 28.035200000000003]]]}}, {"id": "64", "type": "Feature", "properties": {"village_name": "Gako Dapo", "vil_lgd": 263631, "district_name": "Leparada", "dist_lgd": 724, "subdistrict_name": "Tirbin EAC", "sdcode": 1635, "block_name": "Tirbin", "block_lgd": 41.0, "gp_name": "", "state_name": "ARUNANCHAL PRADESH", "state_lgd": 12, "population": 195, "households": 27}, "geometry": {"type": "Polygon", "coordinates": [[[94.5716, 28.026280000000003], [94.57312, 28.026550000000004], [94.57324000000001, 28.025660000000002], [94.57232, 28.025250000000003], [94.5716, 28.026280000000003]]]}}, {"id": "65", "type": "Feature", "properties": {"village_name": "Essi Rite", "vil_lgd": 263632, "district_name": "Leparada", "dist_lgd": 724, "subdistrict_name": "Tirbin EAC", "sdcode": 1635, "block_name": "Tirbin", "block_lgd": 41.0, "gp_name": "", "state_name": "ARUNANCHAL PRADESH", "state_lgd": 12, "population": 165, "households": 27}, "geometry": {"type": "Polygon", "coordinates": [[[94.53828000000001, 28.03461], [94.53917000000001, 28.03545], [94.54006000000001, 28.03461], [94.53930000000001, 28.033900000000003], [94.53828000000001, 28.03461]]]}}, {"id": "66", "type": "Feature", "properties": {"village_name": "Essi Riche", "vil_lgd": 263633, "district_name": "Leparada", "dist_lgd": 724, "subdistrict_name": "Tirbin EAC", "sdcode": 1635, "block_name": "Tirbin", "block_lgd": 41.0, "gp_name": "", "state_name": "ARUNANCHAL PRADESH", "state_lgd": 12, "population": 74, "households": 12}, "geometry": {"type": "Polygon", "coordinates": [[[94.53683000000001, 28.039140000000003], [94.53636, 28.040190000000003], [94.53735, 28.040640000000003], [94.53801000000001, 28.03958], [94.53683000000001, 28.039140000000003]]]}}, {"id": "67", "type": "Feature", "properties": {"village_name": "Essi Bege", "vil_lgd": 263634, "district_name": "Leparada", "dist_lgd": 724, "subdistrict_name": "Tirbin EAC", "sdcode": 1635, "block_name": "Tirbin", "block_lgd": 41.0, "gp_name": "", "state_name": "ARUNANCHAL PRADESH", "state_lgd": 12, "population": 82, "households": 14}, "geometry": {"type": "Polygon", "coordinates": [[[94.52789000000001, 28.042250000000003], [94.52743000000001, 28.043300000000002], [94.52841000000001, 28.043740000000003], [94.52913000000001, 28.042990000000003], [94.52824000000001, 28.04219], [94.52789000000001, 28.042250000000003]]]}}, {"id": "68", "type": "Feature", "properties": {"village_name": "Essi Yordo", "vil_lgd": 263635, "district_name": "Leparada", "dist_lgd": 724, "subdistrict_name": "Tirbin EAC", "sdcode": 1635, "block_name": "Tirbin", "block_lgd": 41.0, "gp_name": "", "state_name": "ARUNANCHAL PRADESH", "state_lgd": 12, "population": 62, "households": 10}, "geometry": {"type": "Polygon", "coordinates": [[[94.53208000000001, 28.045810000000003], [94.53115000000001, 28.04622], [94.53156000000001, 28.047290000000004], [94.53262000000001, 28.047100000000004], [94.53252, 28.045980000000004], [94.53208000000001, 28.045810000000003]]]}}, {"id": "69", "type": "Feature", "properties": {"village_name": "Essi Yegri", "vil_lgd": 263636, "district_name": "Leparada", "dist_lgd": 724, "subdistrict_name": "Tirbin EAC", "sdcode": 1635, "block_name": "Tirbin", "block_lgd": 41.0, "gp_name": "", "state_name": "ARUNANCHAL PRADESH", "state_lgd": 12, "population": 181, "households": 39}, "geometry": {"type": "Polygon", "coordinates": [[[94.53866000000001, 28.02831], [94.53955, 28.02916], [94.54044, 28.02831], [94.53942, 28.027600000000003], [94.53866000000001, 28.02831]]]}}, {"id": "70", "type": "Feature", "properties": {"village_name": "Essi Lite", "vil_lgd": 263637, "district_name": "Leparada", "dist_lgd": 724, "subdistrict_name": "Tirbin EAC", "sdcode": 1635, "block_name": "Tirbin", "block_lgd": 41.0, "gp_name": "", "state_name": "ARUNANCHAL PRADESH", "state_lgd": 12, "population": 62, "households": 9}, "geometry": {"type": "Polygon", "coordinates": [[[94.54893000000001, 28.043590000000002], [94.54982000000001, 28.044430000000002], [94.55071000000001, 28.043590000000002], [94.54995000000001, 28.04287], [94.54893000000001, 28.043590000000002]]]}}, {"id": "71", "type": "Feature", "properties": {"village_name": "Ratak Gamlin", "vil_lgd": 263638, "district_name": "Leparada", "dist_lgd": 724, "subdistrict_name": "Tirbin EAC", "sdcode": 1635, "block_name": "Tirbin", "block_lgd": 41.0, "gp_name": "", "state_name": "ARUNANCHAL PRADESH", "state_lgd": 12, "population": 282, "households": 58}, "geometry": {"type": "Polygon", "coordinates": [[[94.51725, 28.024420000000003], [94.51845, 28.024800000000003], [94.51886, 28.023730000000004], [94.51785000000001, 28.02334], [94.51725, 28.024420000000003]]]}}, {"id": "72", "type": "Feature", "properties": {"village_name": "New Bam", "vil_lgd": 263645, "district_name": "Leparada", "dist_lgd": 724, "subdistrict_name": "Basar ADC", "sdcode": 1636, "block_name": "Basar", "block_lgd": 42.0, "gp_name": "", "state_name": "ARUNANCHAL PRADESH", "state_lgd": 12, "population": 237, "households": 28}, "geometry": {"type": "Polygon", "coordinates": [[[94.68122000000001, 28.01349], [94.68002000000001, 28.01394], [94.68036000000001, 28.014850000000003], [94.68165, 28.014540000000004], [94.68122000000001, 28.01349]]]}}, {"id": "73", "type": "Feature", "properties": {"village_name": "Lipu Bam", "vil_lgd": 263647, "district_name": "Leparada", "dist_lgd": 724, "subdistrict_name": "Basar ADC", "sdcode": 1636, "block_name": "Basar", "block_lgd": 42.0, "gp_name": "", "state_name": "ARUNANCHAL PRADESH", "state_lgd": 12, "population": 76, "households": 14}, "geometry": {"type": "Polygon", "coordinates": [[[94.68025, 28.02633], [94.68102, 28.027070000000002], [94.68202000000001, 28.02633], [94.68115, 28.02551], [94.68025, 28.02633]]]}}, {"id": "74", "type": "Feature", "properties": {"village_name": "Data Partially Available", "vil_lgd": 999999, "district_name": "Leparada", "dist_lgd": 724, "subdistrict_name": "Daring Circle", "sdcode": 1637, "block_name": "", "block_lgd": null, "gp_name": "", "state_name": "ARUNANCHAL PRADESH", "state_lgd": 12, "population": 0, "households": 0}, "geometry": {"type": "Polygon", "coordinates": [[[94.87400000000001, 27.935360000000003], [94.87180000000001, 27.932060000000003], [94.87144, 27.927730000000004], [94.8679, 27.922860000000004], [94.86608000000001, 27.918680000000002], [94.86630000000001, 27.914160000000003], [94.87111, 27.909250000000004], [94.87183, 27.90668], [94.87764000000001, 27.90302], [94.87785000000001, 27.900360000000003], [94.87653, 27.896910000000002], [94.87708, 27.89572], [94.88396, 27.894940000000002], [94.88770000000001, 27.88707], [94.8952, 27.885130000000004], [94.89808000000001, 27.879160000000002], [94.90169, 27.877630000000003], [94.90108000000001, 27.874640000000003], [94.90623000000001, 27.86661], [94.90469, 27.86521], [94.90580000000001, 27.861060000000002], [94.90956000000001, 27.859530000000003], [94.91562, 27.86033], [94.92261, 27.862420000000004], [94.92519000000001, 27.86126], [94.92619, 27.85948], [94.92597, 27.857080000000003], [94.92321000000001, 27.852000000000004], [94.92020000000001, 27.851820000000004], [94.91856000000001, 27.84993], [94.91601000000001, 27.8487], [94.91398000000001, 27.84606], [94.91002, 27.8438], [94.90408000000001, 27.8426], [94.90179, 27.84099], [94.90109000000001, 27.83931], [94.90151, 27.838140000000003], [94.90651000000001, 27.83621], [94.90682000000001, 27.83538], [94.89838, 27.827980000000004], [94.89987, 27.825470000000003], [94.89918, 27.82259], [94.86375000000001, 27.810800000000004], [94.83876000000001, 27.80366], [94.80902, 27.78581], [94.76881, 27.77391], [94.74596000000001, 27.77296], [94.73645, 27.783430000000003], [94.72407000000001, 27.794850000000004], [94.71741, 27.825070000000004], [94.70194000000001, 27.834590000000002], [94.68529000000001, 27.84054], [94.66625, 27.84411], [94.64603000000001, 27.850060000000003], [94.63175000000001, 27.86671], [94.59484, 27.870710000000003], [94.59454000000001, 27.88099], [94.59293000000001, 27.890040000000003], [94.58806000000001, 27.892640000000004], [94.5801, 27.894340000000003], [94.58611, 27.898650000000004], [94.59467000000001, 27.901510000000002], [94.60303, 27.902680000000004], [94.62414000000001, 27.91024], [94.63137, 27.91008], [94.6422, 27.911920000000002], [94.64905, 27.91495], [94.65875000000001, 27.91738], [94.66974, 27.918440000000004], [94.67848000000001, 27.917780000000004], [94.68375, 27.918440000000004], [94.70333000000001, 27.925230000000003], [94.71989, 27.92922], [94.72848, 27.930950000000003], [94.73525000000001, 27.930950000000003], [94.75212, 27.93361], [94.76010000000001, 27.933480000000003], [94.76567000000001, 27.931620000000002], [94.76748, 27.93015], [94.77094000000001, 27.929620000000003], [94.77380000000001, 27.928290000000004], [94.78013000000001, 27.921640000000004], [94.78465000000001, 27.91831], [94.78947000000001, 27.91645], [94.79700000000001, 27.916050000000002], [94.80528000000001, 27.917250000000003], [94.81477000000001, 27.9219], [94.82711, 27.929750000000002], [94.83434000000001, 27.93521], [94.83871, 27.940130000000003], [94.84835000000001, 27.94798], [94.85317, 27.949980000000004], [94.85829000000001, 27.950640000000003], [94.86296, 27.950110000000002], [94.87274000000001, 27.94346], [94.87871000000001, 27.93822], [94.87400000000001, 27.935360000000003]], [[94.81457, 27.904400000000003], [94.81357000000001, 27.905140000000003], [94.81280000000001, 27.904400000000003], [94.81367, 27.90358], [94.81457, 27.904400000000003]], [[94.86105, 27.89551], [94.86192000000001, 27.896340000000002], [94.86115000000001, 27.897070000000003], [94.86023, 27.89664], [94.86067000000001, 27.895580000000002], [94.86105, 27.89551]], [[94.74605000000001, 27.89891], [94.74692, 27.89973], [94.7463, 27.900440000000003], [94.74524000000001, 27.90003], [94.74567, 27.89898], [94.74605000000001, 27.89891]], [[94.75571000000001, 27.893330000000002], [94.75658000000001, 27.894150000000003], [94.75596, 27.89486], [94.75489, 27.894450000000003], [94.75533, 27.893400000000003], [94.75571000000001, 27.893330000000002]], [[94.89071000000001, 27.87619], [94.89149, 27.87731], [94.88990000000001, 27.87731], [94.89071000000001, 27.87619]], [[94.76298000000001, 27.8881], [94.76388000000001, 27.88728], [94.76475, 27.8881], [94.76375, 27.888840000000002], [94.76298000000001, 27.8881]], [[94.82041000000001, 27.87871], [94.82122000000001, 27.879410000000004], [94.82041000000001, 27.880270000000003], [94.81946, 27.879530000000003], [94.82001000000001, 27.878760000000003], [94.82041000000001, 27.87871]], [[94.77103000000001, 27.882220000000004], [94.77003, 27.88296], [94.76926, 27.882220000000004], [94.77013000000001, 27.881400000000003], [94.77103000000001, 27.882220000000004]], [[94.79145000000001, 27.869970000000002], [94.79232, 27.870790000000003], [94.79156, 27.871530000000003], [94.79064000000001, 27.871090000000002], [94.79107, 27.870040000000003], [94.79145000000001, 27.869970000000002]], [[94.80666000000001, 27.8624], [94.80753000000001, 27.863220000000002], [94.80692, 27.863930000000003], [94.80585, 27.86353], [94.80629, 27.862470000000002], [94.80666000000001, 27.8624]], [[94.80457000000001, 27.850970000000004], [94.80544, 27.85179], [94.80468, 27.85253], [94.80376000000001, 27.852090000000004], [94.80419, 27.85104], [94.80457000000001, 27.850970000000004]], [[94.78282, 27.843890000000002], [94.78181000000001, 27.844630000000002], [94.78105000000001, 27.843890000000002], [94.78192000000001, 27.84307], [94.78282, 27.843890000000002]]]}}, {"id": "75", "type": "Feature", "properties": {"village_name": "Data Partially Available", "vil_lgd": 999999, "district_name": "Leparada", "dist_lgd": 724, "subdistrict_name": "Tirbin EAC", "sdcode": 1635, "block_name": "", "block_lgd": null, "gp_name": "", "state_name": "ARUNANCHAL PRADESH", "state_lgd": 12, "population": 0, "households": 0}, "geometry": {"type": "Polygon", "coordinates": [[[94.62552000000001, 28.05554], [94.64047000000001, 28.0435], [94.65013, 28.04277], [94.64625000000001, 28.030900000000003], [94.64553000000001, 28.02398], [94.64883, 28.025250000000003], [94.64954, 28.022980000000004], [94.65254, 28.020840000000003], [94.64983000000001, 28.016430000000003], [94.65582, 28.014170000000004], [94.65624000000001, 28.01178], [94.6551, 28.010640000000002], [94.64811, 28.00775], [94.64869, 28.005860000000002], [94.64769000000001, 28.002840000000003], [94.64113, 27.999190000000002], [94.643, 27.997500000000002], [94.63947, 27.995020000000004], [94.64146000000001, 27.99331], [94.63633, 27.989030000000003], [94.63766000000001, 27.985670000000002], [94.63499, 27.98298], [94.62843000000001, 27.97979], [94.62939, 27.977610000000002], [94.6311, 27.976940000000003], [94.63138000000001, 27.975260000000002], [94.62929000000001, 27.972820000000002], [94.62767000000001, 27.972910000000002], [94.62568, 27.974670000000003], [94.62307000000001, 27.974870000000003], [94.62101000000001, 27.972600000000003], [94.62235000000001, 27.969880000000003], [94.6213, 27.969300000000004], [94.62111, 27.9677], [94.61997000000001, 27.96711], [94.61627000000001, 27.969300000000004], [94.61047, 27.968040000000002], [94.60837000000001, 27.968290000000003], [94.60628000000001, 27.971230000000002], [94.60467000000001, 27.971560000000004], [94.60514, 27.972910000000002], [94.60315000000001, 27.97333], [94.60039, 27.97643], [94.60001000000001, 27.97509], [94.59744, 27.973920000000003], [94.59554000000001, 27.975170000000002], [94.5943, 27.972910000000002], [94.58518000000001, 27.97341], [94.58290000000001, 27.975590000000004], [94.58042, 27.973160000000004], [94.57900000000001, 27.97425], [94.57214, 27.971950000000003], [94.5694, 27.972520000000003], [94.56880000000001, 27.97059], [94.56773000000001, 27.970200000000002], [94.56565, 27.973250000000004], [94.56298000000001, 27.973940000000002], [94.55995000000001, 27.973150000000004], [94.55912000000001, 27.972150000000003], [94.5571, 27.972890000000003], [94.55406, 27.97199], [94.55300000000001, 27.973670000000002], [94.54765, 27.97493], [94.5467, 27.973620000000004], [94.54319000000001, 27.97388], [94.54194000000001, 27.9722], [94.53998000000001, 27.97331], [94.53903000000001, 27.9721], [94.53654, 27.972620000000003], [94.53434000000001, 27.971310000000003], [94.53214000000001, 27.971890000000002], [94.52899000000001, 27.971210000000003], [94.52799, 27.97258], [94.52610000000001, 27.971410000000002], [94.52403000000001, 27.971490000000003], [94.52138000000001, 27.976810000000004], [94.51435000000001, 27.983530000000002], [94.51169, 27.98487], [94.50237000000001, 27.984540000000003], [94.49781, 27.985210000000002], [94.49495, 27.986720000000002], [94.49343, 27.989240000000002], [94.49476000000001, 27.99763], [94.49647, 28.00183], [94.4959, 28.01039], [94.49743000000001, 28.017270000000003], [94.49962000000001, 28.020010000000003], [94.48424000000001, 28.021720000000002], [94.48999, 28.034100000000002], [94.49999000000001, 28.043380000000003], [94.50641, 28.05551], [94.53342, 28.049110000000002], [94.5678, 28.049090000000003], [94.5935, 28.052660000000003], [94.60349000000001, 28.061940000000003], [94.61275, 28.059250000000002], [94.62552000000001, 28.05554]], [[94.59768000000001, 28.052860000000003], [94.59844000000001, 28.05357], [94.59755000000001, 28.054420000000004], [94.59670000000001, 28.053880000000003], [94.59728000000001, 28.052880000000002], [94.59768000000001, 28.052860000000003]], [[94.57949, 28.047970000000003], [94.58024, 28.04869], [94.57927000000001, 28.04952], [94.57846, 28.04868], [94.57909000000001, 28.047990000000002], [94.57949, 28.047970000000003]], [[94.58696, 28.046390000000002], [94.58789, 28.045980000000004], [94.58860000000001, 28.047], [94.58709, 28.04727], [94.58696, 28.046390000000002]], [[94.59713, 28.04379], [94.59806, 28.043380000000003], [94.59877, 28.044400000000003], [94.59726, 28.044670000000004], [94.59713, 28.04379]], [[94.56904, 28.04653], [94.57002000000001, 28.04567], [94.57081000000001, 28.046540000000004], [94.57005000000001, 28.047240000000002], [94.56904, 28.04653]], [[94.57129, 28.042890000000003], [94.57183, 28.04418], [94.57031, 28.043910000000004], [94.57129, 28.042890000000003]], [[94.6323, 28.036430000000003], [94.63314000000001, 28.03591], [94.63393, 28.03703], [94.63264000000001, 28.037340000000004], [94.6323, 28.036430000000003]], [[94.54893000000001, 28.043590000000002], [94.54995000000001, 28.04287], [94.55071000000001, 28.043590000000002], [94.54982000000001, 28.044430000000002], [94.54893000000001, 28.043590000000002]], [[94.53252, 28.045980000000004], [94.53262000000001, 28.047100000000004], [94.53156000000001, 28.047290000000004], [94.53115000000001, 28.04622], [94.53208000000001, 28.045810000000003], [94.53252, 28.045980000000004]], [[94.52824000000001, 28.04219], [94.52913000000001, 28.042990000000003], [94.52841000000001, 28.043740000000003], [94.52743000000001, 28.043300000000002], [94.52789000000001, 28.042250000000003], [94.52824000000001, 28.04219]], [[94.62016000000001, 28.032570000000003], [94.61893, 28.033030000000004], [94.61852, 28.03196], [94.61945000000001, 28.031550000000003], [94.62016000000001, 28.032570000000003]], [[94.57479000000001, 28.035200000000003], [94.57581, 28.034480000000002], [94.57657, 28.035200000000003], [94.57568, 28.036040000000003], [94.57479000000001, 28.035200000000003]], [[94.53735, 28.040640000000003], [94.53636, 28.040190000000003], [94.53683000000001, 28.039140000000003], [94.53801000000001, 28.03958], [94.53735, 28.040640000000003]], [[94.61498, 28.028190000000002], [94.61574, 28.028900000000004], [94.61524000000001, 28.029670000000003], [94.61418, 28.029480000000003], [94.61406000000001, 28.0286], [94.61498, 28.028190000000002]], [[94.53828000000001, 28.03461], [94.53930000000001, 28.033900000000003], [94.54006000000001, 28.03461], [94.53917000000001, 28.03545], [94.53828000000001, 28.03461]], [[94.60595, 28.025420000000004], [94.60671, 28.026130000000002], [94.60582000000001, 28.026980000000002], [94.60497000000001, 28.02644], [94.60556000000001, 28.025440000000003], [94.60595, 28.025420000000004]], [[94.57232, 28.025250000000003], [94.57324000000001, 28.025660000000002], [94.57312, 28.026550000000004], [94.5716, 28.026280000000003], [94.57232, 28.025250000000003]], [[94.53866000000001, 28.02831], [94.53942, 28.027600000000003], [94.54044, 28.02831], [94.53955, 28.02916], [94.53866000000001, 28.02831]], [[94.51886, 28.023730000000004], [94.51845, 28.024800000000003], [94.51725, 28.024420000000003], [94.51785000000001, 28.02334], [94.51886, 28.023730000000004]], [[94.58449, 28.016450000000003], [94.58554000000001, 28.016920000000002], [94.58532000000001, 28.01779], [94.58432, 28.017920000000004], [94.58382, 28.01715], [94.58449, 28.016450000000003]], [[94.58808, 28.00981], [94.58884, 28.010520000000003], [94.58794, 28.011370000000003], [94.5871, 28.010830000000002], [94.58768, 28.00983], [94.58808, 28.00981]], [[94.57553000000001, 28.002840000000003], [94.57629000000001, 28.003560000000004], [94.5754, 28.004400000000004], [94.57455, 28.003870000000003], [94.57513, 28.002860000000002], [94.57553000000001, 28.002840000000003]], [[94.55832000000001, 28.002830000000003], [94.55791, 28.0039], [94.55668000000001, 28.00345], [94.55739000000001, 28.00242], [94.55832000000001, 28.002830000000003]], [[94.58636000000001, 27.99444], [94.58596000000001, 27.995510000000003], [94.58472, 27.995050000000003], [94.58544, 27.994030000000002], [94.58636000000001, 27.99444]], [[94.54672000000001, 27.996290000000002], [94.54631, 27.997360000000004], [94.54511000000001, 27.99697], [94.54570000000001, 27.995890000000003], [94.54672000000001, 27.996290000000002]], [[94.56433000000001, 27.99285], [94.56531000000001, 27.99388], [94.56379000000001, 27.99415], [94.56433000000001, 27.99285]], [[94.51411, 27.996290000000002], [94.51370000000001, 27.997360000000004], [94.51247000000001, 27.996900000000004], [94.51318, 27.995870000000004], [94.51411, 27.996290000000002]], [[94.54173, 27.990240000000004], [94.54132000000001, 27.991310000000002], [94.54012, 27.990930000000002], [94.54071, 27.98985], [94.54173, 27.990240000000004]], [[94.57096000000001, 27.981180000000002], [94.57055000000001, 27.982250000000004], [94.56932, 27.981790000000004], [94.57003, 27.980760000000004], [94.57096000000001, 27.981180000000002]], [[94.53231000000001, 27.980040000000002], [94.53191000000001, 27.98111], [94.53071000000001, 27.98073], [94.5313, 27.979640000000003], [94.53231000000001, 27.980040000000002]]]}}]}