{"type": "FeatureCollection", "metadata": {"source": "Survey of India (per src_agency attribute in the source data)", "hosted_via": "National Water Data Portal (NWDP), NWIC, Ministry of Jal Shakti -- https://nwdp.nwic.gov.in/", "access": "public, no login required", "crs_original": "EPSG:7755 (WGS 84 / India NSF LCC)", "fetch_date": "2026-08-02", "quality": "verified-official -- Survey of India source", "state": "Arunachal Pradesh", "district": "Longding", "processing": "reprojected to EPSG:4326, topology-preserving simplify (shared-arc, tolerance 0.0005 deg) so adjacent polygons never overlap/gap at shared borders, coords rounded 5dp, 0 feature(s) needed the per-feature fallback", "feature_count": 84}, "features": [{"id": "0", "type": "Feature", "properties": {"village_name": "Data Partially Available", "vil_lgd": 999999, "district_name": "Longding", "dist_lgd": 666, "subdistrict_name": "Wakka SDO", "sdcode": 6012, "block_name": "", "block_lgd": null, "gp_name": "", "state_name": "ARUNANCHAL PRADESH", "state_lgd": 12, "population": 0, "households": 0}, "geometry": {"type": "Polygon", "coordinates": [[[95.37185000000001, 26.876640000000002], [95.37481000000001, 26.873630000000002], [95.3872, 26.86998], [95.41550000000001, 26.86596], [95.42578, 26.862450000000003], [95.43789000000001, 26.856790000000004], [95.44704, 26.85403], [95.46309000000001, 26.853030000000004], [95.49379, 26.86081], [95.49826, 26.860940000000003], [95.48807000000001, 26.8457], [95.4916, 26.840320000000002], [95.49222, 26.83142], [95.48952000000001, 26.82363], [95.48599, 26.82159], [95.48557000000001, 26.819000000000003], [95.49576, 26.80842], [95.49976000000001, 26.807060000000003], [95.50686, 26.80685], [95.50760000000001, 26.806050000000003], [95.50567000000001, 26.801820000000003], [95.50564000000001, 26.798330000000004], [95.50396, 26.794960000000003], [95.50474000000001, 26.79416], [95.5048, 26.792], [95.50268000000001, 26.787300000000002], [95.49892000000001, 26.78402], [95.49748000000001, 26.78047], [95.49589, 26.77877], [95.49533000000001, 26.775430000000004], [95.49231, 26.77278], [95.49236, 26.770850000000003], [95.48987000000001, 26.7635], [95.48777000000001, 26.76199], [95.48758000000001, 26.760820000000002], [95.48421, 26.757140000000003], [95.48329000000001, 26.751920000000002], [95.48199000000001, 26.749990000000004], [95.48276000000001, 26.74705], [95.47746000000001, 26.743560000000002], [95.47651, 26.742130000000003], [95.47390000000001, 26.741170000000004], [95.46714000000001, 26.744680000000002], [95.45909, 26.74388], [95.45513000000001, 26.7386], [95.45294000000001, 26.73383], [95.45031, 26.731890000000003], [95.4462, 26.726850000000002], [95.44129000000001, 26.72249], [95.43557000000001, 26.719990000000003], [95.43199000000001, 26.71617], [95.43187, 26.710440000000002], [95.43068000000001, 26.707240000000002], [95.43229000000001, 26.704100000000004], [95.43165, 26.70173], [95.4291, 26.704300000000003], [95.42043000000001, 26.70765], [95.41473, 26.712640000000004], [95.41346000000001, 26.71507], [95.41285, 26.718970000000002], [95.40873, 26.72314], [95.40533, 26.723950000000002], [95.4034, 26.723090000000003], [95.39952000000001, 26.72471], [95.39727, 26.727960000000003], [95.39697000000001, 26.730610000000002], [95.39764000000001, 26.73224], [95.39491000000001, 26.736020000000003], [95.39036, 26.739220000000003], [95.3866, 26.73889], [95.38400000000001, 26.746630000000003], [95.38242000000001, 26.74772], [95.38224000000001, 26.749830000000003], [95.37782000000001, 26.75221], [95.37363, 26.756490000000003], [95.37212000000001, 26.756490000000003], [95.36969, 26.757890000000003], [95.36818000000001, 26.76385], [95.36872000000001, 26.766820000000003], [95.36696, 26.77175], [95.36793, 26.776460000000004], [95.36533000000001, 26.7783], [95.36739000000001, 26.786140000000003], [95.37127000000001, 26.78695], [95.37084, 26.79323], [95.36933, 26.79464], [95.36715000000001, 26.795130000000004], [95.36539, 26.79399], [95.35660000000001, 26.79669], [95.35545, 26.80016], [95.35345000000001, 26.801190000000002], [95.35272, 26.806050000000003], [95.34769000000001, 26.806220000000003], [95.34539000000001, 26.80449], [95.34490000000001, 26.807190000000002], [95.34545000000001, 26.810710000000004], [95.34375000000001, 26.81173], [95.34042000000001, 26.81098], [95.33799, 26.811460000000004], [95.33617000000001, 26.81011], [95.33326000000001, 26.81087], [95.33239, 26.81033], [95.32793000000001, 26.811950000000003], [95.32672000000001, 26.815870000000004], [95.32611000000001, 26.81829], [95.32846, 26.82524], [95.33186, 26.823960000000003], [95.33881000000001, 26.828280000000003], [95.34448, 26.83651], [95.34864, 26.840020000000003], [95.34962, 26.843590000000003], [95.34932, 26.847030000000004], [95.34448, 26.845550000000003], [95.34395, 26.848580000000002], [95.34546, 26.851280000000003], [95.34758000000001, 26.851750000000003], [95.35015000000001, 26.850270000000002], [95.35212000000001, 26.850340000000003], [95.3537, 26.855390000000003], [95.35355000000001, 26.85769], [95.35340000000001, 26.858700000000002], [95.34856, 26.858970000000003], [95.34773000000001, 26.85715], [95.34630000000001, 26.857820000000004], [95.34645, 26.85931], [95.34826000000001, 26.861600000000003], [95.35121000000001, 26.86335], [95.35151, 26.864630000000002], [95.35318000000001, 26.86511], [95.35673000000001, 26.868340000000003], [95.35801000000001, 26.872930000000004], [95.35794000000001, 26.87515], [95.35673000000001, 26.87637], [95.35809, 26.87893], [95.36521, 26.88303], [95.36701000000001, 26.879500000000004], [95.36579, 26.87862], [95.36742000000001, 26.877380000000002], [95.37185000000001, 26.876640000000002]], [[95.39676000000001, 26.866460000000004], [95.39635000000001, 26.86754], [95.39515, 26.867150000000002], [95.39575, 26.86606], [95.39676000000001, 26.866460000000004]], [[95.41170000000001, 26.84832], [95.4107, 26.84906], [95.40993, 26.84832], [95.41080000000001, 26.84749], [95.41170000000001, 26.84832]], [[95.45026000000001, 26.838970000000003], [95.44926000000001, 26.839710000000004], [95.44849, 26.838970000000003], [95.44936000000001, 26.838140000000003], [95.45026000000001, 26.838970000000003]], [[95.36569, 26.83688], [95.36529, 26.837960000000002], [95.36408, 26.837570000000003], [95.36468, 26.83648], [95.36569, 26.83688]], [[95.37144, 26.83301], [95.37103, 26.834090000000003], [95.36980000000001, 26.833630000000003], [95.37051000000001, 26.832590000000003], [95.37144, 26.83301]], [[95.38453000000001, 26.804330000000004], [95.38529000000001, 26.80505], [95.38440000000001, 26.80591], [95.38356, 26.805370000000003], [95.38414, 26.804350000000003], [95.38453000000001, 26.804330000000004]], [[95.46217000000001, 26.79238], [95.46307, 26.79155], [95.46394000000001, 26.79238], [95.46294, 26.793120000000002], [95.46217000000001, 26.79238]], [[95.40441000000001, 26.798050000000003], [95.40531000000001, 26.797220000000003], [95.40618, 26.798050000000003], [95.40542, 26.798790000000004], [95.40441000000001, 26.798050000000003]], [[95.41282000000001, 26.787080000000003], [95.41369, 26.787910000000004], [95.41307, 26.78862], [95.41201000000001, 26.788210000000003], [95.41244, 26.78715], [95.41282000000001, 26.787080000000003]], [[95.44688000000001, 26.761550000000003], [95.44593, 26.762300000000003], [95.44512, 26.76143], [95.44594000000001, 26.760720000000003], [95.44688000000001, 26.761550000000003]], [[95.38766000000001, 26.762490000000003], [95.38726000000001, 26.76357], [95.38606000000001, 26.763180000000002], [95.38665, 26.76209], [95.38766000000001, 26.762490000000003]], [[95.44469000000001, 26.738560000000003], [95.44374, 26.739310000000003], [95.44292, 26.73844], [95.44375000000001, 26.737730000000003], [95.44469000000001, 26.738560000000003]], [[95.41379, 26.725360000000002], [95.41465000000001, 26.726190000000003], [95.41389000000001, 26.726940000000003], [95.41297, 26.726490000000002], [95.41341000000001, 26.725430000000003], [95.41379, 26.725360000000002]]]}}, {"id": "1", "type": "Feature", "properties": {"village_name": "Khanu", "vil_lgd": 264561, "district_name": "Longding", "dist_lgd": 666, "subdistrict_name": "Wakka SDO", "sdcode": 6012, "block_name": "Wakka", "block_lgd": 70.0, "gp_name": "", "state_name": "ARUNANCHAL PRADESH", "state_lgd": 12, "population": 1629, "households": 243}, "geometry": {"type": "Polygon", "coordinates": [[[95.38606000000001, 26.763180000000002], [95.38726000000001, 26.76357], [95.38766000000001, 26.762490000000003], [95.38665, 26.76209], [95.38606000000001, 26.763180000000002]]]}}, {"id": "2", "type": "Feature", "properties": {"village_name": "Nginu", "vil_lgd": 264563, "district_name": "Longding", "dist_lgd": 666, "subdistrict_name": "Wakka SDO", "sdcode": 6012, "block_name": "Wakka", "block_lgd": 70.0, "gp_name": "", "state_name": "ARUNANCHAL PRADESH", "state_lgd": 12, "population": 967, "households": 151}, "geometry": {"type": "Polygon", "coordinates": [[[95.36980000000001, 26.833630000000003], [95.37103, 26.834090000000003], [95.37144, 26.83301], [95.37051000000001, 26.832590000000003], [95.36980000000001, 26.833630000000003]]]}}, {"id": "3", "type": "Feature", "properties": {"village_name": "Lower Nginu", "vil_lgd": 264564, "district_name": "Longding", "dist_lgd": 666, "subdistrict_name": "Wakka SDO", "sdcode": 6012, "block_name": "Wakka", "block_lgd": 70.0, "gp_name": "", "state_name": "ARUNANCHAL PRADESH", "state_lgd": 12, "population": 1459, "households": 234}, "geometry": {"type": "Polygon", "coordinates": [[[95.36408, 26.837570000000003], [95.36529, 26.837960000000002], [95.36569, 26.83688], [95.36468, 26.83648], [95.36408, 26.837570000000003]]]}}, {"id": "4", "type": "Feature", "properties": {"village_name": "Konsa", "vil_lgd": 264549, "district_name": "Longding", "dist_lgd": 666, "subdistrict_name": "Pangchao SDO", "sdcode": 1692, "block_name": "Pangchao", "block_lgd": 69.0, "gp_name": "", "state_name": "ARUNANCHAL PRADESH", "state_lgd": 12, "population": 764, "households": 119}, "geometry": {"type": "Polygon", "coordinates": [[[95.31801, 26.68314], [95.31921000000001, 26.68353], [95.31962000000001, 26.682450000000003], [95.3186, 26.682050000000004], [95.31801, 26.68314]]]}}, {"id": "5", "type": "Feature", "properties": {"village_name": "Gref Camp", "vil_lgd": 264553, "district_name": "Longding", "dist_lgd": 666, "subdistrict_name": "Pangchao SDO", "sdcode": 1692, "block_name": "Pangchao", "block_lgd": 69.0, "gp_name": "", "state_name": "ARUNANCHAL PRADESH", "state_lgd": 12, "population": 3, "households": 3}, "geometry": {"type": "Polygon", "coordinates": [[[95.29868, 26.693520000000003], [95.29909, 26.6946], [95.30032000000001, 26.69414], [95.29961, 26.6931], [95.29868, 26.693520000000003]]]}}, {"id": "6", "type": "Feature", "properties": {"village_name": "Jagan", "vil_lgd": 264555, "district_name": "Longding", "dist_lgd": 666, "subdistrict_name": "Pangchao SDO", "sdcode": 1692, "block_name": "Pangchao", "block_lgd": 69.0, "gp_name": "", "state_name": "ARUNANCHAL PRADESH", "state_lgd": 12, "population": 802, "households": 110}, "geometry": {"type": "Polygon", "coordinates": [[[95.37235000000001, 26.68936], [95.37355000000001, 26.689750000000004], [95.37396000000001, 26.688660000000002], [95.37295, 26.688260000000003], [95.37235000000001, 26.68936]]]}}, {"id": "7", "type": "Feature", "properties": {"village_name": "Lower Pangchao", "vil_lgd": 264558, "district_name": "Longding", "dist_lgd": 666, "subdistrict_name": "Pangchao SDO", "sdcode": 1692, "block_name": "Pangchao", "block_lgd": 69.0, "gp_name": "", "state_name": "ARUNANCHAL PRADESH", "state_lgd": 12, "population": 1058, "households": 155}, "geometry": {"type": "Polygon", "coordinates": [[[95.27446, 26.695960000000003], [95.27535, 26.696810000000003], [95.27624, 26.695960000000003], [95.27522, 26.695240000000002], [95.27446, 26.695960000000003]]]}}, {"id": "8", "type": "Feature", "properties": {"village_name": "Ngissa", "vil_lgd": 264565, "district_name": "Longding", "dist_lgd": 666, "subdistrict_name": "Wakka SDO", "sdcode": 6012, "block_name": "Wakka", "block_lgd": 70.0, "gp_name": "", "state_name": "ARUNANCHAL PRADESH", "state_lgd": 12, "population": 936, "households": 134}, "geometry": {"type": "Polygon", "coordinates": [[[95.38414, 26.804350000000003], [95.38356, 26.805370000000003], [95.38440000000001, 26.80591], [95.38529000000001, 26.80505], [95.38453000000001, 26.804330000000004], [95.38414, 26.804350000000003]]]}}, {"id": "9", "type": "Feature", "properties": {"village_name": "Senua", "vil_lgd": 264528, "district_name": "Longding", "dist_lgd": 666, "subdistrict_name": "Longding HQ", "sdcode": 6074, "block_name": "Niausa", "block_lgd": 68.0, "gp_name": "", "state_name": "ARUNANCHAL PRADESH", "state_lgd": 12, "population": 1477, "households": 246}, "geometry": {"type": "Polygon", "coordinates": [[[95.33928, 26.90023], [95.34051000000001, 26.9007], [95.34092000000001, 26.899620000000002], [95.33999000000001, 26.8992], [95.33928, 26.90023]]]}}, {"id": "10", "type": "Feature", "properties": {"village_name": "Zedua", "vil_lgd": 264529, "district_name": "Longding", "dist_lgd": 666, "subdistrict_name": "Longding HQ", "sdcode": 6074, "block_name": "Niausa", "block_lgd": 68.0, "gp_name": "", "state_name": "ARUNANCHAL PRADESH", "state_lgd": 12, "population": 965, "households": 137}, "geometry": {"type": "Polygon", "coordinates": [[[95.30792000000001, 26.889180000000003], [95.30881000000001, 26.890030000000003], [95.3097, 26.889180000000003], [95.30894, 26.888460000000002], [95.30792000000001, 26.889180000000003]]]}}, {"id": "11", "type": "Feature", "properties": {"village_name": "Nianu", "vil_lgd": 264530, "district_name": "Longding", "dist_lgd": 666, "subdistrict_name": "Longding HQ", "sdcode": 6074, "block_name": "Niausa", "block_lgd": 68.0, "gp_name": "", "state_name": "ARUNANCHAL PRADESH", "state_lgd": 12, "population": 1340, "households": 227}, "geometry": {"type": "Polygon", "coordinates": [[[95.31193, 26.84737], [95.31314, 26.84776], [95.31354, 26.846680000000003], [95.31253000000001, 26.84627], [95.31193, 26.84737]]]}}, {"id": "12", "type": "Feature", "properties": {"village_name": "Niausa", "vil_lgd": 264531, "district_name": "Longding", "dist_lgd": 666, "subdistrict_name": "Longding HQ", "sdcode": 6074, "block_name": "Niausa", "block_lgd": 68.0, "gp_name": "", "state_name": "ARUNANCHAL PRADESH", "state_lgd": 12, "population": 1924, "households": 272}, "geometry": {"type": "Polygon", "coordinates": [[[95.29715, 26.818140000000003], [95.29657, 26.81915], [95.29742, 26.81969], [95.29831, 26.81884], [95.29755, 26.818120000000004], [95.29715, 26.818140000000003]]]}}, {"id": "13", "type": "Feature", "properties": {"village_name": "Mintong", "vil_lgd": 264532, "district_name": "Longding", "dist_lgd": 666, "subdistrict_name": "Longding HQ", "sdcode": 6074, "block_name": "Niausa", "block_lgd": 68.0, "gp_name": "", "state_name": "ARUNANCHAL PRADESH", "state_lgd": 12, "population": 1505, "households": 201}, "geometry": {"type": "Polygon", "coordinates": [[[95.29591, 26.802730000000004], [95.29715, 26.803200000000004], [95.29756, 26.802110000000003], [95.29663000000001, 26.801700000000004], [95.29591, 26.802730000000004]]]}}, {"id": "14", "type": "Feature", "properties": {"village_name": "Longphong", "vil_lgd": 264533, "district_name": "Longding", "dist_lgd": 666, "subdistrict_name": "Longding HQ", "sdcode": 6074, "block_name": "Niausa", "block_lgd": 68.0, "gp_name": "", "state_name": "ARUNANCHAL PRADESH", "state_lgd": 12, "population": 1174, "households": 179}, "geometry": {"type": "Polygon", "coordinates": [[[95.28518000000001, 26.788660000000004], [95.28633, 26.789150000000003], [95.28686, 26.788110000000003], [95.28581000000001, 26.787630000000004], [95.28518000000001, 26.788660000000004]]]}}, {"id": "15", "type": "Feature", "properties": {"village_name": "Kamhua Noksa", "vil_lgd": 264552, "district_name": "Longding", "dist_lgd": 666, "subdistrict_name": "Pangchao SDO", "sdcode": 1692, "block_name": "Pangchao", "block_lgd": 69.0, "gp_name": "", "state_name": "ARUNANCHAL PRADESH", "state_lgd": 12, "population": 831, "households": 128}, "geometry": {"type": "Polygon", "coordinates": [[[95.35182, 26.747290000000003], [95.35123, 26.748310000000004], [95.35208, 26.74885], [95.35297000000001, 26.74799], [95.35221000000001, 26.747270000000004], [95.35182, 26.747290000000003]]]}}, {"id": "16", "type": "Feature", "properties": {"village_name": "Senua S C T C Camp", "vil_lgd": 264534, "district_name": "Longding", "dist_lgd": 666, "subdistrict_name": "Longding HQ", "sdcode": 6074, "block_name": "Niausa", "block_lgd": 68.0, "gp_name": "", "state_name": "ARUNANCHAL PRADESH", "state_lgd": 12, "population": 161, "households": 25}, "geometry": {"type": "Polygon", "coordinates": [[[95.35614000000001, 26.89242], [95.35737, 26.89288], [95.35778, 26.891800000000003], [95.35686000000001, 26.89139], [95.35614000000001, 26.89242]]]}}, {"id": "17", "type": "Feature", "properties": {"village_name": "Tissa Camp", "vil_lgd": 264535, "district_name": "Longding", "dist_lgd": 666, "subdistrict_name": "Longding HQ", "sdcode": 6074, "block_name": "Niausa", "block_lgd": 68.0, "gp_name": "", "state_name": "ARUNANCHAL PRADESH", "state_lgd": 12, "population": 657, "households": 143}, "geometry": {"type": "Polygon", "coordinates": [[[95.35968000000001, 26.910850000000003], [95.36088000000001, 26.911240000000003], [95.36129000000001, 26.91016], [95.36027000000001, 26.909760000000002], [95.35968000000001, 26.910850000000003]]]}}, {"id": "18", "type": "Feature", "properties": {"village_name": "Senua Noksa", "vil_lgd": 264536, "district_name": "Longding", "dist_lgd": 666, "subdistrict_name": "Longding HQ", "sdcode": 6074, "block_name": "Niausa", "block_lgd": 68.0, "gp_name": "", "state_name": "ARUNANCHAL PRADESH", "state_lgd": 12, "population": 264, "households": 36}, "geometry": {"type": "Polygon", "coordinates": [[[95.36683000000001, 26.909100000000002], [95.36733000000001, 26.90988], [95.36839, 26.90969], [95.36851000000001, 26.908800000000003], [95.36759, 26.90838], [95.36683000000001, 26.909100000000002]]]}}, {"id": "19", "type": "Feature", "properties": {"village_name": "Bonia", "vil_lgd": 264547, "district_name": "Longding", "dist_lgd": 666, "subdistrict_name": "Pangchao SDO", "sdcode": 1692, "block_name": "Pangchao", "block_lgd": 69.0, "gp_name": "", "state_name": "ARUNANCHAL PRADESH", "state_lgd": 12, "population": 1066, "households": 153}, "geometry": {"type": "Polygon", "coordinates": [[[95.25574, 26.745540000000002], [95.25516, 26.746560000000002], [95.25600000000001, 26.747100000000003], [95.25689000000001, 26.746250000000003], [95.25614, 26.745520000000003], [95.25574, 26.745540000000002]]]}}, {"id": "20", "type": "Feature", "properties": {"village_name": "Konnu", "vil_lgd": 264548, "district_name": "Longding", "dist_lgd": 666, "subdistrict_name": "Pangchao SDO", "sdcode": 1692, "block_name": "Pangchao", "block_lgd": 69.0, "gp_name": "", "state_name": "ARUNANCHAL PRADESH", "state_lgd": 12, "population": 1116, "households": 189}, "geometry": {"type": "Polygon", "coordinates": [[[95.31453, 26.709750000000003], [95.31573, 26.710140000000003], [95.31614, 26.70905], [95.31513000000001, 26.708650000000002], [95.31453, 26.709750000000003]]]}}, {"id": "21", "type": "Feature", "properties": {"village_name": "Kamhua Nonku", "vil_lgd": 264550, "district_name": "Longding", "dist_lgd": 666, "subdistrict_name": "Pangchao SDO", "sdcode": 1692, "block_name": "Pangchao", "block_lgd": 69.0, "gp_name": "", "state_name": "ARUNANCHAL PRADESH", "state_lgd": 12, "population": 897, "households": 137}, "geometry": {"type": "Polygon", "coordinates": [[[95.34812000000001, 26.76631], [95.34754000000001, 26.76733], [95.34838, 26.767870000000002], [95.34927, 26.767010000000003], [95.34852000000001, 26.76629], [95.34812000000001, 26.76631]]]}}, {"id": "22", "type": "Feature", "properties": {"village_name": "Komhua Nonku Ii", "vil_lgd": 264551, "district_name": "Longding", "dist_lgd": 666, "subdistrict_name": "Pangchao SDO", "sdcode": 1692, "block_name": "Pangchao", "block_lgd": 69.0, "gp_name": "", "state_name": "ARUNANCHAL PRADESH", "state_lgd": 12, "population": 741, "households": 103}, "geometry": {"type": "Polygon", "coordinates": [[[95.33399000000001, 26.762620000000002], [95.33341000000001, 26.763640000000002], [95.33426000000001, 26.764180000000003], [95.33515000000001, 26.763330000000003], [95.33439000000001, 26.762600000000003], [95.33399000000001, 26.762620000000002]]]}}, {"id": "23", "type": "Feature", "properties": {"village_name": "Khasa", "vil_lgd": 264554, "district_name": "Longding", "dist_lgd": 666, "subdistrict_name": "Pangchao SDO", "sdcode": 1692, "block_name": "Pangchao", "block_lgd": 69.0, "gp_name": "", "state_name": "ARUNANCHAL PRADESH", "state_lgd": 12, "population": 1571, "households": 206}, "geometry": {"type": "Polygon", "coordinates": [[[95.35650000000001, 26.718960000000003], [95.35663000000001, 26.71985], [95.35768, 26.72004], [95.35809, 26.718960000000003], [95.35716000000001, 26.71854], [95.35650000000001, 26.718960000000003]]]}}, {"id": "24", "type": "Feature", "properties": {"village_name": "Votnu", "vil_lgd": 264556, "district_name": "Longding", "dist_lgd": 666, "subdistrict_name": "Pangchao SDO", "sdcode": 1692, "block_name": "Pangchao", "block_lgd": 69.0, "gp_name": "", "state_name": "ARUNANCHAL PRADESH", "state_lgd": 12, "population": 661, "households": 104}, "geometry": {"type": "Polygon", "coordinates": [[[95.37753000000001, 26.729670000000002], [95.37877, 26.730140000000002], [95.37918, 26.72905], [95.37825000000001, 26.728640000000002], [95.37753000000001, 26.729670000000002]]]}}, {"id": "25", "type": "Feature", "properties": {"village_name": "Pangchao", "vil_lgd": 264557, "district_name": "Longding", "dist_lgd": 666, "subdistrict_name": "Pangchao SDO", "sdcode": 1692, "block_name": "Pangchao", "block_lgd": 69.0, "gp_name": "", "state_name": "ARUNANCHAL PRADESH", "state_lgd": 12, "population": 1025, "households": 149}, "geometry": {"type": "Polygon", "coordinates": [[[95.27748000000001, 26.71817], [95.27689000000001, 26.71919], [95.27774000000001, 26.719730000000002], [95.27863, 26.718870000000003], [95.27787000000001, 26.71815], [95.27748000000001, 26.71817]]]}}, {"id": "26", "type": "Feature", "properties": {"village_name": "Pangchao H Q", "vil_lgd": 264559, "district_name": "Longding", "dist_lgd": 666, "subdistrict_name": "Pangchao SDO", "sdcode": 1692, "block_name": "Pangchao", "block_lgd": 69.0, "gp_name": "", "state_name": "ARUNANCHAL PRADESH", "state_lgd": 12, "population": 1273, "households": 230}, "geometry": {"type": "Polygon", "coordinates": [[[95.26603000000001, 26.728700000000003], [95.26726000000001, 26.729160000000004], [95.26767000000001, 26.728080000000002], [95.26674000000001, 26.727660000000004], [95.26603000000001, 26.728700000000003]]]}}, {"id": "27", "type": "Feature", "properties": {"village_name": "Longkhaw", "vil_lgd": 264542, "district_name": "Longding", "dist_lgd": 666, "subdistrict_name": "Pumao Circle", "sdcode": 6584, "block_name": "Niausa", "block_lgd": 68.0, "gp_name": "", "state_name": "ARUNANCHAL PRADESH", "state_lgd": 12, "population": 1750, "households": 246}, "geometry": {"type": "Polygon", "coordinates": [[[95.2342, 26.773120000000002], [95.23362, 26.774140000000003], [95.23447, 26.774680000000004], [95.23536000000001, 26.77382], [95.23460000000001, 26.773100000000003], [95.2342, 26.773120000000002]]]}}, {"id": "28", "type": "Feature", "properties": {"village_name": "Maihua", "vil_lgd": 264543, "district_name": "Longding", "dist_lgd": 666, "subdistrict_name": "Pumao Circle", "sdcode": 6584, "block_name": "Niausa", "block_lgd": 68.0, "gp_name": "", "state_name": "ARUNANCHAL PRADESH", "state_lgd": 12, "population": 420, "households": 62}, "geometry": {"type": "Polygon", "coordinates": [[[95.25183000000001, 26.791510000000002], [95.25125000000001, 26.792520000000003], [95.25209000000001, 26.79306], [95.25298000000001, 26.79221], [95.25223000000001, 26.791490000000003], [95.25183000000001, 26.791510000000002]]]}}, {"id": "29", "type": "Feature", "properties": {"village_name": "Chatting", "vil_lgd": 264544, "district_name": "Longding", "dist_lgd": 666, "subdistrict_name": "Pumao Circle", "sdcode": 6584, "block_name": "Niausa", "block_lgd": 68.0, "gp_name": "", "state_name": "ARUNANCHAL PRADESH", "state_lgd": 12, "population": 994, "households": 146}, "geometry": {"type": "Polygon", "coordinates": [[[95.27118, 26.877200000000002], [95.27242000000001, 26.877670000000002], [95.27282000000001, 26.876590000000004], [95.2719, 26.876170000000002], [95.27118, 26.877200000000002]]]}}, {"id": "30", "type": "Feature", "properties": {"village_name": "Pumao", "vil_lgd": 264545, "district_name": "Longding", "dist_lgd": 666, "subdistrict_name": "Pumao Circle", "sdcode": 6584, "block_name": "Niausa", "block_lgd": 68.0, "gp_name": "", "state_name": "ARUNANCHAL PRADESH", "state_lgd": 12, "population": 804, "households": 112}, "geometry": {"type": "Polygon", "coordinates": [[[95.22588, 26.833250000000003], [95.22711000000001, 26.833720000000003], [95.22752000000001, 26.83264], [95.22659, 26.832220000000003], [95.22588, 26.833250000000003]]]}}, {"id": "31", "type": "Feature", "properties": {"village_name": "Pumao H Q", "vil_lgd": 264546, "district_name": "Longding", "dist_lgd": 666, "subdistrict_name": "Pumao Circle", "sdcode": 6584, "block_name": "Niausa", "block_lgd": 68.0, "gp_name": "", "state_name": "ARUNANCHAL PRADESH", "state_lgd": 12, "population": 966, "households": 139}, "geometry": {"type": "Polygon", "coordinates": [[[95.23708, 26.82899], [95.23831000000001, 26.82945], [95.23872, 26.828370000000003], [95.23779, 26.82796], [95.23708, 26.82899]]]}}, {"id": "32", "type": "Feature", "properties": {"village_name": "Longding", "vil_lgd": 801442, "district_name": "Longding", "dist_lgd": 666, "subdistrict_name": "Longding HQ", "sdcode": 6074, "block_name": "", "block_lgd": null, "gp_name": "", "state_name": "ARUNANCHAL PRADESH", "state_lgd": 12, "population": 4234, "households": 926}, "geometry": {"type": "Polygon", "coordinates": [[[95.32006000000001, 26.887900000000002], [95.32046000000001, 26.888980000000004], [95.3217, 26.888510000000004], [95.32098, 26.887480000000004], [95.32006000000001, 26.887900000000002]]]}}, {"id": "33", "type": "Feature", "properties": {"village_name": "Data Partially Available", "vil_lgd": 999999, "district_name": "Longding", "dist_lgd": 666, "subdistrict_name": "Longding HQ", "sdcode": 6074, "block_name": "", "block_lgd": null, "gp_name": "", "state_name": "ARUNANCHAL PRADESH", "state_lgd": 12, "population": 0, "households": 0}, "geometry": {"type": "Polygon", "coordinates": [[[95.37479, 27.037340000000004], [95.37706000000001, 27.03741], [95.37880000000001, 27.033230000000003], [95.37568, 27.028070000000003], [95.37613, 27.026750000000003], [95.37984, 27.021720000000002], [95.38456000000001, 27.0196], [95.38845, 27.020400000000002], [95.38979, 27.017750000000003], [95.38510000000001, 27.01206], [95.38875, 27.012190000000004], [95.3935, 27.01048], [95.39395, 27.00862], [95.39291000000001, 27.006240000000002], [95.39098000000001, 27.00532], [95.38548, 27.00505], [95.38251000000001, 26.99658], [95.38430000000001, 26.993540000000003], [95.37984, 26.986130000000003], [95.38177, 26.982160000000004], [95.3794, 26.978990000000003], [95.38044000000001, 26.969990000000003], [95.37969000000001, 26.965750000000003], [95.38355000000001, 26.961920000000003], [95.38326, 26.958610000000004], [95.37375, 26.96271], [95.37257000000001, 26.96139], [95.37405000000001, 26.95596], [95.37316000000001, 26.9553], [95.37064000000001, 26.955830000000002], [95.36871000000001, 26.95305], [95.36871000000001, 26.947750000000003], [95.36648000000001, 26.9369], [95.36692000000001, 26.929620000000003], [95.36915, 26.924850000000003], [95.36618000000001, 26.92207], [95.36722, 26.91889], [95.36885000000001, 26.918370000000003], [95.37138, 26.908040000000003], [95.37049, 26.904460000000004], [95.36381, 26.901280000000003], [95.36277000000001, 26.8989], [95.36559000000001, 26.892940000000003], [95.36841000000001, 26.89056], [95.36930000000001, 26.888040000000004], [95.36737000000001, 26.88473], [95.36521, 26.88303], [95.35809, 26.87893], [95.35673000000001, 26.87637], [95.35794000000001, 26.87515], [95.35801000000001, 26.872930000000004], [95.35673000000001, 26.868340000000003], [95.35318000000001, 26.86511], [95.35151, 26.864630000000002], [95.35121000000001, 26.86335], [95.34826000000001, 26.861600000000003], [95.34645, 26.85931], [95.34630000000001, 26.857820000000004], [95.34773000000001, 26.85715], [95.34856, 26.858970000000003], [95.35340000000001, 26.858700000000002], [95.35355000000001, 26.85769], [95.3537, 26.855390000000003], [95.35212000000001, 26.850340000000003], [95.35015000000001, 26.850270000000002], [95.34758000000001, 26.851750000000003], [95.34546, 26.851280000000003], [95.34395, 26.848580000000002], [95.34448, 26.845550000000003], [95.34932, 26.847030000000004], [95.34962, 26.843590000000003], [95.34864, 26.840020000000003], [95.34448, 26.83651], [95.33881000000001, 26.828280000000003], [95.33186, 26.823960000000003], [95.32846, 26.82524], [95.32611000000001, 26.81829], [95.32672000000001, 26.815870000000004], [95.32793000000001, 26.811950000000003], [95.33239, 26.81033], [95.33224000000001, 26.8075], [95.33118, 26.806490000000004], [95.32883000000001, 26.806020000000004], [95.32679, 26.80318], [95.32762000000001, 26.79981], [95.32687000000001, 26.7967], [95.32883000000001, 26.79097], [95.328, 26.78921], [95.32778, 26.78442], [95.32483, 26.780980000000003], [95.32483, 26.779770000000003], [95.32740000000001, 26.777070000000002], [95.32664000000001, 26.775240000000004], [95.32672000000001, 26.772070000000003], [95.32180000000001, 26.77464], [95.31621000000001, 26.773960000000002], [95.31477000000001, 26.77578], [95.30563000000001, 26.767950000000003], [95.30494, 26.76566], [95.30207000000001, 26.764650000000003], [95.29973000000001, 26.76525], [95.29799000000001, 26.76694], [95.29345, 26.774230000000003], [95.28673, 26.777610000000003], [95.28, 26.778620000000004], [95.26979000000001, 26.770650000000003], [95.26533, 26.764650000000003], [95.26367, 26.760930000000002], [95.25732, 26.755060000000004], [95.24598, 26.752160000000003], [95.24636000000001, 26.753780000000003], [95.25165000000001, 26.761680000000002], [95.24953000000001, 26.76303], [95.25210000000001, 26.76741], [95.25271000000001, 26.77126], [95.25467, 26.770450000000004], [95.25739, 26.771670000000004], [95.25997000000001, 26.776660000000003], [95.25974000000001, 26.778750000000002], [95.25838, 26.780440000000002], [95.26306000000001, 26.78489], [95.26359000000001, 26.78901], [95.26261000000001, 26.791710000000002], [95.26609, 26.7967], [95.26571000000001, 26.797510000000003], [95.26367, 26.79765], [95.26246, 26.806420000000003], [95.26352000000001, 26.80824], [95.26329000000001, 26.81276], [95.26246, 26.816950000000002], [95.26012000000001, 26.817690000000002], [95.26087000000001, 26.820050000000002], [95.26042000000001, 26.826120000000003], [95.26155000000001, 26.8272], [95.26231000000001, 26.826590000000003], [95.26836, 26.828750000000003], [95.26994, 26.830640000000002], [95.26926, 26.834220000000002], [95.27085000000001, 26.83556], [95.27047, 26.838060000000002], [95.27115, 26.839750000000002], [95.27274000000001, 26.84089], [95.27781, 26.84042], [95.2797, 26.841500000000003], [95.28287, 26.846090000000004], [95.28166, 26.847640000000002], [95.28287, 26.847910000000002], [95.28453, 26.851550000000003], [95.28748, 26.85452], [95.29066, 26.8533], [95.29421, 26.85931], [95.29383000000001, 26.864630000000002], [95.2955, 26.864230000000003], [95.29625000000001, 26.865380000000002], [95.29376, 26.869560000000003], [95.29512000000001, 26.87178], [95.29625000000001, 26.870910000000002], [95.30109, 26.87084], [95.30245000000001, 26.87327], [95.30245000000001, 26.8763], [95.29973000000001, 26.877580000000002], [95.2998, 26.879060000000003], [95.29595, 26.88641], [95.29761, 26.887700000000002], [95.29912, 26.891540000000003], [95.29912, 26.893700000000003], [95.29791, 26.89579], [95.29572, 26.895850000000003], [95.29482, 26.89862], [95.29255, 26.90199], [95.29277, 26.90415], [95.2955, 26.906910000000003], [95.29531000000001, 26.91091], [95.2933, 26.915260000000004], [95.29357, 26.91759], [95.29558, 26.92022], [95.29879000000001, 26.922010000000004], [95.30093000000001, 26.920520000000003], [95.31071000000001, 26.92434], [95.31279, 26.927920000000004], [95.31627, 26.929530000000003], [95.31727000000001, 26.929240000000004], [95.31955, 26.932940000000002], [95.32062, 26.939210000000003], [95.31948000000001, 26.940340000000003], [95.32062, 26.94404], [95.32002000000001, 26.946430000000003], [95.31888000000001, 26.947440000000004], [95.31573, 26.947440000000004], [95.30950000000001, 26.94947], [95.30843, 26.952460000000002], [95.30877000000001, 26.957290000000004], [95.31044000000001, 26.96093], [95.30950000000001, 26.96392], [95.3075, 26.964330000000004], [95.30696, 26.965650000000004], [95.30937, 26.96977], [95.3114, 26.97079], [95.31343000000001, 26.97181], [95.31253000000001, 26.974050000000002], [95.31383000000001, 26.974700000000002], [95.31538, 26.97398], [95.31765000000001, 26.97492], [95.31725, 26.97782], [95.32269000000001, 26.9768], [95.32822, 26.980570000000004], [95.32814, 26.983900000000002], [95.33285000000001, 26.98419], [95.33708000000001, 26.98101], [95.34228, 26.98093], [95.33992, 26.984920000000002], [95.34456, 26.985570000000003], [95.35017, 26.9902], [95.34992000000001, 26.99658], [95.35187, 26.99781], [95.35634, 26.998240000000003], [95.36179000000001, 27.00165], [95.36195000000001, 27.00288], [95.35919000000001, 27.003960000000003], [95.35569000000001, 27.00324], [95.35366, 27.005920000000003], [95.35220000000001, 27.01113], [95.35764, 27.019460000000002], [95.35602, 27.022280000000002], [95.35317, 27.02352], [95.35171000000001, 27.025180000000002], [95.35195, 27.026560000000003], [95.35374, 27.028000000000002], [95.35967000000001, 27.028660000000002], [95.36138000000001, 27.032420000000002], [95.36008000000001, 27.03778], [95.36276000000001, 27.039810000000003], [95.36829, 27.041110000000003], [95.37227000000001, 27.038860000000003], [95.37479, 27.037340000000004]], [[95.37289000000001, 27.00738], [95.37249000000001, 27.008460000000003], [95.37129, 27.008070000000004], [95.37188, 27.006970000000003], [95.37289000000001, 27.00738]], [[95.35874000000001, 26.98278], [95.35975, 26.98318], [95.35963000000001, 26.984070000000003], [95.35835, 26.98412], [95.35813, 26.98325], [95.35874000000001, 26.98278]], [[95.34902000000001, 26.97593], [95.34977, 26.976650000000003], [95.34888000000001, 26.977500000000003], [95.34804000000001, 26.976960000000002], [95.34862000000001, 26.97595], [95.34902000000001, 26.97593]], [[95.34529, 26.957580000000004], [95.34605, 26.9583], [95.34516, 26.95915], [95.34431000000001, 26.958620000000003], [95.34490000000001, 26.957600000000003], [95.34529, 26.957580000000004]], [[95.32843000000001, 26.93728], [95.32919000000001, 26.938000000000002], [95.32830000000001, 26.938850000000002], [95.32745000000001, 26.93831], [95.32803000000001, 26.9373], [95.32843000000001, 26.93728]], [[95.36129000000001, 26.91016], [95.36088000000001, 26.911240000000003], [95.35968000000001, 26.910850000000003], [95.36027000000001, 26.909760000000002], [95.36129000000001, 26.91016]], [[95.36759, 26.90838], [95.36851000000001, 26.908800000000003], [95.36839, 26.90969], [95.36733000000001, 26.90988], [95.36683000000001, 26.909100000000002], [95.36759, 26.90838]], [[95.34092000000001, 26.899620000000002], [95.34051000000001, 26.9007], [95.33928, 26.90023], [95.33999000000001, 26.8992], [95.34092000000001, 26.899620000000002]], [[95.35778, 26.891800000000003], [95.35737, 26.89288], [95.35614000000001, 26.89242], [95.35686000000001, 26.89139], [95.35778, 26.891800000000003]], [[95.32006000000001, 26.887900000000002], [95.32098, 26.887480000000004], [95.3217, 26.888510000000004], [95.32046000000001, 26.888980000000004], [95.32006000000001, 26.887900000000002]], [[95.30792000000001, 26.889180000000003], [95.30894, 26.888460000000002], [95.3097, 26.889180000000003], [95.30881000000001, 26.890030000000003], [95.30792000000001, 26.889180000000003]], [[95.31354, 26.846680000000003], [95.31314, 26.84776], [95.31193, 26.84737], [95.31253000000001, 26.84627], [95.31354, 26.846680000000003]], [[95.29755, 26.818120000000004], [95.29831, 26.81884], [95.29742, 26.81969], [95.29657, 26.81915], [95.29715, 26.818140000000003], [95.29755, 26.818120000000004]], [[95.29756, 26.802110000000003], [95.29715, 26.803200000000004], [95.29591, 26.802730000000004], [95.29663000000001, 26.801700000000004], [95.29756, 26.802110000000003]], [[95.28686, 26.788110000000003], [95.28633, 26.789150000000003], [95.28518000000001, 26.788660000000004], [95.28581000000001, 26.787630000000004], [95.28686, 26.788110000000003]]]}}, {"id": "34", "type": "Feature", "properties": {"village_name": "Data Partially Available", "vil_lgd": 999999, "district_name": "Longding", "dist_lgd": 666, "subdistrict_name": "Pangchao SDO", "sdcode": 1692, "block_name": "", "block_lgd": null, "gp_name": "", "state_name": "ARUNANCHAL PRADESH", "state_lgd": 12, "population": 0, "households": 0}, "geometry": {"type": "Polygon", "coordinates": [[[95.34490000000001, 26.807190000000002], [95.34539000000001, 26.80449], [95.34769000000001, 26.806220000000003], [95.35272, 26.806050000000003], [95.35345000000001, 26.801190000000002], [95.35545, 26.80016], [95.35660000000001, 26.79669], [95.36539, 26.79399], [95.36715000000001, 26.795130000000004], [95.36933, 26.79464], [95.37084, 26.79323], [95.37127000000001, 26.78695], [95.36739000000001, 26.786140000000003], [95.36533000000001, 26.7783], [95.36793, 26.776460000000004], [95.36696, 26.77175], [95.36872000000001, 26.766820000000003], [95.36818000000001, 26.76385], [95.36969, 26.757890000000003], [95.37212000000001, 26.756490000000003], [95.37363, 26.756490000000003], [95.37782000000001, 26.75221], [95.38224000000001, 26.749830000000003], [95.38242000000001, 26.74772], [95.38400000000001, 26.746630000000003], [95.3866, 26.73889], [95.39036, 26.739220000000003], [95.39491000000001, 26.736020000000003], [95.39764000000001, 26.73224], [95.39697000000001, 26.730610000000002], [95.39727, 26.727960000000003], [95.39952000000001, 26.72471], [95.4034, 26.723090000000003], [95.40533, 26.723950000000002], [95.40873, 26.72314], [95.41285, 26.718970000000002], [95.41346000000001, 26.71507], [95.41473, 26.712640000000004], [95.42043000000001, 26.70765], [95.4291, 26.704300000000003], [95.43165, 26.70173], [95.43138, 26.7007], [95.42908000000001, 26.700850000000003], [95.42677, 26.69873], [95.42267000000001, 26.69734], [95.41753000000001, 26.694200000000002], [95.41185, 26.69405], [95.40924000000001, 26.69573], [95.40301000000001, 26.69497], [95.40191, 26.693620000000003], [95.40113000000001, 26.689300000000003], [95.39477000000001, 26.685290000000002], [95.37625000000001, 26.684790000000003], [95.37382000000001, 26.684140000000003], [95.37159000000001, 26.682820000000003], [95.36953000000001, 26.67856], [95.36681, 26.675520000000002], [95.36054000000001, 26.67104], [95.35574000000001, 26.67266], [95.35143000000001, 26.672010000000004], [95.34879000000001, 26.672870000000003], [95.34853000000001, 26.674870000000002], [95.34671, 26.67535], [95.33579, 26.674480000000003], [95.33478000000001, 26.672030000000003], [95.33071000000001, 26.670520000000003], [95.32934, 26.668740000000003], [95.32731000000001, 26.66862], [95.32648, 26.664550000000002], [95.32496, 26.664970000000004], [95.31996000000001, 26.663970000000003], [95.31709000000001, 26.664720000000003], [95.31596, 26.663320000000002], [95.31361000000001, 26.6627], [95.30396, 26.651010000000003], [95.29993, 26.65117], [95.29586, 26.65284], [95.29191, 26.652500000000003], [95.28976, 26.653160000000003], [95.28866000000001, 26.654460000000004], [95.28518000000001, 26.65537], [95.2839, 26.656840000000003], [95.28160000000001, 26.655890000000003], [95.27433, 26.658630000000002], [95.27154, 26.657290000000003], [95.2642, 26.656650000000003], [95.26019000000001, 26.655250000000002], [95.25823000000001, 26.65649], [95.25657000000001, 26.661450000000002], [95.25693000000001, 26.667880000000004], [95.25888, 26.67188], [95.25623, 26.67716], [95.24917, 26.68371], [95.24247000000001, 26.68239], [95.23474, 26.682570000000002], [95.23321000000001, 26.68109], [95.23224, 26.68223], [95.23226000000001, 26.68551], [95.22998000000001, 26.69112], [95.23241, 26.70624], [95.22598, 26.71093], [95.22454, 26.717920000000003], [95.21252000000001, 26.72943], [95.21324000000001, 26.73543], [95.21736000000001, 26.741550000000004], [95.21776000000001, 26.74564], [95.21566000000001, 26.74969], [95.22024, 26.750560000000004], [95.23507000000001, 26.75701], [95.23869, 26.75514], [95.24059000000001, 26.752940000000002], [95.24598, 26.752160000000003], [95.25732, 26.755060000000004], [95.26367, 26.760930000000002], [95.26533, 26.764650000000003], [95.26979000000001, 26.770650000000003], [95.28, 26.778620000000004], [95.28673, 26.777610000000003], [95.29345, 26.774230000000003], [95.29799000000001, 26.76694], [95.29973000000001, 26.76525], [95.30207000000001, 26.764650000000003], [95.30494, 26.76566], [95.30563000000001, 26.767950000000003], [95.31477000000001, 26.77578], [95.31621000000001, 26.773960000000002], [95.32180000000001, 26.77464], [95.32672000000001, 26.772070000000003], [95.32664000000001, 26.775240000000004], [95.32740000000001, 26.777070000000002], [95.32483, 26.779770000000003], [95.32483, 26.780980000000003], [95.32778, 26.78442], [95.328, 26.78921], [95.32883000000001, 26.79097], [95.32687000000001, 26.7967], [95.32762000000001, 26.79981], [95.32679, 26.80318], [95.32883000000001, 26.806020000000004], [95.33118, 26.806490000000004], [95.33224000000001, 26.8075], [95.33239, 26.81033], [95.33326000000001, 26.81087], [95.33617000000001, 26.81011], [95.33799, 26.811460000000004], [95.34042000000001, 26.81098], [95.34375000000001, 26.81173], [95.34545000000001, 26.810710000000004], [95.34490000000001, 26.807190000000002]], [[95.34852000000001, 26.76629], [95.34927, 26.767010000000003], [95.34838, 26.767870000000002], [95.34754000000001, 26.76733], [95.34812000000001, 26.76631], [95.34852000000001, 26.76629]], [[95.33439000000001, 26.762600000000003], [95.33515000000001, 26.763330000000003], [95.33426000000001, 26.764180000000003], [95.33341000000001, 26.763640000000002], [95.33399000000001, 26.762620000000002], [95.33439000000001, 26.762600000000003]], [[95.35221000000001, 26.747270000000004], [95.35297000000001, 26.74799], [95.35208, 26.74885], [95.35123, 26.748310000000004], [95.35182, 26.747290000000003], [95.35221000000001, 26.747270000000004]], [[95.25614, 26.745520000000003], [95.25689000000001, 26.746250000000003], [95.25600000000001, 26.747100000000003], [95.25516, 26.746560000000002], [95.25574, 26.745540000000002], [95.25614, 26.745520000000003]], [[95.37918, 26.72905], [95.37877, 26.730140000000002], [95.37753000000001, 26.729670000000002], [95.37825000000001, 26.728640000000002], [95.37918, 26.72905]], [[95.26767000000001, 26.728080000000002], [95.26726000000001, 26.729160000000004], [95.26603000000001, 26.728700000000003], [95.26674000000001, 26.727660000000004], [95.26767000000001, 26.728080000000002]], [[95.35716000000001, 26.71854], [95.35809, 26.718960000000003], [95.35768, 26.72004], [95.35663000000001, 26.71985], [95.35650000000001, 26.718960000000003], [95.35716000000001, 26.71854]], [[95.27787000000001, 26.71815], [95.27863, 26.718870000000003], [95.27774000000001, 26.719730000000002], [95.27689000000001, 26.71919], [95.27748000000001, 26.71817], [95.27787000000001, 26.71815]], [[95.31614, 26.70905], [95.31573, 26.710140000000003], [95.31453, 26.709750000000003], [95.31513000000001, 26.708650000000002], [95.31614, 26.70905]], [[95.37396000000001, 26.688660000000002], [95.37355000000001, 26.689750000000004], [95.37235000000001, 26.68936], [95.37295, 26.688260000000003], [95.37396000000001, 26.688660000000002]], [[95.29868, 26.693520000000003], [95.29961, 26.6931], [95.30032000000001, 26.69414], [95.29909, 26.6946], [95.29868, 26.693520000000003]], [[95.27446, 26.695960000000003], [95.27522, 26.695240000000002], [95.27624, 26.695960000000003], [95.27535, 26.696810000000003], [95.27446, 26.695960000000003]], [[95.31962000000001, 26.682450000000003], [95.31921000000001, 26.68353], [95.31801, 26.68314], [95.3186, 26.682050000000004], [95.31962000000001, 26.682450000000003]]]}}, {"id": "35", "type": "Feature", "properties": {"village_name": "Rusa", "vil_lgd": 264511, "district_name": "Longding", "dist_lgd": 666, "subdistrict_name": "Lawnu Circle", "sdcode": 1689, "block_name": "Kanubari", "block_lgd": 67.0, "gp_name": "", "state_name": "ARUNANCHAL PRADESH", "state_lgd": 12, "population": 359, "households": 70}, "geometry": {"type": "Polygon", "coordinates": [[[95.28175, 27.01941], [95.28187000000001, 27.020300000000002], [95.28293000000001, 27.020490000000002], [95.28343000000001, 27.019710000000003], [95.28267000000001, 27.018990000000002], [95.28175, 27.01941]]]}}, {"id": "36", "type": "Feature", "properties": {"village_name": "Tanglan Rusa", "vil_lgd": 264512, "district_name": "Longding", "dist_lgd": 666, "subdistrict_name": "Lawnu Circle", "sdcode": 1689, "block_name": "Kanubari", "block_lgd": 67.0, "gp_name": "", "state_name": "ARUNANCHAL PRADESH", "state_lgd": 12, "population": 115, "households": 26}, "geometry": {"type": "Polygon", "coordinates": [[[95.30311, 27.019450000000003], [95.30253, 27.020460000000003], [95.30338, 27.021], [95.30427, 27.02015], [95.30351, 27.019430000000003], [95.30311, 27.019450000000003]]]}}, {"id": "37", "type": "Feature", "properties": {"village_name": "Data Partially Available", "vil_lgd": 999999, "district_name": "Longding", "dist_lgd": 666, "subdistrict_name": "Pumao Circle", "sdcode": 6584, "block_name": "", "block_lgd": null, "gp_name": "", "state_name": "ARUNANCHAL PRADESH", "state_lgd": 12, "population": 0, "households": 0}, "geometry": {"type": "Polygon", "coordinates": [[[95.29572, 26.895850000000003], [95.29791, 26.89579], [95.29912, 26.893700000000003], [95.29912, 26.891540000000003], [95.29761, 26.887700000000002], [95.29595, 26.88641], [95.2998, 26.879060000000003], [95.29973000000001, 26.877580000000002], [95.30245000000001, 26.8763], [95.30245000000001, 26.87327], [95.30109, 26.87084], [95.29625000000001, 26.870910000000002], [95.29512000000001, 26.87178], [95.29376, 26.869560000000003], [95.29625000000001, 26.865380000000002], [95.2955, 26.864230000000003], [95.29383000000001, 26.864630000000002], [95.29421, 26.85931], [95.29066, 26.8533], [95.28748, 26.85452], [95.28453, 26.851550000000003], [95.28287, 26.847910000000002], [95.28166, 26.847640000000002], [95.28287, 26.846090000000004], [95.2797, 26.841500000000003], [95.27781, 26.84042], [95.27274000000001, 26.84089], [95.27115, 26.839750000000002], [95.27047, 26.838060000000002], [95.27085000000001, 26.83556], [95.26926, 26.834220000000002], [95.26994, 26.830640000000002], [95.26836, 26.828750000000003], [95.26231000000001, 26.826590000000003], [95.26155000000001, 26.8272], [95.26042000000001, 26.826120000000003], [95.26087000000001, 26.820050000000002], [95.26012000000001, 26.817690000000002], [95.26246, 26.816950000000002], [95.26329000000001, 26.81276], [95.26352000000001, 26.80824], [95.26246, 26.806420000000003], [95.26367, 26.79765], [95.26571000000001, 26.797510000000003], [95.26609, 26.7967], [95.26261000000001, 26.791710000000002], [95.26359000000001, 26.78901], [95.26306000000001, 26.78489], [95.25838, 26.780440000000002], [95.25974000000001, 26.778750000000002], [95.25997000000001, 26.776660000000003], [95.25739, 26.771670000000004], [95.25467, 26.770450000000004], [95.25271000000001, 26.77126], [95.25210000000001, 26.76741], [95.24953000000001, 26.76303], [95.25165000000001, 26.761680000000002], [95.24636000000001, 26.753780000000003], [95.24598, 26.752160000000003], [95.24059000000001, 26.752940000000002], [95.23869, 26.75514], [95.23507000000001, 26.75701], [95.22024, 26.750560000000004], [95.21566000000001, 26.74969], [95.21651000000001, 26.753960000000003], [95.22048000000001, 26.755860000000002], [95.22562, 26.762610000000002], [95.2296, 26.766060000000003], [95.22973, 26.767850000000003], [95.22809000000001, 26.77184], [95.23110000000001, 26.774490000000004], [95.23897000000001, 26.778630000000003], [95.24135000000001, 26.781450000000003], [95.23816000000001, 26.781060000000004], [95.23670000000001, 26.783310000000004], [95.23146000000001, 26.783440000000002], [95.22393000000001, 26.786510000000003], [95.21805, 26.787720000000004], [95.21162000000001, 26.79259], [95.20336, 26.805940000000003], [95.20009, 26.815590000000004], [95.19915, 26.823030000000003], [95.19712000000001, 26.82719], [95.19562, 26.83424], [95.1971, 26.837190000000003], [95.20299000000001, 26.840580000000003], [95.20519, 26.84502], [95.20083000000001, 26.84325], [95.19432, 26.845850000000002], [95.19392, 26.84371], [95.19221, 26.843940000000003], [95.18966, 26.84551], [95.1824, 26.854000000000003], [95.18114000000001, 26.8592], [95.20307000000001, 26.872220000000002], [95.20800000000001, 26.876070000000002], [95.20948000000001, 26.87995], [95.21448000000001, 26.881200000000003], [95.22656, 26.879970000000004], [95.23048000000001, 26.885150000000003], [95.22797000000001, 26.892670000000003], [95.23344, 26.893770000000004], [95.24837000000001, 26.894370000000002], [95.25681, 26.897650000000002], [95.26236, 26.90302], [95.26812000000001, 26.906550000000003], [95.27321, 26.90679], [95.29531000000001, 26.91091], [95.2955, 26.906910000000003], [95.29277, 26.90415], [95.29255, 26.90199], [95.29482, 26.89862], [95.29572, 26.895850000000003]], [[95.27282000000001, 26.876590000000004], [95.27242000000001, 26.877670000000002], [95.27118, 26.877200000000002], [95.2719, 26.876170000000002], [95.27282000000001, 26.876590000000004]], [[95.22752000000001, 26.83264], [95.22711000000001, 26.833720000000003], [95.22588, 26.833250000000003], [95.22659, 26.832220000000003], [95.22752000000001, 26.83264]], [[95.23872, 26.828370000000003], [95.23831000000001, 26.82945], [95.23708, 26.82899], [95.23779, 26.82796], [95.23872, 26.828370000000003]], [[95.25223000000001, 26.791490000000003], [95.25298000000001, 26.79221], [95.25209000000001, 26.79306], [95.25125000000001, 26.792520000000003], [95.25183000000001, 26.791510000000002], [95.25223000000001, 26.791490000000003]], [[95.23460000000001, 26.773100000000003], [95.23536000000001, 26.77382], [95.23447, 26.774680000000004], [95.23362, 26.774140000000003], [95.2342, 26.773120000000002], [95.23460000000001, 26.773100000000003]]]}}, {"id": "38", "type": "Feature", "properties": {"village_name": "Ranlamri", "vil_lgd": 264513, "district_name": "Longding", "dist_lgd": 666, "subdistrict_name": "Lawnu Circle", "sdcode": 1689, "block_name": "Kanubari", "block_lgd": 67.0, "gp_name": "", "state_name": "ARUNANCHAL PRADESH", "state_lgd": 12, "population": 109, "households": 21}, "geometry": {"type": "Polygon", "coordinates": [[[95.30865000000001, 27.028440000000003], [95.30807, 27.02945], [95.30891000000001, 27.02999], [95.30980000000001, 27.02914], [95.30904000000001, 27.02842], [95.30865000000001, 27.028440000000003]]]}}, {"id": "39", "type": "Feature", "properties": {"village_name": "Kamku Rusa", "vil_lgd": 264514, "district_name": "Longding", "dist_lgd": 666, "subdistrict_name": "Lawnu Circle", "sdcode": 1689, "block_name": "Kanubari", "block_lgd": 67.0, "gp_name": "", "state_name": "ARUNANCHAL PRADESH", "state_lgd": 12, "population": 254, "households": 55}, "geometry": {"type": "Polygon", "coordinates": [[[95.27914000000001, 27.02579], [95.27927000000001, 27.026680000000002], [95.28078000000001, 27.026400000000002], [95.28007000000001, 27.025370000000002], [95.27914000000001, 27.02579]]]}}, {"id": "40", "type": "Feature", "properties": {"village_name": "Hasse Rusa", "vil_lgd": 264515, "district_name": "Longding", "dist_lgd": 666, "subdistrict_name": "Lawnu Circle", "sdcode": 1689, "block_name": "Kanubari", "block_lgd": 67.0, "gp_name": "", "state_name": "ARUNANCHAL PRADESH", "state_lgd": 12, "population": 670, "households": 136}, "geometry": {"type": "Polygon", "coordinates": [[[95.26356000000001, 27.02119], [95.26298000000001, 27.0222], [95.26382000000001, 27.022740000000002], [95.26471000000001, 27.021890000000003], [95.26395000000001, 27.02117], [95.26356000000001, 27.02119]]]}}, {"id": "41", "type": "Feature", "properties": {"village_name": "Linglam Russa", "vil_lgd": 264516, "district_name": "Longding", "dist_lgd": 666, "subdistrict_name": "Lawnu Circle", "sdcode": 1689, "block_name": "Kanubari", "block_lgd": 67.0, "gp_name": "", "state_name": "ARUNANCHAL PRADESH", "state_lgd": 12, "population": 123, "households": 21}, "geometry": {"type": "Polygon", "coordinates": [[[95.27837000000001, 27.01161], [95.27779000000001, 27.01263], [95.27864000000001, 27.013170000000002], [95.27953000000001, 27.012310000000003], [95.27877000000001, 27.01159], [95.27837000000001, 27.01161]]]}}, {"id": "42", "type": "Feature", "properties": {"village_name": "Tiru Russa", "vil_lgd": 264517, "district_name": "Longding", "dist_lgd": 666, "subdistrict_name": "Lawnu Circle", "sdcode": 1689, "block_name": "Kanubari", "block_lgd": 67.0, "gp_name": "", "state_name": "ARUNANCHAL PRADESH", "state_lgd": 12, "population": 305, "households": 48}, "geometry": {"type": "Polygon", "coordinates": [[[95.27237000000001, 27.026380000000003], [95.27326000000001, 27.027230000000003], [95.27415, 27.026380000000003], [95.27340000000001, 27.025660000000002], [95.27237000000001, 27.026380000000003]]]}}, {"id": "43", "type": "Feature", "properties": {"village_name": "Ranglua Rusa", "vil_lgd": 264518, "district_name": "Longding", "dist_lgd": 666, "subdistrict_name": "Lawnu Circle", "sdcode": 1689, "block_name": "Kanubari", "block_lgd": 67.0, "gp_name": "", "state_name": "ARUNANCHAL PRADESH", "state_lgd": 12, "population": 249, "households": 39}, "geometry": {"type": "Polygon", "coordinates": [[[95.27137, 27.029740000000004], [95.27079, 27.03075], [95.27164, 27.031290000000002], [95.27253, 27.030440000000002], [95.27177, 27.02972], [95.27137, 27.029740000000004]]]}}, {"id": "44", "type": "Feature", "properties": {"village_name": "Chopsa", "vil_lgd": 264519, "district_name": "Longding", "dist_lgd": 666, "subdistrict_name": "Lawnu Circle", "sdcode": 1689, "block_name": "Kanubari", "block_lgd": 67.0, "gp_name": "", "state_name": "ARUNANCHAL PRADESH", "state_lgd": 12, "population": 306, "households": 57}, "geometry": {"type": "Polygon", "coordinates": [[[95.33162, 27.05291], [95.33251000000001, 27.05376], [95.33341000000001, 27.05291], [95.33265, 27.052190000000003], [95.33162, 27.05291]]]}}, {"id": "45", "type": "Feature", "properties": {"village_name": "Chopnu", "vil_lgd": 264520, "district_name": "Longding", "dist_lgd": 666, "subdistrict_name": "Lawnu Circle", "sdcode": 1689, "block_name": "Kanubari", "block_lgd": 67.0, "gp_name": "", "state_name": "ARUNANCHAL PRADESH", "state_lgd": 12, "population": 723, "households": 119}, "geometry": {"type": "Polygon", "coordinates": [[[95.32446, 27.006880000000002], [95.32505, 27.007610000000003], [95.32602000000001, 27.00739], [95.32615000000001, 27.006500000000003], [95.32513, 27.006100000000004], [95.32446, 27.006880000000002]]]}}, {"id": "46", "type": "Feature", "properties": {"village_name": "Nokfan", "vil_lgd": 264521, "district_name": "Longding", "dist_lgd": 666, "subdistrict_name": "Lawnu Circle", "sdcode": 1689, "block_name": "Kanubari", "block_lgd": 67.0, "gp_name": "", "state_name": "ARUNANCHAL PRADESH", "state_lgd": 12, "population": 331, "households": 52}, "geometry": {"type": "Polygon", "coordinates": [[[95.3639, 27.062210000000004], [95.36505000000001, 27.062710000000003], [95.36558000000001, 27.061670000000003], [95.36453, 27.061190000000003], [95.3639, 27.062210000000004]]]}}, {"id": "47", "type": "Feature", "properties": {"village_name": "Otongkhua", "vil_lgd": 264523, "district_name": "Longding", "dist_lgd": 666, "subdistrict_name": "Lawnu Circle", "sdcode": 1689, "block_name": "Kanubari", "block_lgd": 67.0, "gp_name": "", "state_name": "ARUNANCHAL PRADESH", "state_lgd": 12, "population": 464, "households": 102}, "geometry": {"type": "Polygon", "coordinates": [[[95.38104000000001, 27.069860000000002], [95.38117000000001, 27.070750000000004], [95.38222, 27.070940000000004], [95.38273000000001, 27.07016], [95.38197000000001, 27.069440000000004], [95.38104000000001, 27.069860000000002]]]}}, {"id": "48", "type": "Feature", "properties": {"village_name": "Longkhojan", "vil_lgd": 264524, "district_name": "Longding", "dist_lgd": 666, "subdistrict_name": "Lawnu Circle", "sdcode": 1689, "block_name": "Kanubari", "block_lgd": 67.0, "gp_name": "", "state_name": "ARUNANCHAL PRADESH", "state_lgd": 12, "population": 141, "households": 29}, "geometry": {"type": "Polygon", "coordinates": [[[95.36302, 27.092800000000004], [95.36243, 27.09381], [95.36328, 27.094350000000002], [95.36417, 27.093500000000002], [95.36341, 27.09278], [95.36302, 27.092800000000004]]]}}, {"id": "49", "type": "Feature", "properties": {"village_name": "Kamnu", "vil_lgd": 264525, "district_name": "Longding", "dist_lgd": 666, "subdistrict_name": "Lawnu Circle", "sdcode": 1689, "block_name": "Kanubari", "block_lgd": 67.0, "gp_name": "", "state_name": "ARUNANCHAL PRADESH", "state_lgd": 12, "population": 160, "households": 32}, "geometry": {"type": "Polygon", "coordinates": [[[95.2977, 27.009690000000003], [95.29782, 27.01058], [95.29888000000001, 27.01077], [95.29938000000001, 27.009990000000002], [95.29863, 27.00927], [95.2977, 27.009690000000003]]]}}, {"id": "50", "type": "Feature", "properties": {"village_name": "Lawnu", "vil_lgd": 264526, "district_name": "Longding", "dist_lgd": 666, "subdistrict_name": "Lawnu Circle", "sdcode": 1689, "block_name": "Kanubari", "block_lgd": 67.0, "gp_name": "", "state_name": "ARUNANCHAL PRADESH", "state_lgd": 12, "population": 220, "households": 46}, "geometry": {"type": "Polygon", "coordinates": [[[95.33899000000001, 27.084100000000003], [95.34023, 27.084560000000003], [95.34063, 27.08348], [95.33971000000001, 27.083070000000003], [95.33899000000001, 27.084100000000003]]]}}, {"id": "51", "type": "Feature", "properties": {"village_name": "Orok", "vil_lgd": 264527, "district_name": "Longding", "dist_lgd": 666, "subdistrict_name": "Lawnu Circle", "sdcode": 1689, "block_name": "Kanubari", "block_lgd": 67.0, "gp_name": "", "state_name": "ARUNANCHAL PRADESH", "state_lgd": 12, "population": 96, "households": 18}, "geometry": {"type": "Polygon", "coordinates": [[[95.33509000000001, 27.075260000000004], [95.33632000000001, 27.07572], [95.33673, 27.074640000000002], [95.3358, 27.074230000000004], [95.33509000000001, 27.075260000000004]]]}}, {"id": "52", "type": "Feature", "properties": {"village_name": "Kanubari H Q", "vil_lgd": 264496, "district_name": "Longding", "dist_lgd": 666, "subdistrict_name": "Kanubari ADC", "sdcode": 1688, "block_name": "Kanubari", "block_lgd": 67.0, "gp_name": "", "state_name": "ARUNANCHAL PRADESH", "state_lgd": 12, "population": 1001, "households": 266}, "geometry": {"type": "Polygon", "coordinates": [[[95.20195000000001, 27.02147], [95.20137000000001, 27.02248], [95.20221000000001, 27.023020000000002], [95.2031, 27.022170000000003], [95.20234, 27.02145], [95.20195000000001, 27.02147]]]}}, {"id": "53", "type": "Feature", "properties": {"village_name": "Olingtong", "vil_lgd": 264497, "district_name": "Longding", "dist_lgd": 666, "subdistrict_name": "Kanubari ADC", "sdcode": 1688, "block_name": "Kanubari", "block_lgd": 67.0, "gp_name": "", "state_name": "ARUNANCHAL PRADESH", "state_lgd": 12, "population": 745, "households": 143}, "geometry": {"type": "Polygon", "coordinates": [[[95.21088, 27.006410000000002], [95.21211000000001, 27.006870000000003], [95.21252000000001, 27.00579], [95.2116, 27.005380000000002], [95.21088, 27.006410000000002]]]}}, {"id": "54", "type": "Feature", "properties": {"village_name": "Dasatong", "vil_lgd": 264498, "district_name": "Longding", "dist_lgd": 666, "subdistrict_name": "Kanubari ADC", "sdcode": 1688, "block_name": "Kanubari", "block_lgd": 67.0, "gp_name": "", "state_name": "ARUNANCHAL PRADESH", "state_lgd": 12, "population": 452, "households": 80}, "geometry": {"type": "Polygon", "coordinates": [[[95.20122, 27.027630000000002], [95.20216, 27.02841], [95.203, 27.02755], [95.20189, 27.026850000000003], [95.20122, 27.027630000000002]]]}}, {"id": "55", "type": "Feature", "properties": {"village_name": "Luaksim", "vil_lgd": 264499, "district_name": "Longding", "dist_lgd": 666, "subdistrict_name": "Kanubari ADC", "sdcode": 1688, "block_name": "Kanubari", "block_lgd": 67.0, "gp_name": "", "state_name": "ARUNANCHAL PRADESH", "state_lgd": 12, "population": 595, "households": 104}, "geometry": {"type": "Polygon", "coordinates": [[[95.19422, 27.025440000000003], [95.19363000000001, 27.02645], [95.19448000000001, 27.02699], [95.19537000000001, 27.02614], [95.19461000000001, 27.02542], [95.19422, 27.025440000000003]]]}}, {"id": "56", "type": "Feature", "properties": {"village_name": "Mopakhat Mope T E", "vil_lgd": 264500, "district_name": "Longding", "dist_lgd": 666, "subdistrict_name": "Kanubari ADC", "sdcode": 1688, "block_name": "Kanubari", "block_lgd": 67.0, "gp_name": "", "state_name": "ARUNANCHAL PRADESH", "state_lgd": 12, "population": 753, "households": 135}, "geometry": {"type": "Polygon", "coordinates": [[[95.2146, 27.026850000000003], [95.21549, 27.027700000000003], [95.21638, 27.026850000000003], [95.21562, 27.026130000000002], [95.2146, 27.026850000000003]]]}}, {"id": "57", "type": "Feature", "properties": {"village_name": "Longhua", "vil_lgd": 264501, "district_name": "Longding", "dist_lgd": 666, "subdistrict_name": "Kanubari ADC", "sdcode": 1688, "block_name": "Kanubari", "block_lgd": 67.0, "gp_name": "", "state_name": "ARUNANCHAL PRADESH", "state_lgd": 12, "population": 578, "households": 105}, "geometry": {"type": "Polygon", "coordinates": [[[95.24159, 27.00081], [95.24101, 27.001820000000002], [95.24186, 27.002360000000003], [95.24275, 27.001510000000003], [95.24199, 27.000790000000002], [95.24159, 27.00081]]]}}, {"id": "58", "type": "Feature", "properties": {"village_name": "Banfera", "vil_lgd": 264502, "district_name": "Longding", "dist_lgd": 666, "subdistrict_name": "Kanubari ADC", "sdcode": 1688, "block_name": "Kanubari", "block_lgd": 67.0, "gp_name": "", "state_name": "ARUNANCHAL PRADESH", "state_lgd": 12, "population": 1094, "households": 160}, "geometry": {"type": "Polygon", "coordinates": [[[95.25625000000001, 26.95718], [95.25567000000001, 26.958190000000002], [95.25651, 26.958730000000003], [95.2574, 26.957880000000003], [95.25664, 26.957160000000002], [95.25625000000001, 26.95718]]]}}, {"id": "59", "type": "Feature", "properties": {"village_name": "Kamkah", "vil_lgd": 264503, "district_name": "Longding", "dist_lgd": 666, "subdistrict_name": "Kanubari ADC", "sdcode": 1688, "block_name": "Kanubari", "block_lgd": 67.0, "gp_name": "", "state_name": "ARUNANCHAL PRADESH", "state_lgd": 12, "population": 307, "households": 68}, "geometry": {"type": "Polygon", "coordinates": [[[95.25375000000001, 26.949410000000004], [95.25464000000001, 26.950260000000004], [95.25553000000001, 26.949410000000004], [95.25451000000001, 26.948680000000003], [95.25375000000001, 26.949410000000004]]]}}, {"id": "60", "type": "Feature", "properties": {"village_name": "Longnakshie", "vil_lgd": 264504, "district_name": "Longding", "dist_lgd": 666, "subdistrict_name": "Kanubari ADC", "sdcode": 1688, "block_name": "Kanubari", "block_lgd": 67.0, "gp_name": "", "state_name": "ARUNANCHAL PRADESH", "state_lgd": 12, "population": 180, "households": 34}, "geometry": {"type": "Polygon", "coordinates": [[[95.27480000000001, 26.96899], [95.27422000000001, 26.970010000000002], [95.27506000000001, 26.970540000000003], [95.27595000000001, 26.969690000000003], [95.27520000000001, 26.968970000000002], [95.27480000000001, 26.96899]]]}}, {"id": "61", "type": "Feature", "properties": {"village_name": "Wanu", "vil_lgd": 264505, "district_name": "Longding", "dist_lgd": 666, "subdistrict_name": "Kanubari ADC", "sdcode": 1688, "block_name": "Kanubari", "block_lgd": 67.0, "gp_name": "", "state_name": "ARUNANCHAL PRADESH", "state_lgd": 12, "population": 1147, "households": 175}, "geometry": {"type": "Polygon", "coordinates": [[[95.26315000000001, 26.929570000000002], [95.2643, 26.93006], [95.26483, 26.92902], [95.26378000000001, 26.92854], [95.26315000000001, 26.929570000000002]]]}}, {"id": "62", "type": "Feature", "properties": {"village_name": "Tissing", "vil_lgd": 264506, "district_name": "Longding", "dist_lgd": 666, "subdistrict_name": "Kanubari ADC", "sdcode": 1688, "block_name": "Kanubari", "block_lgd": 67.0, "gp_name": "", "state_name": "ARUNANCHAL PRADESH", "state_lgd": 12, "population": 4, "households": 1}, "geometry": {"type": "Polygon", "coordinates": [[[95.29132000000001, 26.94677], [95.29182, 26.947540000000004], [95.29288000000001, 26.947350000000004], [95.29234000000001, 26.946040000000004], [95.29132000000001, 26.94677]]]}}, {"id": "63", "type": "Feature", "properties": {"village_name": "Tewai", "vil_lgd": 264507, "district_name": "Longding", "dist_lgd": 666, "subdistrict_name": "Kanubari ADC", "sdcode": 1688, "block_name": "Kanubari", "block_lgd": 67.0, "gp_name": "", "state_name": "ARUNANCHAL PRADESH", "state_lgd": 12, "population": 45, "households": 8}, "geometry": {"type": "Polygon", "coordinates": [[[95.23894000000001, 26.943420000000003], [95.23836000000001, 26.944440000000004], [95.23921000000001, 26.94498], [95.24010000000001, 26.94412], [95.23934000000001, 26.9434], [95.23894000000001, 26.943420000000003]]]}}, {"id": "64", "type": "Feature", "properties": {"village_name": "Ringpong", "vil_lgd": 264508, "district_name": "Longding", "dist_lgd": 666, "subdistrict_name": "Kanubari ADC", "sdcode": 1688, "block_name": "Kanubari", "block_lgd": 67.0, "gp_name": "", "state_name": "ARUNANCHAL PRADESH", "state_lgd": 12, "population": 7, "households": 3}, "geometry": {"type": "Polygon", "coordinates": [[[95.25399, 27.0242], [95.25340000000001, 27.02521], [95.25425000000001, 27.025750000000002], [95.25514000000001, 27.024900000000002], [95.25438000000001, 27.02418], [95.25399, 27.0242]]]}}, {"id": "65", "type": "Feature", "properties": {"village_name": "Sangsatham", "vil_lgd": 264509, "district_name": "Longding", "dist_lgd": 666, "subdistrict_name": "Kanubari ADC", "sdcode": 1688, "block_name": "Kanubari", "block_lgd": 67.0, "gp_name": "", "state_name": "ARUNANCHAL PRADESH", "state_lgd": 12, "population": 163, "households": 32}, "geometry": {"type": "Polygon", "coordinates": [[[95.24051000000001, 27.011750000000003], [95.23992000000001, 27.012770000000003], [95.24077000000001, 27.01331], [95.24166000000001, 27.01245], [95.24090000000001, 27.011730000000004], [95.24051000000001, 27.011750000000003]]]}}, {"id": "66", "type": "Feature", "properties": {"village_name": "Ngamding", "vil_lgd": 264510, "district_name": "Longding", "dist_lgd": 666, "subdistrict_name": "Kanubari ADC", "sdcode": 1688, "block_name": "Kanubari", "block_lgd": 67.0, "gp_name": "", "state_name": "ARUNANCHAL PRADESH", "state_lgd": 12, "population": 81, "households": 15}, "geometry": {"type": "Polygon", "coordinates": [[[95.26316000000001, 26.940970000000004], [95.26468000000001, 26.940700000000003], [95.26370000000001, 26.939660000000003], [95.26316000000001, 26.940970000000004]]]}}, {"id": "67", "type": "Feature", "properties": {"village_name": "Chanu", "vil_lgd": 264537, "district_name": "Longding", "dist_lgd": 666, "subdistrict_name": "Longding HQ", "sdcode": 6074, "block_name": "Niausa", "block_lgd": 68.0, "gp_name": "", "state_name": "ARUNANCHAL PRADESH", "state_lgd": 12, "population": 1242, "households": 197}, "geometry": {"type": "Polygon", "coordinates": [[[95.34490000000001, 26.957600000000003], [95.34431000000001, 26.958620000000003], [95.34516, 26.95915], [95.34605, 26.9583], [95.34529, 26.957580000000004], [95.34490000000001, 26.957600000000003]]]}}, {"id": "68", "type": "Feature", "properties": {"village_name": "Langmai", "vil_lgd": 264538, "district_name": "Longding", "dist_lgd": 666, "subdistrict_name": "Longding HQ", "sdcode": 6074, "block_name": "Niausa", "block_lgd": 68.0, "gp_name": "", "state_name": "ARUNANCHAL PRADESH", "state_lgd": 12, "population": 61, "households": 10}, "geometry": {"type": "Polygon", "coordinates": [[[95.34862000000001, 26.97595], [95.34804000000001, 26.976960000000002], [95.34888000000001, 26.977500000000003], [95.34977, 26.976650000000003], [95.34902000000001, 26.97593], [95.34862000000001, 26.97595]]]}}, {"id": "69", "type": "Feature", "properties": {"village_name": "Ozakho", "vil_lgd": 264539, "district_name": "Longding", "dist_lgd": 666, "subdistrict_name": "Longding HQ", "sdcode": 6074, "block_name": "Niausa", "block_lgd": 68.0, "gp_name": "", "state_name": "ARUNANCHAL PRADESH", "state_lgd": 12, "population": 509, "households": 98}, "geometry": {"type": "Polygon", "coordinates": [[[95.35813, 26.98325], [95.35835, 26.98412], [95.35963000000001, 26.984070000000003], [95.35975, 26.98318], [95.35874000000001, 26.98278], [95.35813, 26.98325]]]}}, {"id": "70", "type": "Feature", "properties": {"village_name": "Longsom", "vil_lgd": 264540, "district_name": "Longding", "dist_lgd": 666, "subdistrict_name": "Longding HQ", "sdcode": 6074, "block_name": "Niausa", "block_lgd": 68.0, "gp_name": "", "state_name": "ARUNANCHAL PRADESH", "state_lgd": 12, "population": 995, "households": 159}, "geometry": {"type": "Polygon", "coordinates": [[[95.32803000000001, 26.9373], [95.32745000000001, 26.93831], [95.32830000000001, 26.938850000000002], [95.32919000000001, 26.938000000000002], [95.32843000000001, 26.93728], [95.32803000000001, 26.9373]]]}}, {"id": "71", "type": "Feature", "properties": {"village_name": "Chattong", "vil_lgd": 264541, "district_name": "Longding", "dist_lgd": 666, "subdistrict_name": "Longding HQ", "sdcode": 6074, "block_name": "Niausa", "block_lgd": 68.0, "gp_name": "", "state_name": "ARUNANCHAL PRADESH", "state_lgd": 12, "population": 389, "households": 68}, "geometry": {"type": "Polygon", "coordinates": [[[95.37129, 27.008070000000004], [95.37249000000001, 27.008460000000003], [95.37289000000001, 27.00738], [95.37188, 27.006970000000003], [95.37129, 27.008070000000004]]]}}, {"id": "72", "type": "Feature", "properties": {"village_name": "Data Partially Available", "vil_lgd": 999999, "district_name": "Longding", "dist_lgd": 666, "subdistrict_name": "Lawnu Circle", "sdcode": 1689, "block_name": "", "block_lgd": null, "gp_name": "", "state_name": "ARUNANCHAL PRADESH", "state_lgd": 12, "population": 0, "households": 0}, "geometry": {"type": "Polygon", "coordinates": [[[95.36376000000001, 27.102560000000004], [95.36461000000001, 27.101960000000002], [95.36892, 27.102300000000003], [95.3712, 27.100790000000003], [95.37151000000001, 27.099310000000003], [95.37003000000001, 27.0953], [95.37039000000001, 27.09408], [95.37584000000001, 27.091910000000002], [95.37807000000001, 27.087090000000003], [95.38079, 27.086140000000004], [95.38470000000001, 27.087090000000003], [95.39073, 27.08498], [95.39144, 27.08087], [95.38798000000001, 27.07899], [95.38434000000001, 27.07907], [95.38245, 27.077920000000002], [95.38209, 27.076230000000002], [95.38422000000001, 27.074440000000003], [95.38695000000001, 27.07401], [95.39204000000001, 27.06621], [95.3944, 27.063470000000002], [95.39855000000001, 27.060520000000004], [95.40068000000001, 27.05525], [95.40139, 27.048820000000003], [95.39736, 27.04492], [95.38991000000001, 27.041020000000003], [95.37706000000001, 27.03741], [95.37479, 27.037340000000004], [95.37227000000001, 27.038860000000003], [95.36829, 27.041110000000003], [95.36276000000001, 27.039810000000003], [95.36008000000001, 27.03778], [95.36138000000001, 27.032420000000002], [95.35967000000001, 27.028660000000002], [95.35374, 27.028000000000002], [95.35195, 27.026560000000003], [95.35171000000001, 27.025180000000002], [95.35317, 27.02352], [95.35602, 27.022280000000002], [95.35764, 27.019460000000002], [95.35220000000001, 27.01113], [95.35366, 27.005920000000003], [95.35569000000001, 27.00324], [95.35919000000001, 27.003960000000003], [95.36195000000001, 27.00288], [95.36179000000001, 27.00165], [95.35634, 26.998240000000003], [95.35187, 26.99781], [95.34992000000001, 26.99658], [95.35017, 26.9902], [95.34456, 26.985570000000003], [95.33992, 26.984920000000002], [95.34228, 26.98093], [95.33708000000001, 26.98101], [95.33285000000001, 26.98419], [95.32814, 26.983900000000002], [95.32822, 26.980570000000004], [95.32269000000001, 26.9768], [95.31725, 26.97782], [95.31765000000001, 26.97492], [95.31538, 26.97398], [95.31383000000001, 26.974700000000002], [95.31253000000001, 26.974050000000002], [95.31343000000001, 26.97181], [95.3114, 26.97079], [95.30871, 26.97594], [95.28965000000001, 26.98964], [95.28869, 26.99152], [95.27647, 26.99295], [95.27459, 26.99217], [95.27399000000001, 26.9932], [95.26954, 26.994500000000002], [95.26866000000001, 26.996260000000003], [95.26728000000001, 26.99667], [95.26384, 27.000030000000002], [95.26086000000001, 27.004610000000003], [95.25856, 27.017170000000004], [95.26324000000001, 27.028380000000002], [95.26696000000001, 27.032840000000004], [95.26999, 27.034110000000002], [95.27335000000001, 27.03546], [95.27454, 27.037180000000003], [95.27427, 27.038570000000004], [95.27158000000001, 27.04118], [95.27713000000001, 27.04238], [95.27740000000001, 27.042990000000003], [95.27585, 27.04408], [95.27768, 27.048320000000004], [95.27675, 27.050020000000004], [95.27532000000001, 27.049450000000004], [95.27632000000001, 27.052190000000003], [95.27801000000001, 27.05479], [95.28306, 27.058380000000003], [95.29183, 27.06649], [95.29733, 27.069450000000003], [95.30004000000001, 27.070050000000002], [95.30191, 27.072480000000002], [95.30342, 27.072910000000004], [95.31681, 27.082810000000002], [95.32927000000001, 27.087660000000003], [95.35476000000001, 27.103910000000003], [95.3649, 27.10818], [95.36863000000001, 27.10724], [95.36376000000001, 27.102560000000004]], [[95.36341, 27.09278], [95.36417, 27.093500000000002], [95.36328, 27.094350000000002], [95.36243, 27.09381], [95.36302, 27.092800000000004], [95.36341, 27.09278]], [[95.34063, 27.08348], [95.34023, 27.084560000000003], [95.33899000000001, 27.084100000000003], [95.33971000000001, 27.083070000000003], [95.34063, 27.08348]], [[95.33673, 27.074640000000002], [95.33632000000001, 27.07572], [95.33509000000001, 27.075260000000004], [95.3358, 27.074230000000004], [95.33673, 27.074640000000002]], [[95.38197000000001, 27.069440000000004], [95.38273000000001, 27.07016], [95.38222, 27.070940000000004], [95.38117000000001, 27.070750000000004], [95.38104000000001, 27.069860000000002], [95.38197000000001, 27.069440000000004]], [[95.36558000000001, 27.061670000000003], [95.36505000000001, 27.062710000000003], [95.3639, 27.062210000000004], [95.36453, 27.061190000000003], [95.36558000000001, 27.061670000000003]], [[95.39456000000001, 27.047410000000003], [95.39549000000001, 27.04783], [95.39508000000001, 27.048900000000003], [95.39403, 27.048710000000003], [95.3939, 27.04783], [95.39456000000001, 27.047410000000003]], [[95.33162, 27.05291], [95.33265, 27.052190000000003], [95.33341000000001, 27.05291], [95.33251000000001, 27.05376], [95.33162, 27.05291]], [[95.30904000000001, 27.02842], [95.30980000000001, 27.02914], [95.30891000000001, 27.02999], [95.30807, 27.02945], [95.30865000000001, 27.028440000000003], [95.30904000000001, 27.02842]], [[95.27177, 27.02972], [95.27253, 27.030440000000002], [95.27164, 27.031290000000002], [95.27079, 27.03075], [95.27137, 27.029740000000004], [95.27177, 27.02972]], [[95.27914000000001, 27.02579], [95.28007000000001, 27.025370000000002], [95.28078000000001, 27.026400000000002], [95.27927000000001, 27.026680000000002], [95.27914000000001, 27.02579]], [[95.27237000000001, 27.026380000000003], [95.27340000000001, 27.025660000000002], [95.27415, 27.026380000000003], [95.27326000000001, 27.027230000000003], [95.27237000000001, 27.026380000000003]], [[95.30351, 27.019430000000003], [95.30427, 27.02015], [95.30338, 27.021], [95.30253, 27.020460000000003], [95.30311, 27.019450000000003], [95.30351, 27.019430000000003]], [[95.26395000000001, 27.02117], [95.26471000000001, 27.021890000000003], [95.26382000000001, 27.022740000000002], [95.26298000000001, 27.0222], [95.26356000000001, 27.02119], [95.26395000000001, 27.02117]], [[95.28267000000001, 27.018990000000002], [95.28343000000001, 27.019710000000003], [95.28293000000001, 27.020490000000002], [95.28187000000001, 27.020300000000002], [95.28175, 27.01941], [95.28267000000001, 27.018990000000002]], [[95.27877000000001, 27.01159], [95.27953000000001, 27.012310000000003], [95.27864000000001, 27.013170000000002], [95.27779000000001, 27.01263], [95.27837000000001, 27.01161], [95.27877000000001, 27.01159]], [[95.29863, 27.00927], [95.29938000000001, 27.009990000000002], [95.29888000000001, 27.01077], [95.29782, 27.01058], [95.2977, 27.009690000000003], [95.29863, 27.00927]], [[95.32513, 27.006100000000004], [95.32615000000001, 27.006500000000003], [95.32602000000001, 27.00739], [95.32505, 27.007610000000003], [95.32446, 27.006880000000002], [95.32513, 27.006100000000004]]]}}, {"id": "73", "type": "Feature", "properties": {"village_name": "Data Partially Available", "vil_lgd": 999999, "district_name": "Longding", "dist_lgd": 666, "subdistrict_name": "Kanubari ADC", "sdcode": 1688, "block_name": "", "block_lgd": null, "gp_name": "", "state_name": "ARUNANCHAL PRADESH", "state_lgd": 12, "population": 0, "households": 0}, "geometry": {"type": "Polygon", "coordinates": [[[95.26696000000001, 27.032840000000004], [95.26324000000001, 27.028380000000002], [95.25856, 27.017170000000004], [95.26086000000001, 27.004610000000003], [95.26384, 27.000030000000002], [95.26728000000001, 26.99667], [95.26866000000001, 26.996260000000003], [95.26954, 26.994500000000002], [95.27399000000001, 26.9932], [95.27459, 26.99217], [95.27647, 26.99295], [95.28869, 26.99152], [95.28965000000001, 26.98964], [95.30871, 26.97594], [95.3114, 26.97079], [95.30937, 26.96977], [95.30696, 26.965650000000004], [95.3075, 26.964330000000004], [95.30950000000001, 26.96392], [95.31044000000001, 26.96093], [95.30877000000001, 26.957290000000004], [95.30843, 26.952460000000002], [95.30950000000001, 26.94947], [95.31573, 26.947440000000004], [95.31888000000001, 26.947440000000004], [95.32002000000001, 26.946430000000003], [95.32062, 26.94404], [95.31948000000001, 26.940340000000003], [95.32062, 26.939210000000003], [95.31955, 26.932940000000002], [95.31727000000001, 26.929240000000004], [95.31627, 26.929530000000003], [95.31279, 26.927920000000004], [95.31071000000001, 26.92434], [95.30093000000001, 26.920520000000003], [95.29879000000001, 26.922010000000004], [95.29558, 26.92022], [95.29357, 26.91759], [95.2933, 26.915260000000004], [95.29531000000001, 26.91091], [95.27321, 26.90679], [95.26812000000001, 26.906550000000003], [95.26236, 26.90302], [95.25681, 26.897650000000002], [95.24837000000001, 26.894370000000002], [95.23344, 26.893770000000004], [95.22797000000001, 26.892670000000003], [95.23043000000001, 26.90023], [95.23076, 26.90398], [95.22875, 26.909180000000003], [95.22863000000001, 26.91224], [95.23062, 26.913100000000004], [95.23064000000001, 26.91494], [95.22855000000001, 26.9205], [95.22603000000001, 26.925], [95.22228000000001, 26.92882], [95.21378000000001, 26.928600000000003], [95.21117000000001, 26.93137], [95.20893000000001, 26.937780000000004], [95.20602000000001, 26.951120000000003], [95.21019000000001, 26.95324], [95.20530000000001, 26.95522], [95.20355, 26.957060000000002], [95.20563000000001, 26.959830000000004], [95.21046000000001, 26.962590000000002], [95.21184000000001, 26.964840000000002], [95.20558000000001, 26.96957], [95.20204000000001, 26.97668], [95.20677, 26.977130000000002], [95.20459000000001, 26.979210000000002], [95.19726000000001, 26.98008], [95.19204, 26.984530000000003], [95.19313000000001, 26.99237], [95.19668000000001, 26.993900000000004], [95.19696, 27.000790000000002], [95.19452000000001, 27.010270000000002], [95.19475000000001, 27.01442], [95.19272000000001, 27.0271], [95.19243, 27.035120000000003], [95.19345000000001, 27.03583], [95.19419, 27.03424], [95.19321000000001, 27.031720000000004], [95.19515000000001, 27.031280000000002], [95.19612000000001, 27.032030000000002], [95.19562, 27.035700000000002], [95.19722, 27.03583], [95.19666000000001, 27.036990000000003], [95.19783000000001, 27.03628], [95.20054, 27.036590000000004], [95.20322, 27.035880000000002], [95.20454000000001, 27.037740000000003], [95.20486000000001, 27.034940000000002], [95.20578, 27.03385], [95.20540000000001, 27.032370000000004], [95.20723000000001, 27.03234], [95.20752, 27.030450000000002], [95.21067000000001, 27.030880000000003], [95.20958, 27.03047], [95.21069000000001, 27.028540000000003], [95.21122000000001, 27.029790000000002], [95.21305000000001, 27.029950000000003], [95.21381000000001, 27.030870000000004], [95.21532, 27.0302], [95.21919000000001, 27.031950000000002], [95.22236000000001, 27.034010000000002], [95.22353000000001, 27.036060000000003], [95.22691, 27.034480000000002], [95.23032, 27.035700000000002], [95.23108, 27.03909], [95.22944000000001, 27.041580000000003], [95.23223, 27.04275], [95.23353, 27.040490000000002], [95.23267000000001, 27.038970000000003], [95.23302000000001, 27.037480000000002], [95.23947000000001, 27.03639], [95.24388, 27.025990000000004], [95.24652, 27.023870000000002], [95.25376000000001, 27.02786], [95.25657000000001, 27.030410000000003], [95.25899000000001, 27.03027], [95.25935000000001, 27.03198], [95.25844000000001, 27.033820000000002], [95.25999, 27.035480000000003], [95.26096000000001, 27.0359], [95.26233, 27.03478], [95.26339, 27.03507], [95.27158000000001, 27.04118], [95.27427, 27.038570000000004], [95.27454, 27.037180000000003], [95.27335000000001, 27.03546], [95.26999, 27.034110000000002], [95.26696000000001, 27.032840000000004]], [[95.25438000000001, 27.02418], [95.25514000000001, 27.024900000000002], [95.25425000000001, 27.025750000000002], [95.25340000000001, 27.02521], [95.25399, 27.0242], [95.25438000000001, 27.02418]], [[95.2146, 27.026850000000003], [95.21562, 27.026130000000002], [95.21638, 27.026850000000003], [95.21549, 27.027700000000003], [95.2146, 27.026850000000003]], [[95.20122, 27.027630000000002], [95.20189, 27.026850000000003], [95.203, 27.02755], [95.20216, 27.02841], [95.20122, 27.027630000000002]], [[95.19461000000001, 27.02542], [95.19537000000001, 27.02614], [95.19448000000001, 27.02699], [95.19363000000001, 27.02645], [95.19422, 27.025440000000003], [95.19461000000001, 27.02542]], [[95.20234, 27.02145], [95.2031, 27.022170000000003], [95.20221000000001, 27.023020000000002], [95.20137000000001, 27.02248], [95.20195000000001, 27.02147], [95.20234, 27.02145]], [[95.24090000000001, 27.011730000000004], [95.24166000000001, 27.01245], [95.24077000000001, 27.01331], [95.23992000000001, 27.012770000000003], [95.24051000000001, 27.011750000000003], [95.24090000000001, 27.011730000000004]], [[95.21252000000001, 27.00579], [95.21211000000001, 27.006870000000003], [95.21088, 27.006410000000002], [95.2116, 27.005380000000002], [95.21252000000001, 27.00579]], [[95.24199, 27.000790000000002], [95.24275, 27.001510000000003], [95.24186, 27.002360000000003], [95.24101, 27.001820000000002], [95.24159, 27.00081], [95.24199, 27.000790000000002]], [[95.27520000000001, 26.968970000000002], [95.27595000000001, 26.969690000000003], [95.27506000000001, 26.970540000000003], [95.27422000000001, 26.970010000000002], [95.27480000000001, 26.96899], [95.27520000000001, 26.968970000000002]], [[95.25664, 26.957160000000002], [95.2574, 26.957880000000003], [95.25651, 26.958730000000003], [95.25567000000001, 26.958190000000002], [95.25625000000001, 26.95718], [95.25664, 26.957160000000002]], [[95.29234000000001, 26.946040000000004], [95.29288000000001, 26.947350000000004], [95.29182, 26.947540000000004], [95.29132000000001, 26.94677], [95.29234000000001, 26.946040000000004]], [[95.25375000000001, 26.949410000000004], [95.25451000000001, 26.948680000000003], [95.25553000000001, 26.949410000000004], [95.25464000000001, 26.950260000000004], [95.25375000000001, 26.949410000000004]], [[95.23934000000001, 26.9434], [95.24010000000001, 26.94412], [95.23921000000001, 26.94498], [95.23836000000001, 26.944440000000004], [95.23894000000001, 26.943420000000003], [95.23934000000001, 26.9434]], [[95.26370000000001, 26.939660000000003], [95.26468000000001, 26.940700000000003], [95.26316000000001, 26.940970000000004], [95.26370000000001, 26.939660000000003]], [[95.26483, 26.92902], [95.2643, 26.93006], [95.26315000000001, 26.929570000000002], [95.26378000000001, 26.92854], [95.26483, 26.92902]]]}}, {"id": "74", "type": "Feature", "properties": {"village_name": "Changkhao", "vil_lgd": 264560, "district_name": "Longding", "dist_lgd": 666, "subdistrict_name": "Wakka SDO", "sdcode": 6012, "block_name": "Wakka", "block_lgd": 70.0, "gp_name": "", "state_name": "ARUNANCHAL PRADESH", "state_lgd": 12, "population": 805, "households": 105}, "geometry": {"type": "Polygon", "coordinates": [[[95.44512, 26.76143], [95.44593, 26.762300000000003], [95.44688000000001, 26.761550000000003], [95.44594000000001, 26.760720000000003], [95.44512, 26.76143]]]}}, {"id": "75", "type": "Feature", "properties": {"village_name": "Chop", "vil_lgd": 264562, "district_name": "Longding", "dist_lgd": 666, "subdistrict_name": "Wakka SDO", "sdcode": 6012, "block_name": "Wakka", "block_lgd": 70.0, "gp_name": "", "state_name": "ARUNANCHAL PRADESH", "state_lgd": 12, "population": 442, "households": 61}, "geometry": {"type": "Polygon", "coordinates": [[[95.44292, 26.73844], [95.44374, 26.739310000000003], [95.44469000000001, 26.738560000000003], [95.44375000000001, 26.737730000000003], [95.44292, 26.73844]]]}}, {"id": "76", "type": "Feature", "properties": {"village_name": "Kaimoi", "vil_lgd": 264566, "district_name": "Longding", "dist_lgd": 666, "subdistrict_name": "Wakka SDO", "sdcode": 6012, "block_name": "Wakka", "block_lgd": 70.0, "gp_name": "", "state_name": "ARUNANCHAL PRADESH", "state_lgd": 12, "population": 749, "households": 127}, "geometry": {"type": "Polygon", "coordinates": [[[95.40993, 26.84832], [95.4107, 26.84906], [95.41170000000001, 26.84832], [95.41080000000001, 26.84749], [95.40993, 26.84832]]]}}, {"id": "77", "type": "Feature", "properties": {"village_name": "Khogla", "vil_lgd": 264567, "district_name": "Longding", "dist_lgd": 666, "subdistrict_name": "Wakka SDO", "sdcode": 6012, "block_name": "Wakka", "block_lgd": 70.0, "gp_name": "", "state_name": "ARUNANCHAL PRADESH", "state_lgd": 12, "population": 733, "households": 111}, "geometry": {"type": "Polygon", "coordinates": [[[95.44849, 26.838970000000003], [95.44926000000001, 26.839710000000004], [95.45026000000001, 26.838970000000003], [95.44936000000001, 26.838140000000003], [95.44849, 26.838970000000003]]]}}, {"id": "78", "type": "Feature", "properties": {"village_name": "Longkai", "vil_lgd": 264568, "district_name": "Longding", "dist_lgd": 666, "subdistrict_name": "Wakka SDO", "sdcode": 6012, "block_name": "Wakka", "block_lgd": 70.0, "gp_name": "", "state_name": "ARUNANCHAL PRADESH", "state_lgd": 12, "population": 794, "households": 142}, "geometry": {"type": "Polygon", "coordinates": [[[95.39515, 26.867150000000002], [95.39635000000001, 26.86754], [95.39676000000001, 26.866460000000004], [95.39575, 26.86606], [95.39515, 26.867150000000002]]]}}, {"id": "79", "type": "Feature", "properties": {"village_name": "Wakka", "vil_lgd": 264569, "district_name": "Longding", "dist_lgd": 666, "subdistrict_name": "Wakka SDO", "sdcode": 6012, "block_name": "Wakka", "block_lgd": 70.0, "gp_name": "", "state_name": "ARUNANCHAL PRADESH", "state_lgd": 12, "population": 2026, "households": 314}, "geometry": {"type": "Polygon", "coordinates": [[[95.41244, 26.78715], [95.41201000000001, 26.788210000000003], [95.41307, 26.78862], [95.41369, 26.787910000000004], [95.41282000000001, 26.787080000000003], [95.41244, 26.78715]]]}}, {"id": "80", "type": "Feature", "properties": {"village_name": "Kaiho", "vil_lgd": 264570, "district_name": "Longding", "dist_lgd": 666, "subdistrict_name": "Wakka SDO", "sdcode": 6012, "block_name": "Wakka", "block_lgd": 70.0, "gp_name": "", "state_name": "ARUNANCHAL PRADESH", "state_lgd": 12, "population": 155, "households": 24}, "geometry": {"type": "Polygon", "coordinates": [[[95.40441000000001, 26.798050000000003], [95.40542, 26.798790000000004], [95.40618, 26.798050000000003], [95.40531000000001, 26.797220000000003], [95.40441000000001, 26.798050000000003]]]}}, {"id": "81", "type": "Feature", "properties": {"village_name": "Kampong", "vil_lgd": 264571, "district_name": "Longding", "dist_lgd": 666, "subdistrict_name": "Wakka SDO", "sdcode": 6012, "block_name": "Wakka", "block_lgd": 70.0, "gp_name": "", "state_name": "ARUNANCHAL PRADESH", "state_lgd": 12, "population": 99, "households": 13}, "geometry": {"type": "Polygon", "coordinates": [[[95.41341000000001, 26.725430000000003], [95.41297, 26.726490000000002], [95.41389000000001, 26.726940000000003], [95.41465000000001, 26.726190000000003], [95.41379, 26.725360000000002], [95.41341000000001, 26.725430000000003]]]}}, {"id": "82", "type": "Feature", "properties": {"village_name": "Wakka H Q", "vil_lgd": 264572, "district_name": "Longding", "dist_lgd": 666, "subdistrict_name": "Wakka SDO", "sdcode": 6012, "block_name": "Wakka", "block_lgd": 70.0, "gp_name": "", "state_name": "ARUNANCHAL PRADESH", "state_lgd": 12, "population": 422, "households": 88}, "geometry": {"type": "Polygon", "coordinates": [[[95.46217000000001, 26.79238], [95.46294, 26.793120000000002], [95.46394000000001, 26.79238], [95.46307, 26.79155], [95.46217000000001, 26.79238]]]}}, {"id": "83", "type": "Feature", "properties": {"village_name": "Naitong", "vil_lgd": 264522, "district_name": "Longding", "dist_lgd": 666, "subdistrict_name": "Lawnu Circle", "sdcode": 1689, "block_name": "Kanubari", "block_lgd": 67.0, "gp_name": "", "state_name": "ARUNANCHAL PRADESH", "state_lgd": 12, "population": 321, "households": 64}, "geometry": {"type": "Polygon", "coordinates": [[[95.3939, 27.04783], [95.39403, 27.048710000000003], [95.39508000000001, 27.048900000000003], [95.39549000000001, 27.04783], [95.39456000000001, 27.047410000000003], [95.3939, 27.04783]]]}}]}