{"type": "FeatureCollection", "metadata": {"source": "Survey of India (per src_agency attribute in the source data)", "hosted_via": "National Water Data Portal (NWDP), NWIC, Ministry of Jal Shakti -- https://nwdp.nwic.gov.in/", "access": "public, no login required", "crs_original": "EPSG:7755 (WGS 84 / India NSF LCC)", "fetch_date": "2026-08-02", "quality": "verified-official -- Survey of India source", "state": "Arunachal Pradesh", "district": "Pakke Kessang", "processing": "reprojected to EPSG:4326, topology-preserving simplify (shared-arc, tolerance 0.0005 deg) so adjacent polygons never overlap/gap at shared borders, coords rounded 5dp, 0 feature(s) needed the per-feature fallback", "feature_count": 86}, "features": [{"id": "0", "type": "Feature", "properties": {"village_name": "West Dekorai", "vil_lgd": 261908, "district_name": "Pakke Kessang", "dist_lgd": 723, "subdistrict_name": "Seijosa ADC", "sdcode": 6104, "block_name": "Seijosa", "block_lgd": 12.0, "gp_name": "", "state_name": "ARUNANCHAL PRADESH", "state_lgd": 12, "population": 50, "households": 15}, "geometry": {"type": "Polygon", "coordinates": [[[92.98628000000001, 26.943250000000003], [92.98585000000001, 26.94432], [92.98676, 26.944760000000002], [92.98753, 26.944010000000002], [92.98666, 26.94319], [92.98628000000001, 26.943250000000003]]]}}, {"id": "1", "type": "Feature", "properties": {"village_name": "Khari", "vil_lgd": 261907, "district_name": "Pakke Kessang", "dist_lgd": 723, "subdistrict_name": "Seijosa ADC", "sdcode": 6104, "block_name": "Seijosa", "block_lgd": 12.0, "gp_name": "", "state_name": "ARUNANCHAL PRADESH", "state_lgd": 12, "population": 5, "households": 5}, "geometry": {"type": "Polygon", "coordinates": [[[92.92681, 26.97697], [92.92638000000001, 26.978040000000004], [92.92729000000001, 26.97848], [92.92806, 26.97773], [92.92719000000001, 26.9769], [92.92681, 26.97697]]]}}, {"id": "2", "type": "Feature", "properties": {"village_name": "Lower Seijosa", "vil_lgd": 261912, "district_name": "Pakke Kessang", "dist_lgd": 723, "subdistrict_name": "Seijosa ADC", "sdcode": 6104, "block_name": "Seijosa", "block_lgd": 12.0, "gp_name": "", "state_name": "ARUNANCHAL PRADESH", "state_lgd": 12, "population": 479, "households": 107}, "geometry": {"type": "Polygon", "coordinates": [[[92.99999000000001, 26.935740000000003], [92.99955000000001, 26.9368], [93.00047, 26.937240000000003], [93.00123, 26.936500000000002], [93.00036, 26.935670000000002], [92.99999000000001, 26.935740000000003]]]}}, {"id": "3", "type": "Feature", "properties": {"village_name": "Niti Darlong", "vil_lgd": 261906, "district_name": "Pakke Kessang", "dist_lgd": 723, "subdistrict_name": "Seijosa ADC", "sdcode": 6104, "block_name": "Seijosa", "block_lgd": 12.0, "gp_name": "", "state_name": "ARUNANCHAL PRADESH", "state_lgd": 12, "population": 461, "households": 63}, "geometry": {"type": "Polygon", "coordinates": [[[93.00285000000001, 26.93842], [93.00241000000001, 26.939480000000003], [93.00333, 26.93992], [93.00409, 26.939180000000004], [93.00323, 26.938350000000003], [93.00285000000001, 26.93842]]]}}, {"id": "4", "type": "Feature", "properties": {"village_name": "Darlong", "vil_lgd": 261905, "district_name": "Pakke Kessang", "dist_lgd": 723, "subdistrict_name": "Seijosa ADC", "sdcode": 6104, "block_name": "Seijosa", "block_lgd": 12.0, "gp_name": "", "state_name": "ARUNANCHAL PRADESH", "state_lgd": 12, "population": 516, "households": 82}, "geometry": {"type": "Polygon", "coordinates": [[[93.00316000000001, 26.941830000000003], [93.00323, 26.942950000000003], [93.0043, 26.94302], [93.00464000000001, 26.942090000000004], [93.00383000000001, 26.941570000000002], [93.00316000000001, 26.941830000000003]]]}}, {"id": "5", "type": "Feature", "properties": {"village_name": "Upper Seijosa", "vil_lgd": 261913, "district_name": "Pakke Kessang", "dist_lgd": 723, "subdistrict_name": "Seijosa ADC", "sdcode": 6104, "block_name": "Seijosa", "block_lgd": 12.0, "gp_name": "", "state_name": "ARUNANCHAL PRADESH", "state_lgd": 12, "population": 1359, "households": 317}, "geometry": {"type": "Polygon", "coordinates": [[[93.007, 26.94846], [93.00781, 26.949330000000003], [93.00876000000001, 26.948580000000003], [93.00782000000001, 26.947750000000003], [93.007, 26.94846]]]}}, {"id": "6", "type": "Feature", "properties": {"village_name": "Monai", "vil_lgd": 261909, "district_name": "Pakke Kessang", "dist_lgd": 723, "subdistrict_name": "Seijosa ADC", "sdcode": 6104, "block_name": "Seijosa", "block_lgd": 12.0, "gp_name": "", "state_name": "ARUNANCHAL PRADESH", "state_lgd": 12, "population": 43, "households": 14}, "geometry": {"type": "Polygon", "coordinates": [[[93.02559000000001, 26.920830000000002], [93.02515000000001, 26.92189], [93.02607, 26.922340000000002], [93.02683, 26.921590000000002], [93.02596000000001, 26.92076], [93.02559000000001, 26.920830000000002]]]}}, {"id": "7", "type": "Feature", "properties": {"village_name": "Bali Basti", "vil_lgd": 261904, "district_name": "Pakke Kessang", "dist_lgd": 723, "subdistrict_name": "Seijosa ADC", "sdcode": 6104, "block_name": "Seijosa", "block_lgd": 12.0, "gp_name": "", "state_name": "ARUNANCHAL PRADESH", "state_lgd": 12, "population": 259, "households": 45}, "geometry": {"type": "Polygon", "coordinates": [[[93.02227, 26.97332], [93.02184000000001, 26.974380000000004], [93.02275, 26.97482], [93.02352, 26.97408], [93.02265000000001, 26.973250000000004], [93.02227, 26.97332]]]}}, {"id": "8", "type": "Feature", "properties": {"village_name": "A 2 Block", "vil_lgd": 261902, "district_name": "Pakke Kessang", "dist_lgd": 723, "subdistrict_name": "Seijosa ADC", "sdcode": 6104, "block_name": "Seijosa", "block_lgd": 12.0, "gp_name": "", "state_name": "ARUNANCHAL PRADESH", "state_lgd": 12, "population": 78, "households": 16}, "geometry": {"type": "Polygon", "coordinates": [[[93.02604000000001, 26.980300000000003], [93.02560000000001, 26.981360000000002], [93.02652, 26.981800000000003], [93.02729000000001, 26.981060000000003], [93.02642, 26.980230000000002], [93.02604000000001, 26.980300000000003]]]}}, {"id": "9", "type": "Feature", "properties": {"village_name": "A 1 Block", "vil_lgd": 261901, "district_name": "Pakke Kessang", "dist_lgd": 723, "subdistrict_name": "Seijosa ADC", "sdcode": 6104, "block_name": "Seijosa", "block_lgd": 12.0, "gp_name": "", "state_name": "ARUNANCHAL PRADESH", "state_lgd": 12, "population": 27, "households": 5}, "geometry": {"type": "Polygon", "coordinates": [[[93.03312000000001, 26.984330000000003], [93.03268000000001, 26.985390000000002], [93.03375000000001, 26.9858], [93.03436, 26.985090000000003], [93.03349000000001, 26.984260000000003], [93.03312000000001, 26.984330000000003]]]}}, {"id": "10", "type": "Feature", "properties": {"village_name": "A 3 Block", "vil_lgd": 261903, "district_name": "Pakke Kessang", "dist_lgd": 723, "subdistrict_name": "Seijosa ADC", "sdcode": 6104, "block_name": "Seijosa", "block_lgd": 12.0, "gp_name": "", "state_name": "ARUNANCHAL PRADESH", "state_lgd": 12, "population": 29, "households": 4}, "geometry": {"type": "Polygon", "coordinates": [[[93.03275000000001, 26.98965], [93.03375000000001, 26.99039], [93.03451000000001, 26.98965], [93.03362000000001, 26.98882], [93.03275000000001, 26.98965]]]}}, {"id": "11", "type": "Feature", "properties": {"village_name": "Goloso Forest Camp", "vil_lgd": 261900, "district_name": "Pakke Kessang", "dist_lgd": 723, "subdistrict_name": "Seijosa ADC", "sdcode": 6104, "block_name": "Seijosa", "block_lgd": 12.0, "gp_name": "", "state_name": "ARUNANCHAL PRADESH", "state_lgd": 12, "population": 214, "households": 46}, "geometry": {"type": "Polygon", "coordinates": [[[93.04133, 26.99434], [93.04233, 26.99509], [93.04310000000001, 26.99434], [93.04220000000001, 26.993520000000004], [93.04133, 26.99434]]]}}, {"id": "12", "type": "Feature", "properties": {"village_name": "Mobuso 1", "vil_lgd": 261899, "district_name": "Pakke Kessang", "dist_lgd": 723, "subdistrict_name": "Seijosa ADC", "sdcode": 6104, "block_name": "Seijosa", "block_lgd": 12.0, "gp_name": "", "state_name": "ARUNANCHAL PRADESH", "state_lgd": 12, "population": 82, "households": 18}, "geometry": {"type": "Polygon", "coordinates": [[[93.02401, 26.9875], [93.02478, 26.98824], [93.02578000000001, 26.9875], [93.02488000000001, 26.986670000000004], [93.02401, 26.9875]]]}}, {"id": "13", "type": "Feature", "properties": {"village_name": "Dirring", "vil_lgd": 261911, "district_name": "Pakke Kessang", "dist_lgd": 723, "subdistrict_name": "Seijosa ADC", "sdcode": 6104, "block_name": "Seijosa", "block_lgd": 12.0, "gp_name": "", "state_name": "ARUNANCHAL PRADESH", "state_lgd": 12, "population": 1, "households": 1}, "geometry": {"type": "Polygon", "coordinates": [[[93.09545000000001, 26.924770000000002], [93.09599000000001, 26.925790000000003], [93.09712, 26.92528], [93.09638000000001, 26.924260000000004], [93.09545000000001, 26.924770000000002]]]}}, {"id": "14", "type": "Feature", "properties": {"village_name": "Taro Boso", "vil_lgd": 261917, "district_name": "Pakke Kessang", "dist_lgd": 723, "subdistrict_name": "Seijosa ADC", "sdcode": 6104, "block_name": "Seijosa", "block_lgd": 12.0, "gp_name": "", "state_name": "ARUNANCHAL PRADESH", "state_lgd": 12, "population": 24, "households": 3}, "geometry": {"type": "Polygon", "coordinates": [[[93.10224000000001, 26.995600000000003], [93.10180000000001, 26.996660000000002], [93.10287000000001, 26.99707], [93.10349000000001, 26.996360000000003], [93.10262, 26.995530000000002], [93.10224000000001, 26.995600000000003]]]}}, {"id": "15", "type": "Feature", "properties": {"village_name": "Morgaso", "vil_lgd": 261916, "district_name": "Pakke Kessang", "dist_lgd": 723, "subdistrict_name": "Seijosa ADC", "sdcode": 6104, "block_name": "Seijosa", "block_lgd": 12.0, "gp_name": "", "state_name": "ARUNANCHAL PRADESH", "state_lgd": 12, "population": 23, "households": 4}, "geometry": {"type": "Polygon", "coordinates": [[[93.08251000000001, 27.015320000000003], [93.08208, 27.01638], [93.08299000000001, 27.016820000000003], [93.08376000000001, 27.016080000000002], [93.08289, 27.01525], [93.08251000000001, 27.015320000000003]]]}}, {"id": "16", "type": "Feature", "properties": {"village_name": "Mobuso Ii", "vil_lgd": 261915, "district_name": "Pakke Kessang", "dist_lgd": 723, "subdistrict_name": "Seijosa ADC", "sdcode": 6104, "block_name": "Seijosa", "block_lgd": 12.0, "gp_name": "", "state_name": "ARUNANCHAL PRADESH", "state_lgd": 12, "population": 30, "households": 7}, "geometry": {"type": "Polygon", "coordinates": [[[93.06745000000001, 27.01264], [93.06702000000001, 27.013700000000004], [93.06808000000001, 27.014110000000002], [93.0687, 27.0134], [93.06783, 27.012570000000004], [93.06745000000001, 27.01264]]]}}, {"id": "17", "type": "Feature", "properties": {"village_name": "Jolly", "vil_lgd": 261897, "district_name": "Pakke Kessang", "dist_lgd": 723, "subdistrict_name": "Seijosa ADC", "sdcode": 6104, "block_name": "Seijosa", "block_lgd": 12.0, "gp_name": "", "state_name": "ARUNANCHAL PRADESH", "state_lgd": 12, "population": 236, "households": 53}, "geometry": {"type": "Polygon", "coordinates": [[[93.03726, 27.04331], [93.03803, 27.04406], [93.03903000000001, 27.04331], [93.03813000000001, 27.04248], [93.03726, 27.04331]]]}}, {"id": "18", "type": "Feature", "properties": {"village_name": "Lanka", "vil_lgd": 261896, "district_name": "Pakke Kessang", "dist_lgd": 723, "subdistrict_name": "Seijosa ADC", "sdcode": 6104, "block_name": "Seijosa", "block_lgd": 12.0, "gp_name": "", "state_name": "ARUNANCHAL PRADESH", "state_lgd": 12, "population": 42, "households": 7}, "geometry": {"type": "Polygon", "coordinates": [[[93.03254000000001, 27.07994], [93.03196000000001, 27.080720000000003], [93.03291, 27.081460000000003], [93.03373, 27.0806], [93.03295000000001, 27.079890000000002], [93.03254000000001, 27.07994]]]}}, {"id": "19", "type": "Feature", "properties": {"village_name": "Passo", "vil_lgd": 261932, "district_name": "Pakke Kessang", "dist_lgd": 723, "subdistrict_name": "Dissing Passo Circle", "sdcode": 6099, "block_name": "Seijosa", "block_lgd": 12.0, "gp_name": "", "state_name": "ARUNANCHAL PRADESH", "state_lgd": 12, "population": 150, "households": 24}, "geometry": {"type": "Polygon", "coordinates": [[[93.10421000000001, 27.053720000000002], [93.10362, 27.054730000000003], [93.10447, 27.055270000000004], [93.10536, 27.054420000000004], [93.1046, 27.053700000000003], [93.10421000000001, 27.053720000000002]]]}}, {"id": "20", "type": "Feature", "properties": {"village_name": "Lasum Pathe", "vil_lgd": 261926, "district_name": "Pakke Kessang", "dist_lgd": 723, "subdistrict_name": "Dissing Passo Circle", "sdcode": 6099, "block_name": "Seijosa", "block_lgd": 12.0, "gp_name": "", "state_name": "ARUNANCHAL PRADESH", "state_lgd": 12, "population": 74, "households": 12}, "geometry": {"type": "Polygon", "coordinates": [[[93.11903000000001, 27.04444], [93.11844, 27.045450000000002], [93.11929, 27.045990000000003], [93.12018, 27.045140000000004], [93.11942, 27.044420000000002], [93.11903000000001, 27.04444]]]}}, {"id": "21", "type": "Feature", "properties": {"village_name": "Tapaso", "vil_lgd": 261931, "district_name": "Pakke Kessang", "dist_lgd": 723, "subdistrict_name": "Dissing Passo Circle", "sdcode": 6099, "block_name": "Seijosa", "block_lgd": 12.0, "gp_name": "", "state_name": "ARUNANCHAL PRADESH", "state_lgd": 12, "population": 91, "households": 15}, "geometry": {"type": "Polygon", "coordinates": [[[93.12319000000001, 27.05102], [93.12442, 27.05148], [93.12483, 27.050400000000003], [93.1239, 27.04999], [93.12319000000001, 27.05102]]]}}, {"id": "22", "type": "Feature", "properties": {"village_name": "New Lasum Pathe", "vil_lgd": 261927, "district_name": "Pakke Kessang", "dist_lgd": 723, "subdistrict_name": "Dissing Passo Circle", "sdcode": 6099, "block_name": "Seijosa", "block_lgd": 12.0, "gp_name": "", "state_name": "ARUNANCHAL PRADESH", "state_lgd": 12, "population": 74, "households": 12}, "geometry": {"type": "Polygon", "coordinates": [[[93.14129000000001, 27.035210000000003], [93.14119000000001, 27.036340000000003], [93.14225, 27.036530000000003], [93.14275, 27.035760000000003], [93.14199, 27.035040000000002], [93.14129000000001, 27.035210000000003]]]}}, {"id": "23", "type": "Feature", "properties": {"village_name": "Dissing Passo Hq", "vil_lgd": 261928, "district_name": "Pakke Kessang", "dist_lgd": 723, "subdistrict_name": "Dissing Passo Circle", "sdcode": 6099, "block_name": "Seijosa", "block_lgd": 12.0, "gp_name": "", "state_name": "ARUNANCHAL PRADESH", "state_lgd": 12, "population": 45, "households": 8}, "geometry": {"type": "Polygon", "coordinates": [[[93.14627, 27.02267], [93.1456, 27.023380000000003], [93.14645, 27.024230000000003], [93.14739, 27.023460000000004], [93.14671000000001, 27.02268], [93.14627, 27.02267]]]}}, {"id": "24", "type": "Feature", "properties": {"village_name": "Tayarso", "vil_lgd": 261930, "district_name": "Pakke Kessang", "dist_lgd": 723, "subdistrict_name": "Dissing Passo Circle", "sdcode": 6099, "block_name": "Seijosa", "block_lgd": 12.0, "gp_name": "", "state_name": "ARUNANCHAL PRADESH", "state_lgd": 12, "population": 42, "households": 6}, "geometry": {"type": "Polygon", "coordinates": [[[93.11567000000001, 27.03732], [93.11508, 27.03834], [93.11593, 27.038880000000002], [93.11682, 27.038020000000003], [93.11606, 27.037300000000002], [93.11567000000001, 27.03732]]]}}, {"id": "25", "type": "Feature", "properties": {"village_name": "Sangdu", "vil_lgd": 261925, "district_name": "Pakke Kessang", "dist_lgd": 723, "subdistrict_name": "Dissing Passo Circle", "sdcode": 6099, "block_name": "Seijosa", "block_lgd": 12.0, "gp_name": "", "state_name": "ARUNANCHAL PRADESH", "state_lgd": 12, "population": 47, "households": 12}, "geometry": {"type": "Polygon", "coordinates": [[[93.12845, 26.957900000000002], [93.12705000000001, 26.957580000000004], [93.12677000000001, 26.958440000000003], [93.12792, 26.958940000000002], [93.12845, 26.957900000000002]]]}}, {"id": "26", "type": "Feature", "properties": {"village_name": "New Dissing", "vil_lgd": 261919, "district_name": "Pakke Kessang", "dist_lgd": 723, "subdistrict_name": "Dissing Passo Circle", "sdcode": 6099, "block_name": "Seijosa", "block_lgd": 12.0, "gp_name": "", "state_name": "ARUNANCHAL PRADESH", "state_lgd": 12, "population": 72, "households": 11}, "geometry": {"type": "Polygon", "coordinates": [[[93.12725, 26.952510000000004], [93.12848000000001, 26.95297], [93.12889000000001, 26.951890000000002], [93.12796, 26.951480000000004], [93.12725, 26.952510000000004]]]}}, {"id": "27", "type": "Feature", "properties": {"village_name": "Namorah", "vil_lgd": 261918, "district_name": "Pakke Kessang", "dist_lgd": 723, "subdistrict_name": "Dissing Passo Circle", "sdcode": 6099, "block_name": "Seijosa", "block_lgd": 12.0, "gp_name": "", "state_name": "ARUNANCHAL PRADESH", "state_lgd": 12, "population": 133, "households": 22}, "geometry": {"type": "Polygon", "coordinates": [[[93.13141, 26.935670000000002], [93.13264000000001, 26.936130000000002], [93.13305000000001, 26.935050000000004], [93.13212000000001, 26.934630000000002], [93.13141, 26.935670000000002]]]}}, {"id": "28", "type": "Feature", "properties": {"village_name": "Giladhari", "vil_lgd": 261910, "district_name": "Pakke Kessang", "dist_lgd": 723, "subdistrict_name": "Seijosa ADC", "sdcode": 6104, "block_name": "Seijosa", "block_lgd": 12.0, "gp_name": "", "state_name": "ARUNANCHAL PRADESH", "state_lgd": 12, "population": 0, "households": 0}, "geometry": {"type": "Polygon", "coordinates": [[[93.06452, 26.92763], [93.06552, 26.92838], [93.06629000000001, 26.92763], [93.06542, 26.926810000000003], [93.06452, 26.92763]]]}}, {"id": "29", "type": "Feature", "properties": {"village_name": "Rodoso", "vil_lgd": 261914, "district_name": "Pakke Kessang", "dist_lgd": 723, "subdistrict_name": "Seijosa ADC", "sdcode": 6104, "block_name": "Seijosa", "block_lgd": 12.0, "gp_name": "", "state_name": "ARUNANCHAL PRADESH", "state_lgd": 12, "population": 0, "households": 0}, "geometry": {"type": "Polygon", "coordinates": [[[93.09816000000001, 26.97323], [93.0985, 26.97416], [93.09979000000001, 26.973850000000002], [93.09897000000001, 26.972720000000002], [93.09816000000001, 26.97323]]]}}, {"id": "30", "type": "Feature", "properties": {"village_name": "Dibru", "vil_lgd": 261898, "district_name": "Pakke Kessang", "dist_lgd": 723, "subdistrict_name": "Seijosa ADC", "sdcode": 6104, "block_name": "Seijosa", "block_lgd": 12.0, "gp_name": "", "state_name": "ARUNANCHAL PRADESH", "state_lgd": 12, "population": 0, "households": 0}, "geometry": {"type": "Polygon", "coordinates": [[[93.03914, 27.013040000000004], [93.03871000000001, 27.014100000000003], [93.03962000000001, 27.014540000000004], [93.04039, 27.013800000000003], [93.03952000000001, 27.012970000000003], [93.03914, 27.013040000000004]]]}}, {"id": "31", "type": "Feature", "properties": {"village_name": "Palov", "vil_lgd": 261945, "district_name": "Pakke Kessang", "dist_lgd": 723, "subdistrict_name": "Pakke Kessang EAC", "sdcode": 1581, "block_name": "Pakke-Kessang", "block_lgd": 13.0, "gp_name": "", "state_name": "ARUNANCHAL PRADESH", "state_lgd": 12, "population": 108, "households": 9}, "geometry": {"type": "Polygon", "coordinates": [[[93.15004, 27.146950000000004], [93.14937, 27.147650000000002], [93.15021, 27.14851], [93.15115, 27.147730000000003], [93.15047000000001, 27.146950000000004], [93.15004, 27.146950000000004]]]}}, {"id": "32", "type": "Feature", "properties": {"village_name": "Lodoso", "vil_lgd": 261936, "district_name": "Pakke Kessang", "dist_lgd": 723, "subdistrict_name": "Pakke Kessang EAC", "sdcode": 1581, "block_name": "Pakke-Kessang", "block_lgd": 13.0, "gp_name": "", "state_name": "ARUNANCHAL PRADESH", "state_lgd": 12, "population": 40, "households": 7}, "geometry": {"type": "Polygon", "coordinates": [[[93.13688, 27.17714], [93.1363, 27.178150000000002], [93.13714, 27.178690000000003], [93.13803, 27.177840000000003], [93.13728, 27.177120000000002], [93.13688, 27.17714]]]}}, {"id": "33", "type": "Feature", "properties": {"village_name": "Ngoleka", "vil_lgd": 261947, "district_name": "Pakke Kessang", "dist_lgd": 723, "subdistrict_name": "Pakke Kessang EAC", "sdcode": 1581, "block_name": "Pakke-Kessang", "block_lgd": 13.0, "gp_name": "", "state_name": "ARUNANCHAL PRADESH", "state_lgd": 12, "population": 305, "households": 48}, "geometry": {"type": "Polygon", "coordinates": [[[93.13867, 27.214620000000004], [93.13991000000001, 27.215080000000004], [93.14032, 27.214000000000002], [93.13939, 27.213580000000004], [93.13867, 27.214620000000004]]]}}, {"id": "34", "type": "Feature", "properties": {"village_name": "Passo Camp", "vil_lgd": 261953, "district_name": "Pakke Kessang", "dist_lgd": 723, "subdistrict_name": "Pakke Kessang EAC", "sdcode": 1581, "block_name": "Pakke-Kessang", "block_lgd": 13.0, "gp_name": "", "state_name": "ARUNANCHAL PRADESH", "state_lgd": 12, "population": 121, "households": 24}, "geometry": {"type": "Polygon", "coordinates": [[[93.13024, 27.22032], [93.13147000000001, 27.22078], [93.13188000000001, 27.219710000000003], [93.13095000000001, 27.21929], [93.13024, 27.22032]]]}}, {"id": "35", "type": "Feature", "properties": {"village_name": "Doik", "vil_lgd": 261948, "district_name": "Pakke Kessang", "dist_lgd": 723, "subdistrict_name": "Pakke Kessang EAC", "sdcode": 1581, "block_name": "Pakke-Kessang", "block_lgd": 13.0, "gp_name": "", "state_name": "ARUNANCHAL PRADESH", "state_lgd": 12, "population": 54, "households": 9}, "geometry": {"type": "Polygon", "coordinates": [[[93.14627, 27.22343], [93.14569, 27.22444], [93.14653000000001, 27.224980000000002], [93.14742000000001, 27.224130000000002], [93.14666000000001, 27.22341], [93.14627, 27.22343]]]}}, {"id": "36", "type": "Feature", "properties": {"village_name": "Chumgong New", "vil_lgd": 261954, "district_name": "Pakke Kessang", "dist_lgd": 723, "subdistrict_name": "Pakke Kessang EAC", "sdcode": 1581, "block_name": "Pakke-Kessang", "block_lgd": 13.0, "gp_name": "", "state_name": "ARUNANCHAL PRADESH", "state_lgd": 12, "population": 88, "households": 16}, "geometry": {"type": "Polygon", "coordinates": [[[93.12365000000001, 27.234610000000004], [93.12298000000001, 27.235310000000002], [93.12383000000001, 27.23617], [93.12477000000001, 27.235390000000002], [93.12409000000001, 27.234610000000004], [93.12365000000001, 27.234610000000004]]]}}, {"id": "37", "type": "Feature", "properties": {"village_name": "Diderso", "vil_lgd": 261955, "district_name": "Pakke Kessang", "dist_lgd": 723, "subdistrict_name": "Pakke Kessang EAC", "sdcode": 1581, "block_name": "Pakke-Kessang", "block_lgd": 13.0, "gp_name": "", "state_name": "ARUNANCHAL PRADESH", "state_lgd": 12, "population": 70, "households": 11}, "geometry": {"type": "Polygon", "coordinates": [[[93.13989000000001, 27.239900000000002], [93.13931000000001, 27.240910000000003], [93.14015, 27.241450000000004], [93.14104, 27.2406], [93.14029000000001, 27.239880000000003], [93.13989000000001, 27.239900000000002]]]}}, {"id": "38", "type": "Feature", "properties": {"village_name": "Lumte", "vil_lgd": 261959, "district_name": "Pakke Kessang", "dist_lgd": 723, "subdistrict_name": "Pizirang Veo Circle", "sdcode": 6100, "block_name": "Pakke-Kessang", "block_lgd": 13.0, "gp_name": "", "state_name": "ARUNANCHAL PRADESH", "state_lgd": 12, "population": 10, "households": 1}, "geometry": {"type": "Polygon", "coordinates": [[[93.12167000000001, 27.154870000000003], [93.12124000000001, 27.15593], [93.12216000000001, 27.156370000000003], [93.12292000000001, 27.155630000000002], [93.12205, 27.1548], [93.12167000000001, 27.154870000000003]]]}}, {"id": "39", "type": "Feature", "properties": {"village_name": "Yarte Pobe", "vil_lgd": 261963, "district_name": "Pakke Kessang", "dist_lgd": 723, "subdistrict_name": "Pizirang Veo Circle", "sdcode": 6100, "block_name": "Pakke-Kessang", "block_lgd": 13.0, "gp_name": "", "state_name": "ARUNANCHAL PRADESH", "state_lgd": 12, "population": 44, "households": 9}, "geometry": {"type": "Polygon", "coordinates": [[[93.08527000000001, 27.2203], [93.08603000000001, 27.221040000000002], [93.08704, 27.2203], [93.08614000000001, 27.21947], [93.08527000000001, 27.2203]]]}}, {"id": "40", "type": "Feature", "properties": {"village_name": "Pakro", "vil_lgd": 261960, "district_name": "Pakke Kessang", "dist_lgd": 723, "subdistrict_name": "Pizirang Veo Circle", "sdcode": 6100, "block_name": "Pakke-Kessang", "block_lgd": 13.0, "gp_name": "", "state_name": "ARUNANCHAL PRADESH", "state_lgd": 12, "population": 475, "households": 70}, "geometry": {"type": "Polygon", "coordinates": [[[93.07175000000001, 27.236290000000004], [93.07257000000001, 27.237160000000003], [93.07352, 27.236410000000003], [93.07258, 27.235590000000002], [93.07175000000001, 27.236290000000004]]]}}, {"id": "41", "type": "Feature", "properties": {"village_name": "Laluwapa", "vil_lgd": 261967, "district_name": "Pakke Kessang", "dist_lgd": 723, "subdistrict_name": "Pizirang Veo Circle", "sdcode": 6100, "block_name": "Pakke-Kessang", "block_lgd": 13.0, "gp_name": "", "state_name": "ARUNANCHAL PRADESH", "state_lgd": 12, "population": 152, "households": 20}, "geometry": {"type": "Polygon", "coordinates": [[[93.10302, 27.24331], [93.10259, 27.244370000000004], [93.10347, 27.24482], [93.10427000000001, 27.24407], [93.10340000000001, 27.243240000000004], [93.10302, 27.24331]]]}}, {"id": "42", "type": "Feature", "properties": {"village_name": "Balipota", "vil_lgd": 261970, "district_name": "Pakke Kessang", "dist_lgd": 723, "subdistrict_name": "Pizirang Veo Circle", "sdcode": 6100, "block_name": "Pakke-Kessang", "block_lgd": 13.0, "gp_name": "", "state_name": "ARUNANCHAL PRADESH", "state_lgd": 12, "population": 225, "households": 35}, "geometry": {"type": "Polygon", "coordinates": [[[93.10458000000001, 27.251070000000002], [93.10558, 27.251810000000003], [93.10635, 27.251070000000002], [93.10545, 27.25024], [93.10458000000001, 27.251070000000002]]]}}, {"id": "43", "type": "Feature", "properties": {"village_name": "Pajewa", "vil_lgd": 261968, "district_name": "Pakke Kessang", "dist_lgd": 723, "subdistrict_name": "Pizirang Veo Circle", "sdcode": 6100, "block_name": "Pakke-Kessang", "block_lgd": 13.0, "gp_name": "", "state_name": "ARUNANCHAL PRADESH", "state_lgd": 12, "population": 106, "households": 16}, "geometry": {"type": "Polygon", "coordinates": [[[93.10376000000001, 27.258770000000002], [93.10333000000001, 27.25982], [93.10424, 27.260260000000002], [93.10501000000001, 27.259520000000002], [93.10414, 27.2587], [93.10376000000001, 27.258770000000002]]]}}, {"id": "44", "type": "Feature", "properties": {"village_name": "Veo", "vil_lgd": 261966, "district_name": "Pakke Kessang", "dist_lgd": 723, "subdistrict_name": "Pizirang Veo Circle", "sdcode": 6100, "block_name": "Pakke-Kessang", "block_lgd": 13.0, "gp_name": "", "state_name": "ARUNANCHAL PRADESH", "state_lgd": 12, "population": 175, "households": 25}, "geometry": {"type": "Polygon", "coordinates": [[[93.09701000000001, 27.26838], [93.09782000000001, 27.269250000000003], [93.09877, 27.268500000000003], [93.09783, 27.267680000000002], [93.09701000000001, 27.26838]]]}}, {"id": "45", "type": "Feature", "properties": {"village_name": "Patiwa", "vil_lgd": 261972, "district_name": "Pakke Kessang", "dist_lgd": 723, "subdistrict_name": "Pizirang Veo Circle", "sdcode": 6100, "block_name": "Pakke-Kessang", "block_lgd": 13.0, "gp_name": "", "state_name": "ARUNANCHAL PRADESH", "state_lgd": 12, "population": 101, "households": 15}, "geometry": {"type": "Polygon", "coordinates": [[[93.0901, 27.27408], [93.08966000000001, 27.275140000000004], [93.09058, 27.27558], [93.09134, 27.27484], [93.09047000000001, 27.27401], [93.0901, 27.27408]]]}}, {"id": "46", "type": "Feature", "properties": {"village_name": "Taroyar", "vil_lgd": 261971, "district_name": "Pakke Kessang", "dist_lgd": 723, "subdistrict_name": "Pizirang Veo Circle", "sdcode": 6100, "block_name": "Pakke-Kessang", "block_lgd": 13.0, "gp_name": "", "state_name": "ARUNANCHAL PRADESH", "state_lgd": 12, "population": 292, "households": 45}, "geometry": {"type": "Polygon", "coordinates": [[[93.08623000000001, 27.255070000000003], [93.0858, 27.256130000000002], [93.08671000000001, 27.256570000000004], [93.08748000000001, 27.255820000000003], [93.08661000000001, 27.255000000000003], [93.08623000000001, 27.255070000000003]]]}}, {"id": "47", "type": "Feature", "properties": {"village_name": "Pizirang Hq", "vil_lgd": 261969, "district_name": "Pakke Kessang", "dist_lgd": 723, "subdistrict_name": "Pizirang Veo Circle", "sdcode": 6100, "block_name": "Pakke-Kessang", "block_lgd": 13.0, "gp_name": "", "state_name": "ARUNANCHAL PRADESH", "state_lgd": 12, "population": 73, "households": 13}, "geometry": {"type": "Polygon", "coordinates": [[[93.14105, 27.26603], [93.14061000000001, 27.267090000000003], [93.14168000000001, 27.267500000000002], [93.1423, 27.26678], [93.14143000000001, 27.265960000000003], [93.14105, 27.26603]]]}}, {"id": "48", "type": "Feature", "properties": {"village_name": "Dowla", "vil_lgd": 261975, "district_name": "Pakke Kessang", "dist_lgd": 723, "subdistrict_name": "Pizirang Veo Circle", "sdcode": 6100, "block_name": "Pakke-Kessang", "block_lgd": 13.0, "gp_name": "", "state_name": "ARUNANCHAL PRADESH", "state_lgd": 12, "population": 107, "households": 18}, "geometry": {"type": "Polygon", "coordinates": [[[93.13889, 27.288040000000002], [93.13990000000001, 27.288780000000003], [93.14066000000001, 27.288040000000002], [93.13976000000001, 27.28722], [93.13889, 27.288040000000002]]]}}, {"id": "49", "type": "Feature", "properties": {"village_name": "Chamte", "vil_lgd": 261964, "district_name": "Pakke Kessang", "dist_lgd": 723, "subdistrict_name": "Pizirang Veo Circle", "sdcode": 6100, "block_name": "Pakke-Kessang", "block_lgd": 13.0, "gp_name": "", "state_name": "ARUNANCHAL PRADESH", "state_lgd": 12, "population": 0, "households": 0}, "geometry": {"type": "Polygon", "coordinates": [[[93.14357000000001, 27.30035], [93.14314, 27.30141], [93.14406000000001, 27.30185], [93.14482000000001, 27.30111], [93.14395, 27.300290000000004], [93.14357000000001, 27.30035]]]}}, {"id": "50", "type": "Feature", "properties": {"village_name": "Chumgong", "vil_lgd": 261934, "district_name": "Pakke Kessang", "dist_lgd": 723, "subdistrict_name": "Pakke Kessang EAC", "sdcode": 1581, "block_name": "Pakke-Kessang", "block_lgd": 13.0, "gp_name": "", "state_name": "ARUNANCHAL PRADESH", "state_lgd": 12, "population": 0, "households": 0}, "geometry": {"type": "Polygon", "coordinates": [[[93.17306, 27.260030000000004], [93.17429000000001, 27.26049], [93.1747, 27.259420000000002], [93.17377, 27.259000000000004], [93.17306, 27.260030000000004]]]}}, {"id": "51", "type": "Feature", "properties": {"village_name": "Baliso", "vil_lgd": 261920, "district_name": "Pakke Kessang", "dist_lgd": 723, "subdistrict_name": "Dissing Passo Circle", "sdcode": 6099, "block_name": "Seijosa", "block_lgd": 12.0, "gp_name": "", "state_name": "ARUNANCHAL PRADESH", "state_lgd": 12, "population": 245, "households": 41}, "geometry": {"type": "Polygon", "coordinates": [[[93.15755, 26.939480000000003], [93.15879000000001, 26.939940000000004], [93.15919000000001, 26.938860000000002], [93.15827, 26.938450000000003], [93.15755, 26.939480000000003]]]}}, {"id": "52", "type": "Feature", "properties": {"village_name": "Dipik", "vil_lgd": 261924, "district_name": "Pakke Kessang", "dist_lgd": 723, "subdistrict_name": "Dissing Passo Circle", "sdcode": 6099, "block_name": "Seijosa", "block_lgd": 12.0, "gp_name": "", "state_name": "ARUNANCHAL PRADESH", "state_lgd": 12, "population": 241, "households": 41}, "geometry": {"type": "Polygon", "coordinates": [[[93.15937000000001, 26.950960000000002], [93.15870000000001, 26.951670000000004], [93.15954, 26.952520000000003], [93.16048, 26.95175], [93.15981000000001, 26.950960000000002], [93.15937000000001, 26.950960000000002]]]}}, {"id": "53", "type": "Feature", "properties": {"village_name": "Pathe", "vil_lgd": 261929, "district_name": "Pakke Kessang", "dist_lgd": 723, "subdistrict_name": "Dissing Passo Circle", "sdcode": 6099, "block_name": "Seijosa", "block_lgd": 12.0, "gp_name": "", "state_name": "ARUNANCHAL PRADESH", "state_lgd": 12, "population": 27, "households": 5}, "geometry": {"type": "Polygon", "coordinates": [[[93.15540000000001, 26.967810000000004], [93.15482, 26.96882], [93.15567, 26.96936], [93.15656000000001, 26.968510000000002], [93.15580000000001, 26.96779], [93.15540000000001, 26.967810000000004]]]}}, {"id": "54", "type": "Feature", "properties": {"village_name": "Dikal Mukh Forest Beat", "vil_lgd": 261921, "district_name": "Pakke Kessang", "dist_lgd": 723, "subdistrict_name": "Dissing Passo Circle", "sdcode": 6099, "block_name": "Seijosa", "block_lgd": 12.0, "gp_name": "", "state_name": "ARUNANCHAL PRADESH", "state_lgd": 12, "population": 7, "households": 1}, "geometry": {"type": "Polygon", "coordinates": [[[93.19169000000001, 26.944080000000003], [93.19102000000001, 26.944860000000002], [93.19196000000001, 26.94564], [93.1928, 26.94478], [93.19213, 26.944070000000004], [93.19169000000001, 26.944080000000003]]]}}, {"id": "55", "type": "Feature", "properties": {"village_name": "Dikalmukh", "vil_lgd": 261922, "district_name": "Pakke Kessang", "dist_lgd": 723, "subdistrict_name": "Dissing Passo Circle", "sdcode": 6099, "block_name": "Seijosa", "block_lgd": 12.0, "gp_name": "", "state_name": "ARUNANCHAL PRADESH", "state_lgd": 12, "population": 82, "households": 17}, "geometry": {"type": "Polygon", "coordinates": [[[93.19860000000001, 26.951890000000002], [93.19901, 26.95297], [93.20024000000001, 26.952510000000004], [93.19953000000001, 26.951480000000004], [93.19860000000001, 26.951890000000002]]]}}, {"id": "56", "type": "Feature", "properties": {"village_name": "Upper Dikal Mukh", "vil_lgd": 261923, "district_name": "Pakke Kessang", "dist_lgd": 723, "subdistrict_name": "Dissing Passo Circle", "sdcode": 6099, "block_name": "Seijosa", "block_lgd": 12.0, "gp_name": "", "state_name": "ARUNANCHAL PRADESH", "state_lgd": 12, "population": 231, "households": 39}, "geometry": {"type": "Polygon", "coordinates": [[[93.20817000000001, 26.97321], [93.20758000000001, 26.974220000000003], [93.20843, 26.974760000000003], [93.20932, 26.973910000000004], [93.20856, 26.973190000000002], [93.20817000000001, 26.97321]]]}}, {"id": "57", "type": "Feature", "properties": {"village_name": "Hote Pani", "vil_lgd": 261939, "district_name": "Pakke Kessang", "dist_lgd": 723, "subdistrict_name": "Pakke Kessang EAC", "sdcode": 1581, "block_name": "Pakke-Kessang", "block_lgd": 13.0, "gp_name": "", "state_name": "ARUNANCHAL PRADESH", "state_lgd": 12, "population": 0, "households": 0}, "geometry": {"type": "Polygon", "coordinates": [[[93.24862, 27.310150000000004], [93.24795, 27.31086], [93.2488, 27.31171], [93.24973000000001, 27.310940000000002], [93.24906000000001, 27.310160000000003], [93.24862, 27.310150000000004]]]}}, {"id": "58", "type": "Feature", "properties": {"village_name": "Data Partially Available", "vil_lgd": 999999, "district_name": "Pakke Kessang", "dist_lgd": 723, "subdistrict_name": "Seijosa ADC", "sdcode": 6104, "block_name": "", "block_lgd": null, "gp_name": "", "state_name": "ARUNANCHAL PRADESH", "state_lgd": 12, "population": 0, "households": 0}, "geometry": {"type": "Polygon", "coordinates": [[[92.78165000000001, 27.18098], [92.79889000000001, 27.18129], [92.80533000000001, 27.179630000000003], [92.82859, 27.16165], [92.83929, 27.1319], [92.85714, 27.140230000000003], [92.87499000000001, 27.134280000000004], [92.89521, 27.134280000000004], [92.93685, 27.152130000000003], [92.95827000000001, 27.15808], [92.97016, 27.15808], [92.98920000000001, 27.15332], [93.00464000000001, 27.14619], [93.00691, 27.138930000000002], [93.00653000000001, 27.135540000000002], [93.00158, 27.13097], [93.00158, 27.127930000000003], [93.00710000000001, 27.124540000000003], [93.00691, 27.119470000000003], [93.00272000000001, 27.113030000000002], [93.00824, 27.10508], [93.00862000000001, 27.101190000000003], [93.01223, 27.09899], [93.02079, 27.09645], [93.02421000000001, 27.09035], [93.02801000000001, 27.089340000000004], [93.03239, 27.08968], [93.04551000000001, 27.083920000000003], [93.06072, 27.07139], [93.06661000000001, 27.0697], [93.07289, 27.0697], [93.07593000000001, 27.071050000000003], [93.09152, 27.070210000000003], [93.09951000000001, 27.06377], [93.10236, 27.057940000000002], [93.10153000000001, 27.05777], [93.10203000000001, 27.051990000000004], [93.10383, 27.046030000000002], [93.10223, 27.03695], [93.10273000000001, 27.033920000000002], [93.10153000000001, 27.031160000000003], [93.10203000000001, 27.02867], [93.10333000000001, 27.026980000000002], [93.10823, 27.024400000000004], [93.11082, 27.02146], [93.11305, 27.021500000000003], [93.11453, 27.01763], [93.11697000000001, 27.01631], [93.11715000000001, 27.014460000000003], [93.13271, 26.99773], [93.1345, 26.992960000000004], [93.1345, 26.9891], [93.13313000000001, 26.987460000000002], [93.13057, 26.987460000000002], [93.12891, 26.989200000000004], [93.12035, 26.98936], [93.11429000000001, 26.982950000000002], [93.11001, 26.976020000000002], [93.11007000000001, 26.97136], [93.11132, 26.969130000000003], [93.11364, 26.967440000000003], [93.11566, 26.968020000000003], [93.1178, 26.967440000000003], [93.12101000000001, 26.96516], [93.12148, 26.960870000000003], [93.12487, 26.958440000000003], [93.12546, 26.956110000000002], [93.12772000000001, 26.95616], [93.12748, 26.95399], [93.12570000000001, 26.95203], [93.12535000000001, 26.950170000000004], [93.12356000000001, 26.950010000000002], [93.12178, 26.943130000000004], [93.12368000000001, 26.942020000000003], [93.12540000000001, 26.936510000000002], [93.12540000000001, 26.935820000000003], [93.12327, 26.9355], [93.12477000000001, 26.928220000000003], [93.10694000000001, 26.92566], [93.08827000000001, 26.914420000000003], [93.06261, 26.92226], [93.02177, 26.91344], [92.98189, 26.93605], [92.91715, 26.962930000000004], [92.91553, 26.973920000000003], [92.91841000000001, 26.982310000000002], [92.88661, 26.999750000000002], [92.85726000000001, 27.001640000000002], [92.83886000000001, 27.00485], [92.82374, 27.00934], [92.79347000000001, 27.022850000000002], [92.77835, 27.022820000000003], [92.76322, 27.027310000000003], [92.75315, 27.02278], [92.73299, 27.022750000000002], [92.72292, 27.018210000000003], [92.71283000000001, 27.022710000000004], [92.69771, 27.02268], [92.69265000000001, 27.02718], [92.68761, 27.02717], [92.67752, 27.031660000000002], [92.67248000000001, 27.031650000000003], [92.66745, 27.027120000000004], [92.64536000000001, 26.98776], [92.64408, 27.001210000000004], [92.64453, 27.008750000000003], [92.63552000000001, 27.023920000000004], [92.6239, 27.028660000000002], [92.60518, 27.04417], [92.59779, 27.052940000000003], [92.59026, 27.079030000000003], [92.59196000000001, 27.08546], [92.60031000000001, 27.097050000000003], [92.59428000000001, 27.10459], [92.59573, 27.10612], [92.60191, 27.108100000000004], [92.60168, 27.1198], [92.60704000000001, 27.125500000000002], [92.60695000000001, 27.136100000000003], [92.60805, 27.140240000000002], [92.61725000000001, 27.146130000000003], [92.62466, 27.14882], [92.62894000000001, 27.14872], [92.6324, 27.147550000000003], [92.63785000000001, 27.150240000000004], [92.64995, 27.1519], [92.65762000000001, 27.156090000000003], [92.66328000000001, 27.15733], [92.67055, 27.161360000000002], [92.67500000000001, 27.1609], [92.67816, 27.163710000000002], [92.68805, 27.16571], [92.69729000000001, 27.172570000000004], [92.71679, 27.175880000000003], [92.72533000000001, 27.18091], [92.72883, 27.184110000000004], [92.73681, 27.18755], [92.73882, 27.19049], [92.74264000000001, 27.191720000000004], [92.74662000000001, 27.19433], [92.74998000000001, 27.195290000000004], [92.76473000000001, 27.195660000000004], [92.76837, 27.19412], [92.78165000000001, 27.18098]], [[93.03295000000001, 27.079890000000002], [93.03373, 27.0806], [93.03291, 27.081460000000003], [93.03196000000001, 27.080720000000003], [93.03254000000001, 27.07994], [93.03295000000001, 27.079890000000002]], [[93.03903000000001, 27.04331], [93.03803, 27.04406], [93.03726, 27.04331], [93.03813000000001, 27.04248], [93.03903000000001, 27.04331]], [[93.08289, 27.01525], [93.08376000000001, 27.016080000000002], [93.08299000000001, 27.016820000000003], [93.08208, 27.01638], [93.08251000000001, 27.015320000000003], [93.08289, 27.01525]], [[93.06783, 27.012570000000004], [93.0687, 27.0134], [93.06808000000001, 27.014110000000002], [93.06702000000001, 27.013700000000004], [93.06745000000001, 27.01264], [93.06783, 27.012570000000004]], [[93.03952000000001, 27.012970000000003], [93.04039, 27.013800000000003], [93.03962000000001, 27.014540000000004], [93.03871000000001, 27.014100000000003], [93.03914, 27.013040000000004], [93.03952000000001, 27.012970000000003]], [[93.10262, 26.995530000000002], [93.10349000000001, 26.996360000000003], [93.10287000000001, 26.99707], [93.10180000000001, 26.996660000000002], [93.10224000000001, 26.995600000000003], [93.10262, 26.995530000000002]], [[93.04310000000001, 26.99434], [93.04233, 26.99509], [93.04133, 26.99434], [93.04220000000001, 26.993520000000004], [93.04310000000001, 26.99434]], [[93.03451000000001, 26.98965], [93.03375000000001, 26.99039], [93.03275000000001, 26.98965], [93.03362000000001, 26.98882], [93.03451000000001, 26.98965]], [[93.02578000000001, 26.9875], [93.02478, 26.98824], [93.02401, 26.9875], [93.02488000000001, 26.986670000000004], [93.02578000000001, 26.9875]], [[93.03349000000001, 26.984260000000003], [93.03436, 26.985090000000003], [93.03375000000001, 26.9858], [93.03268000000001, 26.985390000000002], [93.03312000000001, 26.984330000000003], [93.03349000000001, 26.984260000000003]], [[93.02642, 26.980230000000002], [93.02729000000001, 26.981060000000003], [93.02652, 26.981800000000003], [93.02560000000001, 26.981360000000002], [93.02604000000001, 26.980300000000003], [93.02642, 26.980230000000002]], [[93.09816000000001, 26.97323], [93.09897000000001, 26.972720000000002], [93.09979000000001, 26.973850000000002], [93.0985, 26.97416], [93.09816000000001, 26.97323]], [[93.02265000000001, 26.973250000000004], [93.02352, 26.97408], [93.02275, 26.97482], [93.02184000000001, 26.974380000000004], [93.02227, 26.97332], [93.02265000000001, 26.973250000000004]], [[92.92719000000001, 26.9769], [92.92806, 26.97773], [92.92729000000001, 26.97848], [92.92638000000001, 26.978040000000004], [92.92681, 26.97697], [92.92719000000001, 26.9769]], [[93.00876000000001, 26.948580000000003], [93.00781, 26.949330000000003], [93.007, 26.94846], [93.00782000000001, 26.947750000000003], [93.00876000000001, 26.948580000000003]], [[92.98666, 26.94319], [92.98753, 26.944010000000002], [92.98676, 26.944760000000002], [92.98585000000001, 26.94432], [92.98628000000001, 26.943250000000003], [92.98666, 26.94319]], [[93.00383000000001, 26.941570000000002], [93.00464000000001, 26.942090000000004], [93.0043, 26.94302], [93.00323, 26.942950000000003], [93.00316000000001, 26.941830000000003], [93.00383000000001, 26.941570000000002]], [[93.00323, 26.938350000000003], [93.00409, 26.939180000000004], [93.00333, 26.93992], [93.00241000000001, 26.939480000000003], [93.00285000000001, 26.93842], [93.00323, 26.938350000000003]], [[93.00036, 26.935670000000002], [93.00123, 26.936500000000002], [93.00047, 26.937240000000003], [92.99955000000001, 26.9368], [92.99999000000001, 26.935740000000003], [93.00036, 26.935670000000002]], [[93.09712, 26.92528], [93.09599000000001, 26.925790000000003], [93.09545000000001, 26.924770000000002], [93.09638000000001, 26.924260000000004], [93.09712, 26.92528]], [[93.06452, 26.92763], [93.06542, 26.926810000000003], [93.06629000000001, 26.92763], [93.06552, 26.92838], [93.06452, 26.92763]], [[93.02596000000001, 26.92076], [93.02683, 26.921590000000002], [93.02607, 26.922340000000002], [93.02515000000001, 26.92189], [93.02559000000001, 26.920830000000002], [93.02596000000001, 26.92076]]]}}, {"id": "59", "type": "Feature", "properties": {"village_name": "Suchung", "vil_lgd": 261941, "district_name": "Pakke Kessang", "dist_lgd": 723, "subdistrict_name": "Pakke Kessang EAC", "sdcode": 1581, "block_name": "Pakke-Kessang", "block_lgd": 13.0, "gp_name": "", "state_name": "ARUNANCHAL PRADESH", "state_lgd": 12, "population": 67, "households": 10}, "geometry": {"type": "Polygon", "coordinates": [[[93.15480000000001, 27.14307], [93.15603, 27.14354], [93.15644, 27.142460000000003], [93.15551, 27.14204], [93.15480000000001, 27.14307]]]}}, {"id": "60", "type": "Feature", "properties": {"village_name": "Along Topte", "vil_lgd": 261933, "district_name": "Pakke Kessang", "dist_lgd": 723, "subdistrict_name": "Pakke Kessang EAC", "sdcode": 1581, "block_name": "Pakke-Kessang", "block_lgd": 13.0, "gp_name": "", "state_name": "ARUNANCHAL PRADESH", "state_lgd": 12, "population": 82, "households": 12}, "geometry": {"type": "Polygon", "coordinates": [[[93.18832, 27.1519], [93.18955000000001, 27.15236], [93.18996000000001, 27.151280000000003], [93.18903, 27.15087], [93.18832, 27.1519]]]}}, {"id": "61", "type": "Feature", "properties": {"village_name": "Munglong", "vil_lgd": 261938, "district_name": "Pakke Kessang", "dist_lgd": 723, "subdistrict_name": "Pakke Kessang EAC", "sdcode": 1581, "block_name": "Pakke-Kessang", "block_lgd": 13.0, "gp_name": "", "state_name": "ARUNANCHAL PRADESH", "state_lgd": 12, "population": 42, "households": 8}, "geometry": {"type": "Polygon", "coordinates": [[[93.20765, 27.155300000000004], [93.20707, 27.15631], [93.20791000000001, 27.156850000000002], [93.20880000000001, 27.156000000000002], [93.20805000000001, 27.15528], [93.20765, 27.155300000000004]]]}}, {"id": "62", "type": "Feature", "properties": {"village_name": "Keko", "vil_lgd": 261937, "district_name": "Pakke Kessang", "dist_lgd": 723, "subdistrict_name": "Pakke Kessang EAC", "sdcode": 1581, "block_name": "Pakke-Kessang", "block_lgd": 13.0, "gp_name": "", "state_name": "ARUNANCHAL PRADESH", "state_lgd": 12, "population": 135, "households": 23}, "geometry": {"type": "Polygon", "coordinates": [[[93.20119000000001, 27.164500000000004], [93.20060000000001, 27.16551], [93.20145000000001, 27.166050000000002], [93.20234, 27.165200000000002], [93.20158, 27.16448], [93.20119000000001, 27.164500000000004]]]}}, {"id": "63", "type": "Feature", "properties": {"village_name": "I A Y Village", "vil_lgd": 261952, "district_name": "Pakke Kessang", "dist_lgd": 723, "subdistrict_name": "Pakke Kessang EAC", "sdcode": 1581, "block_name": "Pakke-Kessang", "block_lgd": 13.0, "gp_name": "", "state_name": "ARUNANCHAL PRADESH", "state_lgd": 12, "population": 72, "households": 11}, "geometry": {"type": "Polygon", "coordinates": [[[93.22468, 27.175050000000002], [93.2241, 27.176060000000003], [93.22494, 27.1766], [93.22583, 27.17575], [93.22507, 27.175030000000003], [93.22468, 27.175050000000002]]]}}, {"id": "64", "type": "Feature", "properties": {"village_name": "Taoso", "vil_lgd": 261943, "district_name": "Pakke Kessang", "dist_lgd": 723, "subdistrict_name": "Pakke Kessang EAC", "sdcode": 1581, "block_name": "Pakke-Kessang", "block_lgd": 13.0, "gp_name": "", "state_name": "ARUNANCHAL PRADESH", "state_lgd": 12, "population": 175, "households": 25}, "geometry": {"type": "Polygon", "coordinates": [[[93.24414, 27.17357], [93.24566, 27.173840000000002], [93.24512000000001, 27.17254], [93.24414, 27.17357]]]}}, {"id": "65", "type": "Feature", "properties": {"village_name": "Zeraso", "vil_lgd": 261944, "district_name": "Pakke Kessang", "dist_lgd": 723, "subdistrict_name": "Pakke Kessang EAC", "sdcode": 1581, "block_name": "Pakke-Kessang", "block_lgd": 13.0, "gp_name": "", "state_name": "ARUNANCHAL PRADESH", "state_lgd": 12, "population": 101, "households": 16}, "geometry": {"type": "Polygon", "coordinates": [[[93.25496000000001, 27.17706], [93.25438000000001, 27.17807], [93.25523000000001, 27.178610000000003], [93.25612000000001, 27.177760000000003], [93.25536000000001, 27.17704], [93.25496000000001, 27.17706]]]}}, {"id": "66", "type": "Feature", "properties": {"village_name": "Pakke Keshang H Q Upper Bazar Line Lower Bazar Line", "vil_lgd": 261949, "district_name": "Pakke Kessang", "dist_lgd": 723, "subdistrict_name": "Pakke Kessang EAC", "sdcode": 1581, "block_name": "Pakke-Kessang", "block_lgd": 13.0, "gp_name": "", "state_name": "ARUNANCHAL PRADESH", "state_lgd": 12, "population": 982, "households": 161}, "geometry": {"type": "Polygon", "coordinates": [[[93.22975000000001, 27.15904], [93.22916000000001, 27.160050000000002], [93.23001000000001, 27.160590000000003], [93.2309, 27.159740000000003], [93.23014, 27.15902], [93.22975000000001, 27.15904]]]}}, {"id": "67", "type": "Feature", "properties": {"village_name": "Khodaso", "vil_lgd": 261950, "district_name": "Pakke Kessang", "dist_lgd": 723, "subdistrict_name": "Pakke Kessang EAC", "sdcode": 1581, "block_name": "Pakke-Kessang", "block_lgd": 13.0, "gp_name": "", "state_name": "ARUNANCHAL PRADESH", "state_lgd": 12, "population": 196, "households": 35}, "geometry": {"type": "Polygon", "coordinates": [[[93.27671000000001, 27.181700000000003], [93.27604000000001, 27.18241], [93.27689000000001, 27.18326], [93.27783000000001, 27.18249], [93.27715, 27.181710000000002], [93.27671000000001, 27.181700000000003]]]}}, {"id": "68", "type": "Feature", "properties": {"village_name": "Longpong", "vil_lgd": 261946, "district_name": "Pakke Kessang", "dist_lgd": 723, "subdistrict_name": "Pakke Kessang EAC", "sdcode": 1581, "block_name": "Pakke-Kessang", "block_lgd": 13.0, "gp_name": "", "state_name": "ARUNANCHAL PRADESH", "state_lgd": 12, "population": 157, "households": 31}, "geometry": {"type": "Polygon", "coordinates": [[[93.26958, 27.187730000000002], [93.26891, 27.18852], [93.26985, 27.189290000000003], [93.27069, 27.188440000000003], [93.27002, 27.187730000000002], [93.26958, 27.187730000000002]]]}}, {"id": "69", "type": "Feature", "properties": {"village_name": "Seramso", "vil_lgd": 261942, "district_name": "Pakke Kessang", "dist_lgd": 723, "subdistrict_name": "Pakke Kessang EAC", "sdcode": 1581, "block_name": "Pakke-Kessang", "block_lgd": 13.0, "gp_name": "", "state_name": "ARUNANCHAL PRADESH", "state_lgd": 12, "population": 107, "households": 18}, "geometry": {"type": "Polygon", "coordinates": [[[93.16992, 27.188760000000002], [93.16934, 27.189780000000003], [93.17018, 27.190310000000004], [93.17107000000001, 27.189460000000004], [93.17031, 27.188750000000002], [93.16992, 27.188760000000002]]]}}, {"id": "70", "type": "Feature", "properties": {"village_name": "Jollang", "vil_lgd": 261956, "district_name": "Pakke Kessang", "dist_lgd": 723, "subdistrict_name": "Pakke Kessang EAC", "sdcode": 1581, "block_name": "Pakke-Kessang", "block_lgd": 13.0, "gp_name": "", "state_name": "ARUNANCHAL PRADESH", "state_lgd": 12, "population": 156, "households": 27}, "geometry": {"type": "Polygon", "coordinates": [[[93.15483, 27.201130000000003], [93.15424, 27.202140000000004], [93.15509, 27.20268], [93.15598000000001, 27.20183], [93.15522000000001, 27.201110000000003], [93.15483, 27.201130000000003]]]}}, {"id": "71", "type": "Feature", "properties": {"village_name": "Rilloh", "vil_lgd": 261940, "district_name": "Pakke Kessang", "dist_lgd": 723, "subdistrict_name": "Pakke Kessang EAC", "sdcode": 1581, "block_name": "Pakke-Kessang", "block_lgd": 13.0, "gp_name": "", "state_name": "ARUNANCHAL PRADESH", "state_lgd": 12, "population": 331, "households": 64}, "geometry": {"type": "Polygon", "coordinates": [[[93.15713000000001, 27.207790000000003], [93.15645, 27.20857], [93.15739, 27.20934], [93.15824, 27.20849], [93.15757, 27.207780000000003], [93.15713000000001, 27.207790000000003]]]}}, {"id": "72", "type": "Feature", "properties": {"village_name": "Gumte", "vil_lgd": 261935, "district_name": "Pakke Kessang", "dist_lgd": 723, "subdistrict_name": "Pakke Kessang EAC", "sdcode": 1581, "block_name": "Pakke-Kessang", "block_lgd": 13.0, "gp_name": "", "state_name": "ARUNANCHAL PRADESH", "state_lgd": 12, "population": 220, "households": 36}, "geometry": {"type": "Polygon", "coordinates": [[[93.16576, 27.227020000000003], [93.16518, 27.228040000000004], [93.16602, 27.22857], [93.16691, 27.22772], [93.16615, 27.227010000000003], [93.16576, 27.227020000000003]]]}}, {"id": "73", "type": "Feature", "properties": {"village_name": "Palin", "vil_lgd": 261961, "district_name": "Pakke Kessang", "dist_lgd": 723, "subdistrict_name": "Pizirang Veo Circle", "sdcode": 6100, "block_name": "Pakke-Kessang", "block_lgd": 13.0, "gp_name": "", "state_name": "ARUNANCHAL PRADESH", "state_lgd": 12, "population": 164, "households": 31}, "geometry": {"type": "Polygon", "coordinates": [[[93.15323000000001, 27.28385], [93.15280000000001, 27.284910000000004], [93.15386000000001, 27.285320000000002], [93.15448, 27.28461], [93.15361000000001, 27.283780000000004], [93.15323000000001, 27.28385]]]}}, {"id": "74", "type": "Feature", "properties": {"village_name": "Nangnyu", "vil_lgd": 261973, "district_name": "Pakke Kessang", "dist_lgd": 723, "subdistrict_name": "Pizirang Veo Circle", "sdcode": 6100, "block_name": "Pakke-Kessang", "block_lgd": 13.0, "gp_name": "", "state_name": "ARUNANCHAL PRADESH", "state_lgd": 12, "population": 116, "households": 18}, "geometry": {"type": "Polygon", "coordinates": [[[93.15643000000001, 27.28845], [93.15724, 27.289320000000004], [93.15819, 27.288570000000004], [93.15725, 27.287750000000003], [93.15643000000001, 27.28845]]]}}, {"id": "75", "type": "Feature", "properties": {"village_name": "Sede", "vil_lgd": 261974, "district_name": "Pakke Kessang", "dist_lgd": 723, "subdistrict_name": "Pizirang Veo Circle", "sdcode": 6100, "block_name": "Pakke-Kessang", "block_lgd": 13.0, "gp_name": "", "state_name": "ARUNANCHAL PRADESH", "state_lgd": 12, "population": 501, "households": 90}, "geometry": {"type": "Polygon", "coordinates": [[[93.15056000000001, 27.291380000000004], [93.15012, 27.292440000000003], [93.15119000000001, 27.29284], [93.15180000000001, 27.292130000000004], [93.15093, 27.291310000000003], [93.15056000000001, 27.291380000000004]]]}}, {"id": "76", "type": "Feature", "properties": {"village_name": "Gumtung", "vil_lgd": 261958, "district_name": "Pakke Kessang", "dist_lgd": 723, "subdistrict_name": "Pizirang Veo Circle", "sdcode": 6100, "block_name": "Pakke-Kessang", "block_lgd": 13.0, "gp_name": "", "state_name": "ARUNANCHAL PRADESH", "state_lgd": 12, "population": 217, "households": 35}, "geometry": {"type": "Polygon", "coordinates": [[[93.17997000000001, 27.305770000000003], [93.17953000000001, 27.306820000000002], [93.18045000000001, 27.307260000000003], [93.18122000000001, 27.306520000000003], [93.18035, 27.3057], [93.17997000000001, 27.305770000000003]]]}}, {"id": "77", "type": "Feature", "properties": {"village_name": "Rasi", "vil_lgd": 261965, "district_name": "Pakke Kessang", "dist_lgd": 723, "subdistrict_name": "Pizirang Veo Circle", "sdcode": 6100, "block_name": "Pakke-Kessang", "block_lgd": 13.0, "gp_name": "", "state_name": "ARUNANCHAL PRADESH", "state_lgd": 12, "population": 35, "households": 7}, "geometry": {"type": "Polygon", "coordinates": [[[93.18443, 27.318170000000002], [93.18399000000001, 27.31923], [93.18491, 27.319670000000002], [93.18567, 27.31893], [93.18480000000001, 27.3181], [93.18443, 27.318170000000002]]]}}, {"id": "78", "type": "Feature", "properties": {"village_name": "Devegolo", "vil_lgd": 261957, "district_name": "Pakke Kessang", "dist_lgd": 723, "subdistrict_name": "Pizirang Veo Circle", "sdcode": 6100, "block_name": "Pakke-Kessang", "block_lgd": 13.0, "gp_name": "", "state_name": "ARUNANCHAL PRADESH", "state_lgd": 12, "population": 123, "households": 25}, "geometry": {"type": "Polygon", "coordinates": [[[93.20552, 27.331770000000002], [93.20509000000001, 27.33282], [93.20615000000001, 27.333230000000004], [93.20677, 27.332520000000002], [93.20590000000001, 27.3317], [93.20552, 27.331770000000002]]]}}, {"id": "79", "type": "Feature", "properties": {"village_name": "Tengri", "vil_lgd": 261962, "district_name": "Pakke Kessang", "dist_lgd": 723, "subdistrict_name": "Pizirang Veo Circle", "sdcode": 6100, "block_name": "Pakke-Kessang", "block_lgd": 13.0, "gp_name": "", "state_name": "ARUNANCHAL PRADESH", "state_lgd": 12, "population": 48, "households": 9}, "geometry": {"type": "Polygon", "coordinates": [[[93.22245000000001, 27.34887], [93.22178000000001, 27.349580000000003], [93.22262, 27.350430000000003], [93.22356, 27.349660000000004], [93.22289, 27.34888], [93.22245000000001, 27.34887]]]}}, {"id": "80", "type": "Feature", "properties": {"village_name": "Mado", "vil_lgd": 261977, "district_name": "Pakke Kessang", "dist_lgd": 723, "subdistrict_name": "Pizirang Veo Circle", "sdcode": 6100, "block_name": "Pakke-Kessang", "block_lgd": 13.0, "gp_name": "", "state_name": "ARUNANCHAL PRADESH", "state_lgd": 12, "population": 126, "households": 21}, "geometry": {"type": "Polygon", "coordinates": [[[93.23441000000001, 27.32645], [93.23518000000001, 27.32719], [93.23618, 27.32645], [93.23528, 27.325630000000004], [93.23441000000001, 27.32645]]]}}, {"id": "81", "type": "Feature", "properties": {"village_name": "Hote Veo", "vil_lgd": 261976, "district_name": "Pakke Kessang", "dist_lgd": 723, "subdistrict_name": "Pizirang Veo Circle", "sdcode": 6100, "block_name": "Pakke-Kessang", "block_lgd": 13.0, "gp_name": "", "state_name": "ARUNANCHAL PRADESH", "state_lgd": 12, "population": 105, "households": 11}, "geometry": {"type": "Polygon", "coordinates": [[[93.26546, 27.329490000000003], [93.26623000000001, 27.330230000000004], [93.26723000000001, 27.329490000000003], [93.26633000000001, 27.328660000000003], [93.26546, 27.329490000000003]]]}}, {"id": "82", "type": "Feature", "properties": {"village_name": "Sede Pakke Keshang", "vil_lgd": 261951, "district_name": "Pakke Kessang", "dist_lgd": 723, "subdistrict_name": "Pakke Kessang EAC", "sdcode": 1581, "block_name": "Pakke-Kessang", "block_lgd": 13.0, "gp_name": "", "state_name": "ARUNANCHAL PRADESH", "state_lgd": 12, "population": 0, "households": 0}, "geometry": {"type": "Polygon", "coordinates": [[[93.24253, 27.168200000000002], [93.24404000000001, 27.168470000000003], [93.24350000000001, 27.167170000000002], [93.24253, 27.168200000000002]]]}}, {"id": "83", "type": "Feature", "properties": {"village_name": "Data Partially Available", "vil_lgd": 999999, "district_name": "Pakke Kessang", "dist_lgd": 723, "subdistrict_name": "Dissing Passo Circle", "sdcode": 6099, "block_name": "", "block_lgd": null, "gp_name": "", "state_name": "ARUNANCHAL PRADESH", "state_lgd": 12, "population": 0, "households": 0}, "geometry": {"type": "Polygon", "coordinates": [[[93.13362000000001, 27.048800000000004], [93.13524000000001, 27.047700000000003], [93.14826000000001, 27.043470000000003], [93.1572, 27.043550000000003], [93.16015, 27.041430000000002], [93.16148000000001, 27.031950000000002], [93.15929000000001, 27.02382], [93.16129000000001, 27.01713], [93.17013000000001, 27.002810000000004], [93.17546, 26.998490000000004], [93.17964, 26.996630000000003], [93.19742000000001, 26.99417], [93.20322, 26.995610000000003], [93.20512000000001, 26.997390000000003], [93.20930000000001, 26.999000000000002], [93.21995000000001, 26.998920000000002], [93.22366000000001, 26.996380000000002], [93.22755000000001, 26.996380000000002], [93.23164000000001, 26.994770000000003], [93.23326, 26.992060000000002], [93.23478, 26.98485], [93.23697000000001, 26.984180000000002], [93.2536, 26.985960000000002], [93.26140000000001, 26.99163], [93.26853000000001, 26.995110000000004], [93.27233000000001, 26.99536], [93.27756000000001, 26.992900000000002], [93.28003000000001, 26.991380000000003], [93.28241000000001, 26.985360000000004], [93.28631000000001, 26.984600000000004], [93.28850000000001, 26.985110000000002], [93.29049, 26.987230000000004], [93.29468000000001, 26.98833], [93.29601000000001, 26.99011], [93.30352, 26.992140000000003], [93.30827000000001, 26.99248], [93.31436000000001, 26.996290000000002], [93.32092, 26.996800000000004], [93.32947, 26.992230000000003], [93.34383000000001, 26.99564], [93.34625000000001, 26.992430000000002], [93.36061000000001, 26.98177], [93.36890000000001, 26.980970000000003], [93.38518, 26.983490000000003], [93.38597000000001, 26.98063], [93.37981, 26.978360000000002], [93.38033, 26.974580000000003], [93.38664000000001, 26.972250000000003], [93.38959000000001, 26.95821], [93.37391000000001, 26.95951], [93.3241, 26.96008], [93.29777000000001, 26.95634], [93.26166, 26.95353], [93.20095, 26.943220000000004], [93.17907000000001, 26.9372], [93.12477000000001, 26.928220000000003], [93.12327, 26.9355], [93.12540000000001, 26.935820000000003], [93.12540000000001, 26.936510000000002], [93.12368000000001, 26.942020000000003], [93.12178, 26.943130000000004], [93.12356000000001, 26.950010000000002], [93.12535000000001, 26.950170000000004], [93.12570000000001, 26.95203], [93.12748, 26.95399], [93.12772000000001, 26.95616], [93.12546, 26.956110000000002], [93.12487, 26.958440000000003], [93.12148, 26.960870000000003], [93.12101000000001, 26.96516], [93.1178, 26.967440000000003], [93.11566, 26.968020000000003], [93.11364, 26.967440000000003], [93.11132, 26.969130000000003], [93.11007000000001, 26.97136], [93.11001, 26.976020000000002], [93.11429000000001, 26.982950000000002], [93.12035, 26.98936], [93.12891, 26.989200000000004], [93.13057, 26.987460000000002], [93.13313000000001, 26.987460000000002], [93.1345, 26.9891], [93.1345, 26.992960000000004], [93.13271, 26.99773], [93.11715000000001, 27.014460000000003], [93.11697000000001, 27.01631], [93.11453, 27.01763], [93.11305, 27.021500000000003], [93.11082, 27.02146], [93.10823, 27.024400000000004], [93.10333000000001, 27.026980000000002], [93.10203000000001, 27.02867], [93.10153000000001, 27.031160000000003], [93.10273000000001, 27.033920000000002], [93.10223, 27.03695], [93.10383, 27.046030000000002], [93.10203000000001, 27.051990000000004], [93.10153000000001, 27.05777], [93.10236, 27.057940000000002], [93.10593, 27.060350000000003], [93.10900000000001, 27.06032], [93.11157000000001, 27.060740000000003], [93.11423, 27.062520000000003], [93.11661000000001, 27.062350000000002], [93.12839000000001, 27.058280000000003], [93.13077000000001, 27.055570000000003], [93.13362000000001, 27.048800000000004]], [[93.1046, 27.053700000000003], [93.10536, 27.054420000000004], [93.10447, 27.055270000000004], [93.10362, 27.054730000000003], [93.10421000000001, 27.053720000000002], [93.1046, 27.053700000000003]], [[93.12483, 27.050400000000003], [93.12442, 27.05148], [93.12319000000001, 27.05102], [93.1239, 27.04999], [93.12483, 27.050400000000003]], [[93.11942, 27.044420000000002], [93.12018, 27.045140000000004], [93.11929, 27.045990000000003], [93.11844, 27.045450000000002], [93.11903000000001, 27.04444], [93.11942, 27.044420000000002]], [[93.11606, 27.037300000000002], [93.11682, 27.038020000000003], [93.11593, 27.038880000000002], [93.11508, 27.03834], [93.11567000000001, 27.03732], [93.11606, 27.037300000000002]], [[93.14199, 27.035040000000002], [93.14275, 27.035760000000003], [93.14225, 27.036530000000003], [93.14119000000001, 27.036340000000003], [93.14129000000001, 27.035210000000003], [93.14199, 27.035040000000002]], [[93.14671000000001, 27.02268], [93.14739, 27.023460000000004], [93.14645, 27.024230000000003], [93.1456, 27.023380000000003], [93.14627, 27.02267], [93.14671000000001, 27.02268]], [[93.20856, 26.973190000000002], [93.20932, 26.973910000000004], [93.20843, 26.974760000000003], [93.20758000000001, 26.974220000000003], [93.20817000000001, 26.97321], [93.20856, 26.973190000000002]], [[93.15580000000001, 26.96779], [93.15656000000001, 26.968510000000002], [93.15567, 26.96936], [93.15482, 26.96882], [93.15540000000001, 26.967810000000004], [93.15580000000001, 26.96779]], [[93.19860000000001, 26.951890000000002], [93.19953000000001, 26.951480000000004], [93.20024000000001, 26.952510000000004], [93.19901, 26.95297], [93.19860000000001, 26.951890000000002]], [[93.12677000000001, 26.958440000000003], [93.12705000000001, 26.957580000000004], [93.12845, 26.957900000000002], [93.12792, 26.958940000000002], [93.12677000000001, 26.958440000000003]], [[93.15981000000001, 26.950960000000002], [93.16048, 26.95175], [93.15954, 26.952520000000003], [93.15870000000001, 26.951670000000004], [93.15937000000001, 26.950960000000002], [93.15981000000001, 26.950960000000002]], [[93.12889000000001, 26.951890000000002], [93.12848000000001, 26.95297], [93.12725, 26.952510000000004], [93.12796, 26.951480000000004], [93.12889000000001, 26.951890000000002]], [[93.19213, 26.944070000000004], [93.1928, 26.94478], [93.19196000000001, 26.94564], [93.19102000000001, 26.944860000000002], [93.19169000000001, 26.944080000000003], [93.19213, 26.944070000000004]], [[93.15919000000001, 26.938860000000002], [93.15879000000001, 26.939940000000004], [93.15755, 26.939480000000003], [93.15827, 26.938450000000003], [93.15919000000001, 26.938860000000002]], [[93.13305000000001, 26.935050000000004], [93.13264000000001, 26.936130000000002], [93.13141, 26.935670000000002], [93.13212000000001, 26.934630000000002], [93.13305000000001, 26.935050000000004]]]}}, {"id": "84", "type": "Feature", "properties": {"village_name": "Data Partially Available", "vil_lgd": 999999, "district_name": "Pakke Kessang", "dist_lgd": 723, "subdistrict_name": "Pakke Kessang EAC", "sdcode": 1581, "block_name": "", "block_lgd": null, "gp_name": "", "state_name": "ARUNANCHAL PRADESH", "state_lgd": 12, "population": 0, "households": 0}, "geometry": {"type": "Polygon", "coordinates": [[[93.32947, 26.992230000000003], [93.32092, 26.996800000000004], [93.31436000000001, 26.996290000000002], [93.30827000000001, 26.99248], [93.30352, 26.992140000000003], [93.29601000000001, 26.99011], [93.29468000000001, 26.98833], [93.29049, 26.987230000000004], [93.28850000000001, 26.985110000000002], [93.28631000000001, 26.984600000000004], [93.28241000000001, 26.985360000000004], [93.28003000000001, 26.991380000000003], [93.27756000000001, 26.992900000000002], [93.27233000000001, 26.99536], [93.26853000000001, 26.995110000000004], [93.26140000000001, 26.99163], [93.2536, 26.985960000000002], [93.23697000000001, 26.984180000000002], [93.23478, 26.98485], [93.23326, 26.992060000000002], [93.23164000000001, 26.994770000000003], [93.22755000000001, 26.996380000000002], [93.22366000000001, 26.996380000000002], [93.21995000000001, 26.998920000000002], [93.20930000000001, 26.999000000000002], [93.20512000000001, 26.997390000000003], [93.20322, 26.995610000000003], [93.19742000000001, 26.99417], [93.17964, 26.996630000000003], [93.17546, 26.998490000000004], [93.17013000000001, 27.002810000000004], [93.16129000000001, 27.01713], [93.15929000000001, 27.02382], [93.16148000000001, 27.031950000000002], [93.16015, 27.041430000000002], [93.1572, 27.043550000000003], [93.14826000000001, 27.043470000000003], [93.13524000000001, 27.047700000000003], [93.13362000000001, 27.048800000000004], [93.13077000000001, 27.055570000000003], [93.12839000000001, 27.058280000000003], [93.11661000000001, 27.062350000000002], [93.11423, 27.062520000000003], [93.11157000000001, 27.060740000000003], [93.10900000000001, 27.06032], [93.10681000000001, 27.074450000000002], [93.10434000000001, 27.08199], [93.10444000000001, 27.089180000000002], [93.10957, 27.096210000000003], [93.10995000000001, 27.09934], [93.11176, 27.102220000000003], [93.11166, 27.108140000000002], [93.11271, 27.11136], [93.11366000000001, 27.112370000000002], [93.11432, 27.11576], [93.11575, 27.11813], [93.11718, 27.11897], [93.11746000000001, 27.12261], [93.12193, 27.130480000000002], [93.12469, 27.138350000000003], [93.12469, 27.14055], [93.12754000000001, 27.149430000000002], [93.12744, 27.15341], [93.12839000000001, 27.153830000000003], [93.12925000000001, 27.164740000000002], [93.13011, 27.16618], [93.13191, 27.18005], [93.13191, 27.188170000000003], [93.13144000000001, 27.20314], [93.12393, 27.21498], [93.1187, 27.21946], [93.11356, 27.22182], [93.111, 27.224020000000003], [93.10871, 27.229090000000003], [93.10795, 27.23467], [93.11356, 27.240170000000003], [93.11375000000001, 27.241270000000004], [93.12198000000001, 27.2479], [93.14367000000001, 27.261760000000002], [93.15823, 27.27457], [93.16460000000001, 27.28393], [93.16508, 27.2879], [93.15690000000001, 27.2939], [93.15661, 27.29736], [93.16042, 27.29914], [93.16251000000001, 27.298040000000004], [93.1627, 27.296850000000003], [93.16175000000001, 27.296010000000003], [93.16203, 27.29483], [93.16317000000001, 27.294320000000003], [93.16546000000001, 27.29483], [93.16802000000001, 27.298040000000004], [93.17135, 27.297530000000002], [93.17154000000001, 27.29998], [93.17449, 27.30328], [93.17534, 27.30328], [93.17544000000001, 27.304460000000002], [93.17668, 27.30488], [93.18285, 27.302090000000003], [93.18609000000001, 27.302680000000002], [93.18979, 27.30995], [93.19265000000001, 27.311470000000003], [93.19417000000001, 27.310370000000002], [93.20187000000001, 27.316370000000003], [93.2051, 27.317130000000002], [93.23106000000001, 27.319750000000003], [93.23619000000001, 27.31924], [93.24988, 27.32093], [93.25197000000001, 27.32186], [93.29072000000001, 27.325370000000003], [93.29166000000001, 27.31379], [93.29474, 27.31208], [93.29516000000001, 27.308400000000002], [93.29485000000001, 27.30645], [93.29276, 27.30563], [93.29454000000001, 27.302760000000003], [93.29328000000001, 27.30007], [93.29442, 27.290480000000002], [93.28779, 27.28534], [93.28086, 27.28349], [93.27691, 27.280890000000003], [93.27249, 27.279500000000002], [93.26936, 27.276840000000004], [93.26411, 27.276360000000004], [93.2579, 27.27457], [93.25349000000001, 27.271510000000003], [93.25127, 27.26621], [93.24509, 27.264560000000003], [93.24278000000001, 27.261760000000002], [93.23704000000001, 27.257430000000003], [93.23353, 27.255290000000002], [93.23045, 27.254710000000003], [93.22643000000001, 27.250960000000003], [93.22509000000001, 27.25061], [93.23167000000001, 27.24396], [93.23337000000001, 27.238920000000004], [93.23004, 27.239430000000002], [93.22852, 27.236320000000003], [93.22454, 27.23694], [93.22397000000001, 27.234920000000002], [93.22443000000001, 27.232860000000002], [93.22303000000001, 27.231350000000003], [93.22241000000001, 27.22831], [93.22584, 27.222870000000004], [93.22489, 27.221140000000002], [93.22177, 27.218660000000003], [93.21993, 27.215550000000004], [93.22072000000001, 27.211700000000004], [93.2201, 27.208250000000003], [93.22147000000001, 27.205160000000003], [93.22122, 27.203540000000004], [93.22612000000001, 27.199540000000002], [93.22869000000001, 27.198570000000004], [93.23514, 27.2006], [93.24879000000001, 27.202600000000004], [93.25472, 27.206760000000003], [93.26444000000001, 27.21076], [93.27295000000001, 27.21113], [93.27907, 27.207580000000004], [93.28264, 27.19978], [93.28521, 27.198870000000003], [93.28986, 27.193540000000002], [93.29989, 27.18691], [93.30055, 27.182830000000003], [93.29967, 27.17967], [93.30179000000001, 27.178700000000003], [93.30521, 27.17434], [93.30900000000001, 27.173600000000004], [93.30945000000001, 27.17228], [93.29432000000001, 27.16327], [93.29138, 27.16241], [93.28318, 27.163010000000003], [93.28203, 27.161060000000003], [93.27851000000001, 27.160410000000002], [93.27340000000001, 27.157690000000002], [93.2724, 27.154940000000003], [93.27010000000001, 27.15378], [93.24998000000001, 27.154870000000003], [93.24485000000001, 27.154100000000003], [93.23664000000001, 27.145920000000004], [93.22893, 27.140600000000003], [93.22509000000001, 27.139380000000003], [93.21606000000001, 27.13877], [93.21269000000001, 27.135550000000002], [93.21066, 27.130950000000002], [93.21294, 27.116590000000002], [93.21551000000001, 27.114240000000002], [93.22038, 27.113970000000002], [93.22943000000001, 27.10958], [93.24237000000001, 27.111400000000003], [93.25635000000001, 27.108060000000002], [93.25929000000001, 27.108130000000003], [93.27199, 27.103450000000002], [93.27805000000001, 27.096690000000002], [93.28302000000001, 27.092170000000003], [93.2843, 27.09194], [93.28425000000001, 27.08913], [93.28561, 27.085400000000003], [93.28689000000001, 27.085060000000002], [93.29308, 27.077840000000002], [93.29610000000001, 27.076290000000004], [93.29942000000001, 27.07607], [93.30422, 27.07919], [93.30684000000001, 27.077830000000002], [93.31254000000001, 27.07927], [93.31898000000001, 27.070330000000002], [93.32294, 27.0619], [93.32923000000001, 27.058180000000004], [93.33673, 27.045160000000003], [93.33699000000001, 27.042740000000002], [93.33867000000001, 27.04005], [93.34206, 27.039710000000003], [93.34284000000001, 27.03816], [93.34006000000001, 27.03224], [93.34279000000001, 27.023920000000004], [93.34085, 27.016550000000002], [93.34355000000001, 27.013690000000004], [93.34413, 27.01076], [93.34095, 27.00878], [93.33942, 27.00681], [93.33899000000001, 27.003500000000003], [93.33974, 27.001070000000002], [93.34383000000001, 26.99564], [93.32947, 26.992230000000003]], [[93.24906000000001, 27.310160000000003], [93.24973000000001, 27.310940000000002], [93.2488, 27.31171], [93.24795, 27.31086], [93.24862, 27.310150000000004], [93.24906000000001, 27.310160000000003]], [[93.1747, 27.259420000000002], [93.17429000000001, 27.26049], [93.17306, 27.260030000000004], [93.17377, 27.259000000000004], [93.1747, 27.259420000000002]], [[93.14029000000001, 27.239880000000003], [93.14104, 27.2406], [93.14015, 27.241450000000004], [93.13931000000001, 27.240910000000003], [93.13989000000001, 27.239900000000002], [93.14029000000001, 27.239880000000003]], [[93.12409000000001, 27.234610000000004], [93.12477000000001, 27.235390000000002], [93.12383000000001, 27.23617], [93.12298000000001, 27.235310000000002], [93.12365000000001, 27.234610000000004], [93.12409000000001, 27.234610000000004]], [[93.16615, 27.227010000000003], [93.16691, 27.22772], [93.16602, 27.22857], [93.16518, 27.228040000000004], [93.16576, 27.227020000000003], [93.16615, 27.227010000000003]], [[93.14666000000001, 27.22341], [93.14742000000001, 27.224130000000002], [93.14653000000001, 27.224980000000002], [93.14569, 27.22444], [93.14627, 27.22343], [93.14666000000001, 27.22341]], [[93.13188000000001, 27.219710000000003], [93.13147000000001, 27.22078], [93.13024, 27.22032], [93.13095000000001, 27.21929], [93.13188000000001, 27.219710000000003]], [[93.14032, 27.214000000000002], [93.13991000000001, 27.215080000000004], [93.13867, 27.214620000000004], [93.13939, 27.213580000000004], [93.14032, 27.214000000000002]], [[93.15757, 27.207780000000003], [93.15824, 27.20849], [93.15739, 27.20934], [93.15645, 27.20857], [93.15713000000001, 27.207790000000003], [93.15757, 27.207780000000003]], [[93.15522000000001, 27.201110000000003], [93.15598000000001, 27.20183], [93.15509, 27.20268], [93.15424, 27.202140000000004], [93.15483, 27.201130000000003], [93.15522000000001, 27.201110000000003]], [[93.27002, 27.187730000000002], [93.27069, 27.188440000000003], [93.26985, 27.189290000000003], [93.26891, 27.18852], [93.26958, 27.187730000000002], [93.27002, 27.187730000000002]], [[93.27715, 27.181710000000002], [93.27783000000001, 27.18249], [93.27689000000001, 27.18326], [93.27604000000001, 27.18241], [93.27671000000001, 27.181700000000003], [93.27715, 27.181710000000002]], [[93.17031, 27.188750000000002], [93.17107000000001, 27.189460000000004], [93.17018, 27.190310000000004], [93.16934, 27.189780000000003], [93.16992, 27.188760000000002], [93.17031, 27.188750000000002]], [[93.25536000000001, 27.17704], [93.25612000000001, 27.177760000000003], [93.25523000000001, 27.178610000000003], [93.25438000000001, 27.17807], [93.25496000000001, 27.17706], [93.25536000000001, 27.17704]], [[93.22507, 27.175030000000003], [93.22583, 27.17575], [93.22494, 27.1766], [93.2241, 27.176060000000003], [93.22468, 27.175050000000002], [93.22507, 27.175030000000003]], [[93.24512000000001, 27.17254], [93.24566, 27.173840000000002], [93.24414, 27.17357], [93.24512000000001, 27.17254]], [[93.13728, 27.177120000000002], [93.13803, 27.177840000000003], [93.13714, 27.178690000000003], [93.1363, 27.178150000000002], [93.13688, 27.17714], [93.13728, 27.177120000000002]], [[93.24350000000001, 27.167170000000002], [93.24404000000001, 27.168470000000003], [93.24253, 27.168200000000002], [93.24350000000001, 27.167170000000002]], [[93.20158, 27.16448], [93.20234, 27.165200000000002], [93.20145000000001, 27.166050000000002], [93.20060000000001, 27.16551], [93.20119000000001, 27.164500000000004], [93.20158, 27.16448]], [[93.23014, 27.15902], [93.2309, 27.159740000000003], [93.23001000000001, 27.160590000000003], [93.22916000000001, 27.160050000000002], [93.22975000000001, 27.15904], [93.23014, 27.15902]], [[93.20805000000001, 27.15528], [93.20880000000001, 27.156000000000002], [93.20791000000001, 27.156850000000002], [93.20707, 27.15631], [93.20765, 27.155300000000004], [93.20805000000001, 27.15528]], [[93.18996000000001, 27.151280000000003], [93.18955000000001, 27.15236], [93.18832, 27.1519], [93.18903, 27.15087], [93.18996000000001, 27.151280000000003]], [[93.15047000000001, 27.146950000000004], [93.15115, 27.147730000000003], [93.15021, 27.14851], [93.14937, 27.147650000000002], [93.15004, 27.146950000000004], [93.15047000000001, 27.146950000000004]], [[93.15644, 27.142460000000003], [93.15603, 27.14354], [93.15480000000001, 27.14307], [93.15551, 27.14204], [93.15644, 27.142460000000003]]]}}, {"id": "85", "type": "Feature", "properties": {"village_name": "Data Partially Available", "vil_lgd": 999999, "district_name": "Pakke Kessang", "dist_lgd": 723, "subdistrict_name": "Pizirang Veo Circle", "sdcode": 6100, "block_name": "", "block_lgd": null, "gp_name": "", "state_name": "ARUNANCHAL PRADESH", "state_lgd": 12, "population": 0, "households": 0}, "geometry": {"type": "Polygon", "coordinates": [[[93.25197000000001, 27.32186], [93.24988, 27.32093], [93.23619000000001, 27.31924], [93.23106000000001, 27.319750000000003], [93.2051, 27.317130000000002], [93.20187000000001, 27.316370000000003], [93.19417000000001, 27.310370000000002], [93.19265000000001, 27.311470000000003], [93.18979, 27.30995], [93.18609000000001, 27.302680000000002], [93.18285, 27.302090000000003], [93.17668, 27.30488], [93.17544000000001, 27.304460000000002], [93.17534, 27.30328], [93.17449, 27.30328], [93.17154000000001, 27.29998], [93.17135, 27.297530000000002], [93.16802000000001, 27.298040000000004], [93.16546000000001, 27.29483], [93.16317000000001, 27.294320000000003], [93.16203, 27.29483], [93.16175000000001, 27.296010000000003], [93.1627, 27.296850000000003], [93.16251000000001, 27.298040000000004], [93.16042, 27.29914], [93.15661, 27.29736], [93.15690000000001, 27.2939], [93.16508, 27.2879], [93.16460000000001, 27.28393], [93.15823, 27.27457], [93.14367000000001, 27.261760000000002], [93.12198000000001, 27.2479], [93.11375000000001, 27.241270000000004], [93.11356, 27.240170000000003], [93.10795, 27.23467], [93.10871, 27.229090000000003], [93.111, 27.224020000000003], [93.11356, 27.22182], [93.1187, 27.21946], [93.12393, 27.21498], [93.13144000000001, 27.20314], [93.13191, 27.188170000000003], [93.13191, 27.18005], [93.13011, 27.16618], [93.12925000000001, 27.164740000000002], [93.12839000000001, 27.153830000000003], [93.12744, 27.15341], [93.12754000000001, 27.149430000000002], [93.12469, 27.14055], [93.12469, 27.138350000000003], [93.12193, 27.130480000000002], [93.11746000000001, 27.12261], [93.11718, 27.11897], [93.11575, 27.11813], [93.11432, 27.11576], [93.11366000000001, 27.112370000000002], [93.11271, 27.11136], [93.11166, 27.108140000000002], [93.11176, 27.102220000000003], [93.10995000000001, 27.09934], [93.10957, 27.096210000000003], [93.10444000000001, 27.089180000000002], [93.10434000000001, 27.08199], [93.10681000000001, 27.074450000000002], [93.10900000000001, 27.06032], [93.10593, 27.060350000000003], [93.10236, 27.057940000000002], [93.09951000000001, 27.06377], [93.09152, 27.070210000000003], [93.07593000000001, 27.071050000000003], [93.07289, 27.0697], [93.06661000000001, 27.0697], [93.06072, 27.07139], [93.04551000000001, 27.083920000000003], [93.03239, 27.08968], [93.02801000000001, 27.089340000000004], [93.02421000000001, 27.09035], [93.02079, 27.09645], [93.01223, 27.09899], [93.00862000000001, 27.101190000000003], [93.00824, 27.10508], [93.00272000000001, 27.113030000000002], [93.00691, 27.119470000000003], [93.00710000000001, 27.124540000000003], [93.00158, 27.127930000000003], [93.00158, 27.13097], [93.00653000000001, 27.135540000000002], [93.00691, 27.138930000000002], [93.00464000000001, 27.14619], [93.01180000000001, 27.14261], [93.02965, 27.15689], [93.06891, 27.171160000000004], [93.07486, 27.17592], [93.08081000000001, 27.18663], [93.07248000000001, 27.203290000000003], [93.03441000000001, 27.200910000000004], [93.00942, 27.200910000000004], [92.98444, 27.21994], [93.00229, 27.24969], [93.07486, 27.274670000000004], [93.16528000000001, 27.311550000000004], [93.19502000000001, 27.378180000000004], [93.28901, 27.39364], [93.29972000000001, 27.399590000000003], [93.32995000000001, 27.35471], [93.32205, 27.352430000000002], [93.31553000000001, 27.34758], [93.31194, 27.346940000000004], [93.30682, 27.344340000000003], [93.30483000000001, 27.342670000000002], [93.30014000000001, 27.33432], [93.29547000000001, 27.331090000000003], [93.28952000000001, 27.329290000000004], [93.29072000000001, 27.325370000000003], [93.25197000000001, 27.32186]], [[93.22289, 27.34888], [93.22356, 27.349660000000004], [93.22262, 27.350430000000003], [93.22178000000001, 27.349580000000003], [93.22245000000001, 27.34887], [93.22289, 27.34888]], [[93.26723000000001, 27.329490000000003], [93.26623000000001, 27.330230000000004], [93.26546, 27.329490000000003], [93.26633000000001, 27.328660000000003], [93.26723000000001, 27.329490000000003]], [[93.20590000000001, 27.3317], [93.20677, 27.332520000000002], [93.20615000000001, 27.333230000000004], [93.20509000000001, 27.33282], [93.20552, 27.331770000000002], [93.20590000000001, 27.3317]], [[93.23618, 27.32645], [93.23518000000001, 27.32719], [93.23441000000001, 27.32645], [93.23528, 27.325630000000004], [93.23618, 27.32645]], [[93.18480000000001, 27.3181], [93.18567, 27.31893], [93.18491, 27.319670000000002], [93.18399000000001, 27.31923], [93.18443, 27.318170000000002], [93.18480000000001, 27.3181]], [[93.18035, 27.3057], [93.18122000000001, 27.306520000000003], [93.18045000000001, 27.307260000000003], [93.17953000000001, 27.306820000000002], [93.17997000000001, 27.305770000000003], [93.18035, 27.3057]], [[93.14395, 27.300290000000004], [93.14482000000001, 27.30111], [93.14406000000001, 27.30185], [93.14314, 27.30141], [93.14357000000001, 27.30035], [93.14395, 27.300290000000004]], [[93.15093, 27.291310000000003], [93.15180000000001, 27.292130000000004], [93.15119000000001, 27.29284], [93.15012, 27.292440000000003], [93.15056000000001, 27.291380000000004], [93.15093, 27.291310000000003]], [[93.15819, 27.288570000000004], [93.15724, 27.289320000000004], [93.15643000000001, 27.28845], [93.15725, 27.287750000000003], [93.15819, 27.288570000000004]], [[93.14066000000001, 27.288040000000002], [93.13990000000001, 27.288780000000003], [93.13889, 27.288040000000002], [93.13976000000001, 27.28722], [93.14066000000001, 27.288040000000002]], [[93.15361000000001, 27.283780000000004], [93.15448, 27.28461], [93.15386000000001, 27.285320000000002], [93.15280000000001, 27.284910000000004], [93.15323000000001, 27.28385], [93.15361000000001, 27.283780000000004]], [[93.09047000000001, 27.27401], [93.09134, 27.27484], [93.09058, 27.27558], [93.08966000000001, 27.275140000000004], [93.0901, 27.27408], [93.09047000000001, 27.27401]], [[93.14143000000001, 27.265960000000003], [93.1423, 27.26678], [93.14168000000001, 27.267500000000002], [93.14061000000001, 27.267090000000003], [93.14105, 27.26603], [93.14143000000001, 27.265960000000003]], [[93.09877, 27.268500000000003], [93.09782000000001, 27.269250000000003], [93.09701000000001, 27.26838], [93.09783, 27.267680000000002], [93.09877, 27.268500000000003]], [[93.10414, 27.2587], [93.10501000000001, 27.259520000000002], [93.10424, 27.260260000000002], [93.10333000000001, 27.25982], [93.10376000000001, 27.258770000000002], [93.10414, 27.2587]], [[93.08661000000001, 27.255000000000003], [93.08748000000001, 27.255820000000003], [93.08671000000001, 27.256570000000004], [93.0858, 27.256130000000002], [93.08623000000001, 27.255070000000003], [93.08661000000001, 27.255000000000003]], [[93.10635, 27.251070000000002], [93.10558, 27.251810000000003], [93.10458000000001, 27.251070000000002], [93.10545, 27.25024], [93.10635, 27.251070000000002]], [[93.10340000000001, 27.243240000000004], [93.10427000000001, 27.24407], [93.10347, 27.24482], [93.10259, 27.244370000000004], [93.10302, 27.24331], [93.10340000000001, 27.243240000000004]], [[93.07352, 27.236410000000003], [93.07257000000001, 27.237160000000003], [93.07175000000001, 27.236290000000004], [93.07258, 27.235590000000002], [93.07352, 27.236410000000003]], [[93.08704, 27.2203], [93.08603000000001, 27.221040000000002], [93.08527000000001, 27.2203], [93.08614000000001, 27.21947], [93.08704, 27.2203]], [[93.12205, 27.1548], [93.12292000000001, 27.155630000000002], [93.12216000000001, 27.156370000000003], [93.12124000000001, 27.15593], [93.12167000000001, 27.154870000000003], [93.12205, 27.1548]]]}}]}