{"type": "FeatureCollection", "metadata": {"source": "Survey of India (per src_agency attribute in the source data)", "hosted_via": "National Water Data Portal (NWDP), NWIC, Ministry of Jal Shakti -- https://nwdp.nwic.gov.in/", "access": "public, no login required", "crs_original": "EPSG:7755 (WGS 84 / India NSF LCC)", "fetch_date": "2026-08-02", "quality": "verified-official -- Survey of India source", "state": "Delhi", "district": "Central", "processing": "reprojected to EPSG:4326, topology-preserving simplify (shared-arc, tolerance 0.0005 deg) so adjacent polygons never overlap/gap at shared borders, coords rounded 5dp, 0 feature(s) needed the per-feature fallback", "feature_count": 15}, "features": [{"id": "0", "type": "Feature", "properties": {"village_name": "North Delhi Municipal Corporation", "vil_lgd": 276401, "district_name": "Central", "dist_lgd": 77, "subdistrict_name": "Karol Bagh", "sdcode": 447, "block_name": "", "block_lgd": 0.0, "gp_name": "", "state_name": "DELHI", "state_lgd": 7, "population": 4, "households": 136599}, "geometry": {"type": "Polygon", "coordinates": [[[77.19414, 28.647700000000004], [77.19841000000001, 28.646110000000004], [77.19644000000001, 28.640990000000002], [77.19051, 28.634130000000003], [77.18864, 28.629590000000004], [77.18169, 28.62366], [77.17781000000001, 28.62704], [77.176, 28.632900000000003], [77.17527000000001, 28.633340000000004], [77.17588, 28.63979], [77.17542, 28.642100000000003], [77.17837, 28.64523], [77.17824, 28.64626], [77.18119, 28.65031], [77.18530000000001, 28.6488], [77.19414, 28.647700000000004]]]}}, {"id": "1", "type": "Feature", "properties": {"village_name": "New Delhi Municipal Council", "vil_lgd": 276447, "district_name": "Central", "dist_lgd": 77, "subdistrict_name": "Pahar Ganj", "sdcode": 446, "block_name": "", "block_lgd": 0.0, "gp_name": "", "state_name": "DELHI", "state_lgd": 7, "population": 3, "households": 2891}, "geometry": {"type": "Polygon", "coordinates": [[[77.22018000000001, 28.651080000000004], [77.21853, 28.641130000000004], [77.21881, 28.634950000000003], [77.21827, 28.634420000000002], [77.19841000000001, 28.646110000000004], [77.20154000000001, 28.6472], [77.20632, 28.6506], [77.20750000000001, 28.650800000000004], [77.20834, 28.652410000000003], [77.21326, 28.651200000000003], [77.21573000000001, 28.654020000000003], [77.21888000000001, 28.654410000000002], [77.21935, 28.653060000000004], [77.22018000000001, 28.651080000000004]]]}}, {"id": "2", "type": "Feature", "properties": {"village_name": "North Delhi Municipal Corporation", "vil_lgd": 276401, "district_name": "Central", "dist_lgd": 77, "subdistrict_name": "Pahar Ganj", "sdcode": 446, "block_name": "", "block_lgd": 0.0, "gp_name": "", "state_name": "DELHI", "state_lgd": 7, "population": 4, "households": 171722}, "geometry": {"type": "Polygon", "coordinates": [[[77.20632, 28.6506], [77.20154000000001, 28.6472], [77.19841000000001, 28.646110000000004], [77.19414, 28.647700000000004], [77.18530000000001, 28.6488], [77.18934, 28.654320000000002], [77.19136, 28.6537], [77.19290000000001, 28.655050000000003], [77.19469000000001, 28.657870000000003], [77.19552, 28.66194], [77.19908000000001, 28.662670000000002], [77.20620000000001, 28.662270000000003], [77.20411, 28.65923], [77.20501, 28.65612], [77.20632, 28.6506]]]}}, {"id": "3", "type": "Feature", "properties": {"village_name": "North Delhi Municipal Corporation", "vil_lgd": 276401, "district_name": "Central", "dist_lgd": 77, "subdistrict_name": "Darya Ganj", "sdcode": 445, "block_name": "", "block_lgd": 0.0, "gp_name": "", "state_name": "DELHI", "state_lgd": 7, "population": 5, "households": 271108}, "geometry": {"type": "Polygon", "coordinates": [[[77.26440000000001, 28.645170000000004], [77.26197, 28.639490000000002], [77.25377, 28.62937], [77.25252, 28.624830000000003], [77.25258000000001, 28.622170000000004], [77.25412, 28.620300000000004], [77.2549, 28.61435], [77.25562000000001, 28.613480000000003], [77.25283, 28.61295], [77.24922000000001, 28.61418], [77.2467, 28.62158], [77.24382, 28.625000000000004], [77.24122000000001, 28.62656], [77.22459, 28.635040000000004], [77.22363, 28.636390000000002], [77.22261, 28.6353], [77.21881, 28.634950000000003], [77.21853, 28.641130000000004], [77.22018000000001, 28.651080000000004], [77.22247, 28.652220000000003], [77.22402000000001, 28.654210000000003], [77.22535, 28.652980000000003], [77.22737000000001, 28.654310000000002], [77.22957000000001, 28.65228], [77.23397, 28.654080000000004], [77.23757, 28.654010000000003], [77.23911000000001, 28.651650000000004], [77.24162000000001, 28.650750000000002], [77.26284000000001, 28.652310000000003], [77.26440000000001, 28.645170000000004]]]}}, {"id": "4", "type": "Feature", "properties": {"village_name": "North Delhi Municipal Corporation", "vil_lgd": 276401, "district_name": "Central", "dist_lgd": 77, "subdistrict_name": "Kotwali", "sdcode": 435, "block_name": "", "block_lgd": 0.0, "gp_name": "", "state_name": "DELHI", "state_lgd": 7, "population": 4, "households": 69174}, "geometry": {"type": "Polygon", "coordinates": [[[77.25935000000001, 28.659430000000004], [77.26284000000001, 28.652310000000003], [77.24162000000001, 28.650750000000002], [77.23911000000001, 28.651650000000004], [77.23757, 28.654010000000003], [77.23397, 28.654080000000004], [77.22957000000001, 28.65228], [77.22737000000001, 28.654310000000002], [77.22535, 28.652980000000003], [77.22402000000001, 28.654210000000003], [77.22247, 28.652220000000003], [77.22018000000001, 28.651080000000004], [77.21935, 28.653060000000004], [77.21888000000001, 28.654410000000002], [77.21793000000001, 28.663050000000002], [77.22977, 28.6628], [77.24151, 28.66109], [77.24205, 28.661210000000004], [77.24027000000001, 28.662750000000003], [77.24158000000001, 28.663320000000002], [77.24615, 28.662750000000003], [77.24725000000001, 28.66335], [77.25093000000001, 28.663650000000004], [77.25153, 28.663000000000004], [77.25935000000001, 28.659430000000004]]]}}, {"id": "5", "type": "Feature", "properties": {"village_name": "North Delhi Municipal Corporation", "vil_lgd": 276401, "district_name": "Central", "dist_lgd": 77, "subdistrict_name": "Civil Lines", "sdcode": 433, "block_name": "", "block_lgd": 0.0, "gp_name": "", "state_name": "DELHI", "state_lgd": 7, "population": 4, "households": 401581}, "geometry": {"type": "Polygon", "coordinates": [[[77.22215000000001, 28.73119], [77.22833, 28.72952], [77.23035, 28.728060000000003], [77.23094, 28.730560000000004], [77.23225000000001, 28.729940000000003], [77.23486000000001, 28.73119], [77.23902000000001, 28.73166], [77.23557000000001, 28.716150000000003], [77.23069000000001, 28.708230000000004], [77.22915, 28.702280000000002], [77.22998000000001, 28.69884], [77.23271000000001, 28.69384], [77.23271000000001, 28.689780000000003], [77.23474, 28.687060000000002], [77.23485000000001, 28.68258], [77.23699, 28.680600000000002], [77.24151, 28.680290000000003], [77.23497, 28.675910000000002], [77.23545, 28.671110000000002], [77.22642, 28.667780000000004], [77.22024, 28.66663], [77.21940000000001, 28.66402], [77.20776000000001, 28.66579], [77.19908000000001, 28.662670000000002], [77.19552, 28.66194], [77.19469000000001, 28.657870000000003], [77.19290000000001, 28.655050000000003], [77.19136, 28.6537], [77.18934, 28.654320000000002], [77.18530000000001, 28.6488], [77.18119, 28.65031], [77.17995, 28.650810000000003], [77.18024000000001, 28.652860000000004], [77.17836000000001, 28.652320000000003], [77.17474, 28.65323], [77.16856, 28.653420000000004], [77.16791, 28.656160000000003], [77.16971000000001, 28.659290000000002], [77.17529, 28.66571], [77.1782, 28.667600000000004], [77.17689, 28.67068], [77.179, 28.67432], [77.17689, 28.675230000000003], [77.17473000000001, 28.67425], [77.17299000000001, 28.67932], [77.16796000000001, 28.683920000000004], [77.16859000000001, 28.688570000000002], [77.16956, 28.689090000000004], [77.17328, 28.685160000000003], [77.17588, 28.6837], [77.18356, 28.689550000000004], [77.18536, 28.69141], [77.18582, 28.693040000000003], [77.18804, 28.694490000000002], [77.18898, 28.693780000000004], [77.18836, 28.69114], [77.19361, 28.688930000000003], [77.19697000000001, 28.684730000000002], [77.19781, 28.684400000000004], [77.20025000000001, 28.685920000000003], [77.20406000000001, 28.6853], [77.20383000000001, 28.688170000000003], [77.20268, 28.688280000000002], [77.20697000000001, 28.692220000000002], [77.21243000000001, 28.700170000000004], [77.21499, 28.70238], [77.21858, 28.70764], [77.22213, 28.715790000000002], [77.21520000000001, 28.722350000000002], [77.21537000000001, 28.726620000000004], [77.21716, 28.72839], [77.21795, 28.732590000000002], [77.21887000000001, 28.733340000000002], [77.22215000000001, 28.73119]]]}}, {"id": "6", "type": "Feature", "properties": {"village_name": "Salem Pur Majra Burari", "vil_lgd": 63951, "district_name": "Central", "dist_lgd": 77, "subdistrict_name": "Civil Lines", "sdcode": 433, "block_name": "North", "block_lgd": 2.0, "gp_name": "NA", "state_name": "DELHI", "state_lgd": 7, "population": 4, "households": 10438}, "geometry": {"type": "Polygon", "coordinates": [[[77.20713, 28.779970000000002], [77.21384, 28.775750000000002], [77.22003000000001, 28.770280000000003], [77.21791, 28.76696], [77.21642, 28.76593], [77.21224000000001, 28.765430000000002], [77.20292, 28.76001], [77.19798, 28.760260000000002], [77.19636000000001, 28.762680000000003], [77.19322000000001, 28.764260000000004], [77.18942000000001, 28.767760000000003], [77.18961, 28.76884], [77.18519, 28.770850000000003], [77.19528000000001, 28.77802], [77.19890000000001, 28.78169], [77.19817, 28.78385], [77.20671, 28.787490000000002], [77.20564, 28.784550000000003], [77.20713, 28.779970000000002]]]}}, {"id": "7", "type": "Feature", "properties": {"village_name": "Badar Pur Majra Burari", "vil_lgd": 63952, "district_name": "Central", "dist_lgd": 77, "subdistrict_name": "Civil Lines", "sdcode": 433, "block_name": "North", "block_lgd": 2.0, "gp_name": "NA", "state_name": "DELHI", "state_lgd": 7, "population": 0, "households": 0}, "geometry": {"type": "Polygon", "coordinates": [[[77.20987000000001, 28.783690000000004], [77.21051, 28.782120000000003], [77.21401, 28.779310000000002], [77.21781, 28.77793], [77.21765, 28.775330000000004], [77.22123, 28.770820000000004], [77.22003000000001, 28.770280000000003], [77.21384, 28.775750000000002], [77.20713, 28.779970000000002], [77.20564, 28.784550000000003], [77.20671, 28.787490000000002], [77.20786000000001, 28.788240000000002], [77.21111, 28.786630000000002], [77.20987000000001, 28.783690000000004]]]}}, {"id": "8", "type": "Feature", "properties": {"village_name": "Jagat Pur Ilaqa Delhi", "vil_lgd": 63954, "district_name": "Central", "dist_lgd": 77, "subdistrict_name": "Civil Lines", "sdcode": 433, "block_name": "North", "block_lgd": 2.0, "gp_name": "NA", "state_name": "DELHI", "state_lgd": 7, "population": 6, "households": 7308}, "geometry": {"type": "Polygon", "coordinates": [[[77.23802, 28.745710000000003], [77.23552000000001, 28.74593], [77.23427000000001, 28.745730000000002], [77.23302000000001, 28.743900000000004], [77.23272, 28.737600000000004], [77.22987, 28.7314], [77.23094, 28.730560000000004], [77.23035, 28.728060000000003], [77.22833, 28.72952], [77.22215000000001, 28.73119], [77.21887000000001, 28.733340000000002], [77.22035000000001, 28.740450000000003], [77.22024, 28.742600000000003], [77.22203, 28.74715], [77.22171, 28.744950000000003], [77.22263000000001, 28.7451], [77.22338, 28.74659], [77.22677, 28.745020000000004], [77.22795, 28.74556], [77.22828000000001, 28.74866], [77.23653, 28.746250000000003], [77.23802, 28.745710000000003]]]}}, {"id": "9", "type": "Feature", "properties": {"village_name": "North Delhi Municipal Corporation", "vil_lgd": 276401, "district_name": "Central", "dist_lgd": 77, "subdistrict_name": "Sadar Bazar", "sdcode": 434, "block_name": "", "block_lgd": 0.0, "gp_name": "", "state_name": "DELHI", "state_lgd": 7, "population": 5, "households": 130188}, "geometry": {"type": "Polygon", "coordinates": [[[77.24354000000001, 28.66392], [77.24725000000001, 28.66335], [77.24615, 28.662750000000003], [77.24158000000001, 28.663320000000002], [77.24027000000001, 28.662750000000003], [77.24205, 28.661210000000004], [77.24151, 28.66109], [77.22977, 28.6628], [77.21793000000001, 28.663050000000002], [77.21888000000001, 28.654410000000002], [77.21573000000001, 28.654020000000003], [77.21326, 28.651200000000003], [77.20834, 28.652410000000003], [77.20750000000001, 28.650800000000004], [77.20632, 28.6506], [77.20501, 28.65612], [77.20411, 28.65923], [77.20620000000001, 28.662270000000003], [77.19908000000001, 28.662670000000002], [77.20776000000001, 28.66579], [77.21940000000001, 28.66402], [77.22024, 28.66663], [77.22642, 28.667780000000004], [77.23545, 28.671110000000002], [77.23891, 28.666140000000002], [77.24354000000001, 28.66392]]]}}, {"id": "10", "type": "Feature", "properties": {"village_name": "Burari CT", "vil_lgd": 63957, "district_name": "Central", "dist_lgd": 77, "subdistrict_name": "Civil Lines", "sdcode": 433, "block_name": "", "block_lgd": null, "gp_name": "", "state_name": "DELHI", "state_lgd": 7, "population": 5, "households": 146190}, "geometry": {"type": "Polygon", "coordinates": [[[77.18961, 28.76884], [77.18942000000001, 28.767760000000003], [77.19322000000001, 28.764260000000004], [77.19636000000001, 28.762680000000003], [77.19798, 28.760260000000002], [77.20292, 28.76001], [77.21224000000001, 28.765430000000002], [77.21642, 28.76593], [77.21791, 28.76696], [77.21894, 28.76376], [77.22201000000001, 28.75871], [77.22201000000001, 28.751430000000003], [77.22129000000001, 28.750870000000003], [77.22298, 28.75061], [77.22203, 28.74715], [77.22024, 28.742600000000003], [77.22035000000001, 28.740450000000003], [77.21232, 28.738670000000003], [77.20498, 28.735390000000002], [77.19634, 28.738390000000003], [77.19611, 28.744480000000003], [77.19596, 28.749940000000002], [77.19772, 28.753480000000003], [77.19834, 28.757440000000003], [77.19525, 28.755730000000003], [77.19007, 28.74885], [77.18432, 28.744850000000003], [77.18180000000001, 28.750190000000003], [77.18218, 28.750950000000003], [77.18261000000001, 28.753180000000004], [77.18203000000001, 28.75429], [77.17871000000001, 28.75524], [77.17943000000001, 28.757900000000003], [77.17524, 28.75899], [77.17434, 28.760030000000004], [77.1751, 28.763620000000003], [77.17437000000001, 28.765620000000002], [77.17161, 28.767180000000003], [77.17148, 28.77165], [77.17231000000001, 28.772700000000004], [77.17920000000001, 28.770310000000002], [77.18519, 28.770850000000003], [77.18961, 28.76884]]]}}, {"id": "11", "type": "Feature", "properties": {"village_name": "Mukand Pur CT", "vil_lgd": 63955, "district_name": "Central", "dist_lgd": 77, "subdistrict_name": "Civil Lines", "sdcode": 433, "block_name": "", "block_lgd": null, "gp_name": "", "state_name": "DELHI", "state_lgd": 7, "population": 5, "households": 57135}, "geometry": {"type": "Polygon", "coordinates": [[[77.18180000000001, 28.750190000000003], [77.18432, 28.744850000000003], [77.18551000000001, 28.744020000000003], [77.18817, 28.744190000000003], [77.18898, 28.741180000000004], [77.19183000000001, 28.737520000000004], [77.19618000000001, 28.73487], [77.19518000000001, 28.733120000000003], [77.19541000000001, 28.72875], [77.19193, 28.725690000000004], [77.19217, 28.729010000000002], [77.19032, 28.731640000000002], [77.18664000000001, 28.73289], [77.18463000000001, 28.735440000000004], [77.17936, 28.738180000000003], [77.17674000000001, 28.740450000000003], [77.17503, 28.744600000000002], [77.17558000000001, 28.74611], [77.17967, 28.750580000000003], [77.18218, 28.750950000000003], [77.18180000000001, 28.750190000000003]]]}}, {"id": "12", "type": "Feature", "properties": {"village_name": "Kamal Pur Majra Burari CT", "vil_lgd": 63956, "district_name": "Central", "dist_lgd": 77, "subdistrict_name": "Civil Lines", "sdcode": 433, "block_name": "", "block_lgd": null, "gp_name": "", "state_name": "DELHI", "state_lgd": 7, "population": 5, "households": 43086}, "geometry": {"type": "Polygon", "coordinates": [[[77.19634, 28.738390000000003], [77.1962, 28.736810000000002], [77.19829, 28.734720000000003], [77.19689000000001, 28.734240000000003], [77.19618000000001, 28.73487], [77.19183000000001, 28.737520000000004], [77.18898, 28.741180000000004], [77.18817, 28.744190000000003], [77.18551000000001, 28.744020000000003], [77.18432, 28.744850000000003], [77.19007, 28.74885], [77.19525, 28.755730000000003], [77.19834, 28.757440000000003], [77.19772, 28.753480000000003], [77.19596, 28.749940000000002], [77.19611, 28.744480000000003], [77.19634, 28.738390000000003]]]}}, {"id": "13", "type": "Feature", "properties": {"village_name": "Jharoda Majra Burari CT", "vil_lgd": 63958, "district_name": "Central", "dist_lgd": 77, "subdistrict_name": "Civil Lines", "sdcode": 433, "block_name": "", "block_lgd": null, "gp_name": "", "state_name": "DELHI", "state_lgd": 7, "population": 5, "households": 22878}, "geometry": {"type": "Polygon", "coordinates": [[[77.21887000000001, 28.733340000000002], [77.21795, 28.732590000000002], [77.21716, 28.72839], [77.21537000000001, 28.726620000000004], [77.19541000000001, 28.72875], [77.19518000000001, 28.733120000000003], [77.19618000000001, 28.73487], [77.19689000000001, 28.734240000000003], [77.19829, 28.734720000000003], [77.1962, 28.736810000000002], [77.19634, 28.738390000000003], [77.20498, 28.735390000000002], [77.21232, 28.738670000000003], [77.22035000000001, 28.740450000000003], [77.21887000000001, 28.733340000000002]]]}}, {"id": "14", "type": "Feature", "properties": {"village_name": "Jagat Pur Ilaqa Shahdara Un Inhabited", "vil_lgd": 63953, "district_name": "Central", "dist_lgd": 77, "subdistrict_name": "Civil Lines", "sdcode": 433, "block_name": "North", "block_lgd": 2.0, "gp_name": "NA", "state_name": "DELHI", "state_lgd": 7, "population": 0, "households": 0}, "geometry": {"type": "Polygon", "coordinates": [[[77.23802, 28.745710000000003], [77.24074, 28.74433], [77.23998, 28.738500000000002], [77.23878, 28.73675], [77.23946000000001, 28.73355], [77.23902000000001, 28.73166], [77.23486000000001, 28.73119], [77.23225000000001, 28.729940000000003], [77.23094, 28.730560000000004], [77.22987, 28.7314], [77.23272, 28.737600000000004], [77.23302000000001, 28.743900000000004], [77.23427000000001, 28.745730000000002], [77.23552000000001, 28.74593], [77.23802, 28.745710000000003]]]}}]}