{"type": "FeatureCollection", "metadata": {"source": "Survey of India (per src_agency attribute in the source data)", "hosted_via": "National Water Data Portal (NWDP), NWIC, Ministry of Jal Shakti -- https://nwdp.nwic.gov.in/", "access": "public, no login required", "crs_original": "EPSG:7755 (WGS 84 / India NSF LCC)", "fetch_date": "2026-08-02", "quality": "verified-official -- Survey of India source", "state": "Delhi", "district": "East", "processing": "reprojected to EPSG:4326, topology-preserving simplify (shared-arc, tolerance 0.0005 deg) so adjacent polygons never overlap/gap at shared borders, coords rounded 5dp, 0 feature(s) needed the per-feature fallback", "feature_count": 10}, "features": [{"id": "0", "type": "Feature", "properties": {"village_name": "East Delhi Municipal Corporation", "vil_lgd": 276400, "district_name": "East", "dist_lgd": 78, "subdistrict_name": "Preet Vihar", "sdcode": 441, "block_name": "", "block_lgd": 0.0, "gp_name": "", "state_name": "DELHI", "state_lgd": 7, "population": 4, "households": 644194}, "geometry": {"type": "MultiPolygon", "coordinates": [[[[77.32539000000001, 28.624620000000004], [77.32769, 28.618260000000003], [77.32805, 28.615440000000003], [77.32719, 28.614250000000002], [77.32484000000001, 28.614690000000003], [77.32356, 28.61388], [77.31907000000001, 28.614], [77.30837000000001, 28.611380000000004], [77.30438000000001, 28.60762], [77.30214000000001, 28.604090000000003], [77.29939, 28.605010000000004], [77.29634, 28.605970000000003], [77.29587000000001, 28.60534], [77.29159, 28.611060000000002], [77.2942, 28.611770000000003], [77.29848000000001, 28.616650000000003], [77.2933, 28.617780000000003], [77.29083, 28.619320000000002], [77.28841000000001, 28.618450000000003], [77.28803, 28.61924], [77.28644000000001, 28.621100000000002], [77.28447000000001, 28.629080000000002], [77.28245000000001, 28.632780000000004], [77.28121, 28.634030000000003], [77.27247000000001, 28.63106], [77.27085000000001, 28.631570000000004], [77.26279000000001, 28.630070000000003], [77.25768000000001, 28.63023], [77.25507, 28.63116], [77.26197, 28.639490000000002], [77.26440000000001, 28.645170000000004], [77.26375, 28.649400000000004], [77.27136, 28.650350000000003], [77.27715, 28.652350000000002], [77.27748000000001, 28.653850000000002], [77.27985000000001, 28.655050000000003], [77.28825, 28.65791], [77.28921000000001, 28.657850000000003], [77.29335, 28.65379], [77.29684, 28.648360000000004], [77.30188000000001, 28.643700000000003], [77.31535000000001, 28.640020000000003], [77.31628, 28.641270000000002], [77.32369000000001, 28.63436], [77.32464, 28.634690000000003], [77.33351, 28.629050000000003], [77.32539000000001, 28.624620000000004]]], [[[77.28734, 28.608860000000004], [77.29154000000001, 28.60347], [77.29017, 28.60293], [77.29044, 28.602210000000003], [77.30315, 28.58388], [77.29844, 28.580090000000002], [77.29975, 28.57851], [77.29995000000001, 28.57664], [77.2985, 28.571230000000003], [77.29218, 28.577430000000003], [77.29185000000001, 28.580240000000003], [77.28792, 28.585490000000004], [77.28487000000001, 28.58676], [77.27819000000001, 28.585140000000003], [77.27837000000001, 28.588020000000004], [77.28081, 28.58978], [77.2805, 28.59446], [77.27950000000001, 28.598280000000003], [77.27673, 28.60056], [77.27392, 28.60197], [77.26660000000001, 28.59672], [77.26545, 28.595810000000004], [77.26716, 28.59204], [77.26513000000001, 28.59176], [77.25598000000001, 28.608780000000003], [77.25562000000001, 28.613480000000003], [77.2549, 28.61435], [77.26326, 28.614480000000004], [77.28048000000001, 28.618460000000002], [77.28233, 28.616130000000002], [77.28734, 28.608860000000004]]]]}}, {"id": "1", "type": "Feature", "properties": {"village_name": "East Delhi Municipal Corporation", "vil_lgd": 276400, "district_name": "East", "dist_lgd": 78, "subdistrict_name": "Gandhi Nagar", "sdcode": 439, "block_name": "", "block_lgd": 0.0, "gp_name": "", "state_name": "DELHI", "state_lgd": 7, "population": 4, "households": 394164}, "geometry": {"type": "Polygon", "coordinates": [[[77.28447000000001, 28.629080000000002], [77.28644000000001, 28.621100000000002], [77.28198, 28.61943], [77.27823000000001, 28.622290000000003], [77.27731, 28.622690000000002], [77.28048000000001, 28.618460000000002], [77.26326, 28.614480000000004], [77.2549, 28.61435], [77.25412, 28.620300000000004], [77.25258000000001, 28.622170000000004], [77.25252, 28.624830000000003], [77.25377, 28.62937], [77.25507, 28.63116], [77.25768000000001, 28.63023], [77.26279000000001, 28.630070000000003], [77.27085000000001, 28.631570000000004], [77.27247000000001, 28.63106], [77.28121, 28.634030000000003], [77.28245000000001, 28.632780000000004], [77.28447000000001, 28.629080000000002]]]}}, {"id": "2", "type": "Feature", "properties": {"village_name": "Shamas Pur", "vil_lgd": 63984, "district_name": "East", "dist_lgd": 78, "subdistrict_name": "Preet Vihar", "sdcode": 441, "block_name": "East", "block_lgd": 4.0, "gp_name": "NA", "state_name": "DELHI", "state_lgd": 7, "population": 4, "households": 3530}, "geometry": {"type": "Polygon", "coordinates": [[[77.28734, 28.608860000000004], [77.28233, 28.616130000000002], [77.28048000000001, 28.618460000000002], [77.28198, 28.61943], [77.28859, 28.610570000000003], [77.28776, 28.609710000000003], [77.28734, 28.608860000000004]]]}}, {"id": "3", "type": "Feature", "properties": {"village_name": "Gharonda Neemka Bangar Alias Patpar Ganj CT", "vil_lgd": 63985, "district_name": "East", "dist_lgd": 78, "subdistrict_name": "Preet Vihar", "sdcode": 441, "block_name": "", "block_lgd": null, "gp_name": "", "state_name": "DELHI", "state_lgd": 7, "population": 4, "households": 37876}, "geometry": {"type": "Polygon", "coordinates": [[[77.28841000000001, 28.618450000000003], [77.29083, 28.619320000000002], [77.2933, 28.617780000000003], [77.29848000000001, 28.616650000000003], [77.2942, 28.611770000000003], [77.29159, 28.611060000000002], [77.29587000000001, 28.60534], [77.29387000000001, 28.604550000000003], [77.29390000000001, 28.603820000000002], [77.29259, 28.603970000000004], [77.29216000000001, 28.60338], [77.29276, 28.602800000000002], [77.29154000000001, 28.60347], [77.28734, 28.608860000000004], [77.28776, 28.609710000000003], [77.28859, 28.610570000000003], [77.28198, 28.61943], [77.28644000000001, 28.621100000000002], [77.28803, 28.61924], [77.28841000000001, 28.618450000000003]]]}}, {"id": "4", "type": "Feature", "properties": {"village_name": "Chilla Saroda Bangar CT", "vil_lgd": 63989, "district_name": "East", "dist_lgd": 78, "subdistrict_name": "Mayur Vihar", "sdcode": 6084, "block_name": "", "block_lgd": null, "gp_name": "", "state_name": "DELHI", "state_lgd": 7, "population": 4, "households": 83217}, "geometry": {"type": "Polygon", "coordinates": [[[77.30214000000001, 28.604090000000003], [77.31246, 28.59671], [77.3135, 28.596660000000004], [77.31025000000001, 28.590590000000002], [77.30565, 28.586550000000003], [77.29821000000001, 28.59259], [77.29536, 28.596290000000003], [77.29276, 28.602800000000002], [77.29216000000001, 28.60338], [77.29259, 28.603970000000004], [77.29390000000001, 28.603820000000002], [77.29387000000001, 28.604550000000003], [77.29587000000001, 28.60534], [77.29634, 28.605970000000003], [77.29939, 28.605010000000004], [77.30214000000001, 28.604090000000003]]]}}, {"id": "5", "type": "Feature", "properties": {"village_name": "Chilla Saroda Khadar CT", "vil_lgd": 63990, "district_name": "East", "dist_lgd": 78, "subdistrict_name": "Mayur Vihar", "sdcode": 6084, "block_name": "", "block_lgd": null, "gp_name": "", "state_name": "DELHI", "state_lgd": 7, "population": 3, "households": 11743}, "geometry": {"type": "Polygon", "coordinates": [[[77.29536, 28.596290000000003], [77.29821000000001, 28.59259], [77.30565, 28.586550000000003], [77.30315, 28.58388], [77.29044, 28.602210000000003], [77.29017, 28.60293], [77.29154000000001, 28.60347], [77.29276, 28.602800000000002], [77.29536, 28.596290000000003]]]}}, {"id": "6", "type": "Feature", "properties": {"village_name": "Gharoli CT", "vil_lgd": 63986, "district_name": "East", "dist_lgd": 78, "subdistrict_name": "Mayur Vihar", "sdcode": 6084, "block_name": "", "block_lgd": null, "gp_name": "", "state_name": "DELHI", "state_lgd": 7, "population": 4, "households": 92540}, "geometry": {"type": "Polygon", "coordinates": [[[77.34241, 28.60892], [77.34167000000001, 28.606090000000002], [77.33676000000001, 28.601850000000002], [77.33052, 28.6077], [77.32892000000001, 28.61005], [77.32915000000001, 28.6125], [77.32719, 28.614250000000002], [77.32805, 28.615440000000003], [77.32769, 28.618260000000003], [77.32539000000001, 28.624620000000004], [77.33351, 28.629050000000003], [77.33976000000001, 28.62413], [77.34036, 28.622560000000004], [77.34253000000001, 28.622020000000003], [77.34165, 28.61849], [77.34241, 28.60892]]]}}, {"id": "7", "type": "Feature", "properties": {"village_name": "Dallo Pura CT", "vil_lgd": 63988, "district_name": "East", "dist_lgd": 78, "subdistrict_name": "Mayur Vihar", "sdcode": 6084, "block_name": "", "block_lgd": null, "gp_name": "", "state_name": "DELHI", "state_lgd": 7, "population": 4, "households": 154791}, "geometry": {"type": "Polygon", "coordinates": [[[77.31448, 28.609270000000002], [77.32921, 28.6002], [77.32516000000001, 28.598090000000003], [77.3135, 28.596660000000004], [77.31246, 28.59671], [77.30214000000001, 28.604090000000003], [77.30438000000001, 28.60762], [77.30837000000001, 28.611380000000004], [77.31127000000001, 28.609160000000003], [77.31448, 28.609270000000002]]]}}, {"id": "8", "type": "Feature", "properties": {"village_name": "Kondli CT", "vil_lgd": 63987, "district_name": "East", "dist_lgd": 78, "subdistrict_name": "Mayur Vihar", "sdcode": 6084, "block_name": "", "block_lgd": null, "gp_name": "", "state_name": "DELHI", "state_lgd": 7, "population": 4, "households": 38207}, "geometry": {"type": "Polygon", "coordinates": [[[77.32915000000001, 28.6125], [77.32892000000001, 28.61005], [77.33052, 28.6077], [77.33676000000001, 28.601850000000002], [77.33456000000001, 28.60188], [77.32921, 28.6002], [77.31448, 28.609270000000002], [77.31127000000001, 28.609160000000003], [77.30837000000001, 28.611380000000004], [77.31907000000001, 28.614], [77.32356, 28.61388], [77.32484000000001, 28.614690000000003], [77.32719, 28.614250000000002], [77.32915000000001, 28.6125]]]}}, {"id": "9", "type": "Feature", "properties": {"village_name": "Shakar Pur Baramad CT", "vil_lgd": 63983, "district_name": "East", "dist_lgd": 78, "subdistrict_name": "Gandhi Nagar", "sdcode": 439, "block_name": "", "block_lgd": null, "gp_name": "", "state_name": "DELHI", "state_lgd": 7, "population": 3, "households": 1178}, "geometry": {"type": "Polygon", "coordinates": [[[77.28198, 28.61943], [77.28048000000001, 28.618460000000002], [77.27731, 28.622690000000002], [77.27823000000001, 28.622290000000003], [77.28198, 28.61943]]]}}]}