{"type": "FeatureCollection", "metadata": {"source": "Survey of India (per src_agency attribute in the source data)", "hosted_via": "National Water Data Portal (NWDP), NWIC, Ministry of Jal Shakti -- https://nwdp.nwic.gov.in/", "access": "public, no login required", "crs_original": "EPSG:7755 (WGS 84 / India NSF LCC)", "fetch_date": "2026-08-02", "quality": "verified-official -- Survey of India source", "state": "Delhi", "district": "New Delhi", "processing": "reprojected to EPSG:4326, topology-preserving simplify (shared-arc, tolerance 0.0005 deg) so adjacent polygons never overlap/gap at shared borders, coords rounded 5dp, 0 feature(s) needed the per-feature fallback", "feature_count": 12}, "features": [{"id": "0", "type": "Feature", "properties": {"village_name": "Delhi Cantonment Board", "vil_lgd": 276403, "district_name": "New Delhi", "dist_lgd": 79, "subdistrict_name": "Delhi Cantonment", "sdcode": 452, "block_name": "", "block_lgd": 0.0, "gp_name": "", "state_name": "DELHI", "state_lgd": 7, "population": 4, "households": 101704}, "geometry": {"type": "Polygon", "coordinates": [[[77.17660000000001, 28.62037], [77.1747, 28.615440000000003], [77.17461, 28.613020000000002], [77.16919, 28.604010000000002], [77.17204000000001, 28.602010000000003], [77.16818, 28.59607], [77.16604000000001, 28.59138], [77.15938000000001, 28.58423], [77.16158, 28.582870000000003], [77.16152000000001, 28.58209], [77.15647000000001, 28.57411], [77.14995, 28.577330000000003], [77.14234, 28.576110000000003], [77.13826, 28.578000000000003], [77.13578000000001, 28.574830000000002], [77.13664, 28.571070000000002], [77.14531000000001, 28.564650000000004], [77.15101, 28.564140000000002], [77.15101, 28.562680000000004], [77.14958, 28.562520000000003], [77.14958, 28.563150000000004], [77.14287, 28.55328], [77.14239, 28.552660000000003], [77.13484000000001, 28.55516], [77.13175000000001, 28.55506], [77.12427000000001, 28.556990000000003], [77.11892, 28.556420000000003], [77.11547, 28.557720000000003], [77.1106, 28.553390000000004], [77.10026, 28.55704], [77.09224, 28.56237], [77.09099, 28.563200000000002], [77.08933, 28.561840000000004], [77.08558000000001, 28.562420000000003], [77.08356, 28.561480000000003], [77.08291000000001, 28.559860000000004], [77.07753000000001, 28.560900000000004], [77.05927000000001, 28.557520000000004], [77.05548, 28.55598], [77.05067000000001, 28.558950000000003], [77.05877000000001, 28.571460000000002], [77.06558000000001, 28.56978], [77.06782000000001, 28.573760000000004], [77.06946, 28.574930000000002], [77.07507000000001, 28.573680000000003], [77.08114, 28.571180000000002], [77.09539000000001, 28.58723], [77.09609, 28.58808], [77.09624000000001, 28.591430000000003], [77.09803000000001, 28.59119], [77.10021, 28.594920000000002], [77.10324, 28.597420000000003], [77.09970000000001, 28.598760000000002], [77.10033, 28.599890000000002], [77.09883, 28.601020000000002], [77.10193000000001, 28.605020000000003], [77.10195, 28.606340000000003], [77.10277, 28.606260000000002], [77.10394000000001, 28.61276], [77.11531000000001, 28.618180000000002], [77.11805000000001, 28.627010000000002], [77.11942, 28.62805], [77.12196, 28.627710000000004], [77.12258, 28.62852], [77.12201, 28.63181], [77.12540000000001, 28.63895], [77.13629, 28.64103], [77.14563000000001, 28.6382], [77.14708, 28.640210000000003], [77.14968, 28.63725], [77.15323000000001, 28.639490000000002], [77.16169000000001, 28.633000000000003], [77.16549, 28.62796], [77.17266000000001, 28.629990000000003], [77.17666000000001, 28.630100000000002], [77.17755000000001, 28.627440000000004], [77.17996000000001, 28.62505], [77.17660000000001, 28.62037]]]}}, {"id": "1", "type": "Feature", "properties": {"village_name": "New Delhi Municipal Council", "vil_lgd": 276447, "district_name": "New Delhi", "dist_lgd": 79, "subdistrict_name": "Vasant Vihar", "sdcode": 453, "block_name": "", "block_lgd": 0.0, "gp_name": "", "state_name": "DELHI", "state_lgd": 7, "population": 4, "households": 78663}, "geometry": {"type": "Polygon", "coordinates": [[[77.18993, 28.582250000000002], [77.19159, 28.58235], [77.19004000000001, 28.579900000000002], [77.18957, 28.565450000000002], [77.18762000000001, 28.56285], [77.18316, 28.56088], [77.18139000000001, 28.558780000000002], [77.18402, 28.557650000000002], [77.18168, 28.555190000000003], [77.18371, 28.554980000000004], [77.18293000000001, 28.551650000000002], [77.18114000000001, 28.54877], [77.16949000000001, 28.54792], [77.165, 28.54567], [77.16055, 28.545440000000003], [77.15955000000001, 28.54744], [77.15990000000001, 28.551720000000003], [77.16289, 28.55751], [77.16473, 28.560640000000003], [77.16265, 28.563720000000004], [77.16039, 28.564610000000002], [77.15956000000001, 28.565810000000003], [77.16372000000001, 28.57259], [77.15647000000001, 28.57411], [77.16152000000001, 28.58209], [77.16158, 28.582870000000003], [77.15938000000001, 28.58423], [77.16604000000001, 28.59138], [77.16818, 28.59607], [77.17204000000001, 28.592740000000003], [77.17614, 28.587360000000004], [77.18743, 28.583550000000002], [77.18993, 28.582250000000002]]]}}, {"id": "2", "type": "Feature", "properties": {"village_name": "South Delhi Municipal Corporation", "vil_lgd": 276402, "district_name": "New Delhi", "dist_lgd": 79, "subdistrict_name": "Delhi Cantonment", "sdcode": 452, "block_name": "", "block_lgd": 0.0, "gp_name": "", "state_name": "DELHI", "state_lgd": 7, "population": 4, "households": 162934}, "geometry": {"type": "Polygon", "coordinates": [[[77.0844, 28.55871], [77.0822, 28.554330000000004], [77.08047, 28.55318], [77.07703000000001, 28.552920000000004], [77.07376000000001, 28.55073], [77.07115, 28.550780000000003], [77.07054000000001, 28.5482], [77.05548, 28.55598], [77.05927000000001, 28.557520000000004], [77.07753000000001, 28.560900000000004], [77.08291000000001, 28.559860000000004], [77.0844, 28.55871]]]}}, {"id": "3", "type": "Feature", "properties": {"village_name": "Delhi Cantonment Board", "vil_lgd": 276403, "district_name": "New Delhi", "dist_lgd": 79, "subdistrict_name": "Vasant Vihar", "sdcode": 453, "block_name": "", "block_lgd": 0.0, "gp_name": "", "state_name": "DELHI", "state_lgd": 7, "population": 4, "households": 8647}, "geometry": {"type": "Polygon", "coordinates": [[[77.10026, 28.55704], [77.1106, 28.553390000000004], [77.11547, 28.557720000000003], [77.11892, 28.556420000000003], [77.12427000000001, 28.556990000000003], [77.13175000000001, 28.55506], [77.13484000000001, 28.55516], [77.14239, 28.552660000000003], [77.14287, 28.55328], [77.14784, 28.549630000000004], [77.14897, 28.543680000000002], [77.15485000000001, 28.546080000000003], [77.16055, 28.545440000000003], [77.17041, 28.54024], [77.1748, 28.536030000000004], [77.16961, 28.53347], [77.16403000000001, 28.526390000000003], [77.15959000000001, 28.525800000000004], [77.15614000000001, 28.521310000000003], [77.14712, 28.523490000000002], [77.14240000000001, 28.52352], [77.14901, 28.54116], [77.14268000000001, 28.541860000000003], [77.13903, 28.539700000000003], [77.13544, 28.538700000000002], [77.12625000000001, 28.54005], [77.11142000000001, 28.546270000000003], [77.10863, 28.54567], [77.10342, 28.54024], [77.10268, 28.53789], [77.08892, 28.53853], [77.07919000000001, 28.540640000000003], [77.07130000000001, 28.543840000000003], [77.07054000000001, 28.5482], [77.07115, 28.550780000000003], [77.07376000000001, 28.55073], [77.07703000000001, 28.552920000000004], [77.08047, 28.55318], [77.0822, 28.554330000000004], [77.0844, 28.55871], [77.08291000000001, 28.559860000000004], [77.08356, 28.561480000000003], [77.08558000000001, 28.562420000000003], [77.08933, 28.561840000000004], [77.09099, 28.563200000000002], [77.09224, 28.56237], [77.10026, 28.55704]]]}}, {"id": "4", "type": "Feature", "properties": {"village_name": "New Delhi Municipal Council", "vil_lgd": 276447, "district_name": "New Delhi", "dist_lgd": 79, "subdistrict_name": "Chanakya Puri", "sdcode": 443, "block_name": "", "block_lgd": 0.0, "gp_name": "", "state_name": "DELHI", "state_lgd": 7, "population": 4, "households": 139128}, "geometry": {"type": "Polygon", "coordinates": [[[77.21827, 28.634420000000002], [77.21967000000001, 28.63547], [77.22261, 28.6353], [77.22363, 28.636390000000002], [77.22459, 28.635040000000004], [77.24382, 28.625000000000004], [77.2467, 28.62158], [77.24922000000001, 28.61418], [77.2514, 28.607840000000003], [77.24554, 28.605510000000002], [77.24259, 28.60818], [77.23315000000001, 28.602500000000003], [77.23337000000001, 28.595160000000003], [77.23551, 28.592100000000002], [77.21209, 28.589370000000002], [77.21017, 28.580170000000003], [77.19159, 28.58235], [77.18993, 28.582250000000002], [77.18743, 28.583550000000002], [77.17614, 28.587360000000004], [77.17204000000001, 28.592740000000003], [77.16818, 28.59607], [77.17204000000001, 28.602010000000003], [77.16919, 28.604010000000002], [77.17461, 28.613020000000002], [77.1747, 28.615440000000003], [77.17660000000001, 28.62037], [77.17996000000001, 28.62505], [77.18169, 28.62366], [77.18766000000001, 28.62845], [77.19051, 28.634130000000003], [77.19644000000001, 28.640990000000002], [77.19841000000001, 28.646110000000004], [77.19892, 28.64523], [77.20369000000001, 28.643150000000002], [77.21827, 28.634420000000002]]]}}, {"id": "5", "type": "Feature", "properties": {"village_name": "East Delhi Municipal Corporation", "vil_lgd": 276400, "district_name": "New Delhi", "dist_lgd": 79, "subdistrict_name": "Chanakya Puri", "sdcode": 443, "block_name": "", "block_lgd": 0.0, "gp_name": "", "state_name": "DELHI", "state_lgd": 7, "population": 4, "households": 2876}, "geometry": {"type": "Polygon", "coordinates": [[[77.25562000000001, 28.613480000000003], [77.25598000000001, 28.608780000000003], [77.2514, 28.607840000000003], [77.24922000000001, 28.61418], [77.25187000000001, 28.613070000000004], [77.25562000000001, 28.613480000000003]]]}}, {"id": "6", "type": "Feature", "properties": {"village_name": "Rajokri CT", "vil_lgd": 64060, "district_name": "New Delhi", "dist_lgd": 79, "subdistrict_name": "Vasant Vihar", "sdcode": 453, "block_name": "", "block_lgd": null, "gp_name": "", "state_name": "DELHI", "state_lgd": 7, "population": 4, "households": 19148}, "geometry": {"type": "Polygon", "coordinates": [[[77.12937000000001, 28.50682], [77.12894, 28.502160000000003], [77.1273, 28.4979], [77.12466, 28.496520000000004], [77.12131000000001, 28.496710000000004], [77.12064000000001, 28.495960000000004], [77.11697000000001, 28.496360000000003], [77.11218000000001, 28.498410000000003], [77.09708, 28.506480000000003], [77.10354000000001, 28.51819], [77.09987000000001, 28.521300000000004], [77.10407000000001, 28.525340000000003], [77.10658000000001, 28.525940000000002], [77.11266, 28.529980000000002], [77.11397000000001, 28.530400000000004], [77.11599000000001, 28.529570000000003], [77.12122000000001, 28.52382], [77.13173, 28.518760000000004], [77.12937000000001, 28.50682]]]}}, {"id": "7", "type": "Feature", "properties": {"village_name": "Kusum Pur CT", "vil_lgd": 64056, "district_name": "New Delhi", "dist_lgd": 79, "subdistrict_name": "Vasant Vihar", "sdcode": 453, "block_name": "", "block_lgd": null, "gp_name": "", "state_name": "DELHI", "state_lgd": 7, "population": 4, "households": 17028}, "geometry": {"type": "Polygon", "coordinates": [[[77.15861000000001, 28.559390000000004], [77.16289, 28.55751], [77.15990000000001, 28.551720000000003], [77.15955000000001, 28.54744], [77.16055, 28.545440000000003], [77.15485000000001, 28.546080000000003], [77.14897, 28.543680000000002], [77.14784, 28.549630000000004], [77.14287, 28.55328], [77.14958, 28.563150000000004], [77.14958, 28.562520000000003], [77.15101, 28.562680000000004], [77.15101, 28.564140000000002], [77.15392, 28.56304], [77.15861000000001, 28.559390000000004]]]}}, {"id": "8", "type": "Feature", "properties": {"village_name": "Malik Pur Kohi Alias Rang Puri CT", "vil_lgd": 64057, "district_name": "New Delhi", "dist_lgd": 79, "subdistrict_name": "Vasant Vihar", "sdcode": 453, "block_name": "", "block_lgd": null, "gp_name": "", "state_name": "DELHI", "state_lgd": 7, "population": 4, "households": 23726}, "geometry": {"type": "Polygon", "coordinates": [[[77.13544, 28.538700000000002], [77.13903, 28.539700000000003], [77.14268000000001, 28.541860000000003], [77.14901, 28.54116], [77.14240000000001, 28.52352], [77.13419, 28.524040000000003], [77.13355, 28.521130000000003], [77.13173, 28.518760000000004], [77.12122000000001, 28.52382], [77.11599000000001, 28.529570000000003], [77.11397000000001, 28.530400000000004], [77.11266, 28.529980000000002], [77.10363000000001, 28.535310000000003], [77.10268, 28.53789], [77.10342, 28.54024], [77.10863, 28.54567], [77.11142000000001, 28.546270000000003], [77.12625000000001, 28.54005], [77.13544, 28.538700000000002]]]}}, {"id": "9", "type": "Feature", "properties": {"village_name": "Sambhalka CT", "vil_lgd": 64058, "district_name": "New Delhi", "dist_lgd": 79, "subdistrict_name": "Vasant Vihar", "sdcode": 453, "block_name": "", "block_lgd": null, "gp_name": "", "state_name": "DELHI", "state_lgd": 7, "population": 4, "households": 17076}, "geometry": {"type": "Polygon", "coordinates": [[[77.10363000000001, 28.535310000000003], [77.11266, 28.529980000000002], [77.10658000000001, 28.525940000000002], [77.10407000000001, 28.525340000000003], [77.09987000000001, 28.521300000000004], [77.08558000000001, 28.531760000000002], [77.08675000000001, 28.535320000000002], [77.08892, 28.53853], [77.10268, 28.53789], [77.10363000000001, 28.535310000000003]]]}}, {"id": "10", "type": "Feature", "properties": {"village_name": "Ghitorni CT", "vil_lgd": 64061, "district_name": "New Delhi", "dist_lgd": 79, "subdistrict_name": "Vasant Vihar", "sdcode": 453, "block_name": "", "block_lgd": null, "gp_name": "", "state_name": "DELHI", "state_lgd": 7, "population": 5, "households": 14893}, "geometry": {"type": "Polygon", "coordinates": [[[77.13671000000001, 28.504340000000003], [77.14330000000001, 28.497580000000003], [77.14779, 28.49979], [77.15001000000001, 28.4994], [77.1478, 28.492410000000003], [77.1453, 28.48862], [77.1444, 28.48393], [77.13708000000001, 28.486760000000004], [77.13236, 28.487640000000003], [77.12693, 28.486970000000003], [77.11861, 28.488020000000002], [77.12064000000001, 28.495960000000004], [77.12131000000001, 28.496710000000004], [77.12466, 28.496520000000004], [77.1273, 28.4979], [77.12894, 28.502160000000003], [77.12937000000001, 28.50682], [77.13516000000001, 28.504790000000003], [77.13671000000001, 28.504340000000003]]]}}, {"id": "11", "type": "Feature", "properties": {"village_name": "Moradabad Pahari CT", "vil_lgd": 64055, "district_name": "New Delhi", "dist_lgd": 79, "subdistrict_name": "Delhi Cantonment", "sdcode": 452, "block_name": "", "block_lgd": null, "gp_name": "", "state_name": "DELHI", "state_lgd": 7, "population": 4, "households": 21502}, "geometry": {"type": "Polygon", "coordinates": [[[77.14995, 28.577330000000003], [77.15647000000001, 28.57411], [77.16372000000001, 28.57259], [77.15956000000001, 28.565810000000003], [77.16039, 28.564610000000002], [77.16265, 28.563720000000004], [77.16473, 28.560640000000003], [77.16289, 28.55751], [77.15861000000001, 28.559390000000004], [77.15392, 28.56304], [77.15101, 28.564140000000002], [77.14531000000001, 28.564650000000004], [77.13664, 28.571070000000002], [77.13578000000001, 28.574830000000002], [77.13826, 28.578000000000003], [77.14234, 28.576110000000003], [77.14995, 28.577330000000003]]]}}]}