{"type": "FeatureCollection", "metadata": {"source": "Survey of India (per src_agency attribute in the source data)", "hosted_via": "National Water Data Portal (NWDP), NWIC, Ministry of Jal Shakti -- https://nwdp.nwic.gov.in/", "access": "public, no login required", "crs_original": "EPSG:7755 (WGS 84 / India NSF LCC)", "fetch_date": "2026-08-02", "quality": "verified-official -- Survey of India source", "state": "Delhi", "district": "North East", "processing": "reprojected to EPSG:4326, topology-preserving simplify (shared-arc, tolerance 0.0005 deg) so adjacent polygons never overlap/gap at shared borders, coords rounded 5dp, 0 feature(s) needed the per-feature fallback", "feature_count": 22}, "features": [{"id": "0", "type": "Feature", "properties": {"village_name": "Sher Pur", "vil_lgd": 63966, "district_name": "North East", "dist_lgd": 81, "subdistrict_name": "Seelam Pur", "sdcode": 436, "block_name": "North East", "block_lgd": 3.0, "gp_name": "NA", "state_name": "DELHI", "state_lgd": 7, "population": 5, "households": 2575}, "geometry": {"type": "Polygon", "coordinates": [[[77.26177000000001, 28.71102], [77.25999, 28.71253], [77.26133, 28.71384], [77.26349, 28.713990000000003], [77.26219, 28.71169], [77.26177000000001, 28.71102]]]}}, {"id": "1", "type": "Feature", "properties": {"village_name": "Badar Pur Khadar", "vil_lgd": 63959, "district_name": "North East", "dist_lgd": 81, "subdistrict_name": "Karawal Nagar", "sdcode": 6083, "block_name": "North East", "block_lgd": 3.0, "gp_name": "NA", "state_name": "DELHI", "state_lgd": 7, "population": 5, "households": 798}, "geometry": {"type": "Polygon", "coordinates": [[[77.22853, 28.78657], [77.23414000000001, 28.78376], [77.22186, 28.777430000000003], [77.22535, 28.77691], [77.23144, 28.77445], [77.23215, 28.77287], [77.23178, 28.770830000000004], [77.22697000000001, 28.769610000000004], [77.22124000000001, 28.770360000000004], [77.21765, 28.775330000000004], [77.21781, 28.77793], [77.21265000000001, 28.780120000000004], [77.20987000000001, 28.783690000000004], [77.21111, 28.786630000000002], [77.21507000000001, 28.785200000000003], [77.22853, 28.78657]]]}}, {"id": "2", "type": "Feature", "properties": {"village_name": "Khan Pur Dhani CT", "vil_lgd": 63974, "district_name": "North East", "dist_lgd": 81, "subdistrict_name": "Yamuna Vihar", "sdcode": 6082, "block_name": "", "block_lgd": null, "gp_name": "", "state_name": "DELHI", "state_lgd": 7, "population": 5, "households": 6994}, "geometry": {"type": "Polygon", "coordinates": [[[77.27965, 28.697950000000002], [77.27513, 28.696800000000003], [77.27276, 28.697290000000002], [77.27342, 28.69845], [77.27506000000001, 28.69759], [77.27767, 28.702560000000002], [77.27987, 28.701990000000002], [77.27987, 28.700010000000002], [77.28097000000001, 28.698970000000003], [77.28011000000001, 28.698240000000002], [77.27965, 28.697950000000002]]]}}, {"id": "3", "type": "Feature", "properties": {"village_name": "Gokal Pur CT", "vil_lgd": 63979, "district_name": "North East", "dist_lgd": 81, "subdistrict_name": "Yamuna Vihar", "sdcode": 6082, "block_name": "", "block_lgd": null, "gp_name": "", "state_name": "DELHI", "state_lgd": 7, "population": 5, "households": 121870}, "geometry": {"type": "Polygon", "coordinates": [[[77.28736, 28.710300000000004], [77.28944000000001, 28.707620000000002], [77.29151, 28.706190000000003], [77.29678000000001, 28.704520000000002], [77.29827, 28.696530000000003], [77.29767000000001, 28.693730000000002], [77.29697, 28.69235], [77.29244000000001, 28.692890000000002], [77.28662000000001, 28.695790000000002], [77.28454, 28.693440000000002], [77.28193, 28.696130000000004], [77.28314, 28.697820000000004], [77.28498, 28.69637], [77.28644000000001, 28.698860000000003], [77.28379000000001, 28.700270000000003], [77.28465000000001, 28.701700000000002], [77.28306, 28.701960000000003], [77.28272000000001, 28.70061], [77.28079000000001, 28.70144], [77.28085, 28.703500000000002], [77.27984000000001, 28.704340000000002], [77.28058, 28.70585], [77.28397000000001, 28.704800000000002], [77.28427, 28.705460000000002], [77.28231000000001, 28.70699], [77.28189, 28.708640000000003], [77.2796, 28.709570000000003], [77.2805, 28.71121], [77.28741000000001, 28.711550000000003], [77.28736, 28.710300000000004]]]}}, {"id": "4", "type": "Feature", "properties": {"village_name": "North Delhi Municipal Corporation", "vil_lgd": 276401, "district_name": "North East", "dist_lgd": 81, "subdistrict_name": "Seelam Pur", "sdcode": 436, "block_name": "", "block_lgd": 0.0, "gp_name": "", "state_name": "DELHI", "state_lgd": 7, "population": 5, "households": 530838}, "geometry": {"type": "Polygon", "coordinates": [[[77.24278000000001, 28.71402], [77.25094, 28.71317], [77.25114, 28.712010000000003], [77.25268000000001, 28.710430000000002], [77.25085, 28.705890000000004], [77.24676000000001, 28.707050000000002], [77.24201000000001, 28.690920000000002], [77.2471, 28.687910000000002], [77.24939, 28.68767], [77.25258000000001, 28.702170000000002], [77.25371000000001, 28.704150000000002], [77.25538, 28.704610000000002], [77.25927, 28.703940000000003], [77.2656, 28.702730000000003], [77.27159, 28.700940000000003], [77.27078, 28.69827], [77.27208, 28.69695], [77.2706, 28.683230000000002], [77.26944, 28.68052], [77.27014000000001, 28.6792], [77.26804000000001, 28.676820000000003], [77.26971, 28.675860000000004], [77.26823, 28.674730000000004], [77.26983000000001, 28.67282], [77.26286, 28.670540000000003], [77.25858000000001, 28.67011], [77.25384000000001, 28.671020000000002], [77.23891, 28.666140000000002], [77.23545, 28.671110000000002], [77.23497, 28.675910000000002], [77.24151, 28.680290000000003], [77.23699, 28.680600000000002], [77.23485000000001, 28.68258], [77.23474, 28.687060000000002], [77.23271000000001, 28.689780000000003], [77.23271000000001, 28.69384], [77.22915, 28.700930000000003], [77.23069000000001, 28.708230000000004], [77.23557000000001, 28.716150000000003], [77.23700000000001, 28.71723], [77.23767000000001, 28.71572], [77.23688, 28.71441], [77.23786000000001, 28.712390000000003], [77.24278000000001, 28.71402]]]}}, {"id": "5", "type": "Feature", "properties": {"village_name": "Sadat Pur Gujran CT", "vil_lgd": 63968, "district_name": "North East", "dist_lgd": 81, "subdistrict_name": "Karawal Nagar", "sdcode": 6083, "block_name": "", "block_lgd": null, "gp_name": "", "state_name": "DELHI", "state_lgd": 7, "population": 5, "households": 97641}, "geometry": {"type": "Polygon", "coordinates": [[[77.24833000000001, 28.725980000000003], [77.25152, 28.72108], [77.25369, 28.71403], [77.25114, 28.712010000000003], [77.25094, 28.71317], [77.24278000000001, 28.71402], [77.24377000000001, 28.715040000000002], [77.24387, 28.71891], [77.24178, 28.718660000000003], [77.24178, 28.71929], [77.24392, 28.724790000000002], [77.24268000000001, 28.728630000000003], [77.24658000000001, 28.728170000000002], [77.24856000000001, 28.729960000000002], [77.24941000000001, 28.72979], [77.24924, 28.72884], [77.24833000000001, 28.725980000000003]]]}}, {"id": "6", "type": "Feature", "properties": {"village_name": "Karawal Nagar CT", "vil_lgd": 63970, "district_name": "North East", "dist_lgd": 81, "subdistrict_name": "Karawal Nagar", "sdcode": 6083, "block_name": "", "block_lgd": null, "gp_name": "", "state_name": "DELHI", "state_lgd": 7, "population": 5, "households": 224281}, "geometry": {"type": "Polygon", "coordinates": [[[77.27192000000001, 28.735500000000002], [77.2729, 28.736310000000003], [77.27643, 28.735490000000002], [77.28572000000001, 28.726250000000004], [77.28441000000001, 28.723000000000003], [77.27793000000001, 28.712940000000003], [77.27776, 28.71373], [77.27746, 28.715390000000003], [77.27223000000001, 28.716590000000004], [77.26563, 28.71946], [77.25654, 28.726390000000002], [77.25577000000001, 28.72774], [77.25428000000001, 28.73327], [77.25519000000001, 28.739780000000003], [77.26081, 28.7342], [77.27192000000001, 28.735500000000002]]]}}, {"id": "7", "type": "Feature", "properties": {"village_name": "Saba Pur Shahdara", "vil_lgd": 63963, "district_name": "North East", "dist_lgd": 81, "subdistrict_name": "Karawal Nagar", "sdcode": 6083, "block_name": "North East", "block_lgd": 3.0, "gp_name": "NA", "state_name": "DELHI", "state_lgd": 7, "population": 5, "households": 6379}, "geometry": {"type": "Polygon", "coordinates": [[[77.24882000000001, 28.75532], [77.25635000000001, 28.756120000000003], [77.25614, 28.754400000000004], [77.25883, 28.752740000000003], [77.25917000000001, 28.750040000000002], [77.25619, 28.743920000000003], [77.25477000000001, 28.743890000000004], [77.25105, 28.743810000000003], [77.24625, 28.743610000000004], [77.24074, 28.74433], [77.24095000000001, 28.744860000000003], [77.2369, 28.74696], [77.23559, 28.752010000000002], [77.23399, 28.754210000000004], [77.23393, 28.755710000000004], [77.23530000000001, 28.757310000000004], [77.23454000000001, 28.760880000000004], [77.23886, 28.75945], [77.24882000000001, 28.75532]]]}}, {"id": "8", "type": "Feature", "properties": {"village_name": "Saba Pur Delhi", "vil_lgd": 63962, "district_name": "North East", "dist_lgd": 81, "subdistrict_name": "Karawal Nagar", "sdcode": 6083, "block_name": "North East", "block_lgd": 3.0, "gp_name": "NA", "state_name": "DELHI", "state_lgd": 7, "population": 6, "households": 4567}, "geometry": {"type": "Polygon", "coordinates": [[[77.23530000000001, 28.757310000000004], [77.23393, 28.755710000000004], [77.23399, 28.754210000000004], [77.23559, 28.752010000000002], [77.2369, 28.74696], [77.24095000000001, 28.744860000000003], [77.24074, 28.74433], [77.22864000000001, 28.748680000000004], [77.22795, 28.74556], [77.22677, 28.745020000000004], [77.22338, 28.74659], [77.22263000000001, 28.7451], [77.22171, 28.744950000000003], [77.22298, 28.75061], [77.22129000000001, 28.750870000000003], [77.22201000000001, 28.751430000000003], [77.22213, 28.754710000000003], [77.22158, 28.75945], [77.22743000000001, 28.760460000000002], [77.22897, 28.760610000000003], [77.23573, 28.762610000000002], [77.23454000000001, 28.760880000000004], [77.23530000000001, 28.757310000000004]]]}}, {"id": "9", "type": "Feature", "properties": {"village_name": "Pur Delhi", "vil_lgd": 63960, "district_name": "North East", "dist_lgd": 81, "subdistrict_name": "Karawal Nagar", "sdcode": 6083, "block_name": "North East", "block_lgd": 3.0, "gp_name": "NA", "state_name": "DELHI", "state_lgd": 7, "population": 8, "households": 291}, "geometry": {"type": "Polygon", "coordinates": [[[77.23596, 28.765490000000003], [77.22965, 28.76396], [77.22743000000001, 28.760460000000002], [77.22158, 28.75945], [77.21791, 28.76696], [77.22003000000001, 28.770280000000003], [77.22124000000001, 28.770360000000004], [77.22697000000001, 28.769610000000004], [77.23178, 28.770830000000004], [77.23587, 28.770770000000002], [77.23596, 28.765490000000003]]]}}, {"id": "10", "type": "Feature", "properties": {"village_name": "Khajoori Khas CT", "vil_lgd": 63976, "district_name": "North East", "dist_lgd": 81, "subdistrict_name": "Seelam Pur", "sdcode": 436, "block_name": "", "block_lgd": null, "gp_name": "", "state_name": "DELHI", "state_lgd": 7, "population": 5, "households": 76640}, "geometry": {"type": "Polygon", "coordinates": [[[77.26177000000001, 28.71102], [77.26097, 28.70558], [77.25927, 28.703940000000003], [77.25538, 28.704610000000002], [77.25085, 28.705890000000004], [77.25268000000001, 28.710430000000002], [77.25114, 28.712010000000003], [77.25369, 28.71403], [77.25999, 28.71253], [77.26177000000001, 28.71102]]]}}, {"id": "11", "type": "Feature", "properties": {"village_name": "Bihari Pur", "vil_lgd": 63965, "district_name": "North East", "dist_lgd": 81, "subdistrict_name": "Karawal Nagar", "sdcode": 6083, "block_name": "North East", "block_lgd": 3.0, "gp_name": "NA", "state_name": "DELHI", "state_lgd": 7, "population": 5, "households": 4235}, "geometry": {"type": "Polygon", "coordinates": [[[77.25519000000001, 28.739780000000003], [77.25428000000001, 28.73327], [77.25577000000001, 28.72774], [77.25654, 28.726390000000002], [77.26563, 28.71946], [77.26527, 28.71873], [77.26426000000001, 28.71928], [77.26364000000001, 28.71834], [77.26480000000001, 28.71768], [77.26349, 28.713990000000003], [77.26133, 28.71384], [77.25999, 28.71253], [77.25369, 28.71403], [77.25152, 28.72108], [77.24833000000001, 28.725980000000003], [77.24924, 28.72884], [77.24941000000001, 28.72979], [77.24856000000001, 28.729960000000002], [77.24654000000001, 28.73082], [77.24733, 28.732720000000004], [77.24656, 28.7373], [77.24784000000001, 28.737980000000004], [77.24909000000001, 28.74152], [77.25105, 28.743810000000003], [77.25477000000001, 28.743890000000004], [77.25519000000001, 28.739780000000003]], [[77.26037000000001, 28.719230000000003], [77.26072, 28.720090000000003], [77.26002000000001, 28.719250000000002], [77.26037000000001, 28.719230000000003]]]}}, {"id": "12", "type": "Feature", "properties": {"village_name": "Mustafabad CT", "vil_lgd": 63973, "district_name": "North East", "dist_lgd": 81, "subdistrict_name": "Yamuna Vihar", "sdcode": 6082, "block_name": "", "block_lgd": null, "gp_name": "", "state_name": "DELHI", "state_lgd": 7, "population": 6, "households": 127167}, "geometry": {"type": "Polygon", "coordinates": [[[77.27793000000001, 28.712940000000003], [77.27655, 28.713440000000002], [77.27313000000001, 28.70849], [77.26868, 28.705740000000002], [77.26614000000001, 28.707390000000004], [77.26471000000001, 28.710800000000003], [77.26272, 28.71102], [77.26219, 28.71169], [77.26349, 28.713990000000003], [77.26480000000001, 28.71768], [77.26527, 28.71873], [77.26563, 28.71946], [77.27223000000001, 28.716590000000004], [77.27746, 28.715390000000003], [77.27776, 28.71373], [77.27793000000001, 28.712940000000003]]]}}, {"id": "13", "type": "Feature", "properties": {"village_name": "Mir Pur Turk CT", "vil_lgd": 63977, "district_name": "North East", "dist_lgd": 81, "subdistrict_name": "Seelam Pur", "sdcode": 436, "block_name": "", "block_lgd": null, "gp_name": "", "state_name": "DELHI", "state_lgd": 7, "population": 6, "households": 19098}, "geometry": {"type": "Polygon", "coordinates": [[[77.26471000000001, 28.710800000000003], [77.26614000000001, 28.707390000000004], [77.26868, 28.705740000000002], [77.2656, 28.702730000000003], [77.25927, 28.703940000000003], [77.26097, 28.70558], [77.26177000000001, 28.71102], [77.26219, 28.71169], [77.26272, 28.71102], [77.26471000000001, 28.710800000000003]]]}}, {"id": "14", "type": "Feature", "properties": {"village_name": "Dayal Pur CT", "vil_lgd": 63971, "district_name": "North East", "dist_lgd": 81, "subdistrict_name": "Karawal Nagar", "sdcode": 6083, "block_name": "", "block_lgd": null, "gp_name": "", "state_name": "DELHI", "state_lgd": 7, "population": 5, "households": 20589}, "geometry": {"type": "Polygon", "coordinates": [[[77.26480000000001, 28.71768], [77.26364000000001, 28.71834], [77.26426000000001, 28.71928], [77.26527, 28.71873], [77.26480000000001, 28.71768]]]}}, {"id": "15", "type": "Feature", "properties": {"village_name": "Tukhmir Pur CT", "vil_lgd": 63975, "district_name": "North East", "dist_lgd": 81, "subdistrict_name": "Karawal Nagar", "sdcode": 6083, "block_name": "", "block_lgd": null, "gp_name": "", "state_name": "DELHI", "state_lgd": 7, "population": 5, "households": 5658}, "geometry": {"type": "Polygon", "coordinates": [[[77.26002000000001, 28.719250000000002], [77.26072, 28.720090000000003], [77.26037000000001, 28.719230000000003], [77.26002000000001, 28.719250000000002]]]}}, {"id": "16", "type": "Feature", "properties": {"village_name": "Jiwan Pur Alias Johri Pur CT", "vil_lgd": 63972, "district_name": "North East", "dist_lgd": 81, "subdistrict_name": "Karawal Nagar", "sdcode": 6083, "block_name": "", "block_lgd": null, "gp_name": "", "state_name": "DELHI", "state_lgd": 7, "population": 5, "households": 43054}, "geometry": {"type": "Polygon", "coordinates": [[[77.28741000000001, 28.711550000000003], [77.2805, 28.71121], [77.27793000000001, 28.712940000000003], [77.28441000000001, 28.723000000000003], [77.28572000000001, 28.726250000000004], [77.28630000000001, 28.724600000000002], [77.29076, 28.722420000000003], [77.28882, 28.719610000000003], [77.28908000000001, 28.716860000000004], [77.28623, 28.714570000000002], [77.28721, 28.71188], [77.28741000000001, 28.711550000000003]]]}}, {"id": "17", "type": "Feature", "properties": {"village_name": "Sadat Pur Musalmanan Un Inhabited", "vil_lgd": 63964, "district_name": "North East", "dist_lgd": 81, "subdistrict_name": "Karawal Nagar", "sdcode": 6083, "block_name": "North East", "block_lgd": 3.0, "gp_name": "NA", "state_name": "DELHI", "state_lgd": 7, "population": 4, "households": 110}, "geometry": {"type": "Polygon", "coordinates": [[[77.24654000000001, 28.73082], [77.24856000000001, 28.729960000000002], [77.24658000000001, 28.728170000000002], [77.24268000000001, 28.728630000000003], [77.24392, 28.724790000000002], [77.24178, 28.71929], [77.24178, 28.718660000000003], [77.24387, 28.71891], [77.24377000000001, 28.715040000000002], [77.24278000000001, 28.71402], [77.23786000000001, 28.712390000000003], [77.23688, 28.71441], [77.23767000000001, 28.71572], [77.23700000000001, 28.71723], [77.23557000000001, 28.716150000000003], [77.23902000000001, 28.73166], [77.24377000000001, 28.730670000000003], [77.24654000000001, 28.73082]]]}}, {"id": "18", "type": "Feature", "properties": {"village_name": "Baqiabad CT", "vil_lgd": 63969, "district_name": "North East", "dist_lgd": 81, "subdistrict_name": "Karawal Nagar", "sdcode": 6083, "block_name": "", "block_lgd": null, "gp_name": "", "state_name": "DELHI", "state_lgd": 7, "population": 5, "households": 14429}, "geometry": {"type": "Polygon", "coordinates": [[[77.25105, 28.743810000000003], [77.24909000000001, 28.74152], [77.24784000000001, 28.737980000000004], [77.24656, 28.7373], [77.24733, 28.732720000000004], [77.24654000000001, 28.73082], [77.24377000000001, 28.730670000000003], [77.23902000000001, 28.73166], [77.23946000000001, 28.73355], [77.23878, 28.73675], [77.23998, 28.738500000000002], [77.24074, 28.74433], [77.24625, 28.743610000000004], [77.25105, 28.743810000000003]]]}}, {"id": "19", "type": "Feature", "properties": {"village_name": "Pur Shahdara", "vil_lgd": 63961, "district_name": "North East", "dist_lgd": 81, "subdistrict_name": "Karawal Nagar", "sdcode": 6083, "block_name": "North East", "block_lgd": 3.0, "gp_name": "NA", "state_name": "DELHI", "state_lgd": 7, "population": 0, "households": 0}, "geometry": {"type": "Polygon", "coordinates": [[[77.22743000000001, 28.760460000000002], [77.22965, 28.76396], [77.23596, 28.765490000000003], [77.23573, 28.762610000000002], [77.22897, 28.760610000000003], [77.22743000000001, 28.760460000000002]]]}}, {"id": "20", "type": "Feature", "properties": {"village_name": "Ziauddin Pur CT", "vil_lgd": 63978, "district_name": "North East", "dist_lgd": 81, "subdistrict_name": "Yamuna Vihar", "sdcode": 6082, "block_name": "", "block_lgd": null, "gp_name": "", "state_name": "DELHI", "state_lgd": 7, "population": 5, "households": 68993}, "geometry": {"type": "Polygon", "coordinates": [[[77.2805, 28.71121], [77.2796, 28.709570000000003], [77.28189, 28.708640000000003], [77.28231000000001, 28.70699], [77.28427, 28.705460000000002], [77.28397000000001, 28.704800000000002], [77.28058, 28.70585], [77.27984000000001, 28.704340000000002], [77.28085, 28.703500000000002], [77.28079000000001, 28.70144], [77.28272000000001, 28.70061], [77.28306, 28.701960000000003], [77.28465000000001, 28.701700000000002], [77.28379000000001, 28.700270000000003], [77.28644000000001, 28.698860000000003], [77.28498, 28.69637], [77.28314, 28.697820000000004], [77.28193, 28.696130000000004], [77.27956, 28.696880000000004], [77.27965, 28.697950000000002], [77.28011000000001, 28.698240000000002], [77.28097000000001, 28.698970000000003], [77.27987, 28.700010000000002], [77.27987, 28.701990000000002], [77.27767, 28.702560000000002], [77.27506000000001, 28.69759], [77.27342, 28.69845], [77.27276, 28.697290000000002], [77.27208, 28.69695], [77.27078, 28.69827], [77.27159, 28.700940000000003], [77.2656, 28.702730000000003], [77.26868, 28.705740000000002], [77.27313000000001, 28.70849], [77.27655, 28.713440000000002], [77.27793000000001, 28.712940000000003], [77.2805, 28.71121]]]}}, {"id": "21", "type": "Feature", "properties": {"village_name": "Garhi Mendu", "vil_lgd": 63967, "district_name": "North East", "dist_lgd": 81, "subdistrict_name": "Seelam Pur", "sdcode": 436, "block_name": "North East", "block_lgd": 3.0, "gp_name": "NA", "state_name": "DELHI", "state_lgd": 7, "population": 5, "households": 2572}, "geometry": {"type": "Polygon", "coordinates": [[[77.25085, 28.705890000000004], [77.25538, 28.704610000000002], [77.25371000000001, 28.704150000000002], [77.25258000000001, 28.702170000000002], [77.24939, 28.68767], [77.2471, 28.687910000000002], [77.24201000000001, 28.690920000000002], [77.24676000000001, 28.707050000000002], [77.25085, 28.705890000000004]]]}}]}