{"type": "FeatureCollection", "metadata": {"source": "Survey of India (per src_agency attribute in the source data)", "hosted_via": "National Water Data Portal (NWDP), NWIC, Ministry of Jal Shakti -- https://nwdp.nwic.gov.in/", "access": "public, no login required", "crs_original": "EPSG:7755 (WGS 84 / India NSF LCC)", "fetch_date": "2026-08-02", "quality": "verified-official -- Survey of India source", "state": "Delhi", "district": "North West", "processing": "reprojected to EPSG:4326, topology-preserving simplify (shared-arc, tolerance 0.0005 deg) so adjacent polygons never overlap/gap at shared borders, coords rounded 5dp, 0 feature(s) needed the per-feature fallback", "feature_count": 26}, "features": [{"id": "0", "type": "Feature", "properties": {"village_name": "North Delhi Municipal Corporation", "vil_lgd": 276401, "district_name": "North West", "dist_lgd": 82, "subdistrict_name": "Saraswati Vihar", "sdcode": 431, "block_name": "", "block_lgd": 0.0, "gp_name": "", "state_name": "DELHI", "state_lgd": 7, "population": 4, "households": 1428680}, "geometry": {"type": "Polygon", "coordinates": [[[77.10636000000001, 28.737320000000004], [77.10948, 28.73589], [77.10922000000001, 28.734410000000004], [77.11970000000001, 28.718030000000002], [77.12035, 28.715030000000002], [77.11957000000001, 28.713440000000002], [77.12155000000001, 28.712120000000002], [77.12127000000001, 28.707590000000003], [77.12528, 28.70606], [77.13133, 28.709220000000002], [77.13180000000001, 28.71046], [77.13049000000001, 28.712180000000004], [77.13255000000001, 28.71581], [77.13765000000001, 28.71995], [77.13902, 28.719890000000003], [77.14009, 28.723750000000003], [77.14526000000001, 28.72914], [77.15163000000001, 28.72671], [77.15881, 28.73102], [77.16004000000001, 28.732550000000003], [77.16275, 28.727950000000003], [77.16415, 28.727010000000003], [77.1603, 28.718690000000002], [77.16210000000001, 28.717190000000002], [77.16338, 28.717090000000002], [77.16284, 28.715920000000004], [77.16405, 28.714160000000003], [77.16386, 28.712370000000004], [77.16112000000001, 28.709970000000002], [77.16213, 28.707390000000004], [77.15888000000001, 28.704300000000003], [77.16274, 28.702790000000004], [77.16818, 28.69901], [77.17074000000001, 28.699840000000002], [77.17164000000001, 28.69854], [77.17290000000001, 28.698850000000004], [77.17624, 28.70163], [77.17774, 28.700090000000003], [77.18112, 28.701020000000003], [77.18183, 28.700190000000003], [77.17942000000001, 28.698970000000003], [77.17974000000001, 28.69751], [77.18222, 28.696440000000003], [77.18467000000001, 28.69394], [77.18574000000001, 28.693890000000003], [77.18559, 28.691810000000004], [77.17936, 28.685910000000003], [77.17588, 28.6837], [77.17328, 28.685160000000003], [77.16956, 28.689090000000004], [77.16859000000001, 28.688570000000002], [77.16796000000001, 28.683920000000004], [77.17299000000001, 28.67932], [77.17473000000001, 28.67425], [77.17689, 28.675230000000003], [77.179, 28.67432], [77.17689, 28.67068], [77.1782, 28.667600000000004], [77.17529, 28.66571], [77.17042000000001, 28.66025], [77.16791, 28.656160000000003], [77.16231, 28.658030000000004], [77.15911000000001, 28.65808], [77.16387, 28.662290000000002], [77.15979, 28.670610000000003], [77.15731000000001, 28.671370000000003], [77.15825000000001, 28.67329], [77.15695000000001, 28.674380000000003], [77.15765, 28.674780000000002], [77.15716, 28.675390000000004], [77.15333000000001, 28.67236], [77.14939000000001, 28.672870000000003], [77.14850000000001, 28.669200000000004], [77.14718, 28.66944], [77.13937, 28.671180000000003], [77.13266, 28.677130000000002], [77.12207000000001, 28.68232], [77.12076, 28.68372], [77.12304, 28.68738], [77.12131000000001, 28.68907], [77.11930000000001, 28.689700000000002], [77.11838, 28.687220000000003], [77.1148, 28.68306], [77.10768, 28.688530000000004], [77.10366, 28.684680000000004], [77.09788, 28.689300000000003], [77.09501, 28.689000000000004], [77.09244000000001, 28.68598], [77.08793, 28.68879], [77.0887, 28.69262], [77.08834, 28.695380000000004], [77.08407000000001, 28.697930000000003], [77.08383, 28.699130000000004], [77.09161, 28.707680000000003], [77.08751000000001, 28.71075], [77.08585000000001, 28.715030000000002], [77.08525, 28.721850000000003], [77.08186, 28.728060000000003], [77.08582000000001, 28.734130000000004], [77.08962000000001, 28.737630000000003], [77.09447, 28.73701], [77.09631, 28.73928], [77.10184000000001, 28.73722], [77.10636000000001, 28.737320000000004]]]}}, {"id": "1", "type": "Feature", "properties": {"village_name": "Budhan Pur", "vil_lgd": 63927, "district_name": "North West", "dist_lgd": 82, "subdistrict_name": "Kanjhawala", "sdcode": 6078, "block_name": "North West", "block_lgd": 1.0, "gp_name": "NA", "state_name": "DELHI", "state_lgd": 7, "population": 5, "households": 1709}, "geometry": {"type": "Polygon", "coordinates": [[[77.00552, 28.774860000000004], [77.00695, 28.761190000000003], [77.00667, 28.75036], [77.00705, 28.748610000000003], [77.00562000000001, 28.74611], [77.00391, 28.74602], [76.99507000000001, 28.751020000000004], [76.99431000000001, 28.753110000000003], [76.99441, 28.758300000000002], [76.99526, 28.761110000000002], [76.99801000000001, 28.761360000000003], [76.9983, 28.767030000000002], [76.99744000000001, 28.77128], [76.99839, 28.771530000000002], [76.99982, 28.774860000000004], [77.00177000000001, 28.78338], [77.00761, 28.78122], [77.00552, 28.774860000000004]]]}}, {"id": "2", "type": "Feature", "properties": {"village_name": "Nithari CT", "vil_lgd": 63943, "district_name": "North West", "dist_lgd": 82, "subdistrict_name": "Rohini", "sdcode": 6077, "block_name": "", "block_lgd": null, "gp_name": "", "state_name": "DELHI", "state_lgd": 7, "population": 5, "households": 50464}, "geometry": {"type": "Polygon", "coordinates": [[[77.04148, 28.69722], [77.03938000000001, 28.698040000000002], [77.04083, 28.703490000000002], [77.04654000000001, 28.712490000000003], [77.04910000000001, 28.71516], [77.05367000000001, 28.7175], [77.06104, 28.712640000000004], [77.05795, 28.70597], [77.05605000000001, 28.703840000000003], [77.05016, 28.701750000000004], [77.04636, 28.70144], [77.04268, 28.69873], [77.04148, 28.69722]]]}}, {"id": "3", "type": "Feature", "properties": {"village_name": "Jonti", "vil_lgd": 63933, "district_name": "North West", "dist_lgd": 82, "subdistrict_name": "Kanjhawala", "sdcode": 6078, "block_name": "North West", "block_lgd": 1.0, "gp_name": "NA", "state_name": "DELHI", "state_lgd": 7, "population": 5, "households": 5059}, "geometry": {"type": "Polygon", "coordinates": [[[76.98699, 28.75934], [76.98713000000001, 28.757], [76.98609, 28.75466], [76.98401000000001, 28.74059], [76.98164000000001, 28.737330000000004], [76.98018, 28.738260000000004], [76.97704, 28.737840000000002], [76.97039000000001, 28.73326], [76.96773, 28.734930000000002], [76.95825, 28.735840000000003], [76.95596, 28.73814], [76.95861000000001, 28.742950000000004], [76.95017, 28.750580000000003], [76.94462, 28.7541], [76.94626000000001, 28.758060000000004], [76.95131, 28.76328], [76.95238, 28.761940000000003], [76.9539, 28.761940000000003], [76.95666, 28.760440000000003], [76.95827000000001, 28.758360000000003], [76.9654, 28.75352], [76.96883000000001, 28.75261], [76.97025000000001, 28.753780000000003], [76.97463, 28.752360000000003], [76.97615, 28.753110000000003], [76.97881000000001, 28.757690000000004], [76.97862, 28.761190000000003], [76.98185000000001, 28.76536], [76.98556, 28.76169], [76.98832, 28.760120000000004], [76.98699, 28.75934]]]}}, {"id": "4", "type": "Feature", "properties": {"village_name": "Punjab Khor", "vil_lgd": 63924, "district_name": "North West", "dist_lgd": 82, "subdistrict_name": "Kanjhawala", "sdcode": 6078, "block_name": "North West", "block_lgd": 1.0, "gp_name": "NA", "state_name": "DELHI", "state_lgd": 7, "population": 5, "households": 3211}, "geometry": {"type": "Polygon", "coordinates": [[[76.9658, 28.79005], [76.96485000000001, 28.788380000000004], [76.96764, 28.78573], [76.97222000000001, 28.783490000000004], [76.97257, 28.782600000000002], [76.97477, 28.78271], [76.97590000000001, 28.78161], [76.97543, 28.77755], [76.9765, 28.776460000000004], [76.97715000000001, 28.776090000000003], [76.97965, 28.77896], [76.98357, 28.78104], [76.98446000000001, 28.78104], [76.98813000000001, 28.777110000000004], [76.98623, 28.772360000000003], [76.97986, 28.766610000000004], [76.97335000000001, 28.764480000000002], [76.96699000000001, 28.763440000000003], [76.96206000000001, 28.76432], [76.95580000000001, 28.767370000000003], [76.94979000000001, 28.777110000000004], [76.95004, 28.783310000000004], [76.95162, 28.787480000000002], [76.95356000000001, 28.79004], [76.95831000000001, 28.78901], [76.96437, 28.79088], [76.96467000000001, 28.790470000000003], [76.9658, 28.79005]]]}}, {"id": "5", "type": "Feature", "properties": {"village_name": "Salah Pur Majra", "vil_lgd": 63926, "district_name": "North West", "dist_lgd": 82, "subdistrict_name": "Kanjhawala", "sdcode": 6078, "block_name": "North West", "block_lgd": 1.0, "gp_name": "NA", "state_name": "DELHI", "state_lgd": 7, "population": 5, "households": 2127}, "geometry": {"type": "Polygon", "coordinates": [[[76.99785, 28.784560000000003], [77.00177000000001, 28.78338], [76.99982, 28.774860000000004], [76.99839, 28.771530000000002], [76.99744000000001, 28.77128], [76.9983, 28.767030000000002], [76.99801000000001, 28.761360000000003], [76.99526, 28.761110000000002], [76.99441, 28.758300000000002], [76.98832, 28.760120000000004], [76.98556, 28.76169], [76.98185000000001, 28.76536], [76.98119000000001, 28.766440000000003], [76.97986, 28.766610000000004], [76.98623, 28.772360000000003], [76.98813000000001, 28.777110000000004], [76.99165, 28.785010000000003], [76.99359000000001, 28.784620000000004], [76.99785, 28.784560000000003]]]}}, {"id": "6", "type": "Feature", "properties": {"village_name": "Chatesar", "vil_lgd": 63932, "district_name": "North West", "dist_lgd": 82, "subdistrict_name": "Kanjhawala", "sdcode": 6078, "block_name": "North West", "block_lgd": 1.0, "gp_name": "NA", "state_name": "DELHI", "state_lgd": 7, "population": 5, "households": 2410}, "geometry": {"type": "Polygon", "coordinates": [[[76.98119000000001, 28.766440000000003], [76.98185000000001, 28.76536], [76.97862, 28.761190000000003], [76.97881000000001, 28.757690000000004], [76.97615, 28.753110000000003], [76.97463, 28.752360000000003], [76.97025000000001, 28.753780000000003], [76.96883000000001, 28.75261], [76.9654, 28.75352], [76.95827000000001, 28.758360000000003], [76.95666, 28.760440000000003], [76.9539, 28.761940000000003], [76.95238, 28.761940000000003], [76.95131, 28.76328], [76.95580000000001, 28.767370000000003], [76.96206000000001, 28.76432], [76.96699000000001, 28.763440000000003], [76.97335000000001, 28.764480000000002], [76.97986, 28.766610000000004], [76.98119000000001, 28.766440000000003]]]}}, {"id": "7", "type": "Feature", "properties": {"village_name": "Jat Khor", "vil_lgd": 63925, "district_name": "North West", "dist_lgd": 82, "subdistrict_name": "Kanjhawala", "sdcode": 6078, "block_name": "North West", "block_lgd": 1.0, "gp_name": "NA", "state_name": "DELHI", "state_lgd": 7, "population": 5, "households": 2046}, "geometry": {"type": "Polygon", "coordinates": [[[76.98051000000001, 28.79341], [76.98254, 28.792900000000003], [76.99165, 28.785010000000003], [76.98813000000001, 28.777110000000004], [76.98446000000001, 28.78104], [76.98357, 28.78104], [76.97965, 28.77896], [76.97715000000001, 28.776090000000003], [76.9765, 28.776460000000004], [76.97543, 28.77755], [76.97590000000001, 28.78161], [76.97477, 28.78271], [76.97257, 28.782600000000002], [76.97222000000001, 28.783490000000004], [76.96764, 28.78573], [76.96485000000001, 28.788380000000004], [76.9658, 28.79005], [76.96467000000001, 28.790470000000003], [76.96437, 28.79088], [76.96968000000001, 28.796870000000002], [76.97802, 28.79266], [76.98051000000001, 28.79341]]]}}, {"id": "8", "type": "Feature", "properties": {"village_name": "Saoda", "vil_lgd": 63931, "district_name": "North West", "dist_lgd": 82, "subdistrict_name": "Kanjhawala", "sdcode": 6078, "block_name": "North West", "block_lgd": 1.0, "gp_name": "NA", "state_name": "DELHI", "state_lgd": 7, "population": 5, "households": 16309}, "geometry": {"type": "Polygon", "coordinates": [[[76.98832, 28.70841], [76.98491, 28.705160000000003], [76.98253000000001, 28.70437], [76.97681, 28.700440000000004], [76.97432, 28.702040000000004], [76.97257, 28.701850000000004], [76.97267000000001, 28.704660000000004], [76.97866, 28.715170000000004], [76.98268, 28.71805], [76.98996000000001, 28.715190000000003], [76.99204, 28.710630000000002], [76.98832, 28.70841]]]}}, {"id": "9", "type": "Feature", "properties": {"village_name": "Nizam Pur Rashid Pur", "vil_lgd": 63935, "district_name": "North West", "dist_lgd": 82, "subdistrict_name": "Kanjhawala", "sdcode": 6078, "block_name": "North West", "block_lgd": 1.0, "gp_name": "NA", "state_name": "DELHI", "state_lgd": 7, "population": 5, "households": 3924}, "geometry": {"type": "Polygon", "coordinates": [[[76.96640000000001, 28.726920000000003], [76.96725, 28.727840000000004], [76.97457, 28.728920000000002], [76.97540000000001, 28.729650000000003], [76.97629, 28.726000000000003], [76.97896, 28.721180000000004], [76.98268, 28.71805], [76.97866, 28.715170000000004], [76.97267000000001, 28.704660000000004], [76.97257, 28.701850000000004], [76.96907, 28.6993], [76.96786, 28.69949], [76.94824000000001, 28.71281], [76.95974000000001, 28.729490000000002], [76.96478, 28.727420000000002], [76.96640000000001, 28.726920000000003]]]}}, {"id": "10", "type": "Feature", "properties": {"village_name": "Garhi Rindhala", "vil_lgd": 63934, "district_name": "North West", "dist_lgd": 82, "subdistrict_name": "Kanjhawala", "sdcode": 6078, "block_name": "North West", "block_lgd": 1.0, "gp_name": "NA", "state_name": "DELHI", "state_lgd": 7, "population": 5, "households": 1859}, "geometry": {"type": "Polygon", "coordinates": [[[76.97911, 28.736030000000003], [76.97584, 28.731730000000002], [76.97540000000001, 28.729650000000003], [76.97457, 28.728920000000002], [76.96725, 28.727840000000004], [76.96640000000001, 28.726920000000003], [76.96478, 28.727420000000002], [76.95974000000001, 28.729490000000002], [76.95988000000001, 28.73299], [76.95825, 28.735840000000003], [76.96773, 28.734930000000002], [76.97039000000001, 28.73326], [76.97704, 28.737840000000002], [76.98018, 28.738260000000004], [76.98164000000001, 28.737330000000004], [76.97911, 28.736030000000003]]]}}, {"id": "11", "type": "Feature", "properties": {"village_name": "Madan Pur Dabas", "vil_lgd": 63929, "district_name": "North West", "dist_lgd": 82, "subdistrict_name": "Rohini", "sdcode": 6077, "block_name": "North West", "block_lgd": 1.0, "gp_name": "NA", "state_name": "DELHI", "state_lgd": 7, "population": 4, "households": 3241}, "geometry": {"type": "Polygon", "coordinates": [[[77.03202, 28.708170000000003], [77.03142000000001, 28.704240000000002], [77.02248, 28.711910000000003], [77.01649, 28.71366], [77.00927, 28.713240000000003], [77.01174, 28.720160000000003], [77.01744000000001, 28.722830000000002], [77.01992000000001, 28.725330000000003], [77.02427, 28.7238], [77.03033, 28.72078], [77.03645, 28.719790000000003], [77.0348, 28.714360000000003], [77.03202, 28.708170000000003]]]}}, {"id": "12", "type": "Feature", "properties": {"village_name": "Chand Pur", "vil_lgd": 63928, "district_name": "North West", "dist_lgd": 82, "subdistrict_name": "Kanjhawala", "sdcode": 6078, "block_name": "North West", "block_lgd": 1.0, "gp_name": "NA", "state_name": "DELHI", "state_lgd": 7, "population": 5, "households": 1813}, "geometry": {"type": "Polygon", "coordinates": [[[77.01344, 28.778760000000002], [77.01264, 28.77502], [77.01323000000001, 28.769890000000004], [77.01173, 28.763250000000003], [77.01439, 28.760120000000004], [77.01526000000001, 28.754980000000003], [77.01532, 28.751520000000003], [77.01285, 28.746270000000003], [77.00809000000001, 28.747360000000004], [77.00819000000001, 28.750190000000003], [77.00667, 28.75036], [77.00695, 28.761190000000003], [77.00552, 28.774860000000004], [77.00761, 28.78122], [77.01139, 28.779760000000003], [77.01344, 28.778760000000002]]]}}, {"id": "13", "type": "Feature", "properties": {"village_name": "Rasool Pur", "vil_lgd": 63930, "district_name": "North West", "dist_lgd": 82, "subdistrict_name": "Rohini", "sdcode": 6077, "block_name": "North West", "block_lgd": 1.0, "gp_name": "NA", "state_name": "DELHI", "state_lgd": 7, "population": 5, "households": 1503}, "geometry": {"type": "Polygon", "coordinates": [[[77.01270000000001, 28.695310000000003], [77.00419000000001, 28.703740000000003], [77.01631, 28.707490000000004], [77.02109, 28.708050000000004], [77.02237000000001, 28.70436], [77.02208, 28.700740000000003], [77.02109, 28.69686], [77.01982000000001, 28.695410000000003], [77.01852000000001, 28.695240000000002], [77.01270000000001, 28.695310000000003]]]}}, {"id": "14", "type": "Feature", "properties": {"village_name": "Qutab Garh CT", "vil_lgd": 63936, "district_name": "North West", "dist_lgd": 82, "subdistrict_name": "Kanjhawala", "sdcode": 6078, "block_name": "", "block_lgd": null, "gp_name": "", "state_name": "DELHI", "state_lgd": 7, "population": 5, "households": 7639}, "geometry": {"type": "Polygon", "coordinates": [[[76.96585, 28.8135], [76.96591000000001, 28.81192], [76.96772, 28.811190000000003], [76.96677000000001, 28.809340000000002], [76.96913, 28.807170000000003], [76.96717000000001, 28.80384], [76.96657, 28.800880000000003], [76.96869000000001, 28.800330000000002], [76.96787, 28.79812], [76.96968000000001, 28.796870000000002], [76.96437, 28.79088], [76.95831000000001, 28.78901], [76.95356000000001, 28.79004], [76.95331, 28.791680000000003], [76.94628, 28.797950000000004], [76.94211, 28.79849], [76.94626000000001, 28.806670000000004], [76.94566, 28.810280000000002], [76.95081, 28.818310000000004], [76.95929000000001, 28.815320000000003], [76.96585, 28.8135]]]}}, {"id": "15", "type": "Feature", "properties": {"village_name": "Lad Pur CT", "vil_lgd": 63937, "district_name": "North West", "dist_lgd": 82, "subdistrict_name": "Kanjhawala", "sdcode": 6078, "block_name": "", "block_lgd": null, "gp_name": "", "state_name": "DELHI", "state_lgd": 7, "population": 5, "households": 5529}, "geometry": {"type": "Polygon", "coordinates": [[[76.99431000000001, 28.753110000000003], [76.99507000000001, 28.751020000000004], [77.00391, 28.74602], [77.0035, 28.741940000000003], [77.00268000000001, 28.74153], [77.00457, 28.740380000000002], [77.00129000000001, 28.737370000000002], [76.99951, 28.733120000000003], [76.99074, 28.726560000000003], [76.98717, 28.720800000000004], [76.98268, 28.71805], [76.97896, 28.721180000000004], [76.97629, 28.726000000000003], [76.97540000000001, 28.729650000000003], [76.97584, 28.731730000000002], [76.97911, 28.736030000000003], [76.98164000000001, 28.737330000000004], [76.98401000000001, 28.74059], [76.98609, 28.75466], [76.98713000000001, 28.757], [76.98699, 28.75934], [76.98832, 28.760120000000004], [76.99441, 28.758300000000002], [76.99431000000001, 28.753110000000003]]]}}, {"id": "16", "type": "Feature", "properties": {"village_name": "Sultan Pur Majra CT", "vil_lgd": 63948, "district_name": "North West", "dist_lgd": 82, "subdistrict_name": "Rohini", "sdcode": 6077, "block_name": "", "block_lgd": null, "gp_name": "", "state_name": "DELHI", "state_lgd": 7, "population": 5, "households": 181554}, "geometry": {"type": "Polygon", "coordinates": [[[77.08258000000001, 28.697360000000003], [77.08383, 28.699130000000004], [77.08407000000001, 28.697930000000003], [77.08834, 28.695380000000004], [77.0887, 28.69262], [77.08793, 28.68879], [77.08366000000001, 28.68842], [77.07881, 28.683760000000003], [77.07602, 28.683020000000003], [77.07341000000001, 28.686030000000002], [77.06452, 28.691990000000004], [77.06666000000001, 28.695010000000003], [77.06992000000001, 28.695120000000003], [77.07123, 28.696520000000003], [77.07177, 28.700170000000004], [77.07301000000001, 28.701010000000004], [77.08145, 28.69762], [77.08258000000001, 28.697360000000003]]]}}, {"id": "17", "type": "Feature", "properties": {"village_name": "Pooth Kalan CT", "vil_lgd": 63947, "district_name": "North West", "dist_lgd": 82, "subdistrict_name": "Rohini", "sdcode": 6077, "block_name": "", "block_lgd": null, "gp_name": "", "state_name": "DELHI", "state_lgd": 7, "population": 4, "households": 96002}, "geometry": {"type": "Polygon", "coordinates": [[[77.08525, 28.721850000000003], [77.08585000000001, 28.715030000000002], [77.08751000000001, 28.71075], [77.09161, 28.707680000000003], [77.08383, 28.699130000000004], [77.08258000000001, 28.697360000000003], [77.08145, 28.69762], [77.07301000000001, 28.701010000000004], [77.07084, 28.70352], [77.07185000000001, 28.705090000000002], [77.06104, 28.712640000000004], [77.05367000000001, 28.7175], [77.05719, 28.722250000000003], [77.05795, 28.724500000000003], [77.06642000000001, 28.72126], [77.06671, 28.72201], [77.0682, 28.722080000000002], [77.06813000000001, 28.723640000000003], [77.06999, 28.72633], [77.07484000000001, 28.72952], [77.07606000000001, 28.731160000000003], [77.08186, 28.728060000000003], [77.08525, 28.721850000000003]]]}}, {"id": "18", "type": "Feature", "properties": {"village_name": "Karala CT", "vil_lgd": 63945, "district_name": "North West", "dist_lgd": 82, "subdistrict_name": "Kanjhawala", "sdcode": 6078, "block_name": "", "block_lgd": null, "gp_name": "", "state_name": "DELHI", "state_lgd": 7, "population": 5, "households": 35730}, "geometry": {"type": "Polygon", "coordinates": [[[77.03960000000001, 28.748110000000004], [77.05042, 28.743080000000003], [77.05782, 28.74238], [77.06422, 28.737900000000003], [77.0627, 28.735090000000003], [77.05985000000001, 28.732920000000004], [77.05795, 28.724500000000003], [77.05719, 28.722250000000003], [77.04744000000001, 28.728070000000002], [77.04162000000001, 28.73036], [77.03639000000001, 28.732190000000003], [77.03419000000001, 28.732190000000003], [77.03271000000001, 28.730570000000004], [77.03039000000001, 28.730000000000004], [77.0292, 28.72828], [77.027, 28.729370000000003], [77.02385000000001, 28.724370000000004], [77.02427, 28.7238], [77.01992000000001, 28.725330000000003], [77.01725, 28.734420000000004], [77.01859, 28.741170000000004], [77.01849, 28.74367], [77.01754000000001, 28.744670000000003], [77.02371000000001, 28.75167], [77.02634, 28.750790000000002], [77.03960000000001, 28.748110000000004]]]}}, {"id": "19", "type": "Feature", "properties": {"village_name": "Mohammad Pur Majri CT", "vil_lgd": 63944, "district_name": "North West", "dist_lgd": 82, "subdistrict_name": "Kanjhawala", "sdcode": 6078, "block_name": "", "block_lgd": null, "gp_name": "", "state_name": "DELHI", "state_lgd": 7, "population": 5, "households": 17462}, "geometry": {"type": "Polygon", "coordinates": [[[77.04744000000001, 28.728070000000002], [77.05719, 28.722250000000003], [77.05367000000001, 28.7175], [77.04910000000001, 28.71516], [77.04560000000001, 28.717910000000003], [77.03859, 28.719890000000003], [77.03645, 28.719790000000003], [77.03033, 28.72078], [77.02427, 28.7238], [77.02385000000001, 28.724370000000004], [77.027, 28.729370000000003], [77.0292, 28.72828], [77.03039000000001, 28.730000000000004], [77.03271000000001, 28.730570000000004], [77.03419000000001, 28.732190000000003], [77.03639000000001, 28.732190000000003], [77.04162000000001, 28.73036], [77.04744000000001, 28.728070000000002]]]}}, {"id": "20", "type": "Feature", "properties": {"village_name": "Kirari Suleman Nagar CT", "vil_lgd": 63942, "district_name": "North West", "dist_lgd": 82, "subdistrict_name": "Rohini", "sdcode": 6077, "block_name": "", "block_lgd": null, "gp_name": "", "state_name": "DELHI", "state_lgd": 7, "population": 5, "households": 283211}, "geometry": {"type": "Polygon", "coordinates": [[[77.07177, 28.700170000000004], [77.07123, 28.696520000000003], [77.06992000000001, 28.695120000000003], [77.06666000000001, 28.695010000000003], [77.06452, 28.691990000000004], [77.0561, 28.686830000000004], [77.0541, 28.68342], [77.04886, 28.688240000000004], [77.04512000000001, 28.69497], [77.04148, 28.69722], [77.04268, 28.69873], [77.04636, 28.70144], [77.05016, 28.701750000000004], [77.05605000000001, 28.703840000000003], [77.05795, 28.70597], [77.06104, 28.712640000000004], [77.07185000000001, 28.705090000000002], [77.07084, 28.70352], [77.07301000000001, 28.701010000000004], [77.07177, 28.700170000000004]]]}}, {"id": "21", "type": "Feature", "properties": {"village_name": "Begum Pur CT", "vil_lgd": 63946, "district_name": "North West", "dist_lgd": 82, "subdistrict_name": "Rohini", "sdcode": 6077, "block_name": "", "block_lgd": null, "gp_name": "", "state_name": "DELHI", "state_lgd": 7, "population": 5, "households": 53682}, "geometry": {"type": "Polygon", "coordinates": [[[77.07484000000001, 28.72952], [77.06999, 28.72633], [77.06813000000001, 28.723640000000003], [77.0682, 28.722080000000002], [77.06671, 28.72201], [77.06642000000001, 28.72126], [77.05795, 28.724500000000003], [77.05985000000001, 28.732920000000004], [77.0627, 28.735090000000003], [77.06422, 28.737900000000003], [77.06601, 28.738070000000004], [77.06837, 28.73684], [77.07606000000001, 28.731160000000003], [77.07484000000001, 28.72952]]]}}, {"id": "22", "type": "Feature", "properties": {"village_name": "Kanjhawala CT", "vil_lgd": 63938, "district_name": "North West", "dist_lgd": 82, "subdistrict_name": "Kanjhawala", "sdcode": 6078, "block_name": "", "block_lgd": null, "gp_name": "", "state_name": "DELHI", "state_lgd": 7, "population": 5, "households": 10331}, "geometry": {"type": "Polygon", "coordinates": [[[77.01754000000001, 28.744670000000003], [77.01849, 28.74367], [77.01859, 28.741170000000004], [77.01725, 28.734420000000004], [77.01992000000001, 28.725330000000003], [77.01744000000001, 28.722830000000002], [77.01174, 28.720160000000003], [77.00927, 28.713240000000003], [77.00675000000001, 28.711810000000003], [77.00233, 28.71224], [77.00169000000001, 28.706740000000003], [76.99513, 28.710120000000003], [76.99204, 28.710630000000002], [76.98996000000001, 28.715190000000003], [76.98268, 28.71805], [76.98717, 28.720800000000004], [76.99074, 28.726560000000003], [76.99951, 28.733120000000003], [77.00129000000001, 28.737370000000002], [77.00457, 28.740380000000002], [77.00268000000001, 28.74153], [77.0035, 28.741940000000003], [77.00391, 28.74602], [77.00562000000001, 28.74611], [77.00705, 28.748610000000003], [77.00667, 28.75036], [77.00819000000001, 28.750190000000003], [77.00809000000001, 28.747360000000004], [77.01285, 28.746270000000003], [77.01532, 28.751520000000003], [77.01526000000001, 28.754980000000003], [77.02371000000001, 28.75167], [77.01754000000001, 28.744670000000003]]]}}, {"id": "23", "type": "Feature", "properties": {"village_name": "Gheora CT", "vil_lgd": 63939, "district_name": "North West", "dist_lgd": 82, "subdistrict_name": "Kanjhawala", "sdcode": 6078, "block_name": "", "block_lgd": null, "gp_name": "", "state_name": "DELHI", "state_lgd": 7, "population": 5, "households": 6876}, "geometry": {"type": "Polygon", "coordinates": [[[77.00419000000001, 28.703740000000003], [77.01270000000001, 28.695310000000003], [77.00938000000001, 28.688260000000003], [77.00225, 28.679750000000002], [77.00024, 28.67921], [76.98345, 28.690050000000003], [76.97653000000001, 28.697400000000002], [76.97603000000001, 28.69825], [76.97681, 28.700440000000004], [76.98253000000001, 28.70437], [76.98491, 28.705160000000003], [76.98832, 28.70841], [76.99204, 28.710630000000002], [76.99513, 28.710120000000003], [77.00169000000001, 28.706740000000003], [77.00419000000001, 28.703740000000003]]]}}, {"id": "24", "type": "Feature", "properties": {"village_name": "Rani Khera CT", "vil_lgd": 63940, "district_name": "North West", "dist_lgd": 82, "subdistrict_name": "Rohini", "sdcode": 6077, "block_name": "", "block_lgd": null, "gp_name": "", "state_name": "DELHI", "state_lgd": 7, "population": 5, "households": 16402}, "geometry": {"type": "Polygon", "coordinates": [[[77.02248, 28.711910000000003], [77.03142000000001, 28.704240000000002], [77.03817000000001, 28.699820000000003], [77.03818000000001, 28.698290000000004], [77.02823000000001, 28.696180000000002], [77.01982000000001, 28.695410000000003], [77.02109, 28.69686], [77.02208, 28.700740000000003], [77.02237000000001, 28.70436], [77.02109, 28.708050000000004], [77.01631, 28.707490000000004], [77.00419000000001, 28.703740000000003], [77.00169000000001, 28.706740000000003], [77.00233, 28.71224], [77.00675000000001, 28.711810000000003], [77.00927, 28.713240000000003], [77.01649, 28.71366], [77.02248, 28.711910000000003]]]}}, {"id": "25", "type": "Feature", "properties": {"village_name": "Mubarak Pur Dabas CT", "vil_lgd": 63941, "district_name": "North West", "dist_lgd": 82, "subdistrict_name": "Rohini", "sdcode": 6077, "block_name": "", "block_lgd": null, "gp_name": "", "state_name": "DELHI", "state_lgd": 7, "population": 5, "households": 12043}, "geometry": {"type": "Polygon", "coordinates": [[[77.04560000000001, 28.717910000000003], [77.04910000000001, 28.71516], [77.04654000000001, 28.712490000000003], [77.04083, 28.703490000000002], [77.03938000000001, 28.698040000000002], [77.03818000000001, 28.698290000000004], [77.03817000000001, 28.699820000000003], [77.03142000000001, 28.704240000000002], [77.03202, 28.708170000000003], [77.0348, 28.714360000000003], [77.03645, 28.719790000000003], [77.03859, 28.719890000000003], [77.04560000000001, 28.717910000000003]]]}}]}