{"type": "FeatureCollection", "metadata": {"source": "Survey of India (per src_agency attribute in the source data)", "hosted_via": "National Water Data Portal (NWDP), NWIC, Ministry of Jal Shakti -- https://nwdp.nwic.gov.in/", "access": "public, no login required", "crs_original": "EPSG:7755 (WGS 84 / India NSF LCC)", "fetch_date": "2026-08-02", "quality": "verified-official -- Survey of India source", "state": "Delhi", "district": "North", "processing": "reprojected to EPSG:4326, topology-preserving simplify (shared-arc, tolerance 0.0005 deg) so adjacent polygons never overlap/gap at shared borders, coords rounded 5dp, 0 feature(s) needed the per-feature fallback", "feature_count": 62}, "features": [{"id": "0", "type": "Feature", "properties": {"village_name": "Shanjar Pur Un Inhabited", "vil_lgd": 63949, "district_name": "North", "dist_lgd": 80, "subdistrict_name": "Model Town", "sdcode": 432, "block_name": "North West", "block_lgd": 1.0, "gp_name": "NA", "state_name": "DELHI", "state_lgd": 7, "population": 0, "households": 0}, "geometry": {"type": "Polygon", "coordinates": [[[77.18576, 28.724930000000004], [77.17930000000001, 28.724330000000002], [77.18216000000001, 28.726740000000003], [77.18664000000001, 28.73289], [77.19032, 28.731640000000002], [77.19217, 28.729010000000002], [77.19188000000001, 28.727230000000002], [77.18576, 28.724930000000004]]]}}, {"id": "1", "type": "Feature", "properties": {"village_name": "Mukhmel Pur CT", "vil_lgd": 63911, "district_name": "North", "dist_lgd": 80, "subdistrict_name": "Alipur", "sdcode": 6076, "block_name": "", "block_lgd": null, "gp_name": "", "state_name": "DELHI", "state_lgd": 7, "population": 5, "households": 4931}, "geometry": {"type": "Polygon", "coordinates": [[[77.17232000000001, 28.79361], [77.17446000000001, 28.79192], [77.17532, 28.79061], [77.17482000000001, 28.789920000000002], [77.17582, 28.789360000000002], [77.17553000000001, 28.78742], [77.17288, 28.7831], [77.16989000000001, 28.784100000000002], [77.1654, 28.783230000000003], [77.16369, 28.783920000000002], [77.16105, 28.784540000000003], [77.15984, 28.78367], [77.15694, 28.783620000000003], [77.15557000000001, 28.780030000000004], [77.15486, 28.779980000000002], [77.15350000000001, 28.780110000000004], [77.14772, 28.78111], [77.14623, 28.784110000000002], [77.14737000000001, 28.787110000000002], [77.14694, 28.787670000000002], [77.15150000000001, 28.788670000000003], [77.15657, 28.788670000000003], [77.15863, 28.790670000000002], [77.16134000000001, 28.791110000000003], [77.16477, 28.795170000000002], [77.1709, 28.79379], [77.17232000000001, 28.79361]]]}}, {"id": "2", "type": "Feature", "properties": {"village_name": "Bawana CT", "vil_lgd": 63922, "district_name": "North", "dist_lgd": 80, "subdistrict_name": "Narela", "sdcode": 430, "block_name": "", "block_lgd": null, "gp_name": "", "state_name": "DELHI", "state_lgd": 7, "population": 5, "households": 73680}, "geometry": {"type": "Polygon", "coordinates": [[[77.06622, 28.81614], [77.06527000000001, 28.812810000000002], [77.06907000000001, 28.808480000000003], [77.07515000000001, 28.806390000000004], [77.07411, 28.800810000000002], [77.07268, 28.799390000000002], [77.07116, 28.800310000000003], [77.06859, 28.795560000000002], [77.06562000000001, 28.790490000000002], [77.06095, 28.78639], [77.05969, 28.786540000000002], [77.05347, 28.78384], [77.05142000000001, 28.78404], [77.04697, 28.779790000000002], [77.03829, 28.779770000000003], [77.03444, 28.780520000000003], [77.02595000000001, 28.781330000000004], [77.02396, 28.78271], [77.02584, 28.788500000000003], [77.02726000000001, 28.790160000000004], [77.0275, 28.79304], [77.02612, 28.79566], [77.02669, 28.799750000000003], [77.02403000000001, 28.801620000000003], [77.02420000000001, 28.803060000000002], [77.03038000000001, 28.81097], [77.03456000000001, 28.81472], [77.03808000000001, 28.823470000000004], [77.04435000000001, 28.82655], [77.05528000000001, 28.82289], [77.05662000000001, 28.822300000000002], [77.05776, 28.820390000000003], [77.05899000000001, 28.820140000000002], [77.05928, 28.818310000000004], [77.06184, 28.81689], [77.06622, 28.81614]]]}}, {"id": "3", "type": "Feature", "properties": {"village_name": "Darya Pur Kalan CT", "vil_lgd": 63923, "district_name": "North", "dist_lgd": 80, "subdistrict_name": "Narela", "sdcode": 430, "block_name": "", "block_lgd": null, "gp_name": "", "state_name": "DELHI", "state_lgd": 7, "population": 5, "households": 6310}, "geometry": {"type": "Polygon", "coordinates": [[[77.04102, 28.83294], [77.0434, 28.829880000000003], [77.04435000000001, 28.82655], [77.03808000000001, 28.823470000000004], [77.03456000000001, 28.81472], [77.03038000000001, 28.81097], [77.02420000000001, 28.803060000000002], [77.02403000000001, 28.801620000000003], [77.01932000000001, 28.803], [77.01671, 28.802830000000004], [77.01157, 28.8057], [77.01119000000001, 28.807450000000003], [77.00573, 28.81162], [77.00516, 28.813080000000003], [77.00411000000001, 28.813200000000002], [77.00387, 28.815780000000004], [77.00273, 28.817660000000004], [77.00601, 28.82157], [77.00744, 28.82515], [77.01181000000001, 28.824240000000003], [77.02065, 28.825570000000003], [77.02985000000001, 28.836160000000003], [77.03959, 28.832100000000004], [77.04102, 28.83294]]]}}, {"id": "4", "type": "Feature", "properties": {"village_name": "Khera Kalan CT", "vil_lgd": 63916, "district_name": "North", "dist_lgd": 80, "subdistrict_name": "Alipur", "sdcode": 6076, "block_name": "", "block_lgd": null, "gp_name": "", "state_name": "DELHI", "state_lgd": 7, "population": 5, "households": 8252}, "geometry": {"type": "Polygon", "coordinates": [[[77.13439000000001, 28.782030000000002], [77.13442, 28.780980000000003], [77.12988, 28.78093], [77.12943, 28.778430000000004], [77.12834000000001, 28.777530000000002], [77.12834000000001, 28.775280000000002], [77.12994, 28.775630000000003], [77.13097, 28.77493], [77.13159, 28.770880000000002], [77.13428, 28.772730000000003], [77.13758, 28.773580000000003], [77.13633, 28.768210000000003], [77.12908, 28.76602], [77.12623, 28.763], [77.12766, 28.75758], [77.12373000000001, 28.754250000000003], [77.12231000000001, 28.75477], [77.12076, 28.753310000000003], [77.11903000000001, 28.753370000000004], [77.11040000000001, 28.760120000000004], [77.10805, 28.76312], [77.10267, 28.767300000000002], [77.10808, 28.771050000000002], [77.11027, 28.77579], [77.1139, 28.780170000000002], [77.12026, 28.78168], [77.12159000000001, 28.783450000000002], [77.12444, 28.783260000000002], [77.1285, 28.78432], [77.13154, 28.786330000000003], [77.13159, 28.78403], [77.13439000000001, 28.782030000000002]]]}}, {"id": "5", "type": "Feature", "properties": {"village_name": "Katewara", "vil_lgd": 63889, "district_name": "North", "dist_lgd": 80, "subdistrict_name": "Narela", "sdcode": 430, "block_name": "North West", "block_lgd": 1.0, "gp_name": "NA", "state_name": "DELHI", "state_lgd": 7, "population": 5, "households": 3493}, "geometry": {"type": "Polygon", "coordinates": [[[76.98257000000001, 28.809060000000002], [76.98728000000001, 28.807740000000003], [76.98514, 28.796250000000004], [76.98254, 28.792900000000003], [76.98051000000001, 28.79341], [76.97850000000001, 28.792440000000003], [76.96787, 28.79812], [76.96869000000001, 28.800330000000002], [76.96657, 28.800880000000003], [76.96717000000001, 28.80384], [76.96913, 28.807170000000003], [76.97024, 28.807370000000002], [76.97038, 28.809120000000004], [76.97138000000001, 28.810060000000004], [76.97801000000001, 28.811120000000003], [76.97908000000001, 28.81199], [76.97958000000001, 28.811370000000004], [76.98257000000001, 28.809060000000002]]]}}, {"id": "6", "type": "Feature", "properties": {"village_name": "Mungesh Pur", "vil_lgd": 63888, "district_name": "North", "dist_lgd": 80, "subdistrict_name": "Narela", "sdcode": 430, "block_name": "North West", "block_lgd": 1.0, "gp_name": "NA", "state_name": "DELHI", "state_lgd": 7, "population": 5, "households": 3398}, "geometry": {"type": "Polygon", "coordinates": [[[76.97326000000001, 28.82655], [76.97666000000001, 28.822260000000004], [76.97967000000001, 28.82128], [76.98051000000001, 28.821890000000003], [76.98172000000001, 28.820300000000003], [76.98207000000001, 28.816740000000003], [76.98086, 28.8133], [76.97908000000001, 28.81199], [76.97801000000001, 28.811120000000003], [76.97138000000001, 28.810060000000004], [76.97038, 28.809120000000004], [76.97024, 28.807370000000002], [76.96913, 28.807170000000003], [76.96677000000001, 28.809340000000002], [76.96772, 28.811190000000003], [76.96591000000001, 28.81192], [76.96607, 28.81331], [76.96182, 28.81492], [76.96480000000001, 28.819850000000002], [76.96378, 28.822760000000002], [76.96574000000001, 28.825640000000003], [76.96601000000001, 28.827420000000004], [76.9671, 28.828070000000004], [76.97083, 28.82748], [76.97326000000001, 28.82655]]]}}, {"id": "7", "type": "Feature", "properties": {"village_name": "North Delhi Municipal Corporation", "vil_lgd": 276401, "district_name": "North", "dist_lgd": 80, "subdistrict_name": "Model Town", "sdcode": 432, "block_name": "", "block_lgd": 0.0, "gp_name": "", "state_name": "DELHI", "state_lgd": 7, "population": 4, "households": 398662}, "geometry": {"type": "Polygon", "coordinates": [[[77.21537000000001, 28.726620000000004], [77.21520000000001, 28.722350000000002], [77.22213, 28.715790000000002], [77.21858, 28.70764], [77.21499, 28.70238], [77.21243000000001, 28.700170000000004], [77.20697000000001, 28.692220000000002], [77.20268, 28.688280000000002], [77.20383000000001, 28.688170000000003], [77.20406000000001, 28.6853], [77.20025000000001, 28.685920000000003], [77.19781, 28.684400000000004], [77.19361, 28.688930000000003], [77.18836, 28.69114], [77.18898, 28.693780000000004], [77.18843000000001, 28.69433], [77.18582, 28.693040000000003], [77.18574000000001, 28.693890000000003], [77.18467000000001, 28.69394], [77.18222, 28.696440000000003], [77.17974000000001, 28.69751], [77.17942000000001, 28.698970000000003], [77.18183, 28.700190000000003], [77.18112, 28.701020000000003], [77.17774, 28.700090000000003], [77.17624, 28.70163], [77.17290000000001, 28.698850000000004], [77.17164000000001, 28.69854], [77.17074000000001, 28.699840000000002], [77.16818, 28.69901], [77.16274, 28.702790000000004], [77.15888000000001, 28.704300000000003], [77.16213, 28.707390000000004], [77.16112000000001, 28.709970000000002], [77.16386, 28.712370000000004], [77.16405, 28.714160000000003], [77.16284, 28.715920000000004], [77.16338, 28.717090000000002], [77.16210000000001, 28.717190000000002], [77.1603, 28.718690000000002], [77.16415, 28.727010000000003], [77.16561, 28.72783], [77.1695, 28.72727], [77.17930000000001, 28.724330000000002], [77.18576, 28.724930000000004], [77.19188000000001, 28.727230000000002], [77.19193, 28.725690000000004], [77.19541000000001, 28.72875], [77.2076, 28.727000000000004], [77.21537000000001, 28.726620000000004]]]}}, {"id": "8", "type": "Feature", "properties": {"village_name": "Sultan Pur Dabas", "vil_lgd": 63892, "district_name": "North", "dist_lgd": 80, "subdistrict_name": "Narela", "sdcode": 430, "block_name": "North West", "block_lgd": 1.0, "gp_name": "NA", "state_name": "DELHI", "state_lgd": 7, "population": 5, "households": 4399}, "geometry": {"type": "Polygon", "coordinates": [[[77.03829, 28.779770000000003], [77.03644000000001, 28.777020000000004], [77.04211000000001, 28.76977], [77.04302000000001, 28.762870000000003], [77.04188, 28.763270000000002], [77.03983000000001, 28.75992], [77.03589000000001, 28.75682], [77.03378000000001, 28.75692], [77.03162, 28.75587], [77.02634, 28.750790000000002], [77.02112000000001, 28.752180000000003], [77.01662, 28.75493], [77.01526000000001, 28.754980000000003], [77.01439, 28.760120000000004], [77.01173, 28.763250000000003], [77.01323000000001, 28.769890000000004], [77.01264, 28.77502], [77.01344, 28.778760000000002], [77.0164, 28.779080000000004], [77.01761, 28.780710000000003], [77.01925, 28.779960000000003], [77.02232000000001, 28.780640000000002], [77.02396, 28.78271], [77.02595000000001, 28.781330000000004], [77.03444, 28.780520000000003], [77.03829, 28.779770000000003]]]}}, {"id": "9", "type": "Feature", "properties": {"village_name": "Pansali", "vil_lgd": 63904, "district_name": "North", "dist_lgd": 80, "subdistrict_name": "Narela", "sdcode": 430, "block_name": "North West", "block_lgd": 1.0, "gp_name": "NA", "state_name": "DELHI", "state_lgd": 7, "population": 5, "households": 3822}, "geometry": {"type": "Polygon", "coordinates": [[[77.087, 28.735310000000002], [77.08186, 28.728060000000003], [77.07537, 28.731510000000004], [77.06601, 28.738070000000004], [77.07204, 28.74649], [77.07389, 28.744300000000003], [77.08359, 28.739120000000003], [77.087, 28.735310000000002]]]}}, {"id": "10", "type": "Feature", "properties": {"village_name": "Kankar Khera", "vil_lgd": 63903, "district_name": "North", "dist_lgd": 80, "subdistrict_name": "Narela", "sdcode": 430, "block_name": "North West", "block_lgd": 1.0, "gp_name": "NA", "state_name": "DELHI", "state_lgd": 7, "population": 4, "households": 116}, "geometry": {"type": "Polygon", "coordinates": [[[77.11903000000001, 28.753370000000004], [77.12076, 28.753310000000003], [77.11922000000001, 28.752160000000003], [77.11981, 28.74893], [77.11767, 28.748620000000003], [77.11717, 28.75024], [77.1114, 28.751990000000003], [77.10976000000001, 28.75456], [77.10726000000001, 28.756500000000003], [77.10028000000001, 28.75993], [77.09935, 28.75925], [77.09856, 28.760250000000003], [77.10127, 28.76368], [77.10267, 28.767300000000002], [77.10805, 28.76312], [77.11040000000001, 28.760120000000004], [77.11903000000001, 28.753370000000004]]]}}, {"id": "11", "type": "Feature", "properties": {"village_name": "Hiranki", "vil_lgd": 63897, "district_name": "North", "dist_lgd": 80, "subdistrict_name": "Alipur", "sdcode": 6076, "block_name": "North West", "block_lgd": 1.0, "gp_name": "NA", "state_name": "DELHI", "state_lgd": 7, "population": 5, "households": 3791}, "geometry": {"type": "Polygon", "coordinates": [[[77.18036000000001, 28.805410000000002], [77.183, 28.804660000000002], [77.18272, 28.801540000000003], [77.18514, 28.799220000000002], [77.19120000000001, 28.796160000000004], [77.19384000000001, 28.7936], [77.19769000000001, 28.791410000000003], [77.19684000000001, 28.790100000000002], [77.19171, 28.786920000000002], [77.18024000000001, 28.791790000000002], [77.17874, 28.792420000000003], [77.17753, 28.791610000000002], [77.17446000000001, 28.79192], [77.17232000000001, 28.79361], [77.17182000000001, 28.79998], [77.16924, 28.802370000000003], [77.17141000000001, 28.809020000000004], [77.17324, 28.81097], [77.17915, 28.806720000000002], [77.18036000000001, 28.805410000000002]]]}}, {"id": "12", "type": "Feature", "properties": {"village_name": "Qullak Pur", "vil_lgd": 63874, "district_name": "North", "dist_lgd": 80, "subdistrict_name": "Alipur", "sdcode": 6076, "block_name": "North West", "block_lgd": 1.0, "gp_name": "NA", "state_name": "DELHI", "state_lgd": 7, "population": 5, "households": 660}, "geometry": {"type": "Polygon", "coordinates": [[[77.20984, 28.857930000000003], [77.21436, 28.85525], [77.21731000000001, 28.851370000000003], [77.21684, 28.84644], [77.20524, 28.846100000000003], [77.20089, 28.847330000000003], [77.19528000000001, 28.8502], [77.19478000000001, 28.859], [77.19823000000001, 28.859230000000004], [77.20497, 28.85818], [77.20984, 28.857930000000003]]]}}, {"id": "13", "type": "Feature", "properties": {"village_name": "Jhangola", "vil_lgd": 63875, "district_name": "North", "dist_lgd": 80, "subdistrict_name": "Alipur", "sdcode": 6076, "block_name": "North West", "block_lgd": 1.0, "gp_name": "NA", "state_name": "DELHI", "state_lgd": 7, "population": 5, "households": 3180}, "geometry": {"type": "Polygon", "coordinates": [[[77.22299000000001, 28.833420000000004], [77.22256, 28.83012], [77.22425000000001, 28.826200000000004], [77.22231000000001, 28.821150000000003], [77.20875000000001, 28.82344], [77.20055, 28.825630000000004], [77.20209000000001, 28.828650000000003], [77.20073000000001, 28.831200000000003], [77.19954000000001, 28.831770000000002], [77.19936000000001, 28.835160000000002], [77.20370000000001, 28.844400000000004], [77.20524, 28.846100000000003], [77.21684, 28.84644], [77.21664000000001, 28.84155], [77.21955000000001, 28.837850000000003], [77.22299000000001, 28.833420000000004]]]}}, {"id": "14", "type": "Feature", "properties": {"village_name": "Sunger Pur Delhi", "vil_lgd": 63877, "district_name": "North", "dist_lgd": 80, "subdistrict_name": "Alipur", "sdcode": 6076, "block_name": "North West", "block_lgd": 1.0, "gp_name": "NA", "state_name": "DELHI", "state_lgd": 7, "population": 5, "households": 1685}, "geometry": {"type": "Polygon", "coordinates": [[[77.22028, 28.81921], [77.21957, 28.813760000000002], [77.20892, 28.813910000000003], [77.20578, 28.814280000000004], [77.20875000000001, 28.82344], [77.22231000000001, 28.821150000000003], [77.22028, 28.81921]]]}}, {"id": "15", "type": "Feature", "properties": {"village_name": "Tigi Pur", "vil_lgd": 63878, "district_name": "North", "dist_lgd": 80, "subdistrict_name": "Alipur", "sdcode": 6076, "block_name": "North West", "block_lgd": 1.0, "gp_name": "NA", "state_name": "DELHI", "state_lgd": 7, "population": 5, "households": 1949}, "geometry": {"type": "Polygon", "coordinates": [[[77.20055, 28.825630000000004], [77.20875000000001, 28.82344], [77.20578, 28.814280000000004], [77.20355, 28.812070000000002], [77.20129, 28.812980000000003], [77.20057000000001, 28.81106], [77.19669, 28.8135], [77.19193, 28.814280000000004], [77.19086, 28.813440000000003], [77.18736000000001, 28.81303], [77.18730000000001, 28.813650000000003], [77.18687000000001, 28.813670000000002], [77.18596000000001, 28.815220000000004], [77.18892000000001, 28.82636], [77.19496000000001, 28.825000000000003], [77.20055, 28.825630000000004]]]}}, {"id": "16", "type": "Feature", "properties": {"village_name": "Mohd Pur Ramzan Pur", "vil_lgd": 63898, "district_name": "North", "dist_lgd": 80, "subdistrict_name": "Alipur", "sdcode": 6076, "block_name": "North West", "block_lgd": 1.0, "gp_name": "NA", "state_name": "DELHI", "state_lgd": 7, "population": 5, "households": 1684}, "geometry": {"type": "Polygon", "coordinates": [[[77.18736000000001, 28.81303], [77.19086, 28.813440000000003], [77.19113, 28.81116], [77.18992, 28.809530000000002], [77.18999000000001, 28.8076], [77.19505000000001, 28.802540000000004], [77.19913000000001, 28.7998], [77.19922000000001, 28.797810000000002], [77.19805000000001, 28.795540000000003], [77.19769000000001, 28.791410000000003], [77.19384000000001, 28.7936], [77.19120000000001, 28.796160000000004], [77.18514, 28.799220000000002], [77.18272, 28.801540000000003], [77.183, 28.804660000000002], [77.18036000000001, 28.805410000000002], [77.17915, 28.806720000000002], [77.17324, 28.81097], [77.17478000000001, 28.812220000000003], [77.18025, 28.81312], [77.18464, 28.812770000000004], [77.18687000000001, 28.813670000000002], [77.18730000000001, 28.813650000000003], [77.18736000000001, 28.81303]]]}}, {"id": "17", "type": "Feature", "properties": {"village_name": "Nangli Poona", "vil_lgd": 63901, "district_name": "North", "dist_lgd": 80, "subdistrict_name": "Alipur", "sdcode": 6076, "block_name": "North West", "block_lgd": 1.0, "gp_name": "NA", "state_name": "DELHI", "state_lgd": 7, "population": 4, "households": 3840}, "geometry": {"type": "Polygon", "coordinates": [[[77.15486, 28.779980000000002], [77.15450000000001, 28.778570000000002], [77.15301000000001, 28.77774], [77.15379, 28.7756], [77.15141000000001, 28.77409], [77.15206, 28.77185], [77.15385, 28.77154], [77.1526, 28.76555], [77.14553000000001, 28.764300000000002], [77.14321000000001, 28.766540000000003], [77.13875, 28.76826], [77.13633, 28.768210000000003], [77.13758, 28.773580000000003], [77.13428, 28.772730000000003], [77.13159, 28.770880000000002], [77.13097, 28.77493], [77.13475000000001, 28.77717], [77.13788000000001, 28.776920000000004], [77.13788000000001, 28.77792], [77.13931000000001, 28.7783], [77.13988, 28.777610000000003], [77.14744, 28.779980000000002], [77.14772, 28.78111], [77.15350000000001, 28.780110000000004], [77.15486, 28.779980000000002]]]}}, {"id": "18", "type": "Feature", "properties": {"village_name": "Bodh Pur Bija Pur", "vil_lgd": 63902, "district_name": "North", "dist_lgd": 80, "subdistrict_name": "Alipur", "sdcode": 6076, "block_name": "North West", "block_lgd": 1.0, "gp_name": "NA", "state_name": "DELHI", "state_lgd": 7, "population": 5, "households": 3524}, "geometry": {"type": "Polygon", "coordinates": [[[77.14737000000001, 28.787110000000002], [77.14623, 28.784110000000002], [77.14772, 28.78111], [77.14744, 28.779980000000002], [77.13988, 28.777610000000003], [77.13931000000001, 28.7783], [77.13788000000001, 28.77792], [77.13788000000001, 28.776920000000004], [77.13475000000001, 28.77717], [77.13097, 28.77493], [77.12994, 28.775630000000003], [77.12834000000001, 28.775280000000002], [77.12834000000001, 28.777530000000002], [77.12943, 28.778430000000004], [77.12988, 28.78093], [77.13442, 28.780980000000003], [77.13439000000001, 28.782030000000002], [77.13159, 28.78403], [77.13154, 28.786330000000003], [77.13496, 28.789130000000004], [77.13736, 28.789330000000003], [77.13774000000001, 28.786540000000002], [77.14459000000001, 28.785480000000003], [77.14694, 28.787670000000002], [77.14737000000001, 28.787110000000002]]]}}, {"id": "19", "type": "Feature", "properties": {"village_name": "Garhi Khasru", "vil_lgd": 63900, "district_name": "North", "dist_lgd": 80, "subdistrict_name": "Alipur", "sdcode": 6076, "block_name": "North West", "block_lgd": 1.0, "gp_name": "NA", "state_name": "DELHI", "state_lgd": 7, "population": 4, "households": 2903}, "geometry": {"type": "Polygon", "coordinates": [[[77.19171, 28.786920000000002], [77.18914000000001, 28.782850000000003], [77.18358, 28.777730000000002], [77.17759000000001, 28.777600000000003], [77.17488, 28.782480000000003], [77.17288, 28.7831], [77.17553000000001, 28.78742], [77.17582, 28.789360000000002], [77.17482000000001, 28.789920000000002], [77.17532, 28.79061], [77.17446000000001, 28.79192], [77.17753, 28.791610000000002], [77.17874, 28.792420000000003], [77.18024000000001, 28.791790000000002], [77.19171, 28.786920000000002]]]}}, {"id": "20", "type": "Feature", "properties": {"village_name": "Zind Pur", "vil_lgd": 63896, "district_name": "North", "dist_lgd": 80, "subdistrict_name": "Alipur", "sdcode": 6076, "block_name": "North West", "block_lgd": 1.0, "gp_name": "NA", "state_name": "DELHI", "state_lgd": 7, "population": 4, "households": 2753}, "geometry": {"type": "Polygon", "coordinates": [[[77.17182000000001, 28.79998], [77.17232000000001, 28.79361], [77.1709, 28.79379], [77.16477, 28.795170000000002], [77.16134000000001, 28.791110000000003], [77.15863, 28.790670000000002], [77.15657, 28.788670000000003], [77.15150000000001, 28.788670000000003], [77.14694, 28.787670000000002], [77.14459000000001, 28.785480000000003], [77.13774000000001, 28.786540000000002], [77.13736, 28.789330000000003], [77.14563000000001, 28.79023], [77.14586000000001, 28.790930000000003], [77.15059000000001, 28.79033], [77.15453000000001, 28.791380000000004], [77.15669000000001, 28.793680000000002], [77.15578000000001, 28.795130000000004], [77.15715, 28.799570000000003], [77.16228000000001, 28.804520000000004], [77.16337, 28.80477], [77.16924, 28.802370000000003], [77.17182000000001, 28.79998]]]}}, {"id": "21", "type": "Feature", "properties": {"village_name": "Hareoli", "vil_lgd": 63886, "district_name": "North", "dist_lgd": 80, "subdistrict_name": "Narela", "sdcode": 430, "block_name": "North West", "block_lgd": 1.0, "gp_name": "NA", "state_name": "DELHI", "state_lgd": 7, "population": 5, "households": 2854}, "geometry": {"type": "Polygon", "coordinates": [[[77.02985000000001, 28.836160000000003], [77.02065, 28.825570000000003], [77.01181000000001, 28.824240000000003], [77.00744, 28.82515], [76.99992, 28.83048], [77.00031000000001, 28.83873], [77.00652000000001, 28.840570000000003], [77.02257, 28.839440000000003], [77.02985000000001, 28.836160000000003]]]}}, {"id": "22", "type": "Feature", "properties": {"village_name": "Nangal Thakran", "vil_lgd": 63891, "district_name": "North", "dist_lgd": 80, "subdistrict_name": "Narela", "sdcode": 430, "block_name": "North West", "block_lgd": 1.0, "gp_name": "NA", "state_name": "DELHI", "state_lgd": 7, "population": 5, "households": 4202}, "geometry": {"type": "Polygon", "coordinates": [[[77.01119000000001, 28.807450000000003], [77.01157, 28.8057], [77.01671, 28.802830000000004], [77.01932000000001, 28.803], [77.02403000000001, 28.801620000000003], [77.02669, 28.799750000000003], [77.02612, 28.79566], [77.0275, 28.79304], [77.02726000000001, 28.790160000000004], [77.02584, 28.788500000000003], [77.02396, 28.78271], [77.02232000000001, 28.780640000000002], [77.01925, 28.779960000000003], [77.01761, 28.780710000000003], [77.0164, 28.779080000000004], [77.01344, 28.778760000000002], [77.00761, 28.78122], [77.00931, 28.78769], [77.0091, 28.793370000000003], [77.00796000000001, 28.79681], [77.00539, 28.798370000000002], [77.00346, 28.803120000000003], [77.00575, 28.806310000000003], [77.00354, 28.808310000000002], [77.00368, 28.80937], [77.00154, 28.810810000000004], [77.00083000000001, 28.810240000000004], [76.99990000000001, 28.810930000000003], [76.99626, 28.811680000000003], [76.99954000000001, 28.813990000000004], [77.00273, 28.817660000000004], [77.00387, 28.815780000000004], [77.00411000000001, 28.813200000000002], [77.00516, 28.813080000000003], [77.00573, 28.81162], [77.01119000000001, 28.807450000000003]]]}}, {"id": "23", "type": "Feature", "properties": {"village_name": "Bazid Pur Thakran", "vil_lgd": 63890, "district_name": "North", "dist_lgd": 80, "subdistrict_name": "Narela", "sdcode": 430, "block_name": "North West", "block_lgd": 1.0, "gp_name": "NA", "state_name": "DELHI", "state_lgd": 7, "population": 5, "households": 4456}, "geometry": {"type": "Polygon", "coordinates": [[[77.00083000000001, 28.810240000000004], [77.00154, 28.810810000000004], [77.00368, 28.80937], [77.00354, 28.808310000000002], [77.00575, 28.806310000000003], [77.00346, 28.803120000000003], [77.00539, 28.798370000000002], [77.00796000000001, 28.79681], [77.0091, 28.793370000000003], [77.00931, 28.78769], [77.00761, 28.78122], [76.99896000000001, 28.7843], [76.99165, 28.785010000000003], [76.98254, 28.792900000000003], [76.98514, 28.796250000000004], [76.98728000000001, 28.807740000000003], [76.9937, 28.811490000000003], [76.99626, 28.811680000000003], [76.99990000000001, 28.810930000000003], [77.00083000000001, 28.810240000000004]]]}}, {"id": "24", "type": "Feature", "properties": {"village_name": "Ochandi", "vil_lgd": 63887, "district_name": "North", "dist_lgd": 80, "subdistrict_name": "Narela", "sdcode": 430, "block_name": "North West", "block_lgd": 1.0, "gp_name": "NA", "state_name": "DELHI", "state_lgd": 7, "population": 5, "households": 4687}, "geometry": {"type": "Polygon", "coordinates": [[[77.00031000000001, 28.83873], [76.99992, 28.83048], [77.00744, 28.82515], [77.00601, 28.82157], [77.00273, 28.817660000000004], [76.99954000000001, 28.813990000000004], [76.99626, 28.811680000000003], [76.9937, 28.811490000000003], [76.98728000000001, 28.807740000000003], [76.98257000000001, 28.809060000000002], [76.97958000000001, 28.811370000000004], [76.97908000000001, 28.81199], [76.98086, 28.8133], [76.98207000000001, 28.816740000000003], [76.98172000000001, 28.820300000000003], [76.98051000000001, 28.821890000000003], [76.98280000000001, 28.8242], [76.98589000000001, 28.82944], [76.98700000000001, 28.83386], [76.98903, 28.836080000000003], [76.99181, 28.83837], [76.99485, 28.839550000000003], [76.99798000000001, 28.83845], [77.00031000000001, 28.83873]]]}}, {"id": "25", "type": "Feature", "properties": {"village_name": "Taj Pur Kalan", "vil_lgd": 63871, "district_name": "North", "dist_lgd": 80, "subdistrict_name": "Alipur", "sdcode": 6076, "block_name": "North West", "block_lgd": 1.0, "gp_name": "NA", "state_name": "DELHI", "state_lgd": 7, "population": 5, "households": 3579}, "geometry": {"type": "Polygon", "coordinates": [[[77.1794, 28.848950000000002], [77.18293000000001, 28.84645], [77.18139000000001, 28.843100000000003], [77.17742000000001, 28.843490000000003], [77.17481000000001, 28.832140000000003], [77.17136, 28.83172], [77.16922000000001, 28.829220000000003], [77.16411000000001, 28.82787], [77.16395, 28.830450000000003], [77.16195, 28.83395], [77.1577, 28.83677], [77.15687000000001, 28.839080000000003], [77.15931, 28.84091], [77.16604000000001, 28.849180000000004], [77.16735000000001, 28.849110000000003], [77.16953000000001, 28.850440000000003], [77.17195000000001, 28.849990000000002], [77.17226000000001, 28.85142], [77.17580000000001, 28.8503], [77.1794, 28.848950000000002]]]}}, {"id": "26", "type": "Feature", "properties": {"village_name": "Hamid Pur", "vil_lgd": 63870, "district_name": "North", "dist_lgd": 80, "subdistrict_name": "Alipur", "sdcode": 6076, "block_name": "North West", "block_lgd": 1.0, "gp_name": "NA", "state_name": "DELHI", "state_lgd": 7, "population": 5, "households": 3469}, "geometry": {"type": "Polygon", "coordinates": [[[77.1577, 28.83677], [77.16195, 28.83395], [77.16395, 28.830450000000003], [77.16411000000001, 28.82787], [77.16340000000001, 28.82579], [77.15627, 28.818920000000002], [77.14997000000001, 28.822350000000004], [77.14284, 28.824640000000002], [77.14104, 28.827790000000004], [77.14123000000001, 28.83012], [77.13923000000001, 28.834370000000003], [77.14123000000001, 28.835200000000004], [77.14351, 28.837200000000003], [77.14377, 28.838340000000002], [77.1465, 28.837930000000004], [77.1577, 28.83677]]]}}, {"id": "27", "type": "Feature", "properties": {"village_name": "Singhola", "vil_lgd": 63869, "district_name": "North", "dist_lgd": 80, "subdistrict_name": "Alipur", "sdcode": 6076, "block_name": "North West", "block_lgd": 1.0, "gp_name": "NA", "state_name": "DELHI", "state_lgd": 7, "population": 5, "households": 2418}, "geometry": {"type": "Polygon", "coordinates": [[[77.14241000000001, 28.83894], [77.14377, 28.838340000000002], [77.14351, 28.837200000000003], [77.14123000000001, 28.835200000000004], [77.13923000000001, 28.834370000000003], [77.13647, 28.833280000000002], [77.13296000000001, 28.833280000000002], [77.12392000000001, 28.836620000000003], [77.12003, 28.840200000000003], [77.12031, 28.8412], [77.12297000000001, 28.84353], [77.12459000000001, 28.846690000000002], [77.12602000000001, 28.85244], [77.12564, 28.854850000000003], [77.12754000000001, 28.85535], [77.12782, 28.85161], [77.13391, 28.847780000000004], [77.13448000000001, 28.845860000000002], [77.14169000000001, 28.842660000000002], [77.14241000000001, 28.83894]]]}}, {"id": "28", "type": "Feature", "properties": {"village_name": "Singhu", "vil_lgd": 63868, "district_name": "North", "dist_lgd": 80, "subdistrict_name": "Alipur", "sdcode": 6076, "block_name": "North West", "block_lgd": 1.0, "gp_name": "NA", "state_name": "DELHI", "state_lgd": 7, "population": 4, "households": 4564}, "geometry": {"type": "Polygon", "coordinates": [[[77.14037, 28.86201], [77.1409, 28.860210000000002], [77.14253000000001, 28.859640000000002], [77.14196000000001, 28.856370000000002], [77.1453, 28.853550000000002], [77.14523000000001, 28.852310000000003], [77.14221, 28.847820000000002], [77.14169000000001, 28.842660000000002], [77.13448000000001, 28.845860000000002], [77.13391, 28.847780000000004], [77.12782, 28.85161], [77.12754000000001, 28.85535], [77.12564, 28.854850000000003], [77.12488, 28.85771], [77.1256, 28.859970000000004], [77.13009000000001, 28.86147], [77.13228000000001, 28.863350000000004], [77.13910000000001, 28.861990000000002], [77.14037, 28.86201]]]}}, {"id": "29", "type": "Feature", "properties": {"village_name": "Holambi Khurd", "vil_lgd": 63894, "district_name": "North", "dist_lgd": 80, "subdistrict_name": "Narela", "sdcode": 430, "block_name": "North West", "block_lgd": 1.0, "gp_name": "NA", "state_name": "DELHI", "state_lgd": 7, "population": 4, "households": 7630}, "geometry": {"type": "Polygon", "coordinates": [[[77.12157, 28.79944], [77.11955, 28.796740000000003], [77.11456000000001, 28.795070000000003], [77.11396, 28.793820000000004], [77.10826, 28.79153], [77.10529000000001, 28.788930000000004], [77.10398, 28.78872], [77.10184000000001, 28.790490000000002], [77.10101, 28.790070000000004], [77.09884000000001, 28.79107], [77.09135, 28.790450000000003], [77.08408, 28.792320000000004], [77.07446, 28.792510000000004], [77.07289, 28.79276], [77.06859, 28.795560000000002], [77.07116, 28.800310000000003], [77.07268, 28.799390000000002], [77.07411, 28.800810000000002], [77.08544, 28.79913], [77.09036, 28.800320000000003], [77.09756, 28.799010000000003], [77.10062, 28.799820000000004], [77.11289000000001, 28.7997], [77.11524, 28.79988], [77.11729000000001, 28.80309], [77.11955, 28.803710000000002], [77.12109000000001, 28.80111], [77.12157, 28.79944]]]}}, {"id": "30", "type": "Feature", "properties": {"village_name": "Sanoth", "vil_lgd": 63884, "district_name": "North", "dist_lgd": 80, "subdistrict_name": "Narela", "sdcode": 430, "block_name": "North West", "block_lgd": 1.0, "gp_name": "NA", "state_name": "DELHI", "state_lgd": 7, "population": 5, "households": 3800}, "geometry": {"type": "Polygon", "coordinates": [[[77.07294, 28.823030000000003], [77.07478, 28.822930000000003], [77.08175, 28.822770000000002], [77.08288, 28.82147], [77.09322, 28.81772], [77.09536, 28.815900000000003], [77.09393, 28.811270000000004], [77.08318000000001, 28.810950000000002], [77.07611, 28.807930000000002], [77.07515000000001, 28.806390000000004], [77.06907000000001, 28.808480000000003], [77.06527000000001, 28.812810000000002], [77.06622, 28.81614], [77.06184, 28.81689], [77.05928, 28.818310000000004], [77.05899000000001, 28.820140000000002], [77.06189, 28.821730000000002], [77.06349, 28.823400000000003], [77.06527000000001, 28.823760000000004], [77.06717, 28.826420000000002], [77.06985, 28.826210000000003], [77.07092, 28.82449], [77.07294, 28.823030000000003]]]}}, {"id": "31", "type": "Feature", "properties": {"village_name": "Holambi Kalan", "vil_lgd": 63895, "district_name": "North", "dist_lgd": 80, "subdistrict_name": "Narela", "sdcode": 430, "block_name": "North West", "block_lgd": 1.0, "gp_name": "NA", "state_name": "DELHI", "state_lgd": 7, "population": 5, "households": 42392}, "geometry": {"type": "Polygon", "coordinates": [[[77.10093, 28.814750000000004], [77.10461000000001, 28.813560000000003], [77.10669, 28.81293], [77.11242, 28.814020000000003], [77.11456000000001, 28.80767], [77.11729000000001, 28.80309], [77.11524, 28.79988], [77.11289000000001, 28.7997], [77.10062, 28.799820000000004], [77.09756, 28.799010000000003], [77.09036, 28.800320000000003], [77.08544, 28.79913], [77.07411, 28.800810000000002], [77.07515000000001, 28.806390000000004], [77.07611, 28.807930000000002], [77.08318000000001, 28.810950000000002], [77.09393, 28.811270000000004], [77.09536, 28.815900000000003], [77.09958, 28.81444], [77.10093, 28.814750000000004]]]}}, {"id": "32", "type": "Feature", "properties": {"village_name": "Iradat Nagar Alias Naya Bans", "vil_lgd": 63893, "district_name": "North", "dist_lgd": 80, "subdistrict_name": "Narela", "sdcode": 430, "block_name": "North West", "block_lgd": 1.0, "gp_name": "NA", "state_name": "DELHI", "state_lgd": 7, "population": 5, "households": 2723}, "geometry": {"type": "MultiPolygon", "coordinates": [[[[77.08408, 28.792320000000004], [77.09135, 28.790450000000003], [77.09884000000001, 28.79107], [77.10101, 28.790070000000004], [77.09982000000001, 28.785380000000004], [77.09899, 28.784660000000002], [77.09934000000001, 28.783300000000004], [77.09649, 28.781950000000002], [77.09150000000001, 28.78309], [77.08853, 28.782570000000003], [77.08698000000001, 28.783610000000003], [77.08187000000001, 28.783720000000002], [77.0814, 28.78497], [77.08199, 28.78611], [77.07712000000001, 28.787470000000003], [77.07700000000001, 28.788300000000003], [77.06562000000001, 28.790490000000002], [77.06859, 28.795560000000002], [77.07289, 28.79276], [77.07446, 28.792510000000004], [77.08408, 28.792320000000004]]], [[[77.12344, 28.789450000000002], [77.12152, 28.787200000000002], [77.11980000000001, 28.785510000000002], [77.11774000000001, 28.78526], [77.11717, 28.78395], [77.11453, 28.78414], [77.10583000000001, 28.7752], [77.10176000000001, 28.774510000000003], [77.10062, 28.776760000000003], [77.10155, 28.776950000000003], [77.10547000000001, 28.7817], [77.10497000000001, 28.783510000000003], [77.10640000000001, 28.783140000000003], [77.10783, 28.785010000000003], [77.11417, 28.788950000000003], [77.11617000000001, 28.792640000000002], [77.11745, 28.79239], [77.12344, 28.789450000000002]]]]}}, {"id": "33", "type": "Feature", "properties": {"village_name": "Kham Pur", "vil_lgd": 63880, "district_name": "North", "dist_lgd": 80, "subdistrict_name": "Alipur", "sdcode": 6076, "block_name": "North West", "block_lgd": 1.0, "gp_name": "NA", "state_name": "DELHI", "state_lgd": 7, "population": 5, "households": 1983}, "geometry": {"type": "Polygon", "coordinates": [[[77.14123000000001, 28.83012], [77.14104, 28.827790000000004], [77.14284, 28.824640000000002], [77.14141000000001, 28.822250000000004], [77.13915, 28.821730000000002], [77.13571, 28.818400000000004], [77.13191, 28.812250000000002], [77.1281, 28.812770000000004], [77.12739, 28.81163], [77.1243, 28.813190000000002], [77.12192, 28.812880000000003], [77.1199, 28.813810000000004], [77.12067, 28.815230000000003], [77.12086000000001, 28.819810000000004], [77.11772, 28.822060000000004], [77.12001000000001, 28.825640000000003], [77.12467000000001, 28.82522], [77.12657, 28.826800000000002], [77.13296000000001, 28.833280000000002], [77.13647, 28.833280000000002], [77.13923000000001, 28.834370000000003], [77.14123000000001, 28.83012]]]}}, {"id": "34", "type": "Feature", "properties": {"village_name": "Shah Pur Garhi", "vil_lgd": 63881, "district_name": "North", "dist_lgd": 80, "subdistrict_name": "Narela", "sdcode": 430, "block_name": "North West", "block_lgd": 1.0, "gp_name": "NA", "state_name": "DELHI", "state_lgd": 7, "population": 4, "households": 2642}, "geometry": {"type": "Polygon", "coordinates": [[[77.1199, 28.813810000000004], [77.11242, 28.814020000000003], [77.10669, 28.81293], [77.10461000000001, 28.813560000000003], [77.10480000000001, 28.818640000000002], [77.10727, 28.824310000000004], [77.11772, 28.822060000000004], [77.12086000000001, 28.819810000000004], [77.12067, 28.815230000000003], [77.1199, 28.813810000000004]]]}}, {"id": "35", "type": "Feature", "properties": {"village_name": "Ghoga", "vil_lgd": 63885, "district_name": "North", "dist_lgd": 80, "subdistrict_name": "Narela", "sdcode": 430, "block_name": "North West", "block_lgd": 1.0, "gp_name": "NA", "state_name": "DELHI", "state_lgd": 7, "population": 5, "households": 3884}, "geometry": {"type": "Polygon", "coordinates": [[[77.05593, 28.835630000000002], [77.05735, 28.83463], [77.06211, 28.834470000000003], [77.06078000000001, 28.83039], [77.06353, 28.83097], [77.06639000000001, 28.830050000000004], [77.06563000000001, 28.82805], [77.06334000000001, 28.826970000000003], [77.06068, 28.82372], [77.06189, 28.821730000000002], [77.05899000000001, 28.820140000000002], [77.05776, 28.820390000000003], [77.05662000000001, 28.822300000000002], [77.05528000000001, 28.82289], [77.04435000000001, 28.82655], [77.0434, 28.829880000000003], [77.04102, 28.83294], [77.04258, 28.83434], [77.04208000000001, 28.83686], [77.05089000000001, 28.83613], [77.05593, 28.835630000000002]]]}}, {"id": "36", "type": "Feature", "properties": {"village_name": "Lam Pur", "vil_lgd": 63866, "district_name": "North", "dist_lgd": 80, "subdistrict_name": "Narela", "sdcode": 430, "block_name": "North West", "block_lgd": 1.0, "gp_name": "NA", "state_name": "DELHI", "state_lgd": 7, "population": 5, "households": 2653}, "geometry": {"type": "Polygon", "coordinates": [[[77.07027000000001, 28.86765], [77.07057, 28.863280000000003], [77.06924000000001, 28.85978], [77.07104000000001, 28.855120000000003], [77.07028000000001, 28.8547], [77.07057, 28.852710000000002], [77.06971, 28.849790000000002], [77.06829, 28.847880000000004], [77.06677, 28.84738], [77.06382, 28.843380000000003], [77.05764, 28.83913], [77.04937000000001, 28.837880000000002], [77.04411, 28.83986], [77.04508000000001, 28.84091], [77.04568, 28.847500000000004], [77.05101, 28.85471], [77.05433000000001, 28.862630000000003], [77.05806000000001, 28.868100000000002], [77.0614, 28.87104], [77.06889000000001, 28.867400000000004], [77.07027000000001, 28.86765]]]}}, {"id": "37", "type": "Feature", "properties": {"village_name": "Kureni", "vil_lgd": 63882, "district_name": "North", "dist_lgd": 80, "subdistrict_name": "Narela", "sdcode": 430, "block_name": "North West", "block_lgd": 1.0, "gp_name": "NA", "state_name": "DELHI", "state_lgd": 7, "population": 5, "households": 2877}, "geometry": {"type": "Polygon", "coordinates": [[[77.11112, 28.840210000000003], [77.11216, 28.841050000000003], [77.11521, 28.840210000000003], [77.12031, 28.8412], [77.12003, 28.840200000000003], [77.11107000000001, 28.83772], [77.10898, 28.83472], [77.1028, 28.83405], [77.09548000000001, 28.835630000000002], [77.08977, 28.835050000000003], [77.08416000000001, 28.836380000000002], [77.08340000000001, 28.83697], [77.08388000000001, 28.83855], [77.08678, 28.838050000000003], [77.09115000000001, 28.838630000000002], [77.09296, 28.84063], [77.09885000000001, 28.840300000000003], [77.09923, 28.84138], [77.10712000000001, 28.84146], [77.10827, 28.840550000000004], [77.11112, 28.840210000000003]]]}}, {"id": "38", "type": "Feature", "properties": {"village_name": "Mamoor Pur", "vil_lgd": 63867, "district_name": "North", "dist_lgd": 80, "subdistrict_name": "Narela", "sdcode": 430, "block_name": "North West", "block_lgd": 1.0, "gp_name": "NA", "state_name": "DELHI", "state_lgd": 7, "population": 4, "households": 18937}, "geometry": {"type": "Polygon", "coordinates": [[[77.11013000000001, 28.869850000000003], [77.11245000000001, 28.866580000000003], [77.11572000000001, 28.864900000000002], [77.11639000000001, 28.863290000000003], [77.12077000000001, 28.860000000000003], [77.12086000000001, 28.85844], [77.12488, 28.85771], [77.12564, 28.854850000000003], [77.12602000000001, 28.85244], [77.12459000000001, 28.846690000000002], [77.11796000000001, 28.849370000000004], [77.11578, 28.84879], [77.11340000000001, 28.850040000000003], [77.11159, 28.85179], [77.09695, 28.852790000000002], [77.09562000000001, 28.854370000000003], [77.09562000000001, 28.86586], [77.09715000000001, 28.870900000000002], [77.10591000000001, 28.870050000000003], [77.11013000000001, 28.869850000000003]]]}}, {"id": "39", "type": "Feature", "properties": {"village_name": "Tehri Daulat Pur Un Inhabited", "vil_lgd": 63899, "district_name": "North", "dist_lgd": 80, "subdistrict_name": "Alipur", "sdcode": 6076, "block_name": "North West", "block_lgd": 1.0, "gp_name": "NA", "state_name": "DELHI", "state_lgd": 7, "population": 0, "households": 0}, "geometry": {"type": "Polygon", "coordinates": [[[77.20027, 28.78468], [77.19927000000001, 28.787290000000002], [77.19955, 28.78929], [77.19684000000001, 28.790100000000002], [77.19769000000001, 28.791410000000003], [77.19805000000001, 28.795540000000003], [77.19922000000001, 28.797810000000002], [77.20402, 28.790860000000002], [77.20786000000001, 28.788240000000002], [77.20027, 28.78468]]]}}, {"id": "40", "type": "Feature", "properties": {"village_name": "Fateh Pur Jat", "vil_lgd": 63879, "district_name": "North", "dist_lgd": 80, "subdistrict_name": "Alipur", "sdcode": 6076, "block_name": "North West", "block_lgd": 1.0, "gp_name": "NA", "state_name": "DELHI", "state_lgd": 7, "population": 3, "households": 125}, "geometry": {"type": "Polygon", "coordinates": [[[77.2, 28.8026], [77.19913000000001, 28.7998], [77.19505000000001, 28.802540000000004], [77.18999000000001, 28.8076], [77.18992, 28.809530000000002], [77.19113, 28.81116], [77.19086, 28.813440000000003], [77.19193, 28.814280000000004], [77.19669, 28.8135], [77.20057000000001, 28.81106], [77.2, 28.8026]]]}}, {"id": "41", "type": "Feature", "properties": {"village_name": "Raja Pur Kalan Un Inhabited", "vil_lgd": 63883, "district_name": "North", "dist_lgd": 80, "subdistrict_name": "Narela", "sdcode": 430, "block_name": "North West", "block_lgd": 1.0, "gp_name": "NA", "state_name": "DELHI", "state_lgd": 7, "population": 0, "households": 0}, "geometry": {"type": "Polygon", "coordinates": [[[77.09035, 28.829230000000003], [77.09457, 28.82616], [77.09837, 28.826100000000004], [77.10093, 28.823500000000003], [77.10093, 28.814750000000004], [77.09958, 28.81444], [77.09536, 28.815900000000003], [77.09322, 28.81772], [77.08288, 28.82147], [77.08175, 28.822770000000002], [77.07478, 28.822930000000003], [77.07520000000001, 28.82897], [77.08102000000001, 28.830060000000003], [77.08262, 28.829230000000003], [77.09035, 28.829230000000003]]]}}, {"id": "42", "type": "Feature", "properties": {"village_name": "Sunger Pur Shahdara Un Inhabited", "vil_lgd": 63876, "district_name": "North", "dist_lgd": 80, "subdistrict_name": "Alipur", "sdcode": 6076, "block_name": "North West", "block_lgd": 1.0, "gp_name": "NA", "state_name": "DELHI", "state_lgd": 7, "population": 0, "households": 0}, "geometry": {"type": "Polygon", "coordinates": [[[77.21957, 28.813760000000002], [77.21886, 28.808290000000003], [77.20355, 28.812070000000002], [77.20578, 28.814280000000004], [77.20892, 28.813910000000003], [77.21957, 28.813760000000002]]]}}, {"id": "43", "type": "Feature", "properties": {"village_name": "Ali Pur CT", "vil_lgd": 63910, "district_name": "North", "dist_lgd": 80, "subdistrict_name": "Alipur", "sdcode": 6076, "block_name": "", "block_lgd": null, "gp_name": "", "state_name": "DELHI", "state_lgd": 7, "population": 5, "households": 20332}, "geometry": {"type": "Polygon", "coordinates": [[[77.1243, 28.813190000000002], [77.12739, 28.81163], [77.1281, 28.812770000000004], [77.13191, 28.812250000000002], [77.13196, 28.810330000000004], [77.13339, 28.808300000000003], [77.14179, 28.800440000000002], [77.14436, 28.801060000000003], [77.14821, 28.803690000000003], [77.15291, 28.804940000000002], [77.15862000000001, 28.810190000000002], [77.16337, 28.80477], [77.16228000000001, 28.804520000000004], [77.15715, 28.799570000000003], [77.15578000000001, 28.795130000000004], [77.15669000000001, 28.793680000000002], [77.15453000000001, 28.791380000000004], [77.15059000000001, 28.79033], [77.14586000000001, 28.790930000000003], [77.14563000000001, 28.79023], [77.13736, 28.789330000000003], [77.13496, 28.789130000000004], [77.13154, 28.786330000000003], [77.1285, 28.78432], [77.12444, 28.783260000000002], [77.12159000000001, 28.783450000000002], [77.12152, 28.787200000000002], [77.12344, 28.789450000000002], [77.11745, 28.79239], [77.11617000000001, 28.792640000000002], [77.11396, 28.793820000000004], [77.11456000000001, 28.795070000000003], [77.11955, 28.796740000000003], [77.12157, 28.79944], [77.12109000000001, 28.80111], [77.11955, 28.803710000000002], [77.11729000000001, 28.80309], [77.11456000000001, 28.80767], [77.11242, 28.814020000000003], [77.1199, 28.813810000000004], [77.12192, 28.812880000000003], [77.1243, 28.813190000000002]]]}}, {"id": "44", "type": "Feature", "properties": {"village_name": "North Delhi Municipal Corporation", "vil_lgd": 276401, "district_name": "North", "dist_lgd": 80, "subdistrict_name": "Alipur", "sdcode": 6076, "block_name": "", "block_lgd": 0.0, "gp_name": "", "state_name": "DELHI", "state_lgd": 7, "population": 4, "households": 261504}, "geometry": {"type": "MultiPolygon", "coordinates": [[[[77.15895, 28.746560000000002], [77.15984, 28.743460000000002], [77.15882, 28.74313], [77.16006, 28.742210000000004], [77.16034, 28.740630000000003], [77.15958, 28.737550000000002], [77.16004000000001, 28.732550000000003], [77.15881, 28.73102], [77.15163000000001, 28.72671], [77.14526000000001, 28.72914], [77.14009, 28.723750000000003], [77.13902, 28.719890000000003], [77.13765000000001, 28.71995], [77.13255000000001, 28.71581], [77.13049000000001, 28.712180000000004], [77.13180000000001, 28.71046], [77.13133, 28.709220000000002], [77.12570000000001, 28.706030000000002], [77.12127000000001, 28.707590000000003], [77.12155000000001, 28.712120000000002], [77.11957000000001, 28.713440000000002], [77.12035, 28.715030000000002], [77.11970000000001, 28.718030000000002], [77.10922000000001, 28.734410000000004], [77.10948, 28.73589], [77.11268000000001, 28.738970000000002], [77.11432, 28.74247], [77.11796000000001, 28.743910000000003], [77.11881000000001, 28.745350000000002], [77.12202, 28.747230000000002], [77.12509, 28.74848], [77.1293, 28.747480000000003], [77.13407000000001, 28.748410000000003], [77.13464, 28.747660000000003], [77.13593, 28.748980000000003], [77.14006, 28.750040000000002], [77.15169, 28.751540000000002], [77.16026000000001, 28.75437], [77.16094000000001, 28.751980000000003], [77.15895, 28.746560000000002]]], [[[77.11578, 28.84879], [77.11796000000001, 28.849370000000004], [77.12459000000001, 28.846690000000002], [77.12297000000001, 28.84353], [77.12031, 28.8412], [77.11521, 28.840210000000003], [77.11216, 28.841050000000003], [77.11112, 28.840210000000003], [77.10827, 28.840550000000004], [77.10712000000001, 28.84146], [77.09923, 28.84138], [77.09885000000001, 28.840300000000003], [77.09296, 28.84063], [77.09115000000001, 28.838630000000002], [77.08678, 28.838050000000003], [77.08388000000001, 28.83855], [77.07884, 28.83763], [77.07837, 28.838880000000003], [77.07817, 28.83913], [77.08046, 28.842710000000004], [77.08112000000001, 28.846290000000003], [77.08255000000001, 28.847540000000002], [77.08369, 28.863280000000003], [77.0835, 28.867110000000004], [77.08236000000001, 28.869110000000003], [77.07926, 28.87273], [77.07765, 28.87723], [77.08053000000001, 28.879900000000003], [77.08266, 28.883570000000002], [77.08681, 28.881020000000003], [77.08807, 28.877070000000003], [77.08754, 28.875470000000004], [77.09383000000001, 28.871660000000002], [77.09715000000001, 28.870900000000002], [77.09562000000001, 28.86586], [77.09562000000001, 28.854370000000003], [77.09695, 28.852790000000002], [77.11159, 28.85179], [77.11340000000001, 28.850040000000003], [77.11578, 28.84879]]]]}}, {"id": "45", "type": "Feature", "properties": {"village_name": "Tikri Khurd CT", "vil_lgd": 63907, "district_name": "North", "dist_lgd": 80, "subdistrict_name": "Narela", "sdcode": 430, "block_name": "", "block_lgd": null, "gp_name": "", "state_name": "DELHI", "state_lgd": 7, "population": 4, "households": 13772}, "geometry": {"type": "Polygon", "coordinates": [[[77.12467000000001, 28.82522], [77.12001000000001, 28.825640000000003], [77.11772, 28.822060000000004], [77.10727, 28.824310000000004], [77.10917, 28.831640000000004], [77.10898, 28.83472], [77.11107000000001, 28.83772], [77.12003, 28.840200000000003], [77.12392000000001, 28.836620000000003], [77.13296000000001, 28.833280000000002], [77.12657, 28.826800000000002], [77.12467000000001, 28.82522]]]}}, {"id": "46", "type": "Feature", "properties": {"village_name": "Palla", "vil_lgd": 63873, "district_name": "North", "dist_lgd": 80, "subdistrict_name": "Alipur", "sdcode": 6076, "block_name": "North West", "block_lgd": 1.0, "gp_name": "NA", "state_name": "DELHI", "state_lgd": 7, "population": 5, "households": 4221}, "geometry": {"type": "Polygon", "coordinates": [[[77.20370000000001, 28.844400000000004], [77.19936000000001, 28.835160000000002], [77.19816, 28.83451], [77.19257, 28.837010000000003], [77.19041, 28.83996], [77.18824000000001, 28.840110000000003], [77.18310000000001, 28.842360000000003], [77.18139000000001, 28.843100000000003], [77.18293000000001, 28.84645], [77.1794, 28.848950000000002], [77.17580000000001, 28.8503], [77.17226000000001, 28.85142], [77.17301, 28.857170000000004], [77.17519, 28.85828], [77.18141, 28.857550000000003], [77.19478000000001, 28.859], [77.19528000000001, 28.8502], [77.20089, 28.847330000000003], [77.20524, 28.846100000000003], [77.20370000000001, 28.844400000000004]]]}}, {"id": "47", "type": "Feature", "properties": {"village_name": "Akbar Pur Majra", "vil_lgd": 63872, "district_name": "North", "dist_lgd": 80, "subdistrict_name": "Alipur", "sdcode": 6076, "block_name": "North West", "block_lgd": 1.0, "gp_name": "NA", "state_name": "DELHI", "state_lgd": 7, "population": 6, "households": 3446}, "geometry": {"type": "Polygon", "coordinates": [[[77.19936000000001, 28.835160000000002], [77.19954000000001, 28.831770000000002], [77.20073000000001, 28.831200000000003], [77.20209000000001, 28.828650000000003], [77.20055, 28.825630000000004], [77.19496000000001, 28.825000000000003], [77.18892000000001, 28.82636], [77.18601000000001, 28.827060000000003], [77.18584000000001, 28.828860000000002], [77.18271, 28.83096], [77.18225000000001, 28.83301], [77.18151, 28.833060000000003], [77.18310000000001, 28.842360000000003], [77.18824000000001, 28.840110000000003], [77.19041, 28.83996], [77.19257, 28.837010000000003], [77.19816, 28.83451], [77.19936000000001, 28.835160000000002]]]}}, {"id": "48", "type": "Feature", "properties": {"village_name": "Bhor Garh CT", "vil_lgd": 63906, "district_name": "North", "dist_lgd": 80, "subdistrict_name": "Narela", "sdcode": 430, "block_name": "", "block_lgd": null, "gp_name": "", "state_name": "DELHI", "state_lgd": 7, "population": 4, "households": 8627}, "geometry": {"type": "Polygon", "coordinates": [[[77.07884, 28.83763], [77.08388000000001, 28.83855], [77.08340000000001, 28.83697], [77.08416000000001, 28.836380000000002], [77.08977, 28.835050000000003], [77.09548000000001, 28.835630000000002], [77.1028, 28.83405], [77.10898, 28.83472], [77.10917, 28.831640000000004], [77.10727, 28.824310000000004], [77.10480000000001, 28.818640000000002], [77.10461000000001, 28.813560000000003], [77.10093, 28.814750000000004], [77.10093, 28.823500000000003], [77.09837, 28.826100000000004], [77.09457, 28.82616], [77.09035, 28.829230000000003], [77.08262, 28.829230000000003], [77.08102000000001, 28.830060000000003], [77.07520000000001, 28.82897], [77.07478, 28.822930000000003], [77.07294, 28.823030000000003], [77.07092, 28.82449], [77.06985, 28.826210000000003], [77.07314000000001, 28.829890000000002], [77.07817, 28.83913], [77.07837, 28.838880000000003], [77.07884, 28.83763]]]}}, {"id": "49", "type": "Feature", "properties": {"village_name": "Libas Pur CT", "vil_lgd": 63914, "district_name": "North", "dist_lgd": 80, "subdistrict_name": "Alipur", "sdcode": 6076, "block_name": "", "block_lgd": null, "gp_name": "", "state_name": "DELHI", "state_lgd": 7, "population": 5, "households": 44375}, "geometry": {"type": "Polygon", "coordinates": [[[77.1683, 28.759870000000003], [77.17056000000001, 28.759870000000003], [77.17169000000001, 28.75833], [77.17172000000001, 28.75578], [77.16436, 28.7557], [77.16026000000001, 28.75437], [77.15169, 28.751540000000002], [77.14006, 28.750040000000002], [77.13593, 28.748980000000003], [77.13464, 28.747660000000003], [77.13407000000001, 28.748410000000003], [77.13372000000001, 28.749350000000003], [77.13467, 28.750390000000003], [77.13621, 28.751540000000002], [77.13859000000001, 28.75175], [77.13895000000001, 28.75362], [77.14037, 28.75456], [77.14608000000001, 28.756330000000002], [77.15024000000001, 28.75831], [77.15273, 28.760810000000003], [77.15546, 28.760920000000002], [77.15618, 28.761650000000003], [77.1601, 28.76237], [77.16319, 28.761650000000003], [77.1683, 28.759870000000003]]]}}, {"id": "50", "type": "Feature", "properties": {"village_name": "Siras Pur CT", "vil_lgd": 63915, "district_name": "North", "dist_lgd": 80, "subdistrict_name": "Alipur", "sdcode": 6076, "block_name": "", "block_lgd": null, "gp_name": "", "state_name": "DELHI", "state_lgd": 7, "population": 5, "households": 30445}, "geometry": {"type": "Polygon", "coordinates": [[[77.14321000000001, 28.766540000000003], [77.14553000000001, 28.764300000000002], [77.1526, 28.76555], [77.15474, 28.76451], [77.15618, 28.761650000000003], [77.15546, 28.760920000000002], [77.15273, 28.760810000000003], [77.15024000000001, 28.75831], [77.14608000000001, 28.756330000000002], [77.14037, 28.75456], [77.13895000000001, 28.75362], [77.13859000000001, 28.75175], [77.13621, 28.751540000000002], [77.13467, 28.750390000000003], [77.13372000000001, 28.749350000000003], [77.13407000000001, 28.748410000000003], [77.1293, 28.747480000000003], [77.12509, 28.74848], [77.12202, 28.747230000000002], [77.11981, 28.74893], [77.11922000000001, 28.752160000000003], [77.12076, 28.753310000000003], [77.12231000000001, 28.75477], [77.12373000000001, 28.754250000000003], [77.12766, 28.75758], [77.12623, 28.763], [77.12908, 28.76602], [77.13633, 28.768210000000003], [77.13875, 28.76826], [77.14321000000001, 28.766540000000003]]]}}, {"id": "51", "type": "Feature", "properties": {"village_name": "Pooth Khurd CT", "vil_lgd": 63921, "district_name": "North", "dist_lgd": 80, "subdistrict_name": "Narela", "sdcode": 430, "block_name": "", "block_lgd": null, "gp_name": "", "state_name": "DELHI", "state_lgd": 7, "population": 5, "households": 10654}, "geometry": {"type": "Polygon", "coordinates": [[[77.07201, 28.779650000000004], [77.07474, 28.77626], [77.07569000000001, 28.77043], [77.06847, 28.770930000000003], [77.06512000000001, 28.769560000000002], [77.06305, 28.765500000000003], [77.06070000000001, 28.764000000000003], [77.0612, 28.761930000000003], [77.06020000000001, 28.761930000000003], [77.05913000000001, 28.75918], [77.05464, 28.754870000000004], [77.05193000000001, 28.751240000000003], [77.05108000000001, 28.748490000000004], [77.04781000000001, 28.744600000000002], [77.03476, 28.74959], [77.02634, 28.750790000000002], [77.03162, 28.75587], [77.03378000000001, 28.75692], [77.03589000000001, 28.75682], [77.03983000000001, 28.75992], [77.04188, 28.763270000000002], [77.04302000000001, 28.762870000000003], [77.04211000000001, 28.76977], [77.03644000000001, 28.777020000000004], [77.03829, 28.779770000000003], [77.04697, 28.779790000000002], [77.05142000000001, 28.78404], [77.05347, 28.78384], [77.05969, 28.786540000000002], [77.06095, 28.78639], [77.07201, 28.779650000000004]]]}}, {"id": "52", "type": "Feature", "properties": {"village_name": "Barwala CT", "vil_lgd": 63920, "district_name": "North", "dist_lgd": 80, "subdistrict_name": "Narela", "sdcode": 430, "block_name": "", "block_lgd": null, "gp_name": "", "state_name": "DELHI", "state_lgd": 7, "population": 5, "households": 8948}, "geometry": {"type": "Polygon", "coordinates": [[[77.07825000000001, 28.768030000000003], [77.07902, 28.76611], [77.07759, 28.761840000000003], [77.07389, 28.75643], [77.07446, 28.75399], [77.07204, 28.74649], [77.06601, 28.738070000000004], [77.06422, 28.737900000000003], [77.05819000000001, 28.742240000000002], [77.05042, 28.743080000000003], [77.04781000000001, 28.744600000000002], [77.05108000000001, 28.748490000000004], [77.05193000000001, 28.751240000000003], [77.05464, 28.754870000000004], [77.05913000000001, 28.75918], [77.06020000000001, 28.761930000000003], [77.0612, 28.761930000000003], [77.06070000000001, 28.764000000000003], [77.06305, 28.765500000000003], [77.06512000000001, 28.769560000000002], [77.06847, 28.770930000000003], [77.07569000000001, 28.77043], [77.07825000000001, 28.768030000000003]]]}}, {"id": "53", "type": "Feature", "properties": {"village_name": "Pehlad Pur Bangar CT", "vil_lgd": 63918, "district_name": "North", "dist_lgd": 80, "subdistrict_name": "Narela", "sdcode": 430, "block_name": "", "block_lgd": null, "gp_name": "", "state_name": "DELHI", "state_lgd": 7, "population": 4, "households": 22968}, "geometry": {"type": "Polygon", "coordinates": [[[77.09856, 28.760250000000003], [77.09478, 28.757870000000004], [77.09286, 28.754120000000004], [77.09200000000001, 28.74912], [77.08537000000001, 28.742490000000004], [77.08359, 28.739120000000003], [77.07389, 28.744300000000003], [77.07204, 28.74649], [77.07446, 28.75399], [77.07389, 28.75643], [77.07759, 28.761840000000003], [77.07831, 28.759280000000004], [77.08460000000001, 28.763090000000002], [77.08829, 28.764080000000003], [77.0912, 28.762770000000003], [77.09227000000001, 28.765380000000004], [77.09892, 28.76996], [77.10267, 28.767300000000002], [77.10127, 28.76368], [77.09856, 28.760250000000003]]]}}, {"id": "54", "type": "Feature", "properties": {"village_name": "Sahibabad Daulat Pur CT", "vil_lgd": 63917, "district_name": "North", "dist_lgd": 80, "subdistrict_name": "Alipur", "sdcode": 6076, "block_name": "", "block_lgd": null, "gp_name": "", "state_name": "DELHI", "state_lgd": 7, "population": 4, "households": 54773}, "geometry": {"type": "Polygon", "coordinates": [[[77.10028000000001, 28.75993], [77.10726000000001, 28.756500000000003], [77.10976000000001, 28.75456], [77.1114, 28.751990000000003], [77.11717, 28.75024], [77.11767, 28.748620000000003], [77.11981, 28.74893], [77.12202, 28.747230000000002], [77.11881000000001, 28.745350000000002], [77.11796000000001, 28.743910000000003], [77.11432, 28.74247], [77.11268000000001, 28.738970000000002], [77.10948, 28.73589], [77.10671, 28.737240000000003], [77.10184000000001, 28.73722], [77.0959, 28.739290000000004], [77.09447, 28.73701], [77.08962000000001, 28.737630000000003], [77.087, 28.735310000000002], [77.08359, 28.739120000000003], [77.08537000000001, 28.742490000000004], [77.09200000000001, 28.74912], [77.09286, 28.754120000000004], [77.09478, 28.757870000000004], [77.09856, 28.760250000000003], [77.09935, 28.75925], [77.10028000000001, 28.75993]]]}}, {"id": "55", "type": "Feature", "properties": {"village_name": "Bhalswa Jahangir Pur CT", "vil_lgd": 63950, "district_name": "North", "dist_lgd": 80, "subdistrict_name": "Model Town", "sdcode": 432, "block_name": "", "block_lgd": null, "gp_name": "", "state_name": "DELHI", "state_lgd": 7, "population": 5, "households": 197148}, "geometry": {"type": "Polygon", "coordinates": [[[77.17943000000001, 28.757900000000003], [77.17871000000001, 28.75524], [77.18137, 28.754800000000003], [77.18261000000001, 28.753180000000004], [77.18218, 28.750950000000003], [77.17967, 28.750580000000003], [77.17783, 28.74902], [77.17807, 28.7482], [77.1768, 28.747780000000002], [77.17509000000001, 28.744300000000003], [77.17705000000001, 28.740140000000004], [77.18463000000001, 28.735440000000004], [77.18664000000001, 28.73289], [77.18216000000001, 28.726740000000003], [77.17930000000001, 28.724330000000002], [77.1695, 28.72727], [77.16561, 28.72783], [77.16415, 28.727010000000003], [77.16275, 28.727950000000003], [77.16004000000001, 28.732550000000003], [77.15958, 28.737550000000002], [77.16034, 28.740630000000003], [77.16006, 28.742210000000004], [77.15882, 28.74313], [77.15984, 28.743460000000002], [77.15895, 28.746560000000002], [77.16094000000001, 28.751980000000003], [77.16026000000001, 28.75437], [77.16436, 28.7557], [77.17172000000001, 28.75578], [77.17169000000001, 28.75833], [77.1757, 28.758820000000004], [77.17607000000001, 28.758680000000002], [77.17943000000001, 28.757900000000003]]]}}, {"id": "56", "type": "Feature", "properties": {"village_name": "Bankner CT", "vil_lgd": 63905, "district_name": "North", "dist_lgd": 80, "subdistrict_name": "Narela", "sdcode": 430, "block_name": "", "block_lgd": null, "gp_name": "", "state_name": "DELHI", "state_lgd": 7, "population": 5, "households": 14788}, "geometry": {"type": "Polygon", "coordinates": [[[77.0835, 28.867110000000004], [77.08369, 28.863280000000003], [77.08255000000001, 28.847540000000002], [77.08112000000001, 28.846290000000003], [77.08046, 28.842710000000004], [77.07817, 28.83913], [77.07314000000001, 28.829890000000002], [77.06985, 28.826210000000003], [77.06717, 28.826420000000002], [77.06527000000001, 28.823760000000004], [77.06349, 28.823400000000003], [77.06189, 28.821730000000002], [77.06068, 28.82372], [77.06334000000001, 28.826970000000003], [77.06563000000001, 28.82805], [77.06639000000001, 28.830050000000004], [77.06353, 28.83097], [77.06078000000001, 28.83039], [77.06211, 28.834470000000003], [77.05735, 28.83463], [77.05593, 28.835630000000002], [77.05089000000001, 28.83613], [77.04208000000001, 28.83686], [77.04207000000001, 28.838260000000002], [77.04411, 28.83986], [77.04937000000001, 28.837880000000002], [77.05764, 28.83913], [77.06382, 28.843380000000003], [77.06677, 28.84738], [77.06829, 28.847880000000004], [77.06971, 28.849790000000002], [77.07057, 28.852710000000002], [77.07028000000001, 28.8547], [77.07104000000001, 28.855120000000003], [77.06924000000001, 28.85978], [77.07057, 28.863280000000003], [77.07027000000001, 28.86765], [77.07177, 28.868930000000002], [77.07452, 28.86754], [77.07926, 28.87273], [77.08236000000001, 28.869110000000003], [77.0835, 28.867110000000004]]]}}, {"id": "57", "type": "Feature", "properties": {"village_name": "Qadi Pur CT", "vil_lgd": 63913, "district_name": "North", "dist_lgd": 80, "subdistrict_name": "Alipur", "sdcode": 6076, "block_name": "", "block_lgd": null, "gp_name": "", "state_name": "DELHI", "state_lgd": 7, "population": 5, "households": 18369}, "geometry": {"type": "Polygon", "coordinates": [[[77.1654, 28.783230000000003], [77.16989000000001, 28.784100000000002], [77.17288, 28.7831], [77.17488, 28.782480000000003], [77.17759000000001, 28.777600000000003], [77.1748, 28.775440000000003], [77.17637, 28.774630000000002], [77.17516, 28.77344], [77.17549000000001, 28.771290000000004], [77.17231000000001, 28.772700000000004], [77.17143, 28.771240000000002], [77.17161, 28.767180000000003], [77.17437000000001, 28.765620000000002], [77.17517000000001, 28.7632], [77.17424000000001, 28.760450000000002], [77.1757, 28.758820000000004], [77.17169000000001, 28.75833], [77.17056000000001, 28.759870000000003], [77.1683, 28.759870000000003], [77.16319, 28.761650000000003], [77.1601, 28.76237], [77.15618, 28.761650000000003], [77.15474, 28.76451], [77.1526, 28.76555], [77.15385, 28.77154], [77.15206, 28.77185], [77.15141000000001, 28.77409], [77.15379, 28.7756], [77.15301000000001, 28.77774], [77.15450000000001, 28.778570000000002], [77.15486, 28.779980000000002], [77.15557000000001, 28.780030000000004], [77.15694, 28.783620000000003], [77.15984, 28.78367], [77.16105, 28.784540000000003], [77.16369, 28.783920000000002], [77.1654, 28.783230000000003]]]}}, {"id": "58", "type": "Feature", "properties": {"village_name": "Khera Khurd CT", "vil_lgd": 63919, "district_name": "North", "dist_lgd": 80, "subdistrict_name": "Narela", "sdcode": 430, "block_name": "", "block_lgd": null, "gp_name": "", "state_name": "DELHI", "state_lgd": 7, "population": 5, "households": 9777}, "geometry": {"type": "Polygon", "coordinates": [[[77.10783, 28.785010000000003], [77.10640000000001, 28.783140000000003], [77.10497000000001, 28.783510000000003], [77.10547000000001, 28.7817], [77.10155, 28.776950000000003], [77.10062, 28.776760000000003], [77.10176000000001, 28.774510000000003], [77.10583000000001, 28.7752], [77.11453, 28.78414], [77.11717, 28.78395], [77.11774000000001, 28.78526], [77.11980000000001, 28.785510000000002], [77.12152, 28.787200000000002], [77.12159000000001, 28.783450000000002], [77.12026, 28.78168], [77.1139, 28.780170000000002], [77.11027, 28.77579], [77.10808, 28.771050000000002], [77.10267, 28.767300000000002], [77.09892, 28.76996], [77.09227000000001, 28.765380000000004], [77.0912, 28.762770000000003], [77.08829, 28.764080000000003], [77.08460000000001, 28.763090000000002], [77.07831, 28.759280000000004], [77.07759, 28.761840000000003], [77.07902, 28.76611], [77.07825000000001, 28.768030000000003], [77.07569000000001, 28.77043], [77.07474, 28.77626], [77.07201, 28.779650000000004], [77.06095, 28.78639], [77.06562000000001, 28.790490000000002], [77.07700000000001, 28.788300000000003], [77.07712000000001, 28.787470000000003], [77.08199, 28.78611], [77.0814, 28.78497], [77.08187000000001, 28.783720000000002], [77.08698000000001, 28.783610000000003], [77.08853, 28.782570000000003], [77.09150000000001, 28.78309], [77.09649, 28.781950000000002], [77.09934000000001, 28.783300000000004], [77.09899, 28.784660000000002], [77.09982000000001, 28.785380000000004], [77.10101, 28.790070000000004], [77.10184000000001, 28.790490000000002], [77.10398, 28.78872], [77.10529000000001, 28.788930000000004], [77.10826, 28.79153], [77.11396, 28.793820000000004], [77.11617000000001, 28.792640000000002], [77.11417, 28.788950000000003], [77.10783, 28.785010000000003]]]}}, {"id": "59", "type": "Feature", "properties": {"village_name": "Ibrahim Pur CT", "vil_lgd": 63912, "district_name": "North", "dist_lgd": 80, "subdistrict_name": "Alipur", "sdcode": 6076, "block_name": "", "block_lgd": null, "gp_name": "", "state_name": "DELHI", "state_lgd": 7, "population": 5, "households": 10614}, "geometry": {"type": "Polygon", "coordinates": [[[77.19817, 28.78385], [77.19890000000001, 28.78169], [77.19528000000001, 28.77802], [77.18733, 28.771760000000004], [77.18059000000001, 28.770260000000004], [77.17549000000001, 28.771290000000004], [77.17516, 28.77344], [77.17637, 28.774630000000002], [77.1748, 28.775440000000003], [77.17759000000001, 28.777600000000003], [77.18358, 28.777730000000002], [77.18914000000001, 28.782850000000003], [77.19171, 28.786920000000002], [77.19684000000001, 28.790100000000002], [77.19955, 28.78929], [77.19927000000001, 28.787290000000002], [77.20027, 28.78468], [77.19817, 28.78385]]]}}, {"id": "60", "type": "Feature", "properties": {"village_name": "Bakhtawar Pur CT", "vil_lgd": 63908, "district_name": "North", "dist_lgd": 80, "subdistrict_name": "Alipur", "sdcode": 6076, "block_name": "", "block_lgd": null, "gp_name": "", "state_name": "DELHI", "state_lgd": 7, "population": 5, "households": 12716}, "geometry": {"type": "Polygon", "coordinates": [[[77.18464, 28.812770000000004], [77.18025, 28.81312], [77.17478000000001, 28.812220000000003], [77.17324, 28.81097], [77.17141000000001, 28.809020000000004], [77.16924, 28.802370000000003], [77.16337, 28.80477], [77.15862000000001, 28.810190000000002], [77.15648, 28.814940000000004], [77.15627, 28.818920000000002], [77.16340000000001, 28.82579], [77.16411000000001, 28.82787], [77.16922000000001, 28.829220000000003], [77.17136, 28.83172], [77.17481000000001, 28.832140000000003], [77.17742000000001, 28.843490000000003], [77.18139000000001, 28.843100000000003], [77.18310000000001, 28.842360000000003], [77.18151, 28.833060000000003], [77.18225000000001, 28.83301], [77.18271, 28.83096], [77.18584000000001, 28.828860000000002], [77.18601000000001, 28.827060000000003], [77.18892000000001, 28.82636], [77.18596000000001, 28.815220000000004], [77.18687000000001, 28.813670000000002], [77.18464, 28.812770000000004]]]}}, {"id": "61", "type": "Feature", "properties": {"village_name": "Bankauli CT", "vil_lgd": 63909, "district_name": "North", "dist_lgd": 80, "subdistrict_name": "Alipur", "sdcode": 6076, "block_name": "", "block_lgd": null, "gp_name": "", "state_name": "DELHI", "state_lgd": 7, "population": 4, "households": 5339}, "geometry": {"type": "Polygon", "coordinates": [[[77.15627, 28.818920000000002], [77.15648, 28.814940000000004], [77.15862000000001, 28.810190000000002], [77.15291, 28.804940000000002], [77.14821, 28.803690000000003], [77.14436, 28.801060000000003], [77.14179, 28.800440000000002], [77.13339, 28.808300000000003], [77.13196, 28.810330000000004], [77.13191, 28.812250000000002], [77.13571, 28.818400000000004], [77.13915, 28.821730000000002], [77.14141000000001, 28.822250000000004], [77.14284, 28.824640000000002], [77.14997000000001, 28.822350000000004], [77.15627, 28.818920000000002]]]}}]}