{"type": "FeatureCollection", "metadata": {"source": "Survey of India (per src_agency attribute in the source data)", "hosted_via": "National Water Data Portal (NWDP), NWIC, Ministry of Jal Shakti -- https://nwdp.nwic.gov.in/", "access": "public, no login required", "crs_original": "EPSG:7755 (WGS 84 / India NSF LCC)", "fetch_date": "2026-08-02", "quality": "verified-official -- Survey of India source", "state": "Delhi", "district": "Shahdara", "processing": "reprojected to EPSG:4326, topology-preserving simplify (shared-arc, tolerance 0.0005 deg) so adjacent polygons never overlap/gap at shared borders, coords rounded 5dp, 0 feature(s) needed the per-feature fallback", "feature_count": 6}, "features": [{"id": "0", "type": "Feature", "properties": {"village_name": "East Delhi Municipal Corporation", "vil_lgd": 276400, "district_name": "Shahdara", "dist_lgd": 671, "subdistrict_name": "Vivek Vihar", "sdcode": 440, "block_name": "", "block_lgd": 0.0, "gp_name": "", "state_name": "DELHI", "state_lgd": 7, "population": 4, "households": 247906}, "geometry": {"type": "Polygon", "coordinates": [[[77.27385000000001, 28.672490000000003], [77.27647, 28.67724], [77.27929, 28.679440000000003], [77.27979, 28.681790000000003], [77.28408, 28.681530000000002], [77.28913, 28.679260000000003], [77.29211000000001, 28.67911], [77.29561000000001, 28.682450000000003], [77.29923000000001, 28.68905], [77.30351, 28.689560000000004], [77.30452000000001, 28.688750000000002], [77.30449, 28.687630000000002], [77.30224000000001, 28.683280000000003], [77.30277000000001, 28.68296], [77.30244, 28.6809], [77.30735, 28.68213], [77.30841000000001, 28.68119], [77.31174, 28.681870000000004], [77.32017, 28.693550000000002], [77.32298, 28.692590000000003], [77.32588000000001, 28.695120000000003], [77.33029, 28.690430000000003], [77.33284, 28.682100000000002], [77.33009000000001, 28.67826], [77.32546, 28.6778], [77.32359000000001, 28.676750000000002], [77.3237, 28.668950000000002], [77.32299, 28.6672], [77.32163000000001, 28.666320000000002], [77.32075, 28.66353], [77.31986, 28.651080000000004], [77.31617, 28.640600000000003], [77.31535000000001, 28.640020000000003], [77.30079, 28.644440000000003], [77.28921000000001, 28.657850000000003], [77.28029000000001, 28.655240000000003], [77.27748000000001, 28.653850000000002], [77.27747000000001, 28.65248], [77.27136, 28.650350000000003], [77.26375, 28.649400000000004], [77.26112, 28.656750000000002], [77.25935000000001, 28.659430000000004], [77.25286000000001, 28.66193], [77.25093000000001, 28.663650000000004], [77.24354000000001, 28.66392], [77.23891, 28.666140000000002], [77.25384000000001, 28.671020000000002], [77.25858000000001, 28.67011], [77.26327, 28.67059], [77.26864, 28.67209], [77.26968000000001, 28.67311], [77.27385000000001, 28.672490000000003]]]}}, {"id": "1", "type": "Feature", "properties": {"village_name": "East Delhi Municipal Corporation", "vil_lgd": 276400, "district_name": "Shahdara", "dist_lgd": 671, "subdistrict_name": "Seema Puri", "sdcode": 438, "block_name": "", "block_lgd": 0.0, "gp_name": "", "state_name": "DELHI", "state_lgd": 7, "population": 5, "households": 419497}, "geometry": {"type": "Polygon", "coordinates": [[[77.31322, 28.713040000000003], [77.30807, 28.708190000000002], [77.30246000000001, 28.699890000000003], [77.30241000000001, 28.697810000000004], [77.30127, 28.69572], [77.30351, 28.689560000000004], [77.29923000000001, 28.68905], [77.29918, 28.69226], [77.29697, 28.69235], [77.29827, 28.696530000000003], [77.29678000000001, 28.704520000000002], [77.29913, 28.70869], [77.29903, 28.70989], [77.30328, 28.71141], [77.30478000000001, 28.712940000000003], [77.30703000000001, 28.712950000000003], [77.31322, 28.713040000000003]]]}}, {"id": "2", "type": "Feature", "properties": {"village_name": "East Delhi Municipal Corporation", "vil_lgd": 276400, "district_name": "Shahdara", "dist_lgd": 671, "subdistrict_name": "Shahdara", "sdcode": 437, "block_name": "", "block_lgd": 0.0, "gp_name": "", "state_name": "DELHI", "state_lgd": 7, "population": 5, "households": 231272}, "geometry": {"type": "MultiPolygon", "coordinates": [[[[77.28913, 28.679260000000003], [77.28408, 28.681530000000002], [77.28589000000001, 28.683190000000003], [77.28550000000001, 28.6855], [77.28670000000001, 28.685750000000002], [77.28689, 28.687230000000003], [77.28677, 28.688450000000003], [77.2839, 28.69225], [77.28454, 28.693440000000002], [77.28662000000001, 28.695790000000002], [77.29064000000001, 28.69347], [77.29697, 28.69235], [77.29918, 28.69226], [77.29923000000001, 28.68905], [77.29561000000001, 28.682450000000003], [77.29211000000001, 28.67911], [77.28913, 28.679260000000003]]], [[[77.28193, 28.696130000000004], [77.28036, 28.691940000000002], [77.28084000000001, 28.688430000000004], [77.28001, 28.686310000000002], [77.2776, 28.686600000000002], [77.27677000000001, 28.68493], [77.27222, 28.68267], [77.2706, 28.683230000000002], [77.27208, 28.69695], [77.27513, 28.696800000000003], [77.27965, 28.697950000000002], [77.27956, 28.696880000000004], [77.28193, 28.696130000000004]]]]}}, {"id": "3", "type": "Feature", "properties": {"village_name": "Mandoli CT", "vil_lgd": 63982, "district_name": "Shahdara", "dist_lgd": 671, "subdistrict_name": "Seema Puri", "sdcode": 438, "block_name": "", "block_lgd": null, "gp_name": "", "state_name": "DELHI", "state_lgd": 7, "population": 5, "households": 120417}, "geometry": {"type": "Polygon", "coordinates": [[[77.32206000000001, 28.71214], [77.32309000000001, 28.71308], [77.33112000000001, 28.713060000000002], [77.32648, 28.710490000000004], [77.32445000000001, 28.707100000000004], [77.32573000000001, 28.702890000000004], [77.32326, 28.698610000000002], [77.32588000000001, 28.695120000000003], [77.32298, 28.692590000000003], [77.32017, 28.693550000000002], [77.31174, 28.681870000000004], [77.30841000000001, 28.68119], [77.30735, 28.68213], [77.30244, 28.6809], [77.30277000000001, 28.68296], [77.30224000000001, 28.683280000000003], [77.30449, 28.687630000000002], [77.30452000000001, 28.688750000000002], [77.30351, 28.689560000000004], [77.30127, 28.69572], [77.30241000000001, 28.697810000000004], [77.30246000000001, 28.699890000000003], [77.30807, 28.708190000000002], [77.31322, 28.713040000000003], [77.31665000000001, 28.712960000000002], [77.31784, 28.713980000000003], [77.32008, 28.713060000000002], [77.32206000000001, 28.71214]]]}}, {"id": "4", "type": "Feature", "properties": {"village_name": "Jaffrabad CT", "vil_lgd": 63981, "district_name": "Shahdara", "dist_lgd": 671, "subdistrict_name": "Shahdara", "sdcode": 437, "block_name": "", "block_lgd": null, "gp_name": "", "state_name": "DELHI", "state_lgd": 7, "population": 6, "households": 54601}, "geometry": {"type": "Polygon", "coordinates": [[[77.28087000000001, 28.683500000000002], [77.27979, 28.681790000000003], [77.27929, 28.679440000000003], [77.27647, 28.67724], [77.27385000000001, 28.672490000000003], [77.26968000000001, 28.67311], [77.26823, 28.674730000000004], [77.26971, 28.675860000000004], [77.26804000000001, 28.676820000000003], [77.27014000000001, 28.6792], [77.26944, 28.68052], [77.2706, 28.683230000000002], [77.27222, 28.68267], [77.27677000000001, 28.68493], [77.2776, 28.686600000000002], [77.28001, 28.686310000000002], [77.28087000000001, 28.683500000000002]]]}}, {"id": "5", "type": "Feature", "properties": {"village_name": "Babar Pur CT", "vil_lgd": 63980, "district_name": "Shahdara", "dist_lgd": 671, "subdistrict_name": "Shahdara", "sdcode": 437, "block_name": "", "block_lgd": null, "gp_name": "", "state_name": "DELHI", "state_lgd": 7, "population": 5, "households": 37058}, "geometry": {"type": "Polygon", "coordinates": [[[77.2839, 28.69225], [77.28677, 28.688450000000003], [77.28689, 28.687230000000003], [77.28670000000001, 28.685750000000002], [77.28550000000001, 28.6855], [77.28589000000001, 28.683190000000003], [77.28408, 28.681530000000002], [77.27979, 28.681790000000003], [77.28087000000001, 28.683500000000002], [77.28001, 28.686310000000002], [77.28084000000001, 28.688430000000004], [77.28036, 28.691940000000002], [77.28193, 28.696130000000004], [77.28454, 28.693440000000002], [77.2839, 28.69225]]]}}]}