{"type": "FeatureCollection", "metadata": {"source": "Survey of India (per src_agency attribute in the source data)", "hosted_via": "National Water Data Portal (NWDP), NWIC, Ministry of Jal Shakti -- https://nwdp.nwic.gov.in/", "access": "public, no login required", "crs_original": "EPSG:7755 (WGS 84 / India NSF LCC)", "fetch_date": "2026-08-02", "quality": "verified-official -- Survey of India source", "state": "Delhi", "district": "South West", "processing": "reprojected to EPSG:4326, topology-preserving simplify (shared-arc, tolerance 0.0005 deg) so adjacent polygons never overlap/gap at shared borders, coords rounded 5dp, 0 feature(s) needed the per-feature fallback", "feature_count": 54}, "features": [{"id": "0", "type": "Feature", "properties": {"village_name": "Raota", "vil_lgd": 64043, "district_name": "South West", "dist_lgd": 84, "subdistrict_name": "Kapeshera", "sdcode": 6085, "block_name": "South West", "block_lgd": 6.0, "gp_name": "NA", "state_name": "DELHI", "state_lgd": 7, "population": 5, "households": 2933}, "geometry": {"type": "Polygon", "coordinates": [[[76.91089000000001, 28.52755], [76.91717000000001, 28.5222], [76.92736000000001, 28.510430000000003], [76.92068, 28.507030000000004], [76.91891000000001, 28.509120000000003], [76.91268000000001, 28.512210000000003], [76.91018000000001, 28.51216], [76.90798000000001, 28.51375], [76.90678000000001, 28.513090000000002], [76.89711000000001, 28.516440000000003], [76.89378, 28.512590000000003], [76.89188, 28.513430000000003], [76.89112, 28.51284], [76.88486, 28.5161], [76.88689000000001, 28.519890000000004], [76.88731, 28.51911], [76.88959000000001, 28.519940000000002], [76.89083000000001, 28.524870000000004], [76.89359, 28.530640000000002], [76.89473000000001, 28.53273], [76.90766, 28.527710000000003], [76.91089000000001, 28.52755]]]}}, {"id": "1", "type": "Feature", "properties": {"village_name": "Surakh Pur", "vil_lgd": 64005, "district_name": "South West", "dist_lgd": 84, "subdistrict_name": "Najafgarh", "sdcode": 451, "block_name": "South West", "block_lgd": 6.0, "gp_name": "NA", "state_name": "DELHI", "state_lgd": 7, "population": 5, "households": 631}, "geometry": {"type": "Polygon", "coordinates": [[[76.95208000000001, 28.622300000000003], [76.95512000000001, 28.619880000000002], [76.95865, 28.618450000000003], [76.95513000000001, 28.61887], [76.94724000000001, 28.620790000000003], [76.94524000000001, 28.619290000000003], [76.94353000000001, 28.616200000000003], [76.93464, 28.6183], [76.9432, 28.62751], [76.94516, 28.63305], [76.95185000000001, 28.6306], [76.95208000000001, 28.622300000000003]]]}}, {"id": "2", "type": "Feature", "properties": {"village_name": "Dichaon Kalan", "vil_lgd": 64004, "district_name": "South West", "dist_lgd": 84, "subdistrict_name": "Najafgarh", "sdcode": 451, "block_name": "South West", "block_lgd": 6.0, "gp_name": "NA", "state_name": "DELHI", "state_lgd": 7, "population": 5, "households": 27255}, "geometry": {"type": "Polygon", "coordinates": [[[76.9927, 28.65631], [76.99600000000001, 28.653840000000002], [77.00215, 28.651280000000003], [76.99975, 28.649610000000003], [76.99968000000001, 28.6474], [77.00492000000001, 28.63146], [77.00685, 28.627940000000002], [77.00461, 28.625220000000002], [77.00294000000001, 28.625400000000003], [77.00068, 28.628210000000003], [76.99718, 28.62665], [76.99123, 28.620700000000003], [76.99058000000001, 28.62113], [76.98678000000001, 28.61754], [76.98203000000001, 28.618630000000003], [76.96311, 28.630560000000003], [76.95917, 28.634860000000003], [76.95908, 28.63828], [76.96849, 28.65388], [76.97006, 28.658170000000002], [76.97751000000001, 28.65706], [76.97968, 28.654290000000003], [76.98874, 28.66082], [76.99298, 28.65837], [76.9927, 28.65631]]]}}, {"id": "3", "type": "Feature", "properties": {"village_name": "Jhatikra", "vil_lgd": 64034, "district_name": "South West", "dist_lgd": 84, "subdistrict_name": "Kapeshera", "sdcode": 6085, "block_name": "South West", "block_lgd": 6.0, "gp_name": "NA", "state_name": "DELHI", "state_lgd": 7, "population": 5, "households": 2059}, "geometry": {"type": "Polygon", "coordinates": [[[76.97555000000001, 28.532890000000002], [76.97361000000001, 28.529180000000004], [76.97367000000001, 28.52803], [76.97703000000001, 28.52662], [76.97732, 28.525420000000004], [76.97810000000001, 28.521340000000002], [76.97590000000001, 28.518720000000002], [76.97074, 28.515220000000003], [76.96489000000001, 28.512590000000003], [76.95381, 28.50493], [76.94416000000001, 28.50411], [76.95061000000001, 28.512850000000004], [76.95317, 28.520390000000003], [76.95874, 28.52718], [76.96195, 28.535220000000002], [76.96313, 28.534840000000003], [76.96377000000001, 28.53553], [76.96466000000001, 28.536220000000004], [76.96473, 28.538100000000004], [76.96484000000001, 28.538690000000003], [76.96823, 28.54154], [76.97475, 28.539050000000003], [76.97857, 28.536350000000002], [76.97555000000001, 28.532890000000002]]]}}, {"id": "4", "type": "Feature", "properties": {"village_name": "Badhosra", "vil_lgd": 64032, "district_name": "South West", "dist_lgd": 84, "subdistrict_name": "Kapeshera", "sdcode": 6085, "block_name": "South West", "block_lgd": 6.0, "gp_name": "NA", "state_name": "DELHI", "state_lgd": 7, "population": 5, "households": 1946}, "geometry": {"type": "Polygon", "coordinates": [[[76.98154000000001, 28.53609], [76.99511000000001, 28.53158], [76.99757000000001, 28.529780000000002], [76.99768, 28.52858], [76.99899, 28.526670000000003], [76.99568000000001, 28.520660000000003], [76.98439, 28.525820000000003], [76.97732, 28.525420000000004], [76.97703000000001, 28.52662], [76.97367000000001, 28.52803], [76.97361000000001, 28.529180000000004], [76.97555000000001, 28.532890000000002], [76.97857, 28.536350000000002], [76.97966000000001, 28.535390000000003], [76.98154000000001, 28.53609]]]}}, {"id": "5", "type": "Feature", "properties": {"village_name": "Nanak Heri", "vil_lgd": 64033, "district_name": "South West", "dist_lgd": 84, "subdistrict_name": "Kapeshera", "sdcode": 6085, "block_name": "South West", "block_lgd": 6.0, "gp_name": "NA", "state_name": "DELHI", "state_lgd": 7, "population": 5, "households": 827}, "geometry": {"type": "Polygon", "coordinates": [[[76.99656, 28.51976], [76.99526, 28.516920000000002], [76.99403000000001, 28.51705], [76.99052, 28.513540000000003], [76.98275000000001, 28.51714], [76.97810000000001, 28.521340000000002], [76.97732, 28.525420000000004], [76.98439, 28.525820000000003], [76.99568000000001, 28.520660000000003], [76.99656, 28.51976]]]}}, {"id": "6", "type": "Feature", "properties": {"village_name": "Surera", "vil_lgd": 64008, "district_name": "South West", "dist_lgd": 84, "subdistrict_name": "Najafgarh", "sdcode": 451, "block_name": "South West", "block_lgd": 6.0, "gp_name": "NA", "state_name": "DELHI", "state_lgd": 7, "population": 5, "households": 3468}, "geometry": {"type": "Polygon", "coordinates": [[[76.93854, 28.599180000000004], [76.93997, 28.600430000000003], [76.94130000000001, 28.599850000000004], [76.95461, 28.591250000000002], [76.95063, 28.58707], [76.94436, 28.58321], [76.93924000000001, 28.58435], [76.93912, 28.586440000000003], [76.93662, 28.59364], [76.93484000000001, 28.59353], [76.93163000000001, 28.58884], [76.92593000000001, 28.592180000000003], [76.927, 28.597920000000002], [76.912, 28.603130000000004], [76.91335000000001, 28.604760000000002], [76.91439000000001, 28.608110000000003], [76.92466, 28.606530000000003], [76.92922, 28.604770000000002], [76.93597000000001, 28.600680000000004], [76.93854, 28.599180000000004]]]}}, {"id": "7", "type": "Feature", "properties": {"village_name": "Isa Pur", "vil_lgd": 64020, "district_name": "South West", "dist_lgd": 84, "subdistrict_name": "Najafgarh", "sdcode": 451, "block_name": "South West", "block_lgd": 6.0, "gp_name": "NA", "state_name": "DELHI", "state_lgd": 7, "population": 5, "households": 5056}, "geometry": {"type": "Polygon", "coordinates": [[[76.86312000000001, 28.58518], [76.86487000000001, 28.584030000000002], [76.87221000000001, 28.584400000000002], [76.87934000000001, 28.5834], [76.88205, 28.582590000000003], [76.88134000000001, 28.580900000000003], [76.87475, 28.570110000000003], [76.87457, 28.56839], [76.88435000000001, 28.561000000000003], [76.88518, 28.560270000000003], [76.88465000000001, 28.558600000000002], [76.88631000000001, 28.55421], [76.87469, 28.556540000000002], [76.86673, 28.556540000000002], [76.85603, 28.562490000000004], [76.84641, 28.569380000000002], [76.84089, 28.570870000000003], [76.83896, 28.573140000000002], [76.83966000000001, 28.58254], [76.84527, 28.584390000000003], [76.85704000000001, 28.584830000000004], [76.86312000000001, 28.58518]]]}}, {"id": "8", "type": "Feature", "properties": {"village_name": "Mundhela Khurd", "vil_lgd": 64006, "district_name": "South West", "dist_lgd": 84, "subdistrict_name": "Najafgarh", "sdcode": 451, "block_name": "South West", "block_lgd": 6.0, "gp_name": "NA", "state_name": "DELHI", "state_lgd": 7, "population": 5, "households": 2722}, "geometry": {"type": "Polygon", "coordinates": [[[76.89450000000001, 28.63099], [76.90598, 28.62393], [76.90945, 28.613290000000003], [76.91439000000001, 28.608110000000003], [76.91335000000001, 28.604760000000002], [76.912, 28.603130000000004], [76.90002000000001, 28.60919], [76.89424000000001, 28.613820000000004], [76.8936, 28.614700000000003], [76.8926, 28.614570000000004], [76.89139, 28.612630000000003], [76.8884, 28.614510000000003], [76.88369, 28.61144], [76.87729, 28.608810000000002], [76.88515000000001, 28.628570000000003], [76.88827, 28.631930000000004], [76.89152, 28.63163], [76.89450000000001, 28.63099]]]}}, {"id": "9", "type": "Feature", "properties": {"village_name": "Baqar Garh", "vil_lgd": 64019, "district_name": "South West", "dist_lgd": 84, "subdistrict_name": "Najafgarh", "sdcode": 451, "block_name": "South West", "block_lgd": 6.0, "gp_name": "NA", "state_name": "DELHI", "state_lgd": 7, "population": 6, "households": 637}, "geometry": {"type": "Polygon", "coordinates": [[[76.89396, 28.58828], [76.88597, 28.57964], [76.88134000000001, 28.580900000000003], [76.88205, 28.582590000000003], [76.87934000000001, 28.5834], [76.87221000000001, 28.584400000000002], [76.86487000000001, 28.584030000000002], [76.86312000000001, 28.58518], [76.86784, 28.590410000000002], [76.87207000000001, 28.603030000000004], [76.87877, 28.602050000000002], [76.88397, 28.600170000000002], [76.88526, 28.596420000000002], [76.89032, 28.594730000000002], [76.89538, 28.59167], [76.89396, 28.58828]]]}}, {"id": "10", "type": "Feature", "properties": {"village_name": "Mundhela Kalan", "vil_lgd": 64007, "district_name": "South West", "dist_lgd": 84, "subdistrict_name": "Najafgarh", "sdcode": 451, "block_name": "South West", "block_lgd": 6.0, "gp_name": "NA", "state_name": "DELHI", "state_lgd": 7, "population": 5, "households": 2665}, "geometry": {"type": "Polygon", "coordinates": [[[76.90002000000001, 28.60919], [76.912, 28.603130000000004], [76.90672, 28.597500000000004], [76.90387000000001, 28.59211], [76.89538, 28.59167], [76.89032, 28.594730000000002], [76.88526, 28.596420000000002], [76.88397, 28.600170000000002], [76.87877, 28.602050000000002], [76.87207000000001, 28.603030000000004], [76.87729, 28.608810000000002], [76.88369, 28.61144], [76.8884, 28.614510000000003], [76.89139, 28.612630000000003], [76.8926, 28.614570000000004], [76.8936, 28.614700000000003], [76.89424000000001, 28.613820000000004], [76.90002000000001, 28.60919]]]}}, {"id": "11", "type": "Feature", "properties": {"village_name": "Samas Pur Khalsa", "vil_lgd": 64018, "district_name": "South West", "dist_lgd": 84, "subdistrict_name": "Najafgarh", "sdcode": 451, "block_name": "South West", "block_lgd": 6.0, "gp_name": "NA", "state_name": "DELHI", "state_lgd": 7, "population": 5, "households": 2668}, "geometry": {"type": "Polygon", "coordinates": [[[76.90902000000001, 28.57345], [76.90094, 28.574530000000003], [76.89771, 28.572110000000002], [76.89590000000001, 28.572280000000003], [76.89229, 28.574370000000002], [76.88715, 28.57729], [76.88597, 28.57964], [76.89396, 28.58828], [76.89538, 28.59167], [76.90387000000001, 28.59211], [76.90651000000001, 28.59118], [76.91193000000001, 28.58592], [76.91016, 28.584300000000002], [76.91111000000001, 28.580460000000002], [76.90997, 28.57495], [76.90902000000001, 28.57345]]]}}, {"id": "12", "type": "Feature", "properties": {"village_name": "Malik Pur Zer Najafgarh", "vil_lgd": 64022, "district_name": "South West", "dist_lgd": 84, "subdistrict_name": "Najafgarh", "sdcode": 451, "block_name": "South West", "block_lgd": 6.0, "gp_name": "NA", "state_name": "DELHI", "state_lgd": 7, "population": 5, "households": 2795}, "geometry": {"type": "Polygon", "coordinates": [[[76.9043, 28.54558], [76.90038000000001, 28.546770000000002], [76.89838, 28.546390000000002], [76.88633, 28.551340000000003], [76.88631000000001, 28.55421], [76.88465000000001, 28.558600000000002], [76.88518, 28.560270000000003], [76.88435000000001, 28.561000000000003], [76.88441, 28.561940000000003], [76.88465000000001, 28.57018], [76.88715, 28.57729], [76.89229, 28.574370000000002], [76.89142000000001, 28.570290000000004], [76.89184, 28.56679], [76.89582, 28.56079], [76.90099000000001, 28.55834], [76.90872, 28.556350000000002], [76.90523, 28.547710000000002], [76.9043, 28.54558]]]}}, {"id": "13", "type": "Feature", "properties": {"village_name": "Qazi Pur", "vil_lgd": 64021, "district_name": "South West", "dist_lgd": 84, "subdistrict_name": "Najafgarh", "sdcode": 451, "block_name": "South West", "block_lgd": 6.0, "gp_name": "NA", "state_name": "DELHI", "state_lgd": 7, "population": 5, "households": 1417}, "geometry": {"type": "Polygon", "coordinates": [[[76.88435000000001, 28.561000000000003], [76.87457, 28.56839], [76.87475, 28.570110000000003], [76.88134000000001, 28.580900000000003], [76.88597, 28.57964], [76.88715, 28.57729], [76.88465000000001, 28.57018], [76.88441, 28.561940000000003], [76.88435000000001, 28.561000000000003]]]}}, {"id": "14", "type": "Feature", "properties": {"village_name": "Dhansa", "vil_lgd": 64041, "district_name": "South West", "dist_lgd": 84, "subdistrict_name": "Najafgarh", "sdcode": 451, "block_name": "South West", "block_lgd": 6.0, "gp_name": "NA", "state_name": "DELHI", "state_lgd": 7, "population": 5, "households": 6834}, "geometry": {"type": "Polygon", "coordinates": [[[76.87469, 28.556540000000002], [76.88631000000001, 28.55421], [76.88633, 28.551340000000003], [76.87891, 28.54238], [76.87891, 28.539630000000002], [76.87199000000001, 28.533410000000003], [76.87141000000001, 28.533020000000004], [76.86742000000001, 28.535330000000002], [76.86608000000001, 28.541110000000003], [76.86356, 28.544140000000002], [76.84535000000001, 28.550380000000004], [76.84518000000001, 28.551990000000004], [76.84248000000001, 28.55619], [76.8425, 28.56303], [76.84069000000001, 28.56924], [76.84089, 28.570870000000003], [76.84641, 28.569380000000002], [76.85603, 28.562490000000004], [76.86673, 28.556540000000002], [76.87469, 28.556540000000002]]]}}, {"id": "15", "type": "Feature", "properties": {"village_name": "Pindwala Kalan", "vil_lgd": 64015, "district_name": "South West", "dist_lgd": 84, "subdistrict_name": "Kapeshera", "sdcode": 6085, "block_name": "South West", "block_lgd": 6.0, "gp_name": "NA", "state_name": "DELHI", "state_lgd": 7, "population": 5, "households": 3779}, "geometry": {"type": "Polygon", "coordinates": [[[76.95702, 28.551320000000004], [76.95082000000001, 28.553390000000004], [76.94975000000001, 28.554140000000004], [76.94761000000001, 28.562910000000002], [76.94562, 28.56642], [76.94544, 28.567950000000003], [76.94737, 28.574330000000003], [76.95229, 28.575270000000003], [76.95799000000001, 28.57515], [76.96012, 28.57439], [76.96664000000001, 28.570420000000002], [76.96893, 28.567590000000003], [76.96117000000001, 28.561960000000003], [76.95725, 28.55319], [76.95702, 28.551320000000004]]]}}, {"id": "16", "type": "Feature", "properties": {"village_name": "Daulat Pur", "vil_lgd": 64027, "district_name": "South West", "dist_lgd": 84, "subdistrict_name": "Kapeshera", "sdcode": 6085, "block_name": "South West", "block_lgd": 6.0, "gp_name": "NA", "state_name": "DELHI", "state_lgd": 7, "population": 5, "households": 1985}, "geometry": {"type": "Polygon", "coordinates": [[[76.96473, 28.538100000000004], [76.95645, 28.539610000000003], [76.95446000000001, 28.540550000000003], [76.95168000000001, 28.543490000000002], [76.94355, 28.545], [76.94355, 28.546120000000002], [76.95082000000001, 28.553390000000004], [76.95702, 28.551320000000004], [76.96919000000001, 28.54765], [76.96823, 28.54154], [76.96484000000001, 28.538690000000003], [76.96473, 28.538100000000004]]]}}, {"id": "17", "type": "Feature", "properties": {"village_name": "Kharkhari Rond", "vil_lgd": 64025, "district_name": "South West", "dist_lgd": 84, "subdistrict_name": "Kapeshera", "sdcode": 6085, "block_name": "South West", "block_lgd": 6.0, "gp_name": "NA", "state_name": "DELHI", "state_lgd": 7, "population": 6, "households": 1017}, "geometry": {"type": "Polygon", "coordinates": [[[76.94761000000001, 28.562910000000002], [76.94975000000001, 28.554140000000004], [76.93706, 28.55721], [76.93528, 28.559530000000002], [76.9376, 28.566000000000003], [76.94095, 28.566070000000003], [76.94237000000001, 28.566070000000003], [76.94544, 28.567950000000003], [76.94562, 28.56642], [76.94761000000001, 28.562910000000002]]]}}, {"id": "18", "type": "Feature", "properties": {"village_name": "Asalat Pur Khawad", "vil_lgd": 64035, "district_name": "South West", "dist_lgd": 84, "subdistrict_name": "Kapeshera", "sdcode": 6085, "block_name": "South West", "block_lgd": 6.0, "gp_name": "NA", "state_name": "DELHI", "state_lgd": 7, "population": 4, "households": 422}, "geometry": {"type": "Polygon", "coordinates": [[[76.96313, 28.534840000000003], [76.96195, 28.535220000000002], [76.95624000000001, 28.53591], [76.9484, 28.538110000000003], [76.94013000000001, 28.541610000000002], [76.93706, 28.542740000000002], [76.93706, 28.543560000000003], [76.93007, 28.547], [76.93057, 28.549070000000004], [76.93114, 28.550010000000004], [76.93449000000001, 28.548880000000004], [76.93934, 28.545690000000004], [76.94355, 28.545], [76.95168000000001, 28.543490000000002], [76.95446000000001, 28.540550000000003], [76.95645, 28.539610000000003], [76.96473, 28.538100000000004], [76.96466000000001, 28.536220000000004], [76.96377000000001, 28.53553], [76.96313, 28.534840000000003]]]}}, {"id": "19", "type": "Feature", "properties": {"village_name": "Hasan Pur", "vil_lgd": 64026, "district_name": "South West", "dist_lgd": 84, "subdistrict_name": "Kapeshera", "sdcode": 6085, "block_name": "South West", "block_lgd": 6.0, "gp_name": "NA", "state_name": "DELHI", "state_lgd": 7, "population": 5, "households": 1197}, "geometry": {"type": "Polygon", "coordinates": [[[76.94355, 28.545], [76.93934, 28.545690000000004], [76.93449000000001, 28.548880000000004], [76.93114, 28.550010000000004], [76.93706, 28.55721], [76.94975000000001, 28.554140000000004], [76.95082000000001, 28.553390000000004], [76.94355, 28.546120000000002], [76.94355, 28.545]]]}}, {"id": "20", "type": "Feature", "properties": {"village_name": "Kangan Heri", "vil_lgd": 64029, "district_name": "South West", "dist_lgd": 84, "subdistrict_name": "Kapeshera", "sdcode": 6085, "block_name": "South West", "block_lgd": 6.0, "gp_name": "NA", "state_name": "DELHI", "state_lgd": 7, "population": 5, "households": 3829}, "geometry": {"type": "Polygon", "coordinates": [[[76.99028000000001, 28.547590000000003], [76.99341000000001, 28.54784], [76.99874000000001, 28.546840000000003], [77.00168000000001, 28.545170000000002], [77.00799, 28.544150000000002], [77.00724000000001, 28.541200000000003], [77.00481, 28.540190000000003], [77.00215, 28.53421], [77.00042, 28.533530000000003], [77.00047, 28.532080000000004], [77.0019, 28.531260000000003], [76.99768, 28.52858], [76.99757000000001, 28.529780000000002], [76.99511000000001, 28.53158], [76.98154000000001, 28.53609], [76.97966000000001, 28.535390000000003], [76.97857, 28.536350000000002], [76.97475, 28.539050000000003], [76.96823, 28.54154], [76.96919000000001, 28.54765], [76.97069, 28.548650000000002], [76.97867000000001, 28.554000000000002], [76.97953000000001, 28.552850000000003], [76.98334000000001, 28.552930000000003], [76.98666, 28.551600000000004], [76.99028000000001, 28.547590000000003]]]}}, {"id": "21", "type": "Feature", "properties": {"village_name": "Rewla Kham Pur", "vil_lgd": 64014, "district_name": "South West", "dist_lgd": 84, "subdistrict_name": "Kapeshera", "sdcode": 6085, "block_name": "South West", "block_lgd": 6.0, "gp_name": "NA", "state_name": "DELHI", "state_lgd": 7, "population": 5, "households": 2985}, "geometry": {"type": "Polygon", "coordinates": [[[76.99858, 28.58104], [76.99849, 28.579880000000003], [77.00053000000001, 28.57758], [76.9992, 28.575080000000003], [76.99379, 28.565710000000003], [76.98856, 28.552930000000003], [76.98666, 28.551600000000004], [76.98334000000001, 28.552930000000003], [76.97953000000001, 28.552850000000003], [76.97867000000001, 28.554000000000002], [76.97882000000001, 28.555920000000004], [76.97734000000001, 28.55666], [76.97645, 28.55835], [76.97235, 28.560170000000003], [76.97249000000001, 28.562800000000003], [76.96975, 28.565400000000004], [76.96893, 28.567590000000003], [76.9705, 28.567970000000003], [76.98683000000001, 28.574920000000002], [76.99083, 28.57833], [76.99364000000001, 28.58238], [76.99687, 28.581300000000002], [76.99858, 28.58104]]]}}, {"id": "22", "type": "Feature", "properties": {"village_name": "Paprawat", "vil_lgd": 64010, "district_name": "South West", "dist_lgd": 84, "subdistrict_name": "Kapeshera", "sdcode": 6085, "block_name": "South West", "block_lgd": 6.0, "gp_name": "NA", "state_name": "DELHI", "state_lgd": 7, "population": 5, "households": 4412}, "geometry": {"type": "Polygon", "coordinates": [[[76.96893, 28.567590000000003], [76.96664000000001, 28.570420000000002], [76.96012, 28.57439], [76.96725, 28.582320000000003], [76.97182000000001, 28.589080000000003], [76.97876000000001, 28.593840000000004], [76.98988, 28.583990000000004], [76.99364000000001, 28.58238], [76.99083, 28.57833], [76.98683000000001, 28.574920000000002], [76.9705, 28.567970000000003], [76.96893, 28.567590000000003]]]}}, {"id": "23", "type": "Feature", "properties": {"village_name": "Pindwala Khurd", "vil_lgd": 64028, "district_name": "South West", "dist_lgd": 84, "subdistrict_name": "Kapeshera", "sdcode": 6085, "block_name": "South West", "block_lgd": 6.0, "gp_name": "NA", "state_name": "DELHI", "state_lgd": 7, "population": 5, "households": 1898}, "geometry": {"type": "Polygon", "coordinates": [[[76.96919000000001, 28.54765], [76.95702, 28.551320000000004], [76.95725, 28.55319], [76.96117000000001, 28.561960000000003], [76.96893, 28.567590000000003], [76.96975, 28.565400000000004], [76.97249000000001, 28.562800000000003], [76.97235, 28.560170000000003], [76.97645, 28.55835], [76.97734000000001, 28.55666], [76.97882000000001, 28.555920000000004], [76.97867000000001, 28.554000000000002], [76.97069, 28.548650000000002], [76.96919000000001, 28.54765]]]}}, {"id": "24", "type": "Feature", "properties": {"village_name": "Darya Pur Khurd", "vil_lgd": 64023, "district_name": "South West", "dist_lgd": 84, "subdistrict_name": "Kapeshera", "sdcode": 6085, "block_name": "South West", "block_lgd": 6.0, "gp_name": "NA", "state_name": "DELHI", "state_lgd": 7, "population": 5, "households": 1858}, "geometry": {"type": "Polygon", "coordinates": [[[76.91035000000001, 28.544190000000004], [76.9043, 28.54558], [76.90523, 28.547710000000002], [76.90872, 28.556350000000002], [76.90929000000001, 28.55704], [76.92248000000001, 28.555100000000003], [76.92284000000001, 28.553610000000003], [76.91822, 28.546540000000004], [76.91052, 28.544890000000002], [76.91035000000001, 28.544190000000004]]]}}, {"id": "25", "type": "Feature", "properties": {"village_name": "Goman Hera", "vil_lgd": 64038, "district_name": "South West", "dist_lgd": 84, "subdistrict_name": "Kapeshera", "sdcode": 6085, "block_name": "South West", "block_lgd": 6.0, "gp_name": "NA", "state_name": "DELHI", "state_lgd": 7, "population": 5, "households": 4256}, "geometry": {"type": "Polygon", "coordinates": [[[76.93007, 28.547], [76.93706, 28.543560000000003], [76.93706, 28.542740000000002], [76.93418000000001, 28.536730000000002], [76.93057, 28.532140000000002], [76.92991, 28.526380000000003], [76.932, 28.52429], [76.93342000000001, 28.520110000000003], [76.93732, 28.514260000000004], [76.93487, 28.508940000000003], [76.92736000000001, 28.510430000000003], [76.91717000000001, 28.5222], [76.91089000000001, 28.52755], [76.91498, 28.533310000000004], [76.9107, 28.54024], [76.91035000000001, 28.544190000000004], [76.91052, 28.544890000000002], [76.91822, 28.546540000000004], [76.92284000000001, 28.553610000000003], [76.92792, 28.5513], [76.93057, 28.549070000000004], [76.93007, 28.547]]]}}, {"id": "26", "type": "Feature", "properties": {"village_name": "Shikar Pur", "vil_lgd": 64036, "district_name": "South West", "dist_lgd": 84, "subdistrict_name": "Kapeshera", "sdcode": 6085, "block_name": "South West", "block_lgd": 6.0, "gp_name": "NA", "state_name": "DELHI", "state_lgd": 7, "population": 6, "households": 2842}, "geometry": {"type": "Polygon", "coordinates": [[[76.95874, 28.52718], [76.95317, 28.520390000000003], [76.95061000000001, 28.512850000000004], [76.94416000000001, 28.50411], [76.94090000000001, 28.504990000000003], [76.93487, 28.508940000000003], [76.93732, 28.514260000000004], [76.93856000000001, 28.517190000000003], [76.94055, 28.527210000000004], [76.93808, 28.530800000000003], [76.93808, 28.533230000000003], [76.94013000000001, 28.541610000000002], [76.9484, 28.538110000000003], [76.95624000000001, 28.53591], [76.96195, 28.535220000000002], [76.95874, 28.52718]]]}}, {"id": "27", "type": "Feature", "properties": {"village_name": "Ghalib Pur", "vil_lgd": 64042, "district_name": "South West", "dist_lgd": 84, "subdistrict_name": "Najafgarh", "sdcode": 451, "block_name": "South West", "block_lgd": 6.0, "gp_name": "NA", "state_name": "DELHI", "state_lgd": 7, "population": 5, "households": 1143}, "geometry": {"type": "Polygon", "coordinates": [[[76.89083000000001, 28.524870000000004], [76.88959000000001, 28.519940000000002], [76.88731, 28.51911], [76.88689000000001, 28.519890000000004], [76.88711, 28.520590000000002], [76.87701000000001, 28.524420000000003], [76.87456, 28.527020000000004], [76.87288000000001, 28.530960000000004], [76.87342000000001, 28.532280000000004], [76.87199000000001, 28.533410000000003], [76.87891, 28.539630000000002], [76.88427, 28.536400000000004], [76.88883000000001, 28.531720000000004], [76.89359, 28.530640000000002], [76.89083000000001, 28.524870000000004]]]}}, {"id": "28", "type": "Feature", "properties": {"village_name": "Jhuljhuli", "vil_lgd": 64039, "district_name": "South West", "dist_lgd": 84, "subdistrict_name": "Najafgarh", "sdcode": 451, "block_name": "South West", "block_lgd": 6.0, "gp_name": "NA", "state_name": "DELHI", "state_lgd": 7, "population": 5, "households": 1662}, "geometry": {"type": "Polygon", "coordinates": [[[76.90766, 28.527710000000003], [76.89473000000001, 28.53273], [76.89330000000001, 28.53356], [76.89838, 28.546390000000002], [76.90038000000001, 28.546770000000002], [76.9043, 28.54558], [76.91035000000001, 28.544190000000004], [76.9107, 28.54024], [76.91498, 28.533310000000004], [76.91089000000001, 28.52755], [76.90766, 28.527710000000003]]]}}, {"id": "29", "type": "Feature", "properties": {"village_name": "Sarang Pur", "vil_lgd": 64040, "district_name": "South West", "dist_lgd": 84, "subdistrict_name": "Najafgarh", "sdcode": 451, "block_name": "South West", "block_lgd": 6.0, "gp_name": "NA", "state_name": "DELHI", "state_lgd": 7, "population": 5, "households": 1057}, "geometry": {"type": "Polygon", "coordinates": [[[76.89359, 28.530640000000002], [76.88883000000001, 28.531720000000004], [76.88427, 28.536400000000004], [76.87891, 28.539630000000002], [76.87891, 28.54238], [76.88633, 28.551340000000003], [76.89838, 28.546390000000002], [76.89330000000001, 28.53356], [76.89473000000001, 28.53273], [76.89359, 28.530640000000002]]]}}, {"id": "30", "type": "Feature", "properties": {"village_name": "Deorala", "vil_lgd": 64044, "district_name": "South West", "dist_lgd": 84, "subdistrict_name": "Kapeshera", "sdcode": 6085, "block_name": "South West", "block_lgd": 6.0, "gp_name": "NA", "state_name": "DELHI", "state_lgd": 7, "population": 6, "households": 524}, "geometry": {"type": "Polygon", "coordinates": [[[76.90239000000001, 28.508950000000002], [76.90003, 28.509380000000004], [76.89753, 28.508360000000003], [76.89143, 28.500880000000002], [76.88393, 28.500890000000002], [76.88433, 28.501890000000003], [76.87961, 28.50477], [76.88486, 28.5161], [76.89112, 28.51284], [76.89188, 28.513430000000003], [76.89378, 28.512590000000003], [76.89711000000001, 28.516440000000003], [76.90678000000001, 28.513090000000002], [76.90239000000001, 28.508950000000002]]]}}, {"id": "31", "type": "Feature", "properties": {"village_name": "Khera Dabar", "vil_lgd": 64017, "district_name": "South West", "dist_lgd": 84, "subdistrict_name": "Najafgarh", "sdcode": 451, "block_name": "South West", "block_lgd": 6.0, "gp_name": "NA", "state_name": "DELHI", "state_lgd": 7, "population": 5, "households": 2723}, "geometry": {"type": "Polygon", "coordinates": [[[76.93924000000001, 28.58435], [76.93888000000001, 28.577050000000003], [76.93698, 28.57224], [76.94095, 28.566070000000003], [76.9376, 28.566000000000003], [76.93196, 28.567320000000002], [76.92783, 28.569570000000002], [76.92155000000001, 28.57477], [76.91542000000001, 28.581350000000004], [76.91785, 28.584450000000004], [76.91927000000001, 28.58435], [76.92201, 28.58592], [76.92664, 28.585600000000003], [76.92819, 28.586440000000003], [76.93163000000001, 28.58884], [76.93484000000001, 28.59353], [76.93662, 28.59364], [76.93912, 28.586440000000003], [76.93924000000001, 28.58435]]]}}, {"id": "32", "type": "Feature", "properties": {"village_name": "Kharkhari Jatmal", "vil_lgd": 64016, "district_name": "South West", "dist_lgd": 84, "subdistrict_name": "Kapeshera", "sdcode": 6085, "block_name": "South West", "block_lgd": 6.0, "gp_name": "NA", "state_name": "DELHI", "state_lgd": 7, "population": 5, "households": 1284}, "geometry": {"type": "Polygon", "coordinates": [[[76.95343000000001, 28.582010000000004], [76.95229, 28.575270000000003], [76.94737, 28.574330000000003], [76.94544, 28.567950000000003], [76.94237000000001, 28.566070000000003], [76.94095, 28.566070000000003], [76.93698, 28.57224], [76.93888000000001, 28.577050000000003], [76.93924000000001, 28.58435], [76.94436, 28.58321], [76.95063, 28.58707], [76.95291, 28.583710000000004], [76.95343000000001, 28.582010000000004]]]}}, {"id": "33", "type": "Feature", "properties": {"village_name": "Kharkhari Nahar", "vil_lgd": 64009, "district_name": "South West", "dist_lgd": 84, "subdistrict_name": "Najafgarh", "sdcode": 451, "block_name": "South West", "block_lgd": 6.0, "gp_name": "NA", "state_name": "DELHI", "state_lgd": 7, "population": 4, "households": 1328}, "geometry": {"type": "Polygon", "coordinates": [[[76.96012, 28.57439], [76.95799000000001, 28.57515], [76.95229, 28.575270000000003], [76.95343000000001, 28.582010000000004], [76.95291, 28.583710000000004], [76.95063, 28.58707], [76.95461, 28.591250000000002], [76.95699, 28.592670000000002], [76.96611, 28.5895], [76.96117000000001, 28.576890000000002], [76.96012, 28.57439]]]}}, {"id": "34", "type": "Feature", "properties": {"village_name": "Sher Pur Deri", "vil_lgd": 64024, "district_name": "South West", "dist_lgd": 84, "subdistrict_name": "Najafgarh", "sdcode": 451, "block_name": "South West", "block_lgd": 6.0, "gp_name": "NA", "state_name": "DELHI", "state_lgd": 7, "population": 0, "households": 0}, "geometry": {"type": "Polygon", "coordinates": [[[76.93057, 28.549070000000004], [76.92792, 28.5513], [76.92284000000001, 28.553610000000003], [76.92248000000001, 28.555100000000003], [76.92305, 28.55685], [76.93061, 28.564680000000003], [76.93196, 28.567320000000002], [76.9376, 28.566000000000003], [76.93528, 28.559530000000002], [76.93706, 28.55721], [76.93114, 28.550010000000004], [76.93057, 28.549070000000004]]]}}, {"id": "35", "type": "Feature", "properties": {"village_name": "Jain Pur Un Inhabited", "vil_lgd": 64037, "district_name": "South West", "dist_lgd": 84, "subdistrict_name": "Kapeshera", "sdcode": 6085, "block_name": "South West", "block_lgd": 6.0, "gp_name": "NA", "state_name": "DELHI", "state_lgd": 7, "population": 0, "households": 0}, "geometry": {"type": "Polygon", "coordinates": [[[76.93732, 28.514260000000004], [76.93342000000001, 28.520110000000003], [76.932, 28.52429], [76.92991, 28.526380000000003], [76.93057, 28.532140000000002], [76.93418000000001, 28.536730000000002], [76.93706, 28.542740000000002], [76.94013000000001, 28.541610000000002], [76.93808, 28.533230000000003], [76.93808, 28.530800000000003], [76.94055, 28.527210000000004], [76.93856000000001, 28.517190000000003], [76.93732, 28.514260000000004]]]}}, {"id": "36", "type": "Feature", "properties": {"village_name": "Jharoda Kalan CT", "vil_lgd": 64045, "district_name": "South West", "dist_lgd": 84, "subdistrict_name": "Najafgarh", "sdcode": 451, "block_name": "", "block_lgd": null, "gp_name": "", "state_name": "DELHI", "state_lgd": 7, "population": 5, "households": 19578}, "geometry": {"type": "Polygon", "coordinates": [[[76.95212000000001, 28.66955], [76.95343000000001, 28.66739], [76.96269000000001, 28.661360000000002], [76.97006, 28.658170000000002], [76.96849, 28.65388], [76.95908, 28.63828], [76.95917, 28.634860000000003], [76.9586, 28.633860000000002], [76.95185000000001, 28.6306], [76.94516, 28.63305], [76.93814, 28.636360000000003], [76.93100000000001, 28.64307], [76.92507, 28.65002], [76.93071, 28.658350000000002], [76.93349, 28.6655], [76.93502000000001, 28.667530000000003], [76.94991, 28.66953], [76.95212000000001, 28.66955]]]}}, {"id": "37", "type": "Feature", "properties": {"village_name": "Mitraon CT", "vil_lgd": 64049, "district_name": "South West", "dist_lgd": 84, "subdistrict_name": "Najafgarh", "sdcode": 451, "block_name": "", "block_lgd": null, "gp_name": "", "state_name": "DELHI", "state_lgd": 7, "population": 5, "households": 6512}, "geometry": {"type": "Polygon", "coordinates": [[[76.95865, 28.618450000000003], [76.96502000000001, 28.6137], [76.97053000000001, 28.61119], [76.97405, 28.61053], [76.97566, 28.614610000000003], [76.97662000000001, 28.614610000000003], [76.97662000000001, 28.613200000000003], [76.97405, 28.60827], [76.97235, 28.607450000000004], [76.97107000000001, 28.602690000000003], [76.96779000000001, 28.602690000000003], [76.96351, 28.603440000000003], [76.96244, 28.602750000000004], [76.95699, 28.592670000000002], [76.95461, 28.591250000000002], [76.94130000000001, 28.599850000000004], [76.93997, 28.600430000000003], [76.93854, 28.599180000000004], [76.93597000000001, 28.600680000000004], [76.92922, 28.604770000000002], [76.92466, 28.606530000000003], [76.93094, 28.616460000000004], [76.93464, 28.6183], [76.94353000000001, 28.616200000000003], [76.94524000000001, 28.619290000000003], [76.94724000000001, 28.620790000000003], [76.95513000000001, 28.61887], [76.95865, 28.618450000000003]]]}}, {"id": "38", "type": "Feature", "properties": {"village_name": "Kair CT", "vil_lgd": 64046, "district_name": "South West", "dist_lgd": 84, "subdistrict_name": "Najafgarh", "sdcode": 451, "block_name": "", "block_lgd": null, "gp_name": "", "state_name": "DELHI", "state_lgd": 7, "population": 5, "households": 4074}, "geometry": {"type": "Polygon", "coordinates": [[[76.92422, 28.628120000000003], [76.92742000000001, 28.623540000000002], [76.93464, 28.6183], [76.93094, 28.616460000000004], [76.92466, 28.606530000000003], [76.91439000000001, 28.608110000000003], [76.90945, 28.613290000000003], [76.90598, 28.62393], [76.91435000000001, 28.632320000000004], [76.92097000000001, 28.631050000000002], [76.92422, 28.628120000000003]]]}}, {"id": "39", "type": "Feature", "properties": {"village_name": "Ujwa CT", "vil_lgd": 64048, "district_name": "South West", "dist_lgd": 84, "subdistrict_name": "Najafgarh", "sdcode": 451, "block_name": "", "block_lgd": null, "gp_name": "", "state_name": "DELHI", "state_lgd": 7, "population": 5, "households": 4856}, "geometry": {"type": "Polygon", "coordinates": [[[76.92783, 28.569570000000002], [76.93196, 28.567320000000002], [76.93061, 28.564680000000003], [76.92305, 28.55685], [76.92248000000001, 28.555100000000003], [76.90929000000001, 28.55704], [76.90872, 28.556350000000002], [76.90099000000001, 28.55834], [76.89582, 28.56079], [76.89184, 28.56679], [76.89142000000001, 28.570290000000004], [76.89229, 28.574370000000002], [76.89590000000001, 28.572280000000003], [76.89771, 28.572110000000002], [76.90094, 28.574530000000003], [76.90902000000001, 28.57345], [76.90997, 28.57495], [76.91111000000001, 28.580460000000002], [76.91016, 28.584300000000002], [76.91193000000001, 28.58592], [76.91542000000001, 28.581350000000004], [76.92155000000001, 28.57477], [76.92783, 28.569570000000002]]]}}, {"id": "40", "type": "Feature", "properties": {"village_name": "Jaffar Pur Kalan CT", "vil_lgd": 64047, "district_name": "South West", "dist_lgd": 84, "subdistrict_name": "Najafgarh", "sdcode": 451, "block_name": "", "block_lgd": null, "gp_name": "", "state_name": "DELHI", "state_lgd": 7, "population": 5, "households": 6573}, "geometry": {"type": "Polygon", "coordinates": [[[76.92664, 28.585600000000003], [76.92201, 28.58592], [76.91927000000001, 28.58435], [76.91785, 28.584450000000004], [76.91542000000001, 28.581350000000004], [76.91193000000001, 28.58592], [76.90651000000001, 28.59118], [76.90387000000001, 28.59211], [76.90672, 28.597500000000004], [76.912, 28.603130000000004], [76.927, 28.597920000000002], [76.92593000000001, 28.592180000000003], [76.93163000000001, 28.58884], [76.92819, 28.586440000000003], [76.92664, 28.585600000000003]]]}}, {"id": "41", "type": "Feature", "properties": {"village_name": "Khera CT", "vil_lgd": 64050, "district_name": "South West", "dist_lgd": 84, "subdistrict_name": "Najafgarh", "sdcode": 451, "block_name": "", "block_lgd": null, "gp_name": "", "state_name": "DELHI", "state_lgd": 7, "population": 5, "households": 7220}, "geometry": {"type": "Polygon", "coordinates": [[[76.97107000000001, 28.602690000000003], [76.97385000000001, 28.601560000000003], [76.97613000000001, 28.599500000000003], [76.97855000000001, 28.595740000000003], [76.97876000000001, 28.593840000000004], [76.97182000000001, 28.589080000000003], [76.96725, 28.582320000000003], [76.96012, 28.57439], [76.96117000000001, 28.576890000000002], [76.96611, 28.5895], [76.95699, 28.592670000000002], [76.96244, 28.602750000000004], [76.96351, 28.603440000000003], [76.96779000000001, 28.602690000000003], [76.97107000000001, 28.602690000000003]]]}}, {"id": "42", "type": "Feature", "properties": {"village_name": "South Delhi Municipal Corporation", "vil_lgd": 276402, "district_name": "South West", "dist_lgd": 84, "subdistrict_name": "Kapeshera", "sdcode": 6085, "block_name": "", "block_lgd": 0.0, "gp_name": "", "state_name": "DELHI", "state_lgd": 7, "population": 4, "households": 388412}, "geometry": {"type": "Polygon", "coordinates": [[[77.04973000000001, 28.58573], [77.05657000000001, 28.58022], [77.05657000000001, 28.576380000000004], [77.05885, 28.573790000000002], [77.05877000000001, 28.571460000000002], [77.05067000000001, 28.558950000000003], [77.06118000000001, 28.55261], [77.07054000000001, 28.5482], [77.07130000000001, 28.543840000000003], [77.07919000000001, 28.540640000000003], [77.08892, 28.53853], [77.08675000000001, 28.535320000000002], [77.08558000000001, 28.531760000000002], [77.08138000000001, 28.53158], [77.07902, 28.530140000000003], [77.07432, 28.524310000000003], [77.07224000000001, 28.520260000000004], [77.07143, 28.517650000000003], [77.06942000000001, 28.515100000000004], [77.06136000000001, 28.51893], [77.05908000000001, 28.521790000000003], [77.05531, 28.524350000000002], [77.05286000000001, 28.52379], [77.04835, 28.52089], [77.04439, 28.523020000000002], [77.04344, 28.524720000000002], [77.03195000000001, 28.5313], [77.02405, 28.532950000000003], [77.01769, 28.53741], [77.01666, 28.53902], [77.01345, 28.5405], [77.00981, 28.539920000000002], [77.00724000000001, 28.541200000000003], [77.00799, 28.544150000000002], [77.00989000000001, 28.54549], [77.01179, 28.545740000000002], [77.01464, 28.548910000000003], [77.01483, 28.551750000000002], [77.01797, 28.55375], [77.02035000000001, 28.556680000000004], [77.02035000000001, 28.565610000000003], [77.02273000000001, 28.5667], [77.02482, 28.5682], [77.02748000000001, 28.56895], [77.03290000000001, 28.572960000000002], [77.03166, 28.577640000000002], [77.03214000000001, 28.57897], [77.03233, 28.580470000000002], [77.0368, 28.580810000000003], [77.03737000000001, 28.582810000000002], [77.04136000000001, 28.585820000000002], [77.04459, 28.58724], [77.04554, 28.586740000000002], [77.04973000000001, 28.58573]]]}}, {"id": "43", "type": "Feature", "properties": {"village_name": "South Delhi Municipal Corporation", "vil_lgd": 276402, "district_name": "South West", "dist_lgd": 84, "subdistrict_name": "Dwarka", "sdcode": 6086, "block_name": "", "block_lgd": 0.0, "gp_name": "", "state_name": "DELHI", "state_lgd": 7, "population": 4, "households": 1027222}, "geometry": {"type": "Polygon", "coordinates": [[[76.98678000000001, 28.61754], [76.99058000000001, 28.62113], [76.99123, 28.620700000000003], [76.99486, 28.618360000000003], [77.01215, 28.614500000000003], [77.01649, 28.612880000000004], [77.01779, 28.615280000000002], [77.02195, 28.618090000000002], [77.02251000000001, 28.620970000000003], [77.03049, 28.619030000000002], [77.03401000000001, 28.616600000000002], [77.03282, 28.615420000000004], [77.03263000000001, 28.61388], [77.03632, 28.604000000000003], [77.04481000000001, 28.60113], [77.0518, 28.597230000000003], [77.0554, 28.596220000000002], [77.05846000000001, 28.598250000000004], [77.05864000000001, 28.599410000000002], [77.05981000000001, 28.59842], [77.06194, 28.59963], [77.05233000000001, 28.607450000000004], [77.05489, 28.611680000000003], [77.05183000000001, 28.616300000000003], [77.05312, 28.61831], [77.06119000000001, 28.617760000000004], [77.06409000000001, 28.62123], [77.07956, 28.61201], [77.0805, 28.613780000000002], [77.08638, 28.615450000000003], [77.0874, 28.616970000000002], [77.08954, 28.618070000000003], [77.09559, 28.616500000000002], [77.10394000000001, 28.61276], [77.10277, 28.606260000000002], [77.10195, 28.606340000000003], [77.10193000000001, 28.605020000000003], [77.09883, 28.601020000000002], [77.10033, 28.599890000000002], [77.09970000000001, 28.598760000000002], [77.10324, 28.597420000000003], [77.10263, 28.596300000000003], [77.10021, 28.594920000000002], [77.09803000000001, 28.59119], [77.09624000000001, 28.591430000000003], [77.09609, 28.58808], [77.08114, 28.571180000000002], [77.07507000000001, 28.573680000000003], [77.06946, 28.574930000000002], [77.06782000000001, 28.573760000000004], [77.06558000000001, 28.56978], [77.05877000000001, 28.571460000000002], [77.05885, 28.573790000000002], [77.05657000000001, 28.576380000000004], [77.05657000000001, 28.58022], [77.04973000000001, 28.58573], [77.04554, 28.586740000000002], [77.04459, 28.58724], [77.04136000000001, 28.585820000000002], [77.03737000000001, 28.582810000000002], [77.0368, 28.580810000000003], [77.03233, 28.580470000000002], [77.03214000000001, 28.57897], [77.02948, 28.57897], [77.02206000000001, 28.58123], [77.02035000000001, 28.58256], [77.01750000000001, 28.583060000000003], [77.01664000000001, 28.584310000000002], [77.01769, 28.590740000000004], [77.01683000000001, 28.591490000000004], [77.01265000000001, 28.58949], [77.01008, 28.59016], [77.00989000000001, 28.591580000000004], [77.01094, 28.594420000000003], [77.01388, 28.595750000000002], [77.01493, 28.59634], [77.0155, 28.598000000000003], [77.01531, 28.599590000000003], [77.01331, 28.601840000000003], [77.00970000000001, 28.600340000000003], [77.00371000000001, 28.600260000000002], [76.99763, 28.603260000000002], [76.99525000000001, 28.603260000000002], [76.99211000000001, 28.6046], [76.98641, 28.60836], [76.98222000000001, 28.604270000000003], [76.98032, 28.603600000000004], [76.9788, 28.60518], [76.97405, 28.60827], [76.97662000000001, 28.613200000000003], [76.97662000000001, 28.614610000000003], [76.97566, 28.614610000000003], [76.97405, 28.61053], [76.97053000000001, 28.61119], [76.96502000000001, 28.6137], [76.95865, 28.618450000000003], [76.95512000000001, 28.619880000000002], [76.95208000000001, 28.622300000000003], [76.95185000000001, 28.6306], [76.9586, 28.633860000000002], [76.95917, 28.634860000000003], [76.96311, 28.630560000000003], [76.98203000000001, 28.618630000000003], [76.98678000000001, 28.61754]]]}}, {"id": "44", "type": "Feature", "properties": {"village_name": "Taj Pur Khurd", "vil_lgd": 64013, "district_name": "South West", "dist_lgd": 84, "subdistrict_name": "Kapeshera", "sdcode": 6085, "block_name": "South West", "block_lgd": 6.0, "gp_name": "NA", "state_name": "DELHI", "state_lgd": 7, "population": 5, "households": 1110}, "geometry": {"type": "Polygon", "coordinates": [[[77.02035000000001, 28.565610000000003], [77.01329000000001, 28.56921], [77.01015000000001, 28.569560000000003], [77.00337, 28.572370000000003], [76.9992, 28.575080000000003], [77.00053000000001, 28.57758], [77.01107, 28.578830000000004], [77.01877, 28.57833], [77.01843000000001, 28.573220000000003], [77.02482, 28.5682], [77.02273000000001, 28.5667], [77.02035000000001, 28.565610000000003]]]}}, {"id": "45", "type": "Feature", "properties": {"village_name": "Goela Khurd", "vil_lgd": 64011, "district_name": "South West", "dist_lgd": 84, "subdistrict_name": "Kapeshera", "sdcode": 6085, "block_name": "South West", "block_lgd": 6.0, "gp_name": "NA", "state_name": "DELHI", "state_lgd": 7, "population": 5, "households": 6834}, "geometry": {"type": "Polygon", "coordinates": [[[77.01265000000001, 28.58949], [77.01683000000001, 28.591490000000004], [77.01769, 28.590740000000004], [77.01664000000001, 28.584310000000002], [77.01750000000001, 28.583060000000003], [77.02035000000001, 28.58256], [77.02206000000001, 28.58123], [77.01877, 28.57833], [77.01107, 28.578830000000004], [77.00053000000001, 28.57758], [76.99849, 28.579880000000003], [76.99858, 28.58104], [77.00533, 28.588350000000002], [77.00989000000001, 28.591580000000004], [77.01008, 28.59016], [77.01265000000001, 28.58949]]]}}, {"id": "46", "type": "Feature", "properties": {"village_name": "Qutab Pur", "vil_lgd": 64012, "district_name": "South West", "dist_lgd": 84, "subdistrict_name": "Kapeshera", "sdcode": 6085, "block_name": "South West", "block_lgd": 6.0, "gp_name": "NA", "state_name": "DELHI", "state_lgd": 7, "population": 5, "households": 26275}, "geometry": {"type": "Polygon", "coordinates": [[[77.02482, 28.5682], [77.01843000000001, 28.573220000000003], [77.01877, 28.57833], [77.02206000000001, 28.58123], [77.02948, 28.57897], [77.03214000000001, 28.57897], [77.03166, 28.577640000000002], [77.03290000000001, 28.572960000000002], [77.02748000000001, 28.56895], [77.02482, 28.5682]]]}}, {"id": "47", "type": "Feature", "properties": {"village_name": "Raghu Pur", "vil_lgd": 64031, "district_name": "South West", "dist_lgd": 84, "subdistrict_name": "Kapeshera", "sdcode": 6085, "block_name": "South West", "block_lgd": 6.0, "gp_name": "NA", "state_name": "DELHI", "state_lgd": 7, "population": 4, "households": 133}, "geometry": {"type": "Polygon", "coordinates": [[[77.01013, 28.51471], [76.99656, 28.51976], [76.99568000000001, 28.520660000000003], [76.99899, 28.526670000000003], [76.99768, 28.52858], [77.0019, 28.531260000000003], [77.01010000000001, 28.5256], [77.01502, 28.523860000000003], [77.01703, 28.520950000000003], [77.01013, 28.51471]]]}}, {"id": "48", "type": "Feature", "properties": {"village_name": "Salah Pur", "vil_lgd": 64030, "district_name": "South West", "dist_lgd": 84, "subdistrict_name": "Kapeshera", "sdcode": 6085, "block_name": "South West", "block_lgd": 6.0, "gp_name": "NA", "state_name": "DELHI", "state_lgd": 7, "population": 3, "households": 5210}, "geometry": {"type": "Polygon", "coordinates": [[[77.06734, 28.512150000000002], [77.05995, 28.512320000000003], [77.04657, 28.516640000000002], [77.04835, 28.52089], [77.05286000000001, 28.52379], [77.05531, 28.524350000000002], [77.05908000000001, 28.521790000000003], [77.06136000000001, 28.51893], [77.06942000000001, 28.515100000000004], [77.06734, 28.512150000000002]]]}}, {"id": "49", "type": "Feature", "properties": {"village_name": "Nangli Sakrawati CT", "vil_lgd": 64053, "district_name": "South West", "dist_lgd": 84, "subdistrict_name": "Dwarka", "sdcode": 6086, "block_name": "", "block_lgd": null, "gp_name": "", "state_name": "DELHI", "state_lgd": 7, "population": 5, "households": 37706}, "geometry": {"type": "Polygon", "coordinates": [[[77.0078, 28.62411], [77.00947000000001, 28.625130000000002], [77.01419, 28.625410000000002], [77.01593000000001, 28.627170000000003], [77.02205000000001, 28.626450000000002], [77.02286000000001, 28.62348], [77.02251000000001, 28.620970000000003], [77.02195, 28.618090000000002], [77.01779, 28.615280000000002], [77.01649, 28.612880000000004], [77.01215, 28.614500000000003], [76.99486, 28.618360000000003], [76.99123, 28.620700000000003], [76.99718, 28.62665], [77.00068, 28.628210000000003], [77.00294000000001, 28.625400000000003], [77.00461, 28.625220000000002], [77.0078, 28.62411]]]}}, {"id": "50", "type": "Feature", "properties": {"village_name": "Chhawala CT", "vil_lgd": 64054, "district_name": "South West", "dist_lgd": 84, "subdistrict_name": "Kapeshera", "sdcode": 6085, "block_name": "", "block_lgd": null, "gp_name": "", "state_name": "DELHI", "state_lgd": 7, "population": 5, "households": 14662}, "geometry": {"type": "Polygon", "coordinates": [[[77.01179, 28.545740000000002], [77.00989000000001, 28.54549], [77.00799, 28.544150000000002], [77.00168000000001, 28.545170000000002], [76.99874000000001, 28.546840000000003], [76.99341000000001, 28.54784], [76.99028000000001, 28.547590000000003], [76.98666, 28.551600000000004], [76.98856, 28.552930000000003], [76.99379, 28.565710000000003], [76.9992, 28.575080000000003], [77.00337, 28.572370000000003], [77.01015000000001, 28.569560000000003], [77.01329000000001, 28.56921], [77.02035000000001, 28.565610000000003], [77.02035000000001, 28.556680000000004], [77.01797, 28.55375], [77.01483, 28.551750000000002], [77.01464, 28.548910000000003], [77.01179, 28.545740000000002]]]}}, {"id": "51", "type": "Feature", "properties": {"village_name": "Dindar Pur CT", "vil_lgd": 64051, "district_name": "South West", "dist_lgd": 84, "subdistrict_name": "Kapeshera", "sdcode": 6085, "block_name": "", "block_lgd": null, "gp_name": "", "state_name": "DELHI", "state_lgd": 7, "population": 5, "households": 35856}, "geometry": {"type": "Polygon", "coordinates": [[[77.00989000000001, 28.591580000000004], [77.00533, 28.588350000000002], [76.99858, 28.58104], [76.99687, 28.581300000000002], [76.99364000000001, 28.58238], [76.98988, 28.583990000000004], [76.97876000000001, 28.593840000000004], [76.98105000000001, 28.595430000000004], [76.98504000000001, 28.59317], [76.99167000000001, 28.597060000000003], [76.99581, 28.60206], [77.00002, 28.60112], [77.01388, 28.595750000000002], [77.01094, 28.594420000000003], [77.00989000000001, 28.591580000000004]]]}}, {"id": "52", "type": "Feature", "properties": {"village_name": "Roshan Pura Alias Dichaon Khurd CT", "vil_lgd": 64052, "district_name": "South West", "dist_lgd": 84, "subdistrict_name": "Najafgarh", "sdcode": 451, "block_name": "", "block_lgd": null, "gp_name": "", "state_name": "DELHI", "state_lgd": 7, "population": 5, "households": 57217}, "geometry": {"type": "Polygon", "coordinates": [[[76.98032, 28.603600000000004], [76.98222000000001, 28.604270000000003], [76.98641, 28.60836], [76.99211000000001, 28.6046], [76.99525000000001, 28.603260000000002], [76.99763, 28.603260000000002], [77.00371000000001, 28.600260000000002], [77.00970000000001, 28.600340000000003], [77.01331, 28.601840000000003], [77.01531, 28.599590000000003], [77.0155, 28.598000000000003], [77.01493, 28.59634], [77.01388, 28.595750000000002], [77.00002, 28.60112], [76.99581, 28.60206], [76.99167000000001, 28.597060000000003], [76.98504000000001, 28.59317], [76.98105000000001, 28.595430000000004], [76.97876000000001, 28.593840000000004], [76.97855000000001, 28.595740000000003], [76.97613000000001, 28.599500000000003], [76.97385000000001, 28.601560000000003], [76.97107000000001, 28.602690000000003], [76.97235, 28.607450000000004], [76.97405, 28.60827], [76.9788, 28.60518], [76.98032, 28.603600000000004]]]}}, {"id": "53", "type": "Feature", "properties": {"village_name": "Kapas Hera CT", "vil_lgd": 64059, "district_name": "South West", "dist_lgd": 84, "subdistrict_name": "Kapeshera", "sdcode": 6085, "block_name": "", "block_lgd": null, "gp_name": "", "state_name": "DELHI", "state_lgd": 7, "population": 3, "households": 74073}, "geometry": {"type": "Polygon", "coordinates": [[[77.10094000000001, 28.520860000000003], [77.10354000000001, 28.51819], [77.0998, 28.511270000000003], [77.09394, 28.514100000000003], [77.0805, 28.518040000000003], [77.07496, 28.51864], [77.07224000000001, 28.520260000000004], [77.07432, 28.524310000000003], [77.07902, 28.530140000000003], [77.08138000000001, 28.53158], [77.08558000000001, 28.531760000000002], [77.10094000000001, 28.520860000000003]]]}}]}