{"type": "FeatureCollection", "metadata": {"source": "Survey of India (per src_agency attribute in the source data)", "hosted_via": "National Water Data Portal (NWDP), NWIC, Ministry of Jal Shakti -- https://nwdp.nwic.gov.in/", "access": "public, no login required", "crs_original": "EPSG:7755 (WGS 84 / India NSF LCC)", "fetch_date": "2026-08-02", "quality": "verified-official -- Survey of India source", "state": "Delhi", "district": "South East", "processing": "reprojected to EPSG:4326, topology-preserving simplify (shared-arc, tolerance 0.0005 deg) so adjacent polygons never overlap/gap at shared borders, coords rounded 5dp, 0 feature(s) needed the per-feature fallback", "feature_count": 11}, "features": [{"id": "0", "type": "Feature", "properties": {"village_name": "South Delhi Municipal Corporation", "vil_lgd": 276402, "district_name": "South East", "dist_lgd": 670, "subdistrict_name": "Kalkaji", "sdcode": 456, "block_name": "", "block_lgd": 0.0, "gp_name": "", "state_name": "DELHI", "state_lgd": 7, "population": 4, "households": 469294}, "geometry": {"type": "Polygon", "coordinates": [[[77.27824000000001, 28.554820000000003], [77.28555, 28.55487], [77.29131000000001, 28.55262], [77.30303, 28.554170000000003], [77.3044, 28.551930000000002], [77.31236000000001, 28.546570000000003], [77.31364, 28.54491], [77.32078000000001, 28.541010000000004], [77.32472, 28.534950000000002], [77.33016, 28.532320000000002], [77.33364, 28.52579], [77.33503, 28.524700000000003], [77.32538000000001, 28.52504], [77.31211, 28.527730000000002], [77.30170000000001, 28.527230000000003], [77.30092, 28.52867], [77.29379, 28.53262], [77.29122000000001, 28.536], [77.29272, 28.535940000000004], [77.29393, 28.53826], [77.29700000000001, 28.540830000000003], [77.29415, 28.541330000000002], [77.28302000000001, 28.540450000000003], [77.27012, 28.538200000000003], [77.27275, 28.535190000000004], [77.2766, 28.532870000000003], [77.27953000000001, 28.52886], [77.29236, 28.522280000000002], [77.29436000000001, 28.51921], [77.29828, 28.515390000000004], [77.30149, 28.509560000000004], [77.3057, 28.50587], [77.30673, 28.500760000000003], [77.30380000000001, 28.498130000000003], [77.30159, 28.497600000000002], [77.30024, 28.498250000000002], [77.29838000000001, 28.499540000000003], [77.29446, 28.505180000000003], [77.29225000000001, 28.507310000000004], [77.29029000000001, 28.508000000000003], [77.28797, 28.507310000000004], [77.2848, 28.504990000000003], [77.28245000000001, 28.505740000000003], [77.28113, 28.500230000000002], [77.2791, 28.49697], [77.27967000000001, 28.49631], [77.27696, 28.494650000000004], [77.27666, 28.493350000000003], [77.27207, 28.490820000000003], [77.26936, 28.48665], [77.24875, 28.48101], [77.24967000000001, 28.4842], [77.24923000000001, 28.490840000000002], [77.24763, 28.49368], [77.24558, 28.495060000000002], [77.24282000000001, 28.498810000000002], [77.24186, 28.50561], [77.24499, 28.514310000000002], [77.24385000000001, 28.520830000000004], [77.24605000000001, 28.52764], [77.23508000000001, 28.53421], [77.23406, 28.54726], [77.2312, 28.549020000000002], [77.23154000000001, 28.553240000000002], [77.22393000000001, 28.554900000000004], [77.22422, 28.556150000000002], [77.22597, 28.560460000000003], [77.23125, 28.559], [77.23089, 28.556420000000003], [77.23292000000001, 28.555560000000003], [77.24675, 28.55365], [77.24852000000001, 28.55187], [77.24978, 28.552570000000003], [77.25429000000001, 28.558830000000004], [77.26153000000001, 28.562790000000003], [77.26541, 28.56585], [77.26935, 28.564090000000004], [77.27254, 28.56144], [77.27579, 28.558580000000003], [77.27784000000001, 28.555370000000003], [77.27824000000001, 28.554820000000003]]]}}, {"id": "1", "type": "Feature", "properties": {"village_name": "South Delhi Municipal Corporation", "vil_lgd": 276402, "district_name": "South East", "dist_lgd": 670, "subdistrict_name": "Defence Colony", "sdcode": 455, "block_name": "", "block_lgd": 0.0, "gp_name": "", "state_name": "DELHI", "state_lgd": 7, "population": 4, "households": 592494}, "geometry": {"type": "Polygon", "coordinates": [[[77.26716, 28.59204], [77.26545, 28.595810000000004], [77.27392, 28.60197], [77.27926000000001, 28.598550000000003], [77.28039000000001, 28.595260000000003], [77.28081, 28.58978], [77.27837000000001, 28.588020000000004], [77.27819000000001, 28.585140000000003], [77.28487000000001, 28.58676], [77.28792, 28.585490000000004], [77.28952000000001, 28.583710000000004], [77.29185000000001, 28.580240000000003], [77.29218, 28.577430000000003], [77.2985, 28.571230000000003], [77.29709000000001, 28.566010000000002], [77.30123, 28.562730000000002], [77.30144, 28.560900000000004], [77.29996000000001, 28.559790000000003], [77.30303, 28.554170000000003], [77.29131000000001, 28.55262], [77.28555, 28.55487], [77.27824000000001, 28.554820000000003], [77.27784000000001, 28.555370000000003], [77.27579, 28.558580000000003], [77.27254, 28.56144], [77.26935, 28.564090000000004], [77.26541, 28.56585], [77.26153000000001, 28.562790000000003], [77.25429000000001, 28.558830000000004], [77.24978, 28.552570000000003], [77.24852000000001, 28.55187], [77.24675, 28.55365], [77.24588, 28.556400000000004], [77.24655000000001, 28.558940000000003], [77.23745000000001, 28.55769], [77.23173000000001, 28.558930000000004], [77.23563, 28.567890000000002], [77.23518, 28.57128], [77.24142, 28.578850000000003], [77.24172, 28.583420000000004], [77.24305000000001, 28.58707], [77.24246000000001, 28.592940000000002], [77.24554, 28.605510000000002], [77.25039000000001, 28.607650000000003], [77.25598000000001, 28.608780000000003], [77.26513000000001, 28.59176], [77.26716, 28.59204]]]}}, {"id": "2", "type": "Feature", "properties": {"village_name": "New Delhi Municipal Council", "vil_lgd": 276447, "district_name": "South East", "dist_lgd": 670, "subdistrict_name": "Defence Colony", "sdcode": 455, "block_name": "", "block_lgd": 0.0, "gp_name": "", "state_name": "DELHI", "state_lgd": 7, "population": 4, "households": 35113}, "geometry": {"type": "Polygon", "coordinates": [[[77.24246000000001, 28.592940000000002], [77.24305000000001, 28.58707], [77.24172, 28.583420000000004], [77.24142, 28.578850000000003], [77.23518, 28.57128], [77.23563, 28.567890000000002], [77.23173000000001, 28.558930000000004], [77.23125, 28.559], [77.22597, 28.560460000000003], [77.22422, 28.556150000000002], [77.22299000000001, 28.558110000000003], [77.22290000000001, 28.561100000000003], [77.22024, 28.563460000000003], [77.21909000000001, 28.562500000000004], [77.21780000000001, 28.56314], [77.218, 28.564190000000004], [77.21646000000001, 28.564940000000004], [77.21587000000001, 28.56621], [77.21196, 28.563520000000004], [77.20912000000001, 28.559030000000003], [77.20588000000001, 28.56209], [77.20605, 28.565710000000003], [77.21129, 28.583660000000002], [77.21209, 28.589370000000002], [77.23551, 28.592100000000002], [77.23337000000001, 28.595160000000003], [77.23315000000001, 28.602500000000003], [77.24259, 28.60818], [77.24554, 28.605510000000002], [77.24246000000001, 28.592940000000002]]]}}, {"id": "3", "type": "Feature", "properties": {"village_name": "Pul Pehlad CT", "vil_lgd": 64082, "district_name": "South East", "dist_lgd": 670, "subdistrict_name": "Kalkaji", "sdcode": 456, "block_name": "", "block_lgd": null, "gp_name": "", "state_name": "DELHI", "state_lgd": 7, "population": 4, "households": 69657}, "geometry": {"type": "Polygon", "coordinates": [[[77.29838000000001, 28.499540000000003], [77.30024, 28.498250000000002], [77.30055, 28.494170000000004], [77.29838000000001, 28.494310000000002], [77.29543000000001, 28.495910000000002], [77.29026, 28.496570000000002], [77.27666, 28.493350000000003], [77.27696, 28.494650000000004], [77.27967000000001, 28.49631], [77.2791, 28.49697], [77.28113, 28.500230000000002], [77.28245000000001, 28.505740000000003], [77.2848, 28.504990000000003], [77.28797, 28.507310000000004], [77.29029000000001, 28.508000000000003], [77.29225000000001, 28.507310000000004], [77.29446, 28.505180000000003], [77.29838000000001, 28.499540000000003]]]}}, {"id": "4", "type": "Feature", "properties": {"village_name": "Mithe Pur CT", "vil_lgd": 64084, "district_name": "South East", "dist_lgd": 670, "subdistrict_name": "Sarita Vihar", "sdcode": 6081, "block_name": "", "block_lgd": null, "gp_name": "", "state_name": "DELHI", "state_lgd": 7, "population": 4, "households": 69837}, "geometry": {"type": "Polygon", "coordinates": [[[77.32138, 28.498220000000003], [77.32106, 28.497570000000003], [77.32509, 28.49575], [77.32758000000001, 28.492960000000004], [77.32869000000001, 28.493380000000002], [77.32683, 28.49013], [77.31828, 28.487340000000003], [77.31410000000001, 28.48363], [77.31003000000001, 28.487150000000003], [77.31404, 28.4949], [77.31240000000001, 28.496940000000002], [77.3104, 28.497470000000003], [77.31033000000001, 28.498690000000003], [77.31150000000001, 28.4996], [77.31411, 28.49885], [77.31582, 28.500130000000002], [77.32017, 28.498980000000003], [77.32138, 28.498220000000003]]]}}, {"id": "5", "type": "Feature", "properties": {"village_name": "Molar Band CT", "vil_lgd": 64085, "district_name": "South East", "dist_lgd": 670, "subdistrict_name": "Sarita Vihar", "sdcode": 6081, "block_name": "", "block_lgd": null, "gp_name": "", "state_name": "DELHI", "state_lgd": 7, "population": 5, "households": 91402}, "geometry": {"type": "Polygon", "coordinates": [[[77.31272000000001, 28.512880000000003], [77.31535000000001, 28.51479], [77.31672, 28.513980000000004], [77.32065, 28.510930000000002], [77.31906000000001, 28.508620000000004], [77.32236, 28.50702], [77.32482, 28.506970000000003], [77.33329, 28.499550000000003], [77.32869000000001, 28.493380000000002], [77.32758000000001, 28.492960000000004], [77.32509, 28.49575], [77.32106, 28.497570000000003], [77.32138, 28.498220000000003], [77.32017, 28.498980000000003], [77.31582, 28.500130000000002], [77.31411, 28.49885], [77.31150000000001, 28.4996], [77.31033000000001, 28.498690000000003], [77.30673, 28.500760000000003], [77.3057, 28.50587], [77.30149, 28.509560000000004], [77.29828, 28.515390000000004], [77.30189, 28.51649], [77.30924, 28.51433], [77.31272000000001, 28.512880000000003]]]}}, {"id": "6", "type": "Feature", "properties": {"village_name": "Taj Pul CT", "vil_lgd": 64083, "district_name": "South East", "dist_lgd": 670, "subdistrict_name": "Sarita Vihar", "sdcode": 6081, "block_name": "", "block_lgd": null, "gp_name": "", "state_name": "DELHI", "state_lgd": 7, "population": 4, "households": 68796}, "geometry": {"type": "Polygon", "coordinates": [[[77.3104, 28.497470000000003], [77.31240000000001, 28.496940000000002], [77.31404, 28.4949], [77.31003000000001, 28.487150000000003], [77.30653000000001, 28.489410000000003], [77.30075000000001, 28.489980000000003], [77.30055, 28.494170000000004], [77.30024, 28.498250000000002], [77.30159, 28.497600000000002], [77.30380000000001, 28.498130000000003], [77.30673, 28.500760000000003], [77.31033000000001, 28.498690000000003], [77.3104, 28.497470000000003]]]}}, {"id": "7", "type": "Feature", "properties": {"village_name": "Saidabad CT", "vil_lgd": 64080, "district_name": "South East", "dist_lgd": 670, "subdistrict_name": "Defence Colony", "sdcode": 455, "block_name": "", "block_lgd": null, "gp_name": "", "state_name": "DELHI", "state_lgd": 7, "population": 4, "households": 10168}, "geometry": {"type": "Polygon", "coordinates": [[[77.29122000000001, 28.536], [77.29379, 28.53262], [77.30092, 28.52867], [77.30170000000001, 28.527230000000003], [77.29955000000001, 28.523860000000003], [77.29436000000001, 28.51921], [77.29236, 28.522280000000002], [77.27953000000001, 28.52886], [77.2766, 28.532870000000003], [77.28047000000001, 28.533030000000004], [77.28465000000001, 28.53554], [77.28888, 28.53583], [77.29122000000001, 28.536]]]}}, {"id": "8", "type": "Feature", "properties": {"village_name": "Kotla Mahigiran CT", "vil_lgd": 64081, "district_name": "South East", "dist_lgd": 670, "subdistrict_name": "Sarita Vihar", "sdcode": 6081, "block_name": "", "block_lgd": null, "gp_name": "", "state_name": "DELHI", "state_lgd": 7, "population": 3, "households": 7376}, "geometry": {"type": "Polygon", "coordinates": [[[77.29393, 28.53826], [77.29272, 28.535940000000004], [77.29122000000001, 28.536], [77.28888, 28.53583], [77.28465000000001, 28.53554], [77.28047000000001, 28.533030000000004], [77.2766, 28.532870000000003], [77.27275, 28.535190000000004], [77.27012, 28.538200000000003], [77.28302000000001, 28.540450000000003], [77.29415, 28.541330000000002], [77.29700000000001, 28.540830000000003], [77.29393, 28.53826]]]}}, {"id": "9", "type": "Feature", "properties": {"village_name": "Aali CT", "vil_lgd": 64086, "district_name": "South East", "dist_lgd": 670, "subdistrict_name": "Sarita Vihar", "sdcode": 6081, "block_name": "", "block_lgd": null, "gp_name": "", "state_name": "DELHI", "state_lgd": 7, "population": 4, "households": 27169}, "geometry": {"type": "Polygon", "coordinates": [[[77.32538000000001, 28.52504], [77.33503, 28.524700000000003], [77.33833000000001, 28.52287], [77.34736000000001, 28.520580000000002], [77.34757, 28.518990000000002], [77.34542, 28.51367], [77.34256, 28.51639], [77.33691, 28.520500000000002], [77.31381, 28.516640000000002], [77.30924, 28.51433], [77.30189, 28.51649], [77.29828, 28.515390000000004], [77.29436000000001, 28.51921], [77.29955000000001, 28.523860000000003], [77.30170000000001, 28.527230000000003], [77.31211, 28.527730000000002], [77.32538000000001, 28.52504]]]}}, {"id": "10", "type": "Feature", "properties": {"village_name": "Jait Pur CT", "vil_lgd": 64087, "district_name": "South East", "dist_lgd": 670, "subdistrict_name": "Sarita Vihar", "sdcode": 6081, "block_name": "", "block_lgd": null, "gp_name": "", "state_name": "DELHI", "state_lgd": 7, "population": 5, "households": 59330}, "geometry": {"type": "Polygon", "coordinates": [[[77.34542, 28.51367], [77.33612000000001, 28.50522], [77.33606, 28.503590000000003], [77.33329, 28.499550000000003], [77.32482, 28.506970000000003], [77.32236, 28.50702], [77.31906000000001, 28.508620000000004], [77.32065, 28.510930000000002], [77.31672, 28.513980000000004], [77.31535000000001, 28.51479], [77.31272000000001, 28.512880000000003], [77.30924, 28.51433], [77.31381, 28.516640000000002], [77.33691, 28.520500000000002], [77.34256, 28.51639], [77.34542, 28.51367]]]}}]}