{"type": "FeatureCollection", "metadata": {"source": "Survey of India (per src_agency attribute in the source data)", "hosted_via": "National Water Data Portal (NWDP), NWIC, Ministry of Jal Shakti -- https://nwdp.nwic.gov.in/", "access": "public, no login required", "crs_original": "EPSG:7755 (WGS 84 / India NSF LCC)", "fetch_date": "2026-08-02", "quality": "verified-official -- Survey of India source", "state": "Delhi", "district": "South", "processing": "reprojected to EPSG:4326, topology-preserving simplify (shared-arc, tolerance 0.0005 deg) so adjacent polygons never overlap/gap at shared borders, coords rounded 5dp, 0 feature(s) needed the per-feature fallback", "feature_count": 20}, "features": [{"id": "0", "type": "Feature", "properties": {"village_name": "Tigri CT", "vil_lgd": 64079, "district_name": "South", "dist_lgd": 83, "subdistrict_name": "Hauz Khas", "sdcode": 454, "block_name": "", "block_lgd": null, "gp_name": "", "state_name": "DELHI", "state_lgd": 7, "population": 5, "households": 46974}, "geometry": {"type": "Polygon", "coordinates": [[[77.24499, 28.514310000000002], [77.24186, 28.50561], [77.23496, 28.50814], [77.23389, 28.509130000000003], [77.23514, 28.512110000000003], [77.23478, 28.515710000000002], [77.23953, 28.516810000000003], [77.24239, 28.518790000000003], [77.24409, 28.517950000000003], [77.24499, 28.514310000000002]]]}}, {"id": "1", "type": "Feature", "properties": {"village_name": "Satberi", "vil_lgd": 64063, "district_name": "South", "dist_lgd": 83, "subdistrict_name": "Saket", "sdcode": 6079, "block_name": "South", "block_lgd": 7.0, "gp_name": "NA", "state_name": "DELHI", "state_lgd": 7, "population": 4, "households": 6076}, "geometry": {"type": "Polygon", "coordinates": [[[77.19224000000001, 28.485940000000003], [77.1958, 28.48607], [77.20457, 28.479110000000002], [77.21213, 28.47491], [77.22040000000001, 28.465760000000003], [77.22119, 28.461620000000003], [77.21947, 28.46093], [77.20407, 28.468270000000004], [77.19252, 28.472590000000004], [77.18639, 28.47246], [77.17783, 28.473530000000004], [77.17515, 28.46974], [77.17172000000001, 28.467530000000004], [77.16748000000001, 28.469790000000003], [77.16648, 28.47051], [77.1667, 28.4737], [77.16718, 28.475700000000003], [77.17698, 28.473660000000002], [77.18525000000001, 28.487320000000004], [77.18774, 28.48776], [77.19224000000001, 28.485940000000003]]]}}, {"id": "2", "type": "Feature", "properties": {"village_name": "Shahur Pur", "vil_lgd": 64064, "district_name": "South", "dist_lgd": 83, "subdistrict_name": "Saket", "sdcode": 6079, "block_name": "South", "block_lgd": 7.0, "gp_name": "NA", "state_name": "DELHI", "state_lgd": 7, "population": 5, "households": 3090}, "geometry": {"type": "Polygon", "coordinates": [[[77.20407, 28.468270000000004], [77.21947, 28.46093], [77.22119, 28.461620000000003], [77.22040000000001, 28.465760000000003], [77.23369000000001, 28.461660000000002], [77.23292000000001, 28.458060000000003], [77.23442, 28.45474], [77.23544000000001, 28.45493], [77.23232, 28.451410000000003], [77.22134000000001, 28.452790000000004], [77.19874, 28.460690000000003], [77.18825000000001, 28.46298], [77.18531, 28.464630000000003], [77.18649, 28.46862], [77.18639, 28.47246], [77.19252, 28.472590000000004], [77.20407, 28.468270000000004]]]}}, {"id": "3", "type": "Feature", "properties": {"village_name": "Gadai Pur", "vil_lgd": 64062, "district_name": "South", "dist_lgd": 83, "subdistrict_name": "Mehrauli", "sdcode": 6080, "block_name": "South", "block_lgd": 7.0, "gp_name": "NA", "state_name": "DELHI", "state_lgd": 7, "population": 4, "households": 3027}, "geometry": {"type": "Polygon", "coordinates": [[[77.16039, 28.484730000000003], [77.16543, 28.481880000000004], [77.16205000000001, 28.476830000000003], [77.15862000000001, 28.477200000000003], [77.1572, 28.47595], [77.15620000000001, 28.473440000000004], [77.15392, 28.473440000000004], [77.14279, 28.4767], [77.1444, 28.48393], [77.14516, 28.488220000000002], [77.14678, 28.490850000000002], [77.15939, 28.48431], [77.16039, 28.484730000000003]]]}}, {"id": "4", "type": "Feature", "properties": {"village_name": "New Delhi Municipal Council", "vil_lgd": 276447, "district_name": "South", "dist_lgd": 83, "subdistrict_name": "Mehrauli", "sdcode": 6080, "block_name": "", "block_lgd": 0.0, "gp_name": "", "state_name": "DELHI", "state_lgd": 7, "population": 4, "households": 2008}, "geometry": {"type": "Polygon", "coordinates": [[[77.20782000000001, 28.554660000000002], [77.20801, 28.545810000000003], [77.20516, 28.536450000000002], [77.20506, 28.528350000000003], [77.20198, 28.52109], [77.19467, 28.516340000000003], [77.19562, 28.516340000000003], [77.19372000000001, 28.51206], [77.19229, 28.509860000000003], [77.19330000000001, 28.506410000000002], [77.19033, 28.506890000000002], [77.17845000000001, 28.50918], [77.17429000000001, 28.506050000000002], [77.16508, 28.502340000000004], [77.15284000000001, 28.501250000000002], [77.14928, 28.499930000000003], [77.14330000000001, 28.497580000000003], [77.13671000000001, 28.504340000000003], [77.12937000000001, 28.50682], [77.13118, 28.517850000000003], [77.13355, 28.521130000000003], [77.13419, 28.524040000000003], [77.14712, 28.523490000000002], [77.15614000000001, 28.521310000000003], [77.15959000000001, 28.525800000000004], [77.16403000000001, 28.526390000000003], [77.16961, 28.53347], [77.1748, 28.536030000000004], [77.17041, 28.54024], [77.16055, 28.545440000000003], [77.165, 28.54567], [77.16949000000001, 28.54792], [77.18114000000001, 28.54877], [77.18293000000001, 28.551650000000002], [77.18371, 28.554980000000004], [77.18168, 28.555190000000003], [77.18402, 28.557650000000002], [77.18139000000001, 28.558780000000002], [77.18316, 28.56088], [77.18762000000001, 28.56285], [77.18957, 28.565450000000002], [77.19004000000001, 28.579900000000002], [77.19159, 28.58235], [77.21017, 28.580170000000003], [77.20605, 28.565710000000003], [77.20588000000001, 28.56209], [77.20912000000001, 28.559030000000003], [77.20782000000001, 28.554660000000002]]]}}, {"id": "5", "type": "Feature", "properties": {"village_name": "South Delhi Municipal Corporation", "vil_lgd": 276402, "district_name": "South", "dist_lgd": 83, "subdistrict_name": "Hauz Khas", "sdcode": 454, "block_name": "", "block_lgd": 0.0, "gp_name": "", "state_name": "DELHI", "state_lgd": 7, "population": 4, "households": 774971}, "geometry": {"type": "MultiPolygon", "coordinates": [[[[77.22024, 28.563460000000003], [77.22290000000001, 28.561100000000003], [77.22393000000001, 28.554900000000004], [77.23154000000001, 28.553240000000002], [77.2312, 28.549020000000002], [77.23406, 28.54726], [77.23508000000001, 28.53421], [77.24605000000001, 28.52764], [77.24425000000001, 28.523470000000003], [77.24409, 28.517950000000003], [77.24239, 28.518790000000003], [77.23953, 28.516810000000003], [77.23478, 28.515710000000002], [77.23514, 28.512110000000003], [77.23389, 28.509130000000003], [77.23496, 28.50814], [77.23187, 28.50569], [77.22456000000001, 28.50307], [77.22212, 28.502810000000004], [77.22194, 28.50381], [77.21796, 28.50887], [77.21244, 28.510230000000004], [77.21291000000001, 28.51263], [77.21036000000001, 28.51378], [77.21006000000001, 28.515290000000004], [77.20733000000001, 28.517590000000002], [77.20751000000001, 28.52025], [77.20198, 28.52109], [77.20506, 28.528350000000003], [77.20516, 28.536450000000002], [77.20801, 28.545810000000003], [77.20782000000001, 28.554660000000002], [77.20912000000001, 28.559030000000003], [77.21196, 28.563520000000004], [77.21587000000001, 28.56621], [77.21870000000001, 28.562690000000003], [77.22024, 28.563460000000003]]], [[[77.24655000000001, 28.558940000000003], [77.24588, 28.556400000000004], [77.24675, 28.55365], [77.23732000000001, 28.554560000000002], [77.23089, 28.556420000000003], [77.23125, 28.559], [77.23714000000001, 28.55778], [77.24655000000001, 28.558940000000003]]]]}}, {"id": "6", "type": "Feature", "properties": {"village_name": "Bhati CT", "vil_lgd": 64069, "district_name": "South", "dist_lgd": 83, "subdistrict_name": "Saket", "sdcode": 6079, "block_name": "", "block_lgd": null, "gp_name": "", "state_name": "DELHI", "state_lgd": 7, "population": 5, "households": 18864}, "geometry": {"type": "Polygon", "coordinates": [[[77.20881, 28.440440000000002], [77.21969, 28.43673], [77.23407, 28.43495], [77.24934, 28.435190000000002], [77.24896000000001, 28.43295], [77.25259000000001, 28.432810000000003], [77.24925, 28.42415], [77.23862000000001, 28.420920000000002], [77.22747000000001, 28.413510000000002], [77.22196000000001, 28.412480000000002], [77.21672000000001, 28.409830000000003], [77.21589, 28.411440000000002], [77.21309000000001, 28.41054], [77.21300000000001, 28.413300000000003], [77.20354, 28.414140000000003], [77.19456000000001, 28.417980000000004], [77.18786, 28.424500000000002], [77.18883000000001, 28.429190000000002], [77.19008000000001, 28.43051], [77.18958, 28.433100000000003], [77.19015, 28.436280000000004], [77.18730000000001, 28.438720000000004], [77.18428, 28.43973], [77.18423, 28.441290000000002], [77.18321, 28.441000000000003], [77.18296000000001, 28.442370000000004], [77.18197, 28.441540000000003], [77.18062, 28.441920000000003], [77.17915, 28.444760000000002], [77.17979000000001, 28.448900000000002], [77.18278000000001, 28.455130000000004], [77.19687, 28.44676], [77.19954000000001, 28.446340000000003], [77.2043, 28.443360000000002], [77.20881, 28.440440000000002]]]}}, {"id": "7", "type": "Feature", "properties": {"village_name": "Dera Mandi CT", "vil_lgd": 64068, "district_name": "South", "dist_lgd": 83, "subdistrict_name": "Mehrauli", "sdcode": 6080, "block_name": "", "block_lgd": null, "gp_name": "", "state_name": "DELHI", "state_lgd": 7, "population": 5, "households": 16725}, "geometry": {"type": "Polygon", "coordinates": [[[77.13313000000001, 28.450000000000003], [77.13819000000001, 28.45201], [77.1409, 28.451570000000004], [77.14803, 28.44762], [77.15003, 28.447250000000004], [77.15131000000001, 28.447370000000003], [77.15687000000001, 28.451200000000004], [77.16086, 28.450650000000003], [77.16209, 28.449030000000004], [77.16763, 28.448150000000002], [77.16896000000001, 28.448780000000003], [77.17153, 28.44667], [77.17566000000001, 28.446420000000003], [77.17561, 28.445190000000004], [77.17673, 28.445210000000003], [77.1773, 28.44366], [77.17683000000001, 28.44291], [77.17806, 28.441340000000004], [77.17849000000001, 28.43831], [77.18329, 28.43617], [77.18462000000001, 28.434620000000002], [77.18448000000001, 28.433490000000003], [77.18767000000001, 28.430400000000002], [77.18733, 28.42986], [77.18883000000001, 28.429190000000002], [77.18786, 28.424500000000002], [77.19456000000001, 28.417980000000004], [77.20354, 28.414140000000003], [77.21300000000001, 28.413300000000003], [77.21309000000001, 28.41054], [77.20001, 28.408260000000002], [77.1924, 28.408220000000004], [77.19052, 28.40724], [77.18438, 28.410460000000004], [77.17795000000001, 28.407700000000002], [77.17450000000001, 28.40463], [77.17360000000001, 28.405030000000004], [77.17143, 28.40631], [77.17122, 28.40885], [77.16914000000001, 28.41165], [77.16483000000001, 28.41504], [77.16589, 28.425600000000003], [77.16285, 28.428480000000004], [77.15462000000001, 28.432380000000002], [77.14844000000001, 28.43727], [77.14247, 28.43738], [77.14104, 28.436740000000004], [77.13229000000001, 28.43916], [77.13136, 28.44066], [77.12884000000001, 28.440710000000003], [77.12382000000001, 28.445420000000002], [77.12288000000001, 28.452250000000003], [77.13099000000001, 28.45051], [77.13313000000001, 28.450000000000003]]]}}, {"id": "8", "type": "Feature", "properties": {"village_name": "Aya Nagar CT", "vil_lgd": 64065, "district_name": "South", "dist_lgd": 83, "subdistrict_name": "Mehrauli", "sdcode": 6080, "block_name": "", "block_lgd": null, "gp_name": "", "state_name": "DELHI", "state_lgd": 7, "population": 4, "households": 33123}, "geometry": {"type": "Polygon", "coordinates": [[[77.12693, 28.486970000000003], [77.13236, 28.487640000000003], [77.13708000000001, 28.486760000000004], [77.1444, 28.48393], [77.14279, 28.4767], [77.14037, 28.466050000000003], [77.13923000000001, 28.464170000000003], [77.13652, 28.462660000000003], [77.13467, 28.457520000000002], [77.13281, 28.458270000000002], [77.12967, 28.458150000000003], [77.12668000000001, 28.457140000000003], [77.12497, 28.455260000000003], [77.12253000000001, 28.454680000000003], [77.12185000000001, 28.458530000000003], [77.11686, 28.4629], [77.11093000000001, 28.47124], [77.11301, 28.471330000000002], [77.11486000000001, 28.481510000000004], [77.11861, 28.488020000000002], [77.12316000000001, 28.487600000000004], [77.12693, 28.486970000000003]]]}}, {"id": "9", "type": "Feature", "properties": {"village_name": "Jona Pur CT", "vil_lgd": 64066, "district_name": "South", "dist_lgd": 83, "subdistrict_name": "Mehrauli", "sdcode": 6080, "block_name": "", "block_lgd": null, "gp_name": "", "state_name": "DELHI", "state_lgd": 7, "population": 5, "households": 10635}, "geometry": {"type": "Polygon", "coordinates": [[[77.16648, 28.47051], [77.16748000000001, 28.469790000000003], [77.16685000000001, 28.469770000000004], [77.16553, 28.466410000000003], [77.16678, 28.46582], [77.16496000000001, 28.463340000000002], [77.16667000000001, 28.462180000000004], [77.16664, 28.460900000000002], [77.16379, 28.45416], [77.16218, 28.452460000000002], [77.16257, 28.45193], [77.16086, 28.450650000000003], [77.15687000000001, 28.451200000000004], [77.15131000000001, 28.447370000000003], [77.15003, 28.447250000000004], [77.14803, 28.44762], [77.1409, 28.451570000000004], [77.13819000000001, 28.45201], [77.13313000000001, 28.450000000000003], [77.13099000000001, 28.45051], [77.12288000000001, 28.452250000000003], [77.12253000000001, 28.454680000000003], [77.12497, 28.455260000000003], [77.12668000000001, 28.457140000000003], [77.12967, 28.458150000000003], [77.13281, 28.458270000000002], [77.13467, 28.457520000000002], [77.13652, 28.462660000000003], [77.13923000000001, 28.464170000000003], [77.14037, 28.466050000000003], [77.14279, 28.4767], [77.15392, 28.473440000000004], [77.15620000000001, 28.473440000000004], [77.1572, 28.47595], [77.15862000000001, 28.477200000000003], [77.16205000000001, 28.476830000000003], [77.16718, 28.475700000000003], [77.1667, 28.4737], [77.16648, 28.47051]]]}}, {"id": "10", "type": "Feature", "properties": {"village_name": "Fateh Pur Beri CT", "vil_lgd": 64067, "district_name": "South", "dist_lgd": 83, "subdistrict_name": "Mehrauli", "sdcode": 6080, "block_name": "", "block_lgd": null, "gp_name": "", "state_name": "DELHI", "state_lgd": 7, "population": 5, "households": 8861}, "geometry": {"type": "Polygon", "coordinates": [[[77.17598000000001, 28.468020000000003], [77.17735, 28.468130000000002], [77.17922, 28.466350000000002], [77.18302000000001, 28.46562], [77.18347, 28.464760000000002], [77.18029, 28.45981], [77.17943000000001, 28.457050000000002], [77.18278000000001, 28.455130000000004], [77.17979000000001, 28.448900000000002], [77.17915, 28.444760000000002], [77.18062, 28.441920000000003], [77.18197, 28.441540000000003], [77.18296000000001, 28.442370000000004], [77.18321, 28.441000000000003], [77.18423, 28.441290000000002], [77.18428, 28.43973], [77.18730000000001, 28.438720000000004], [77.19015, 28.436280000000004], [77.18958, 28.433100000000003], [77.19008000000001, 28.43051], [77.18883000000001, 28.429190000000002], [77.18733, 28.42986], [77.18767000000001, 28.430400000000002], [77.18448000000001, 28.433490000000003], [77.18462000000001, 28.434620000000002], [77.18329, 28.43617], [77.17849000000001, 28.43831], [77.17806, 28.441340000000004], [77.17683000000001, 28.44291], [77.1773, 28.44366], [77.17673, 28.445210000000003], [77.17561, 28.445190000000004], [77.17566000000001, 28.446420000000003], [77.17153, 28.44667], [77.16896000000001, 28.448780000000003], [77.16763, 28.448150000000002], [77.16209, 28.449030000000004], [77.16086, 28.450650000000003], [77.16257, 28.45193], [77.16218, 28.452460000000002], [77.16379, 28.45416], [77.16664, 28.460900000000002], [77.16667000000001, 28.462180000000004], [77.16496000000001, 28.463340000000002], [77.16678, 28.46582], [77.16553, 28.466410000000003], [77.16685000000001, 28.469770000000004], [77.16748000000001, 28.469790000000003], [77.17172000000001, 28.467530000000004], [77.17515, 28.46974], [77.17598000000001, 28.468020000000003]]]}}, {"id": "11", "type": "Feature", "properties": {"village_name": "Asola CT", "vil_lgd": 64070, "district_name": "South", "dist_lgd": 83, "subdistrict_name": "Saket", "sdcode": 6079, "block_name": "", "block_lgd": null, "gp_name": "", "state_name": "DELHI", "state_lgd": 7, "population": 5, "households": 13275}, "geometry": {"type": "Polygon", "coordinates": [[[77.18825000000001, 28.46298], [77.19874, 28.460690000000003], [77.22134000000001, 28.452790000000004], [77.23232, 28.451410000000003], [77.23544000000001, 28.45493], [77.24251000000001, 28.456180000000003], [77.24576, 28.454200000000004], [77.24894, 28.446990000000003], [77.24986000000001, 28.43784], [77.24934, 28.435190000000002], [77.23407, 28.43495], [77.21969, 28.43673], [77.20881, 28.440440000000002], [77.2043, 28.443360000000002], [77.19954000000001, 28.446340000000003], [77.19687, 28.44676], [77.18278000000001, 28.455130000000004], [77.17943000000001, 28.457050000000002], [77.18029, 28.45981], [77.18347, 28.464760000000002], [77.18531, 28.464630000000003], [77.18825000000001, 28.46298]]]}}, {"id": "12", "type": "Feature", "properties": {"village_name": "Raj Pur Khurd CT", "vil_lgd": 64075, "district_name": "South", "dist_lgd": 83, "subdistrict_name": "Saket", "sdcode": 6079, "block_name": "", "block_lgd": null, "gp_name": "", "state_name": "DELHI", "state_lgd": 7, "population": 4, "households": 11161}, "geometry": {"type": "Polygon", "coordinates": [[[77.19168, 28.492160000000002], [77.19629, 28.490150000000003], [77.1958, 28.48607], [77.19224000000001, 28.485940000000003], [77.18774, 28.48776], [77.18645000000001, 28.489610000000003], [77.18897000000001, 28.49349], [77.18735000000001, 28.494200000000003], [77.18964000000001, 28.498630000000002], [77.19311, 28.496330000000004], [77.19201000000001, 28.494410000000002], [77.19168, 28.492160000000002]]]}}, {"id": "13", "type": "Feature", "properties": {"village_name": "Chattar Pur CT", "vil_lgd": 64073, "district_name": "South", "dist_lgd": 83, "subdistrict_name": "Saket", "sdcode": 6079, "block_name": "", "block_lgd": null, "gp_name": "", "state_name": "DELHI", "state_lgd": 7, "population": 4, "households": 46776}, "geometry": {"type": "Polygon", "coordinates": [[[77.19330000000001, 28.506410000000002], [77.19013000000001, 28.501880000000003], [77.18964000000001, 28.498630000000002], [77.18735000000001, 28.494200000000003], [77.18897000000001, 28.49349], [77.18645000000001, 28.489610000000003], [77.18774, 28.48776], [77.18525000000001, 28.487320000000004], [77.17698, 28.473660000000002], [77.16718, 28.475700000000003], [77.16205000000001, 28.476830000000003], [77.16543, 28.481880000000004], [77.16039, 28.484730000000003], [77.16537000000001, 28.49592], [77.16882000000001, 28.49895], [77.17167, 28.50297], [77.17589000000001, 28.503020000000003], [77.17601, 28.50391], [77.17429000000001, 28.506050000000002], [77.17845000000001, 28.50918], [77.19033, 28.506890000000002], [77.19330000000001, 28.506410000000002]]]}}, {"id": "14", "type": "Feature", "properties": {"village_name": "Maidan Garhi CT", "vil_lgd": 64074, "district_name": "South", "dist_lgd": 83, "subdistrict_name": "Saket", "sdcode": 6079, "block_name": "", "block_lgd": null, "gp_name": "", "state_name": "DELHI", "state_lgd": 7, "population": 4, "households": 11111}, "geometry": {"type": "Polygon", "coordinates": [[[77.21228, 28.494320000000002], [77.21594, 28.490810000000003], [77.22612000000001, 28.47765], [77.2356, 28.47116], [77.23369000000001, 28.461660000000002], [77.22040000000001, 28.465760000000003], [77.21213, 28.47491], [77.20457, 28.479110000000002], [77.1958, 28.48607], [77.19629, 28.490150000000003], [77.19168, 28.492160000000002], [77.19201000000001, 28.494410000000002], [77.19311, 28.496330000000004], [77.18964000000001, 28.498630000000002], [77.19013000000001, 28.501880000000003], [77.19330000000001, 28.506410000000002], [77.19229, 28.509860000000003], [77.19317000000001, 28.508270000000003], [77.20368, 28.4995], [77.20568, 28.49687], [77.20976, 28.495530000000002], [77.21228, 28.494320000000002]]]}}, {"id": "15", "type": "Feature", "properties": {"village_name": "Saidul Azaib CT", "vil_lgd": 64078, "district_name": "South", "dist_lgd": 83, "subdistrict_name": "Hauz Khas", "sdcode": 454, "block_name": "", "block_lgd": null, "gp_name": "", "state_name": "DELHI", "state_lgd": 7, "population": 4, "households": 17914}, "geometry": {"type": "Polygon", "coordinates": [[[77.21036000000001, 28.51378], [77.21291000000001, 28.51263], [77.21244, 28.510230000000004], [77.20652000000001, 28.513710000000003], [77.20218000000001, 28.514210000000002], [77.19887, 28.512500000000003], [77.19372000000001, 28.51206], [77.19562, 28.516340000000003], [77.19467, 28.516340000000003], [77.20198, 28.52109], [77.20751000000001, 28.52025], [77.20733000000001, 28.517590000000002], [77.21006000000001, 28.515290000000004], [77.21036000000001, 28.51378]]]}}, {"id": "16", "type": "Feature", "properties": {"village_name": "Neb Sarai CT", "vil_lgd": 64077, "district_name": "South", "dist_lgd": 83, "subdistrict_name": "Saket", "sdcode": 6079, "block_name": "", "block_lgd": null, "gp_name": "", "state_name": "DELHI", "state_lgd": 7, "population": 4, "households": 15640}, "geometry": {"type": "Polygon", "coordinates": [[[77.20652000000001, 28.513710000000003], [77.21244, 28.510230000000004], [77.21222, 28.502930000000003], [77.20976, 28.495530000000002], [77.20568, 28.49687], [77.20368, 28.4995], [77.19317000000001, 28.508270000000003], [77.19229, 28.509860000000003], [77.19372000000001, 28.51206], [77.19887, 28.512500000000003], [77.20218000000001, 28.514210000000002], [77.20652000000001, 28.513710000000003]]]}}, {"id": "17", "type": "Feature", "properties": {"village_name": "Sultan Pur CT", "vil_lgd": 64072, "district_name": "South", "dist_lgd": 83, "subdistrict_name": "Mehrauli", "sdcode": 6080, "block_name": "", "block_lgd": null, "gp_name": "", "state_name": "DELHI", "state_lgd": 7, "population": 4, "households": 15160}, "geometry": {"type": "Polygon", "coordinates": [[[77.17589000000001, 28.503020000000003], [77.17167, 28.50297], [77.16882000000001, 28.49895], [77.16537000000001, 28.49592], [77.16039, 28.484730000000003], [77.15939, 28.48431], [77.14678, 28.490850000000002], [77.15001000000001, 28.4994], [77.14928, 28.499930000000003], [77.15284000000001, 28.501250000000002], [77.16508, 28.502340000000004], [77.17429000000001, 28.506050000000002], [77.17601, 28.50391], [77.17589000000001, 28.503020000000003]]]}}, {"id": "18", "type": "Feature", "properties": {"village_name": "Chandan Hola CT", "vil_lgd": 64071, "district_name": "South", "dist_lgd": 83, "subdistrict_name": "Mehrauli", "sdcode": 6080, "block_name": "", "block_lgd": null, "gp_name": "", "state_name": "DELHI", "state_lgd": 7, "population": 5, "households": 6780}, "geometry": {"type": "Polygon", "coordinates": [[[77.18649, 28.46862], [77.18531, 28.464630000000003], [77.18347, 28.464760000000002], [77.18302000000001, 28.46562], [77.17922, 28.466350000000002], [77.17735, 28.468130000000002], [77.17598000000001, 28.468020000000003], [77.17515, 28.46974], [77.17783, 28.473530000000004], [77.18639, 28.47246], [77.18649, 28.46862]]]}}, {"id": "19", "type": "Feature", "properties": {"village_name": "Deoli CT", "vil_lgd": 64076, "district_name": "South", "dist_lgd": 83, "subdistrict_name": "Hauz Khas", "sdcode": 454, "block_name": "", "block_lgd": null, "gp_name": "", "state_name": "DELHI", "state_lgd": 7, "population": 5, "households": 169122}, "geometry": {"type": "Polygon", "coordinates": [[[77.22212, 28.502810000000004], [77.22456000000001, 28.50307], [77.23187, 28.50569], [77.23496, 28.50814], [77.24186, 28.50561], [77.24282000000001, 28.498810000000002], [77.24558, 28.495060000000002], [77.24763, 28.49368], [77.24923000000001, 28.490840000000002], [77.2496, 28.48327], [77.24875, 28.48101], [77.24341000000001, 28.478880000000004], [77.2356, 28.47116], [77.22612000000001, 28.47765], [77.21594, 28.490810000000003], [77.21228, 28.494320000000002], [77.20976, 28.495530000000002], [77.21222, 28.502930000000003], [77.21244, 28.510230000000004], [77.21796, 28.50887], [77.22194, 28.50381], [77.22212, 28.502810000000004]]]}}]}