{"type": "FeatureCollection", "metadata": {"source": "Survey of India (per src_agency attribute in the source data)", "hosted_via": "National Water Data Portal (NWDP), NWIC, Ministry of Jal Shakti -- https://nwdp.nwic.gov.in/", "access": "public, no login required", "crs_original": "EPSG:7755 (WGS 84 / India NSF LCC)", "fetch_date": "2026-08-02", "quality": "verified-official -- Survey of India source", "state": "Delhi", "district": "West", "processing": "reprojected to EPSG:4326, topology-preserving simplify (shared-arc, tolerance 0.0005 deg) so adjacent polygons never overlap/gap at shared borders, coords rounded 5dp, 0 feature(s) needed the per-feature fallback", "feature_count": 16}, "features": [{"id": "0", "type": "Feature", "properties": {"village_name": "South Delhi Municipal Corporation", "vil_lgd": 276402, "district_name": "West", "dist_lgd": 85, "subdistrict_name": "Patel Nagar", "sdcode": 448, "block_name": "", "block_lgd": 0.0, "gp_name": "", "state_name": "DELHI", "state_lgd": 7, "population": 4, "households": 1065969}, "geometry": {"type": "MultiPolygon", "coordinates": [[[[77.15731000000001, 28.671370000000003], [77.15979, 28.670610000000003], [77.16387, 28.662290000000002], [77.15911000000001, 28.65808], [77.16231, 28.658030000000004], [77.16791, 28.656160000000003], [77.16856, 28.653420000000004], [77.16928, 28.653080000000003], [77.17294000000001, 28.65339], [77.17836000000001, 28.652320000000003], [77.18024000000001, 28.652860000000004], [77.17995, 28.650810000000003], [77.18119, 28.65031], [77.17824, 28.64626], [77.17837, 28.64523], [77.17536000000001, 28.641830000000002], [77.17588, 28.63979], [77.17527000000001, 28.633340000000004], [77.17666000000001, 28.630100000000002], [77.17266000000001, 28.629990000000003], [77.16549, 28.62796], [77.16169000000001, 28.633000000000003], [77.15323000000001, 28.639490000000002], [77.14968, 28.63725], [77.14708, 28.640210000000003], [77.14563000000001, 28.6382], [77.13629, 28.64103], [77.12540000000001, 28.63895], [77.12137000000001, 28.642740000000003], [77.1204, 28.644460000000002], [77.11752000000001, 28.646590000000003], [77.11712, 28.64797], [77.11352000000001, 28.649820000000002], [77.11342, 28.651290000000003], [77.11160000000001, 28.65182], [77.10807000000001, 28.648780000000002], [77.10404000000001, 28.642210000000002], [77.10005000000001, 28.640240000000002], [77.09826000000001, 28.639870000000002], [77.09163000000001, 28.643400000000003], [77.08985000000001, 28.64581], [77.08857, 28.645940000000003], [77.08340000000001, 28.64055], [77.08889, 28.63764], [77.09163000000001, 28.635270000000002], [77.08953000000001, 28.628700000000002], [77.08486, 28.62985], [77.08389000000001, 28.628500000000003], [77.08708, 28.625940000000003], [77.08954, 28.618070000000003], [77.0874, 28.616970000000002], [77.08638, 28.615450000000003], [77.0805, 28.613780000000002], [77.07956, 28.61201], [77.06409000000001, 28.62123], [77.06629000000001, 28.625130000000002], [77.06779, 28.628880000000002], [77.06102000000001, 28.634770000000003], [77.05916, 28.635450000000002], [77.05871, 28.637400000000003], [77.06641, 28.643410000000003], [77.07582000000001, 28.652610000000003], [77.08245000000001, 28.655110000000004], [77.09101000000001, 28.653550000000003], [77.09629000000001, 28.65799], [77.10035, 28.659990000000004], [77.11148, 28.66043], [77.11354, 28.657740000000004], [77.1144, 28.657680000000003], [77.11811, 28.659550000000003], [77.12246, 28.664620000000003], [77.12681, 28.665250000000004], [77.12802, 28.66637], [77.13272, 28.667690000000004], [77.13937, 28.671180000000003], [77.14850000000001, 28.669200000000004], [77.14939000000001, 28.672870000000003], [77.15333000000001, 28.67236], [77.15716, 28.675390000000004], [77.15765, 28.674780000000002], [77.15695000000001, 28.674380000000003], [77.15825000000001, 28.67329], [77.15731000000001, 28.671370000000003]]], [[[77.04861000000001, 28.624190000000002], [77.05453, 28.624440000000003], [77.05560000000001, 28.623250000000002], [77.05312, 28.61831], [77.05183000000001, 28.616300000000003], [77.05489, 28.611680000000003], [77.05233000000001, 28.607450000000004], [77.06194, 28.59963], [77.05981000000001, 28.59842], [77.05864000000001, 28.599410000000002], [77.05846000000001, 28.598250000000004], [77.0554, 28.596220000000002], [77.0518, 28.597230000000003], [77.04481000000001, 28.60113], [77.03632, 28.604000000000003], [77.03263000000001, 28.61388], [77.03282, 28.615420000000004], [77.03401000000001, 28.616600000000002], [77.03049, 28.619030000000002], [77.02251000000001, 28.620970000000003], [77.02286000000001, 28.62348], [77.02205000000001, 28.626450000000002], [77.02513, 28.631390000000003], [77.02548, 28.633650000000003], [77.02729000000001, 28.633580000000002], [77.03079000000001, 28.629450000000002], [77.03492, 28.62826], [77.04255, 28.625750000000004], [77.04683, 28.625190000000003], [77.04861000000001, 28.624190000000002]]]]}}, {"id": "1", "type": "Feature", "properties": {"village_name": "South Delhi Municipal Corporation", "vil_lgd": 276402, "district_name": "West", "dist_lgd": 85, "subdistrict_name": "Rajouri Garden", "sdcode": 449, "block_name": "", "block_lgd": 0.0, "gp_name": "", "state_name": "DELHI", "state_lgd": 7, "population": 4, "households": 481632}, "geometry": {"type": "Polygon", "coordinates": [[[77.12540000000001, 28.63895], [77.12201, 28.63181], [77.12258, 28.62852], [77.12196, 28.627710000000004], [77.11942, 28.62805], [77.11805000000001, 28.627010000000002], [77.11531000000001, 28.618180000000002], [77.10394000000001, 28.61276], [77.09559, 28.616500000000002], [77.08954, 28.618070000000003], [77.08708, 28.625940000000003], [77.08389000000001, 28.628500000000003], [77.08486, 28.62985], [77.08953000000001, 28.628700000000002], [77.09163000000001, 28.635270000000002], [77.08889, 28.63764], [77.08340000000001, 28.64055], [77.08857, 28.645940000000003], [77.08985000000001, 28.64581], [77.09163000000001, 28.643400000000003], [77.09826000000001, 28.639870000000002], [77.10005000000001, 28.640240000000002], [77.10404000000001, 28.642210000000002], [77.10807000000001, 28.648780000000002], [77.11160000000001, 28.65182], [77.11342, 28.651290000000003], [77.11352000000001, 28.649820000000002], [77.11712, 28.64797], [77.11752000000001, 28.646590000000003], [77.1204, 28.644460000000002], [77.12137000000001, 28.642740000000003], [77.12540000000001, 28.63895]]]}}, {"id": "2", "type": "Feature", "properties": {"village_name": "Neel Wal", "vil_lgd": 63993, "district_name": "West", "dist_lgd": 85, "subdistrict_name": "Punjabi Bagh", "sdcode": 450, "block_name": "West", "block_lgd": 5.0, "gp_name": "NA", "state_name": "DELHI", "state_lgd": 7, "population": 5, "households": 2637}, "geometry": {"type": "Polygon", "coordinates": [[[76.99181, 28.66944], [76.98938000000001, 28.66636], [76.99205, 28.661830000000002], [76.99298, 28.65837], [76.98874, 28.66082], [76.97968, 28.654290000000003], [76.97751000000001, 28.65706], [76.96793000000001, 28.65856], [76.96717000000001, 28.659560000000003], [76.97078, 28.66673], [76.97535, 28.671260000000004], [76.97785, 28.67272], [76.98052000000001, 28.671730000000004], [76.98225000000001, 28.672990000000002], [76.98409000000001, 28.672670000000004], [76.98748, 28.675440000000002], [76.9895, 28.67471], [76.99181, 28.66944]]]}}, {"id": "3", "type": "Feature", "properties": {"village_name": "Jaffar Pur Alias Hiran Kudna", "vil_lgd": 63994, "district_name": "West", "dist_lgd": 85, "subdistrict_name": "Punjabi Bagh", "sdcode": 450, "block_name": "West", "block_lgd": 5.0, "gp_name": "NA", "state_name": "DELHI", "state_lgd": 7, "population": 5, "households": 3783}, "geometry": {"type": "Polygon", "coordinates": [[[77.00285000000001, 28.680390000000003], [77.00806, 28.678590000000003], [77.00788, 28.67377], [77.00709, 28.67387], [77.00503, 28.66767], [77.00343000000001, 28.66616], [76.99910000000001, 28.657560000000004], [76.99629, 28.6537], [76.9927, 28.65631], [76.99298, 28.65837], [76.99205, 28.661830000000002], [76.98938000000001, 28.66636], [76.99181, 28.66944], [76.9895, 28.67471], [76.99098000000001, 28.67742], [76.99300000000001, 28.678250000000002], [76.99539, 28.681780000000003], [77.00024, 28.67921], [77.00285000000001, 28.680390000000003]]]}}, {"id": "4", "type": "Feature", "properties": {"village_name": "South Delhi Municipal Corporation", "vil_lgd": 276402, "district_name": "West", "dist_lgd": 85, "subdistrict_name": "Punjabi Bagh", "sdcode": 450, "block_name": "", "block_lgd": 0.0, "gp_name": "", "state_name": "DELHI", "state_lgd": 7, "population": 4, "households": 331662}, "geometry": {"type": "Polygon", "coordinates": [[[77.12515, 28.68033], [77.13266, 28.677130000000002], [77.13937, 28.671180000000003], [77.13272, 28.667690000000004], [77.12802, 28.66637], [77.12681, 28.665250000000004], [77.12246, 28.664620000000003], [77.11811, 28.659550000000003], [77.1144, 28.657680000000003], [77.11354, 28.657740000000004], [77.11148, 28.66043], [77.10035, 28.659990000000004], [77.09629000000001, 28.65799], [77.09101000000001, 28.653550000000003], [77.08245000000001, 28.655110000000004], [77.07582000000001, 28.652610000000003], [77.06936, 28.658790000000003], [77.06498, 28.660460000000004], [77.06829, 28.664340000000003], [77.07347, 28.663380000000004], [77.07866, 28.665340000000004], [77.08146, 28.6673], [77.08498, 28.670890000000004], [77.08569, 28.6731], [77.08522, 28.67518], [77.08659, 28.678480000000004], [77.09244000000001, 28.68598], [77.09501, 28.689000000000004], [77.09788, 28.689300000000003], [77.10366, 28.684680000000004], [77.10768, 28.688530000000004], [77.1148, 28.68306], [77.11838, 28.687220000000003], [77.11930000000001, 28.689700000000002], [77.12131000000001, 28.68907], [77.12304, 28.68738], [77.12076, 28.68372], [77.12515, 28.68033]]]}}, {"id": "5", "type": "Feature", "properties": {"village_name": "Tilang Pur Kotla CT", "vil_lgd": 63996, "district_name": "West", "dist_lgd": 85, "subdistrict_name": "Punjabi Bagh", "sdcode": 450, "block_name": "", "block_lgd": null, "gp_name": "", "state_name": "DELHI", "state_lgd": 7, "population": 5, "households": 13614}, "geometry": {"type": "Polygon", "coordinates": [[[77.02883, 28.642660000000003], [77.02016, 28.647370000000002], [77.02141, 28.649140000000003], [77.02693000000001, 28.65295], [77.03008000000001, 28.65123], [77.03411000000001, 28.646980000000003], [77.0334, 28.64591], [77.02983, 28.64347], [77.02883, 28.642660000000003]]]}}, {"id": "6", "type": "Feature", "properties": {"village_name": "Bakkar Wala CT", "vil_lgd": 64002, "district_name": "West", "dist_lgd": 85, "subdistrict_name": "Punjabi Bagh", "sdcode": 450, "block_name": "", "block_lgd": null, "gp_name": "", "state_name": "DELHI", "state_lgd": 7, "population": 5, "households": 18122}, "geometry": {"type": "Polygon", "coordinates": [[[77.01735000000001, 28.672600000000003], [77.02448000000001, 28.670720000000003], [77.03247, 28.665340000000004], [77.03038000000001, 28.661140000000003], [77.02955, 28.653260000000003], [77.03008000000001, 28.65123], [77.02693000000001, 28.65295], [77.02141, 28.649140000000003], [77.02016, 28.647370000000002], [77.00501000000001, 28.653060000000004], [77.00215, 28.651280000000003], [76.99629, 28.6537], [76.99910000000001, 28.657560000000004], [77.00343000000001, 28.66616], [77.00503, 28.66767], [77.00709, 28.67387], [77.00788, 28.67377], [77.01735000000001, 28.672600000000003]]]}}, {"id": "7", "type": "Feature", "properties": {"village_name": "Nilothi CT", "vil_lgd": 63998, "district_name": "West", "dist_lgd": 85, "subdistrict_name": "Punjabi Bagh", "sdcode": 450, "block_name": "", "block_lgd": null, "gp_name": "", "state_name": "DELHI", "state_lgd": 7, "population": 4, "households": 43371}, "geometry": {"type": "Polygon", "coordinates": [[[77.06498, 28.660460000000004], [77.06936, 28.658790000000003], [77.07582000000001, 28.652610000000003], [77.06641, 28.643410000000003], [77.05871, 28.637400000000003], [77.05593, 28.640030000000003], [77.0565, 28.64504], [77.05593, 28.64598], [77.05044000000001, 28.65048], [77.05082, 28.653060000000004], [77.05486, 28.66015], [77.05529, 28.66279], [77.05643, 28.662380000000002], [77.05757000000001, 28.66346], [77.06498, 28.660460000000004]]]}}, {"id": "8", "type": "Feature", "properties": {"village_name": "Shafi Pur Ranhola CT", "vil_lgd": 63997, "district_name": "West", "dist_lgd": 85, "subdistrict_name": "Punjabi Bagh", "sdcode": 450, "block_name": "", "block_lgd": null, "gp_name": "", "state_name": "DELHI", "state_lgd": 7, "population": 5, "households": 31944}, "geometry": {"type": "Polygon", "coordinates": [[[77.05529, 28.66279], [77.05486, 28.66015], [77.05082, 28.653060000000004], [77.05044000000001, 28.65048], [77.04245, 28.650540000000003], [77.03411000000001, 28.646980000000003], [77.03008000000001, 28.65123], [77.02955, 28.653260000000003], [77.03038000000001, 28.661140000000003], [77.03247, 28.665340000000004], [77.03404, 28.663840000000004], [77.03532000000001, 28.663960000000003], [77.04117000000001, 28.668840000000003], [77.04402, 28.67059], [77.04673000000001, 28.67114], [77.04911000000001, 28.668300000000002], [77.04892000000001, 28.666970000000003], [77.05253, 28.664710000000003], [77.05529, 28.66279]]]}}, {"id": "9", "type": "Feature", "properties": {"village_name": "Bapraula CT", "vil_lgd": 63995, "district_name": "West", "dist_lgd": 85, "subdistrict_name": "Punjabi Bagh", "sdcode": 450, "block_name": "", "block_lgd": null, "gp_name": "", "state_name": "DELHI", "state_lgd": 7, "population": 5, "households": 52744}, "geometry": {"type": "Polygon", "coordinates": [[[77.02883, 28.642660000000003], [77.02612, 28.640470000000004], [77.02491, 28.637340000000002], [77.02548, 28.633650000000003], [77.02513, 28.631390000000003], [77.02205000000001, 28.626450000000002], [77.01593000000001, 28.627170000000003], [77.01419, 28.625410000000002], [77.00947000000001, 28.625130000000002], [77.0078, 28.62411], [77.00461, 28.625220000000002], [77.00685, 28.627940000000002], [77.00492000000001, 28.63146], [76.99968000000001, 28.6474], [76.99975, 28.649610000000003], [77.00215, 28.651280000000003], [77.00501000000001, 28.653060000000004], [77.02016, 28.647370000000002], [77.02883, 28.642660000000003]]]}}, {"id": "10", "type": "Feature", "properties": {"village_name": "Hastsal CT", "vil_lgd": 63991, "district_name": "West", "dist_lgd": 85, "subdistrict_name": "Patel Nagar", "sdcode": 448, "block_name": "", "block_lgd": null, "gp_name": "", "state_name": "DELHI", "state_lgd": 7, "population": 5, "households": 176877}, "geometry": {"type": "Polygon", "coordinates": [[[77.06409000000001, 28.62123], [77.06119000000001, 28.617760000000004], [77.05312, 28.61831], [77.05560000000001, 28.623250000000002], [77.05453, 28.624440000000003], [77.04861000000001, 28.624190000000002], [77.04683, 28.625190000000003], [77.04255, 28.625750000000004], [77.03492, 28.62826], [77.03585000000001, 28.630640000000003], [77.04041000000001, 28.640150000000002], [77.0334, 28.64591], [77.03411000000001, 28.646980000000003], [77.04245, 28.650540000000003], [77.05044000000001, 28.65048], [77.05593, 28.64598], [77.0565, 28.64504], [77.05593, 28.640030000000003], [77.05871, 28.637400000000003], [77.05916, 28.635450000000002], [77.06102000000001, 28.634770000000003], [77.06779, 28.628880000000002], [77.06629000000001, 28.625130000000002], [77.06409000000001, 28.62123]]]}}, {"id": "11", "type": "Feature", "properties": {"village_name": "Raja Pur Khurd CT", "vil_lgd": 63992, "district_name": "West", "dist_lgd": 85, "subdistrict_name": "Patel Nagar", "sdcode": 448, "block_name": "", "block_lgd": null, "gp_name": "", "state_name": "DELHI", "state_lgd": 7, "population": 5, "households": 19312}, "geometry": {"type": "Polygon", "coordinates": [[[77.03492, 28.62826], [77.03079000000001, 28.629450000000002], [77.02729000000001, 28.633580000000002], [77.02548, 28.633650000000003], [77.02491, 28.637340000000002], [77.02612, 28.640470000000004], [77.02883, 28.642660000000003], [77.02983, 28.64347], [77.0334, 28.64591], [77.04041000000001, 28.640150000000002], [77.03585000000001, 28.630640000000003], [77.03492, 28.62826]]]}}, {"id": "12", "type": "Feature", "properties": {"village_name": "Tikri Kalan CT", "vil_lgd": 64003, "district_name": "West", "dist_lgd": 85, "subdistrict_name": "Punjabi Bagh", "sdcode": 450, "block_name": "", "block_lgd": null, "gp_name": "", "state_name": "DELHI", "state_lgd": 7, "population": 4, "households": 16313}, "geometry": {"type": "Polygon", "coordinates": [[[76.97603000000001, 28.69825], [76.97653000000001, 28.697400000000002], [76.98302000000001, 28.69048], [76.99539, 28.681780000000003], [76.99300000000001, 28.678250000000002], [76.99098000000001, 28.67742], [76.9895, 28.67471], [76.98748, 28.675440000000002], [76.98409000000001, 28.672670000000004], [76.98225000000001, 28.672990000000002], [76.98052000000001, 28.671730000000004], [76.97785, 28.67272], [76.97535, 28.671260000000004], [76.97078, 28.66673], [76.96717000000001, 28.659560000000003], [76.96269000000001, 28.661360000000002], [76.95372, 28.667780000000004], [76.95589000000001, 28.671250000000004], [76.95662, 28.68063], [76.95851, 28.6857], [76.96313, 28.692010000000003], [76.96333000000001, 28.694000000000003], [76.96601000000001, 28.697830000000003], [76.97257, 28.701850000000004], [76.97432, 28.702040000000004], [76.97681, 28.700440000000004], [76.97603000000001, 28.69825]]]}}, {"id": "13", "type": "Feature", "properties": {"village_name": "Mundka CT", "vil_lgd": 64001, "district_name": "West", "dist_lgd": 85, "subdistrict_name": "Punjabi Bagh", "sdcode": 450, "block_name": "", "block_lgd": null, "gp_name": "", "state_name": "DELHI", "state_lgd": 7, "population": 5, "households": 54541}, "geometry": {"type": "Polygon", "coordinates": [[[77.04105000000001, 28.697480000000002], [77.04512000000001, 28.69497], [77.04886, 28.688240000000004], [77.0541, 28.68342], [77.05177, 28.681060000000002], [77.0511, 28.67873], [77.05091, 28.675970000000003], [77.04673000000001, 28.67114], [77.04402, 28.67059], [77.04117000000001, 28.668840000000003], [77.03532000000001, 28.663960000000003], [77.03404, 28.663840000000004], [77.03247, 28.665340000000004], [77.02448000000001, 28.670720000000003], [77.01735000000001, 28.672600000000003], [77.00788, 28.67377], [77.00806, 28.678590000000003], [77.00285000000001, 28.680390000000003], [77.00938000000001, 28.688260000000003], [77.01270000000001, 28.695310000000003], [77.02315, 28.695490000000003], [77.03818000000001, 28.698290000000004], [77.04105000000001, 28.697480000000002]]]}}, {"id": "14", "type": "Feature", "properties": {"village_name": "Nangloi Jat CT", "vil_lgd": 63999, "district_name": "West", "dist_lgd": 85, "subdistrict_name": "Punjabi Bagh", "sdcode": 450, "block_name": "", "block_lgd": null, "gp_name": "", "state_name": "DELHI", "state_lgd": 7, "population": 5, "households": 205596}, "geometry": {"type": "Polygon", "coordinates": [[[77.07341000000001, 28.686030000000002], [77.07602, 28.683020000000003], [77.07849, 28.68354], [77.08366000000001, 28.68842], [77.08554000000001, 28.688900000000004], [77.08793, 28.68879], [77.09244000000001, 28.68598], [77.08659, 28.678480000000004], [77.08522, 28.67518], [77.08569, 28.6731], [77.08498, 28.670890000000004], [77.08146, 28.6673], [77.07866, 28.665340000000004], [77.07347, 28.663380000000004], [77.06829, 28.664340000000003], [77.06863000000001, 28.665380000000003], [77.06630000000001, 28.66542], [77.06544000000001, 28.66805], [77.06378000000001, 28.66955], [77.06359, 28.671640000000004], [77.06031, 28.67385], [77.06064, 28.674640000000004], [77.05879, 28.676810000000003], [77.05612, 28.67648], [77.05380000000001, 28.67902], [77.0511, 28.67873], [77.05177, 28.681060000000002], [77.0541, 28.68342], [77.0561, 28.686830000000004], [77.06452, 28.691990000000004], [77.06658, 28.69028], [77.07341000000001, 28.686030000000002]]]}}, {"id": "15", "type": "Feature", "properties": {"village_name": "Quammruddin Nagar CT", "vil_lgd": 64000, "district_name": "West", "dist_lgd": 85, "subdistrict_name": "Punjabi Bagh", "sdcode": 450, "block_name": "", "block_lgd": null, "gp_name": "", "state_name": "DELHI", "state_lgd": 7, "population": 5, "households": 25126}, "geometry": {"type": "Polygon", "coordinates": [[[77.05612, 28.67648], [77.05879, 28.676810000000003], [77.06064, 28.674640000000004], [77.06031, 28.67385], [77.06359, 28.671640000000004], [77.06378000000001, 28.66955], [77.06544000000001, 28.66805], [77.06630000000001, 28.66542], [77.06863000000001, 28.665380000000003], [77.06829, 28.664340000000003], [77.06498, 28.660460000000004], [77.05757000000001, 28.66346], [77.05643, 28.662380000000002], [77.05529, 28.66279], [77.05253, 28.664710000000003], [77.04892000000001, 28.666970000000003], [77.04911000000001, 28.668300000000002], [77.04673000000001, 28.67114], [77.05091, 28.675970000000003], [77.0511, 28.67873], [77.05380000000001, 28.67902], [77.05612, 28.67648]]]}}]}