{"type": "FeatureCollection", "metadata": {"source": "Survey of India (per src_agency attribute in the source data)", "hosted_via": "National Water Data Portal (NWDP), NWIC, Ministry of Jal Shakti -- https://nwdp.nwic.gov.in/dataset/village-boundary (the portal's own breadcrumb tags 'Geological Survey of India' as the uploading Data Producer; every source feature's own src_agency attribute reads 'Survey of India (SOI)')", "access": "public, no login required", "crs_original": "EPSG:7755 (WGS 84 / India NSF LCC)", "fetch_date": "2026-08-01", "processing": "reprojected to EPSG:4326, geometry simplified with Douglas-Peucker (tolerance 0.0005 deg, ~55m, preserve_topology=True), coordinates rounded to 5 decimal places (~1m), attributes trimmed from 73 source columns to 11", "quality": "verified-official -- Survey of India source, see docs/DATA_SOURCES.md", "known_quirks": "0 feature(s) carry vlcode=999999, a sentinel the source uses for incomplete/placeholder records rather than a real LGD id -- the accompanying village name is sometimes a real place (e.g. a reserve-forest area) and sometimes the source's own literal placeholder text 'Data Partially Available' -- left as-is, not corrected either way. 0 feature(s) have self-intersecting source geometry -- left as-is, not repaired (of these, 0 could not be Douglas-Peucker simplified because GEOS raised a topology error on the raw shape; a buffer(0) self-intersection fix was tried first, and only where that also failed is the original unsimplified geometry kept verbatim). Neither is fabricated or silently dropped."}, "features": [{"id": "0", "type": "Feature", "properties": {"village_name": "Sarangpur", "vil_lgd": 40090, "district_name": "Chandigarh", "subdistrict_name": "Chandigarh", "block_name": "Chandigarh", "gp_name": "SARANGPUR", "state_name": "CHANDIGARH", "dist_lgd": 44, "state_lgd": 4, "population": 3468, "households": 785}, "geometry": {"type": "Polygon", "coordinates": [[[76.76708, 30.7877], [76.76997, 30.785750000000004], [76.77139000000001, 30.783450000000002], [76.77105, 30.779500000000002], [76.77169, 30.778620000000004], [76.77005000000001, 30.7769], [76.77181, 30.77353], [76.76910000000001, 30.76948], [76.76180000000001, 30.775620000000004], [76.75471, 30.779120000000002], [76.75663, 30.78684], [76.75876000000001, 30.787950000000002], [76.75844000000001, 30.788690000000003], [76.76105000000001, 30.79107], [76.76342000000001, 30.792340000000003], [76.76551, 30.78768], [76.76708, 30.7877]]]}}, {"id": "1", "type": "Feature", "properties": {"village_name": "Dhanas", "vil_lgd": 40091, "district_name": "Chandigarh", "subdistrict_name": "Chandigarh", "block_name": "Chandigarh", "gp_name": "DHANAS", "state_name": "CHANDIGARH", "dist_lgd": 44, "state_lgd": 4, "population": 7094, "households": 1845}, "geometry": {"type": "Polygon", "coordinates": [[[76.76180000000001, 30.775620000000004], [76.76843000000001, 30.77042], [76.76950000000001, 30.768380000000004], [76.76141000000001, 30.76601], [76.75825, 30.762760000000004], [76.75609, 30.76781], [76.75799, 30.76986], [76.75795000000001, 30.772460000000002], [76.75642, 30.772710000000004], [76.7556, 30.76874], [76.75296, 30.768440000000002], [76.74983, 30.770030000000002], [76.74723, 30.77025], [76.745, 30.772060000000003], [76.74491, 30.77474], [76.74375, 30.776090000000003], [76.75226, 30.780320000000003], [76.75243, 30.783160000000002], [76.75177000000001, 30.784270000000003], [76.75663, 30.78684], [76.75471, 30.779120000000002], [76.75704, 30.77757], [76.76180000000001, 30.775620000000004]]]}}, {"id": "2", "type": "Feature", "properties": {"village_name": "Chandigarh", "vil_lgd": 276386, "district_name": "Chandigarh", "subdistrict_name": "Chandigarh", "block_name": "", "gp_name": "", "state_name": "CHANDIGARH", "dist_lgd": 44, "state_lgd": 4, "population": 970602, "households": 220520}, "geometry": {"type": "Polygon", "coordinates": [[[76.75609, 30.76781], [76.75825, 30.762760000000004], [76.76141000000001, 30.76601], [76.76994, 30.76837], [76.77091, 30.769340000000003], [76.77621, 30.765610000000002], [76.78179, 30.767650000000003], [76.78315, 30.770730000000004], [76.79015000000001, 30.770850000000003], [76.7913, 30.76752], [76.79165, 30.769040000000004], [76.79582, 30.771110000000004], [76.79857000000001, 30.77154], [76.80057000000001, 30.770970000000002], [76.80492000000001, 30.76666], [76.80623, 30.76367], [76.81498, 30.753090000000004], [76.81592, 30.753300000000003], [76.81531000000001, 30.751860000000004], [76.81203000000001, 30.751980000000003], [76.81093000000001, 30.750030000000002], [76.83383, 30.74988], [76.83344000000001, 30.746480000000002], [76.83474000000001, 30.742220000000003], [76.83677, 30.74266], [76.83149, 30.739570000000004], [76.83195, 30.7387], [76.83308000000001, 30.738840000000003], [76.83724000000001, 30.733500000000003], [76.84195000000001, 30.73278], [76.84328000000001, 30.731180000000002], [76.84749000000001, 30.731460000000002], [76.84827, 30.730380000000004], [76.84638000000001, 30.729730000000004], [76.84939, 30.723450000000003], [76.84605, 30.722340000000003], [76.84356000000001, 30.71927], [76.84512000000001, 30.717290000000002], [76.84944, 30.71833], [76.84683000000001, 30.716880000000003], [76.84831000000001, 30.715360000000004], [76.84722000000001, 30.71234], [76.84382000000001, 30.707980000000003], [76.83869, 30.705940000000002], [76.83563000000001, 30.70371], [76.83526, 30.701610000000002], [76.82950000000001, 30.695560000000004], [76.82541, 30.694570000000002], [76.82458000000001, 30.693170000000002], [76.82143, 30.693640000000002], [76.82057, 30.692560000000004], [76.82015000000001, 30.69375], [76.81732000000001, 30.694060000000004], [76.82079, 30.70474], [76.81404, 30.706090000000003], [76.81117, 30.70417], [76.80923, 30.704120000000003], [76.80596000000001, 30.70024], [76.80433000000001, 30.695770000000003], [76.80414, 30.690800000000003], [76.80704, 30.68493], [76.80826, 30.679620000000003], [76.81101000000001, 30.675110000000004], [76.81493, 30.670970000000004], [76.81149, 30.6701], [76.80866, 30.667430000000003], [76.80216, 30.66673], [76.80018000000001, 30.67021], [76.79643, 30.667650000000002], [76.79415, 30.66955], [76.78974000000001, 30.675670000000004], [76.78173000000001, 30.673820000000003], [76.78122, 30.67434], [76.77875, 30.671260000000004], [76.77661, 30.6704], [76.77569000000001, 30.67171], [76.77422, 30.672130000000003], [76.76991000000001, 30.679820000000003], [76.76427000000001, 30.686090000000004], [76.75886000000001, 30.68654], [76.75254000000001, 30.684600000000003], [76.74992, 30.688360000000003], [76.74775000000001, 30.687600000000003], [76.74715, 30.69555], [76.74318000000001, 30.693700000000003], [76.7393, 30.692970000000003], [76.73951000000001, 30.69808], [76.73794000000001, 30.699890000000003], [76.73934000000001, 30.700380000000003], [76.73910000000001, 30.70578], [76.73001000000001, 30.70688], [76.72907000000001, 30.711830000000003], [76.73125, 30.712580000000003], [76.72869, 30.715940000000003], [76.73113000000001, 30.717570000000002], [76.73107, 30.72349], [76.7305, 30.724180000000004], [76.72955, 30.723540000000003], [76.72573000000001, 30.727890000000002], [76.7232, 30.728460000000002], [76.72125000000001, 30.730020000000003], [76.71565000000001, 30.737370000000002], [76.71417000000001, 30.740980000000004], [76.71328000000001, 30.740540000000003], [76.71269000000001, 30.741260000000004], [76.70747, 30.73955], [76.70516, 30.742970000000003], [76.70663, 30.7447], [76.70596, 30.747500000000002], [76.70714000000001, 30.747880000000002], [76.70721, 30.749280000000002], [76.70833, 30.75026], [76.70734, 30.753780000000003], [76.70521000000001, 30.756010000000003], [76.71135000000001, 30.761530000000004], [76.72087, 30.763900000000003], [76.72478000000001, 30.765970000000003], [76.72884, 30.764920000000004], [76.73177000000001, 30.765380000000004], [76.74402, 30.769730000000003], [76.74387, 30.77154], [76.7445, 30.772000000000002], [76.74723, 30.77025], [76.75454, 30.768490000000003], [76.75586000000001, 30.7692], [76.75642, 30.772710000000004], [76.75741000000001, 30.772830000000003], [76.75814000000001, 30.77182], [76.75799, 30.76986], [76.75664, 30.768590000000003], [76.75609, 30.76781]], [[76.82366, 30.73496], [76.82056, 30.73156], [76.81989, 30.72781], [76.82032000000001, 30.72031], [76.819, 30.71656], [76.82446, 30.716140000000003], [76.82779000000001, 30.72866], [76.83185, 30.731030000000004], [76.83250000000001, 30.73224], [76.83256, 30.736210000000003], [76.83139000000001, 30.736110000000004], [76.83136, 30.73674], [76.83235, 30.73787], [76.82656, 30.735630000000004], [76.82366, 30.73496]], [[76.79928000000001, 30.67479], [76.80289, 30.67592], [76.80196000000001, 30.678910000000002], [76.79957, 30.682150000000004], [76.79712, 30.6809], [76.79609, 30.679320000000004], [76.79728, 30.6777], [76.79697, 30.676810000000003], [76.79928000000001, 30.67479]]]}}, {"id": "3", "type": "Feature", "properties": {"village_name": "Kaimbwala", "vil_lgd": 40089, "district_name": "Chandigarh", "subdistrict_name": "Chandigarh", "block_name": "Chandigarh", "gp_name": "KAIMBWALA", "state_name": "CHANDIGARH", "dist_lgd": 44, "state_lgd": 4, "population": 6050, "households": 1341}, "geometry": {"type": "Polygon", "coordinates": [[[76.83773000000001, 30.75456], [76.83383, 30.74988], [76.81093000000001, 30.750030000000002], [76.81203000000001, 30.751980000000003], [76.81531000000001, 30.751860000000004], [76.81592, 30.753300000000003], [76.81784, 30.75466], [76.82017, 30.761070000000004], [76.82430000000001, 30.76132], [76.82444000000001, 30.76226], [76.82652, 30.763510000000004], [76.82785000000001, 30.762390000000003], [76.83773000000001, 30.75456]]]}}, {"id": "4", "type": "Feature", "properties": {"village_name": "Raipur Kalan and Makhan Majra", "vil_lgd": 40093, "district_name": "Chandigarh", "subdistrict_name": "Chandigarh", "block_name": "Chandigarh", "gp_name": "RAIPUR KALAN", "state_name": "CHANDIGARH", "dist_lgd": 44, "state_lgd": 4, "population": 4887, "households": 1213}, "geometry": {"type": "Polygon", "coordinates": [[[76.82515000000001, 30.6883], [76.8262, 30.686730000000004], [76.82761, 30.687720000000002], [76.83187000000001, 30.683280000000003], [76.82933000000001, 30.682070000000003], [76.82919000000001, 30.681010000000004], [76.82731000000001, 30.682190000000002], [76.82087, 30.677680000000002], [76.82089, 30.676410000000004], [76.81823, 30.681900000000002], [76.81292, 30.680770000000003], [76.81366000000001, 30.681970000000003], [76.81255, 30.685260000000003], [76.81299, 30.686640000000004], [76.81666000000001, 30.688080000000003], [76.81970000000001, 30.687910000000002], [76.82148000000001, 30.689170000000004], [76.82493000000001, 30.689600000000002], [76.82617, 30.68877], [76.82515000000001, 30.6883]]]}}, {"id": "5", "type": "Feature", "properties": {"village_name": "Raipur Khurd", "vil_lgd": 40092, "district_name": "Chandigarh", "subdistrict_name": "Chandigarh", "block_name": "Chandigarh", "gp_name": "RAIPUR KHURD", "state_name": "CHANDIGARH", "dist_lgd": 44, "state_lgd": 4, "population": 7492, "households": 1956}, "geometry": {"type": "Polygon", "coordinates": [[[76.81299, 30.686640000000004], [76.81255, 30.685260000000003], [76.81366000000001, 30.681970000000003], [76.81292, 30.680770000000003], [76.81823, 30.681900000000002], [76.82089, 30.676410000000004], [76.82077000000001, 30.674950000000003], [76.8168, 30.67302], [76.81633000000001, 30.671440000000004], [76.81493, 30.670970000000004], [76.81101000000001, 30.675110000000004], [76.80926000000001, 30.678240000000002], [76.80995, 30.679550000000003], [76.80833000000001, 30.680740000000004], [76.80711000000001, 30.683310000000002], [76.80666000000001, 30.685720000000003], [76.80907, 30.686880000000002], [76.81096000000001, 30.686760000000003], [76.81299, 30.686640000000004]]]}}, {"id": "6", "type": "Feature", "properties": {"village_name": "Khuda Alisher CT", "vil_lgd": 40094, "district_name": "Chandigarh", "subdistrict_name": "Chandigarh", "block_name": "", "gp_name": "", "state_name": "CHANDIGARH", "dist_lgd": 44, "state_lgd": 4, "population": 6831, "households": 1562}, "geometry": {"type": "Polygon", "coordinates": [[[76.81522000000001, 30.778480000000002], [76.81831000000001, 30.778150000000004], [76.81782000000001, 30.77511], [76.81972, 30.774580000000004], [76.81792, 30.77126], [76.81259, 30.76865], [76.80539, 30.76573], [76.80057000000001, 30.770970000000002], [76.79803000000001, 30.771400000000003], [76.7976, 30.772160000000003], [76.80263000000001, 30.775750000000002], [76.80745, 30.77746], [76.81057000000001, 30.77981], [76.81203000000001, 30.779220000000002], [76.81319, 30.780170000000002], [76.81428000000001, 30.779510000000002], [76.81522000000001, 30.778480000000002]]]}}, {"id": "7", "type": "Feature", "properties": {"village_name": "Mani Majra Basti Kishangarh Basti Bhagwanpura Ct", "vil_lgd": 40095, "district_name": "Chandigarh", "subdistrict_name": "Chandigarh", "block_name": "", "gp_name": "", "state_name": "CHANDIGARH", "dist_lgd": 44, "state_lgd": 4, "population": 15489, "households": 3716}, "geometry": {"type": "Polygon", "coordinates": [[[76.83256, 30.736210000000003], [76.83250000000001, 30.73224], [76.83185, 30.731030000000004], [76.82779000000001, 30.72866], [76.82446, 30.716140000000003], [76.819, 30.71656], [76.82032000000001, 30.72031], [76.81989, 30.72781], [76.82056, 30.73156], [76.82366, 30.73496], [76.83235, 30.73787], [76.83136, 30.73674], [76.83172, 30.73598], [76.83256, 30.736210000000003]]]}}, {"id": "8", "type": "Feature", "properties": {"village_name": "Daria CT", "vil_lgd": 40096, "district_name": "Chandigarh", "subdistrict_name": "Chandigarh", "block_name": "", "gp_name": "", "state_name": "CHANDIGARH", "dist_lgd": 44, "state_lgd": 4, "population": 14470, "households": 3475}, "geometry": {"type": "Polygon", "coordinates": [[[76.81732000000001, 30.694060000000004], [76.81893000000001, 30.693880000000004], [76.81806, 30.69291], [76.81468000000001, 30.691940000000002], [76.81345, 30.692290000000003], [76.81185, 30.691300000000002], [76.81051000000001, 30.692310000000003], [76.80895000000001, 30.691670000000002], [76.80784000000001, 30.692840000000004], [76.80454, 30.690160000000002], [76.80388, 30.691720000000004], [76.80454, 30.69236], [76.80433000000001, 30.695770000000003], [76.80559000000001, 30.699600000000004], [76.80813, 30.703210000000002], [76.81404, 30.706090000000003], [76.82079, 30.70474], [76.81732000000001, 30.694060000000004]]]}}, {"id": "9", "type": "Feature", "properties": {"village_name": "Behlana CT", "vil_lgd": 40098, "district_name": "Chandigarh", "subdistrict_name": "Chandigarh", "block_name": "", "gp_name": "", "state_name": "CHANDIGARH", "dist_lgd": 44, "state_lgd": 4, "population": 8281, "households": 2200}, "geometry": {"type": "MultiPolygon", "coordinates": [[[[76.79928000000001, 30.67479], [76.79697, 30.676810000000003], [76.79728, 30.6777], [76.79609, 30.679320000000004], [76.79898, 30.682090000000002], [76.80196000000001, 30.678910000000002], [76.80292, 30.676230000000004], [76.80030000000001, 30.674820000000004], [76.79928000000001, 30.67479]]], [[[76.80887000000001, 30.678620000000002], [76.80833000000001, 30.680740000000004], [76.80995, 30.679550000000003], [76.80977, 30.678620000000002], [76.80887000000001, 30.678620000000002]]]]}}, {"id": "10", "type": "Feature", "properties": {"village_name": "Mauli Jagran CT", "vil_lgd": 40097, "district_name": "Chandigarh", "subdistrict_name": "Chandigarh", "block_name": "", "gp_name": "", "state_name": "CHANDIGARH", "dist_lgd": 44, "state_lgd": 4, "population": 10786, "households": 2560}, "geometry": {"type": "Polygon", "coordinates": [[[76.82748000000001, 30.692080000000004], [76.82753000000001, 30.689950000000003], [76.82617, 30.68877], [76.82493000000001, 30.689600000000002], [76.82148000000001, 30.689170000000004], [76.81970000000001, 30.687910000000002], [76.81666000000001, 30.688080000000003], [76.81386, 30.68672], [76.80907, 30.686880000000002], [76.80666000000001, 30.685720000000003], [76.80454, 30.690160000000002], [76.80784000000001, 30.692840000000004], [76.80895000000001, 30.691670000000002], [76.81051000000001, 30.692310000000003], [76.81185, 30.691300000000002], [76.81345, 30.692290000000003], [76.81744, 30.69245], [76.81893000000001, 30.693880000000004], [76.82015000000001, 30.69375], [76.82057, 30.692560000000004], [76.82143, 30.693640000000002], [76.82458000000001, 30.693170000000002], [76.82541, 30.694570000000002], [76.82950000000001, 30.695560000000004], [76.82858, 30.694710000000004], [76.83021000000001, 30.693500000000004], [76.82748000000001, 30.692080000000004]]]}}, {"id": "11", "type": "Feature", "properties": {"village_name": "Lahora OG", "vil_lgd": 40099, "district_name": "Chandigarh", "subdistrict_name": "Chandigarh", "block_name": "", "gp_name": "", "state_name": "CHANDIGARH", "dist_lgd": 44, "state_lgd": 4, "population": 0, "households": 0}, "geometry": {"type": "Polygon", "coordinates": [[[76.77537000000001, 30.7907], [76.78272000000001, 30.789230000000003], [76.787, 30.779680000000003], [76.78032, 30.778380000000002], [76.77934, 30.778000000000002], [76.78007000000001, 30.776450000000004], [76.77171000000001, 30.773930000000004], [76.77005000000001, 30.7769], [76.77169, 30.778620000000004], [76.77105, 30.779500000000002], [76.77114, 30.784460000000003], [76.76708, 30.7877], [76.76509, 30.787900000000004], [76.76342000000001, 30.792340000000003], [76.77153000000001, 30.795260000000003], [76.77242000000001, 30.794110000000003], [76.77537000000001, 30.7907]]]}}, {"id": "12", "type": "Feature", "properties": {"village_name": "Khuda Jassu OG", "vil_lgd": 40100, "district_name": "Chandigarh", "subdistrict_name": "Chandigarh", "block_name": "", "gp_name": "", "state_name": "CHANDIGARH", "dist_lgd": 44, "state_lgd": 4, "population": 0, "households": 0}, "geometry": {"type": "Polygon", "coordinates": [[[76.78179, 30.767650000000003], [76.77621, 30.765610000000002], [76.77464, 30.7661], [76.77128, 30.769350000000003], [76.76994, 30.76837], [76.769, 30.769000000000002], [76.77092, 30.77136], [76.77171000000001, 30.773930000000004], [76.78007000000001, 30.776450000000004], [76.78315, 30.770730000000004], [76.78179, 30.767650000000003]]]}}]}