{"type": "FeatureCollection", "metadata": {"source": "Survey of India (per src_agency attribute in the source data)", "hosted_via": "National Water Data Portal (NWDP), NWIC, Ministry of Jal Shakti -- https://nwdp.nwic.gov.in/dataset/village-boundary (the portal's own breadcrumb tags 'Geological Survey of India' as the uploading Data Producer; every source feature's own src_agency attribute reads 'Survey of India (SOI)')", "access": "public, no login required", "crs_original": "EPSG:7755 (WGS 84 / India NSF LCC)", "fetch_date": "2026-08-01", "processing": "reprojected to EPSG:4326, geometry simplified with Douglas-Peucker (tolerance 0.0005 deg, ~55m, preserve_topology=True), coordinates rounded to 5 decimal places (~1m), attributes trimmed from 73 source columns to 11", "quality": "verified-official -- Survey of India source, see docs/DATA_SOURCES.md", "known_quirks": "9 feature(s) carry vlcode=999999, a sentinel the source uses for incomplete/placeholder records rather than a real LGD id -- the accompanying village name is sometimes a real place (e.g. a reserve-forest area) and sometimes the source's own literal placeholder text 'Data Partially Available' -- left as-is, not corrected either way. 0 feature(s) have self-intersecting source geometry -- left as-is, not repaired (of these, 0 could not be Douglas-Peucker simplified because GEOS raised a topology error on the raw shape; a buffer(0) self-intersection fix was tried first, and only where that also failed is the original unsimplified geometry kept verbatim). Neither is fabricated or silently dropped."}, "features": [{"id": "0", "type": "Feature", "properties": {"village_name": "Pitti I", "vil_lgd": 627052, "district_name": "Lakshadweep District", "subdistrict_name": "Kalpeni", "block_name": "Kalpeni", "gp_name": "", "state_name": "LAKSHADWEEP", "dist_lgd": 553, "state_lgd": 31, "population": 0, "households": 0}, "geometry": {"type": "Polygon", "coordinates": [[[73.62797, 10.07474], [73.62710000000001, 10.073630000000001], [73.62544000000001, 10.0736], [73.62688, 10.075360000000002], [73.62768000000001, 10.075190000000001], [73.62728, 10.074850000000001], [73.62797, 10.07474]]]}}, {"id": "1", "type": "Feature", "properties": {"village_name": "Bangaram", "vil_lgd": 627043, "district_name": "Lakshadweep District", "subdistrict_name": "Agatti", "block_name": "Agatti", "gp_name": "", "state_name": "LAKSHADWEEP", "dist_lgd": 553, "state_lgd": 31, "population": 45, "households": 17}, "geometry": {"type": "Polygon", "coordinates": [[[72.29196, 10.94434], [72.2908, 10.94269], [72.29179, 10.938740000000001], [72.29366, 10.93656], [72.29357, 10.935110000000002], [72.29090000000001, 10.93373], [72.28547, 10.934780000000002], [72.28519, 10.936240000000002], [72.28803, 10.945900000000002], [72.29546, 10.94467], [72.29196, 10.94434]]]}}, {"id": "2", "type": "Feature", "properties": {"village_name": "Viringili", "vil_lgd": 627055, "district_name": "Lakshadweep District", "subdistrict_name": "Minicoy", "block_name": "Minicoy", "gp_name": "", "state_name": "LAKSHADWEEP", "dist_lgd": 553, "state_lgd": 31, "population": 0, "households": 0}, "geometry": {"type": "MultiPolygon", "coordinates": [[[[73.01056000000001, 8.27623], [73.01025, 8.27753], [73.01175, 8.27677], [73.01161, 8.275960000000001], [73.01056000000001, 8.27623]]], [[[73.0138, 8.30174], [73.01351000000001, 8.3019], [73.0138, 8.302050000000001], [73.0138, 8.30174]]]]}}, {"id": "3", "type": "Feature", "properties": {"village_name": "Tilakkam Iii", "vil_lgd": 627051, "district_name": "Lakshadweep District", "subdistrict_name": "Kalpeni", "block_name": "Kalpeni", "gp_name": "", "state_name": "LAKSHADWEEP", "dist_lgd": 553, "state_lgd": 31, "population": 0, "households": 0}, "geometry": {"type": "Polygon", "coordinates": [[[73.62972, 10.069310000000002], [73.62959000000001, 10.06961], [73.63019000000001, 10.06995], [73.63089000000001, 10.06971], [73.62972, 10.069310000000002]]]}}, {"id": "4", "type": "Feature", "properties": {"village_name": "Tilakkam Ii", "vil_lgd": 627050, "district_name": "Lakshadweep District", "subdistrict_name": "Kalpeni", "block_name": "Kalpeni", "gp_name": "", "state_name": "LAKSHADWEEP", "dist_lgd": 553, "state_lgd": 31, "population": 0, "households": 0}, "geometry": {"type": "Polygon", "coordinates": [[[73.63211000000001, 10.06991], [73.63161000000001, 10.070020000000001], [73.632, 10.07097], [73.63242000000001, 10.07037], [73.63211000000001, 10.06991]]]}}, {"id": "5", "type": "Feature", "properties": {"village_name": "Tilakkam I", "vil_lgd": 627049, "district_name": "Lakshadweep District", "subdistrict_name": "Kalpeni", "block_name": "Kalpeni", "gp_name": "", "state_name": "LAKSHADWEEP", "dist_lgd": 553, "state_lgd": 31, "population": 0, "households": 0}, "geometry": {"type": "Polygon", "coordinates": [[[73.63307, 10.072510000000001], [73.6328, 10.07328], [73.63391, 10.07337], [73.63367000000001, 10.072640000000002], [73.63307, 10.072510000000001]]]}}, {"id": "6", "type": "Feature", "properties": {"village_name": "Pitti Ii", "vil_lgd": 627053, "district_name": "Lakshadweep District", "subdistrict_name": "Kalpeni", "block_name": "Kalpeni", "gp_name": "", "state_name": "LAKSHADWEEP", "dist_lgd": 553, "state_lgd": 31, "population": 0, "households": 0}, "geometry": {"type": "Polygon", "coordinates": [[[73.62982000000001, 10.07463], [73.63040000000001, 10.07492], [73.63037, 10.074530000000001], [73.63016, 10.074280000000002], [73.62982000000001, 10.07463]]]}}, {"id": "7", "type": "Feature", "properties": {"village_name": "Kodithala", "vil_lgd": 627048, "district_name": "Lakshadweep District", "subdistrict_name": "Kalpeni", "block_name": "Kalpeni", "gp_name": "", "state_name": "LAKSHADWEEP", "dist_lgd": 553, "state_lgd": 31, "population": 0, "households": 0}, "geometry": {"type": "Polygon", "coordinates": [[[73.65113000000001, 10.11017], [73.65142, 10.11062], [73.65184, 10.11001], [73.6516, 10.1097], [73.65113000000001, 10.11017]]]}}, {"id": "8", "type": "Feature", "properties": {"village_name": "Suheli Cheriyakara", "vil_lgd": 627037, "district_name": "Lakshadweep District", "subdistrict_name": "Kavaratti", "block_name": "Kavaratti", "gp_name": "", "state_name": "LAKSHADWEEP", "dist_lgd": 553, "state_lgd": 31, "population": 11, "households": 3}, "geometry": {"type": "Polygon", "coordinates": [[[72.2826, 10.04255], [72.28479, 10.047440000000002], [72.28802, 10.050930000000001], [72.28981, 10.05428], [72.28796000000001, 10.046700000000001], [72.28565, 10.04357], [72.28323, 10.04221], [72.2826, 10.04255]]]}}, {"id": "9", "type": "Feature", "properties": {"village_name": "Cheriyam", "vil_lgd": 627047, "district_name": "Lakshadweep District", "subdistrict_name": "Kalpeni", "block_name": "Kalpeni", "gp_name": "", "state_name": "LAKSHADWEEP", "dist_lgd": 553, "state_lgd": 31, "population": 0, "households": 0}, "geometry": {"type": "Polygon", "coordinates": [[[73.65915000000001, 10.13052], [73.66001, 10.13165], [73.66157000000001, 10.141770000000001], [73.65805, 10.154050000000002], [73.65955000000001, 10.155000000000001], [73.66076000000001, 10.149090000000001], [73.66338, 10.14226], [73.66204, 10.135530000000001], [73.66057, 10.131], [73.65966, 10.13038], [73.65915000000001, 10.13052]]]}}, {"id": "10", "type": "Feature", "properties": {"village_name": "Pitti Birds Island", "vil_lgd": 627035, "district_name": "Lakshadweep District", "subdistrict_name": "Kavaratti", "block_name": "Kavaratti", "gp_name": "", "state_name": "LAKSHADWEEP", "dist_lgd": 553, "state_lgd": 31, "population": 0, "households": 0}, "geometry": {"type": "Polygon", "coordinates": [[[72.33558000000001, 10.102170000000001], [72.33418, 10.100940000000001], [72.33648000000001, 10.106010000000001], [72.33593, 10.107510000000001], [72.33756000000001, 10.10645], [72.33731, 10.105310000000001], [72.33558000000001, 10.102170000000001]]]}}, {"id": "11", "type": "Feature", "properties": {"village_name": "Kalpitti", "vil_lgd": 627045, "district_name": "Lakshadweep District", "subdistrict_name": "Agatti", "block_name": "Agatti", "gp_name": "", "state_name": "LAKSHADWEEP", "dist_lgd": 553, "state_lgd": 31, "population": 0, "households": 0}, "geometry": {"type": "Polygon", "coordinates": [[[72.16935000000001, 10.81231], [72.16536, 10.812230000000001], [72.16864000000001, 10.81408], [72.16857, 10.813300000000002], [72.16962000000001, 10.812800000000001], [72.16935000000001, 10.81231]]]}}, {"id": "12", "type": "Feature", "properties": {"village_name": "Suheli Valiyakara", "vil_lgd": 627036, "district_name": "Lakshadweep District", "subdistrict_name": "Kavaratti", "block_name": "Kavaratti", "gp_name": "", "state_name": "LAKSHADWEEP", "dist_lgd": 553, "state_lgd": 31, "population": 0, "households": 0}, "geometry": {"type": "Polygon", "coordinates": [[[72.3322, 10.129040000000002], [72.33032, 10.130820000000002], [72.32671, 10.13086], [72.32761, 10.134260000000001], [72.32692, 10.13915], [72.32778, 10.13931], [72.32870000000001, 10.138140000000002], [72.33102000000001, 10.13409], [72.33159, 10.131250000000001], [72.3322, 10.129040000000002]]]}}, {"id": "13", "type": "Feature", "properties": {"village_name": "Agatti", "vil_lgd": 627044, "district_name": "Lakshadweep District", "subdistrict_name": "Agatti", "block_name": "Agatti", "gp_name": "AGATTI", "state_name": "LAKSHADWEEP", "dist_lgd": 553, "state_lgd": 31, "population": 7521, "households": 1311}, "geometry": {"type": "Polygon", "coordinates": [[[72.17219, 10.810130000000001], [72.17003000000001, 10.80874], [72.16263000000001, 10.811390000000001], [72.16961, 10.8124], [72.16851000000001, 10.813640000000001], [72.16982, 10.816780000000001], [72.17788, 10.827140000000002], [72.18868, 10.84875], [72.19263000000001, 10.863000000000001], [72.19256, 10.865540000000001], [72.19509000000001, 10.870360000000002], [72.20126, 10.877590000000001], [72.20655000000001, 10.877820000000002], [72.20774, 10.874600000000001], [72.20450000000001, 10.86613], [72.20020000000001, 10.85833], [72.19361, 10.84974], [72.18676, 10.838370000000001], [72.18311, 10.82798], [72.17757, 10.81961], [72.17693000000001, 10.81644], [72.17447, 10.81352], [72.17219, 10.810130000000001]]]}}, {"id": "14", "type": "Feature", "properties": {"village_name": "Kiltan", "vil_lgd": 627033, "district_name": "Lakshadweep District", "subdistrict_name": "Kiltan", "block_name": "Kiltan", "gp_name": "KILTAN", "state_name": "LAKSHADWEEP", "dist_lgd": 553, "state_lgd": 31, "population": 3946, "households": 778}, "geometry": {"type": "Polygon", "coordinates": [[[73.00778000000001, 11.467490000000002], [73.00388000000001, 11.47066], [73.00030000000001, 11.477910000000001], [72.99725000000001, 11.49182], [72.99796, 11.492820000000002], [72.99756000000001, 11.495170000000002], [73.00069, 11.497440000000001], [73.00333, 11.49735], [73.00552, 11.49632], [73.01091000000001, 11.48784], [73.01180000000001, 11.477450000000001], [73.01322, 11.47174], [73.01183, 11.468760000000001], [73.00944000000001, 11.467], [73.00778000000001, 11.467490000000002]]]}}, {"id": "15", "type": "Feature", "properties": {"village_name": "Bitra", "vil_lgd": 627031, "district_name": "Lakshadweep District", "subdistrict_name": "Bitra", "block_name": "Bitra", "gp_name": "BITRA", "state_name": "LAKSHADWEEP", "dist_lgd": 553, "state_lgd": 31, "population": 271, "households": 75}, "geometry": {"type": "Polygon", "coordinates": [[[72.18960000000001, 11.599850000000002], [72.18596000000001, 11.599760000000002], [72.1846, 11.60265], [72.18948, 11.600470000000001], [72.18960000000001, 11.599850000000002]]]}}, {"id": "16", "type": "Feature", "properties": {"village_name": "Chetlat", "vil_lgd": 627032, "district_name": "Lakshadweep District", "subdistrict_name": "Chetlat", "block_name": "Chetlat", "gp_name": "CHETLAT", "state_name": "LAKSHADWEEP", "dist_lgd": 553, "state_lgd": 31, "population": 2347, "households": 526}, "geometry": {"type": "Polygon", "coordinates": [[[72.71861000000001, 11.692530000000001], [72.71669, 11.688870000000001], [72.70937, 11.680370000000002], [72.70911000000001, 11.67923], [72.70646, 11.67905], [72.70053, 11.68369], [72.69996, 11.68804], [72.70047000000001, 11.68932], [72.70427000000001, 11.69064], [72.70709000000001, 11.69382], [72.70587, 11.69447], [72.70329000000001, 11.69275], [72.70275000000001, 11.69415], [72.70794000000001, 11.700320000000001], [72.71101, 11.70101], [72.71573000000001, 11.703690000000002], [72.71745, 11.70344], [72.71859, 11.700700000000001], [72.71892000000001, 11.69523], [72.71861000000001, 11.692530000000001]]]}}, {"id": "17", "type": "Feature", "properties": {"village_name": "Tinnakara", "vil_lgd": 627039, "district_name": "Lakshadweep District", "subdistrict_name": "Agatti", "block_name": "Agatti", "gp_name": "", "state_name": "LAKSHADWEEP", "dist_lgd": 553, "state_lgd": 31, "population": 0, "households": 0}, "geometry": {"type": "Polygon", "coordinates": [[[72.32063000000001, 10.94382], [72.31657000000001, 10.941460000000001], [72.31553000000001, 10.94181], [72.31554000000001, 10.946090000000002], [72.31686, 10.948110000000002], [72.328, 10.950370000000001], [72.32723, 10.94907], [72.32063000000001, 10.94382]]]}}, {"id": "18", "type": "Feature", "properties": {"village_name": "Parali Iii", "vil_lgd": 627042, "district_name": "Lakshadweep District", "subdistrict_name": "Agatti", "block_name": "Agatti", "gp_name": "", "state_name": "LAKSHADWEEP", "dist_lgd": 553, "state_lgd": 31, "population": 0, "households": 0}, "geometry": {"type": "Polygon", "coordinates": [[[72.33422, 10.954960000000002], [72.33476, 10.95789], [72.33615, 10.956290000000001], [72.33563000000001, 10.95465], [72.33422, 10.954960000000002]]]}}, {"id": "19", "type": "Feature", "properties": {"village_name": "Minicoy CT", "vil_lgd": 627056, "district_name": "Lakshadweep District", "subdistrict_name": "Minicoy", "block_name": "", "gp_name": "", "state_name": "LAKSHADWEEP", "dist_lgd": 553, "state_lgd": 31, "population": 10447, "households": 1442}, "geometry": {"type": "Polygon", "coordinates": [[[73.07182, 8.32952], [73.07405, 8.327530000000001], [73.08065, 8.329400000000001], [73.08309000000001, 8.328180000000001], [73.08469000000001, 8.32835], [73.08522, 8.32741], [73.08469000000001, 8.32243], [73.08061000000001, 8.32052], [73.07857, 8.3185], [73.07708000000001, 8.31479], [73.0728, 8.30869], [73.06844000000001, 8.29832], [73.06829, 8.28674], [73.0698, 8.28302], [73.06917, 8.282150000000001], [73.05408, 8.267840000000001], [73.04989, 8.261880000000001], [73.04716, 8.26055], [73.03997000000001, 8.26026], [73.02332000000001, 8.26351], [73.01621, 8.26576], [73.01491, 8.26741], [73.01049, 8.27007], [73.00760000000001, 8.275440000000001], [73.00662000000001, 8.28124], [73.00725, 8.2842], [73.00675000000001, 8.2978], [73.01033000000001, 8.302520000000001], [73.02026000000001, 8.308620000000001], [73.02309000000001, 8.30953], [73.02911, 8.314160000000001], [73.03145, 8.314960000000001], [73.0385, 8.320910000000001], [73.04691000000001, 8.325320000000001], [73.04895, 8.32741], [73.05271, 8.328650000000001], [73.05655, 8.32812], [73.05938, 8.329030000000001], [73.06269, 8.32895], [73.07182, 8.32952]], [[73.0138, 8.302050000000001], [73.01351000000001, 8.3019], [73.0138, 8.30174], [73.0138, 8.302050000000001]], [[73.01192, 8.27656], [73.01025, 8.27753], [73.01031, 8.27668], [73.01098, 8.275920000000001], [73.01192, 8.27656]]]}}, {"id": "20", "type": "Feature", "properties": {"village_name": "Kalpeni CT", "vil_lgd": 627054, "district_name": "Lakshadweep District", "subdistrict_name": "Kalpeni", "block_name": "", "gp_name": "", "state_name": "LAKSHADWEEP", "dist_lgd": 553, "state_lgd": 31, "population": 4419, "households": 934}, "geometry": {"type": "Polygon", "coordinates": [[[73.66384000000001, 10.12837], [73.65916, 10.118770000000001], [73.65715, 10.11644], [73.65464, 10.109940000000002], [73.65294, 10.095450000000001], [73.64939000000001, 10.0798], [73.64939000000001, 10.057860000000002], [73.64894000000001, 10.056410000000001], [73.64594000000001, 10.053370000000001], [73.64197, 10.05371], [73.63125000000001, 10.063930000000001], [73.62151, 10.075130000000001], [73.62238, 10.078190000000001], [73.62226000000001, 10.082680000000002], [73.62019000000001, 10.093490000000001], [73.62022, 10.103150000000001], [73.62647000000001, 10.112900000000002], [73.63485, 10.12029], [73.63811000000001, 10.127040000000001], [73.64268000000001, 10.131390000000001], [73.64398, 10.136130000000001], [73.64617000000001, 10.13774], [73.64843, 10.14174], [73.65805, 10.154050000000002], [73.66141, 10.143260000000001], [73.6611, 10.137080000000001], [73.66001, 10.13165], [73.65915000000001, 10.13052], [73.66057, 10.131], [73.66338, 10.14226], [73.66076000000001, 10.149090000000001], [73.65955000000001, 10.155000000000001], [73.66192000000001, 10.153880000000001], [73.66368, 10.14638], [73.66567, 10.142750000000001], [73.66593, 10.138010000000001], [73.664, 10.131290000000002], [73.66384000000001, 10.12837]], [[73.65184, 10.11001], [73.65142, 10.11062], [73.65116, 10.11045], [73.65126000000001, 10.10984], [73.65184, 10.11001]], [[73.62710000000001, 10.073630000000001], [73.62797, 10.07474], [73.62688, 10.075360000000002], [73.62544000000001, 10.0736], [73.62710000000001, 10.073630000000001]], [[73.63037, 10.074530000000001], [73.63040000000001, 10.07492], [73.62982000000001, 10.07463], [73.62987000000001, 10.074140000000002], [73.63037, 10.074530000000001]], [[73.63367000000001, 10.072640000000002], [73.63391, 10.07337], [73.63306, 10.073450000000001], [73.63285, 10.07282], [73.63367000000001, 10.072640000000002]], [[73.63242000000001, 10.07037], [73.63226, 10.07104], [73.63161000000001, 10.070530000000002], [73.63161000000001, 10.070020000000001], [73.63242000000001, 10.07037]], [[73.63089000000001, 10.06971], [73.63071000000001, 10.06999], [73.62959000000001, 10.06961], [73.63003, 10.06934], [73.63089000000001, 10.06971]]]}}, {"id": "21", "type": "Feature", "properties": {"village_name": "Kavaratti CT", "vil_lgd": 627038, "district_name": "Lakshadweep District", "subdistrict_name": "Kavaratti", "block_name": "", "gp_name": "", "state_name": "LAKSHADWEEP", "dist_lgd": 553, "state_lgd": 31, "population": 11210, "households": 2246}, "geometry": {"type": "Polygon", "coordinates": [[[72.61745, 10.53899], [72.61538, 10.541630000000001], [72.61459, 10.54767], [72.61628, 10.55441], [72.62204000000001, 10.561760000000001], [72.63256000000001, 10.57831], [72.63654000000001, 10.58158], [72.63855000000001, 10.58225], [72.64228, 10.58144], [72.64818000000001, 10.577330000000002], [72.65138, 10.573540000000001], [72.65307, 10.567210000000001], [72.65140000000001, 10.561610000000002], [72.64774, 10.558810000000001], [72.63787, 10.55544], [72.62494000000001, 10.54545], [72.61997000000001, 10.539370000000002], [72.61745, 10.53899]]]}}, {"id": "22", "type": "Feature", "properties": {"village_name": "Andrott CT", "vil_lgd": 627046, "district_name": "Lakshadweep District", "subdistrict_name": "Andrott", "block_name": "", "gp_name": "", "state_name": "LAKSHADWEEP", "dist_lgd": 553, "state_lgd": 31, "population": 11191, "households": 1806}, "geometry": {"type": "Polygon", "coordinates": [[[73.67723000000001, 10.815980000000001], [73.68130000000001, 10.81666], [73.68692, 10.81605], [73.69976000000001, 10.81647], [73.70322, 10.81451], [73.70388000000001, 10.811480000000001], [73.70037, 10.80906], [73.69287, 10.806980000000001], [73.67956000000001, 10.800870000000002], [73.67198, 10.80005], [73.66302, 10.801570000000002], [73.65937000000001, 10.80587], [73.6584, 10.8106], [73.65881, 10.814190000000002], [73.66232000000001, 10.81694], [73.67503, 10.816600000000001], [73.67723000000001, 10.815980000000001]]]}}, {"id": "23", "type": "Feature", "properties": {"village_name": "Amini CT", "vil_lgd": 627030, "district_name": "Lakshadweep District", "subdistrict_name": "Amini", "block_name": "", "gp_name": "", "state_name": "LAKSHADWEEP", "dist_lgd": 553, "state_lgd": 31, "population": 7661, "households": 1375}, "geometry": {"type": "Polygon", "coordinates": [[[72.72006, 11.112060000000001], [72.71759, 11.115310000000001], [72.71694000000001, 11.117410000000001], [72.71705, 11.121450000000001], [72.71892000000001, 11.126090000000001], [72.72218000000001, 11.130030000000001], [72.72905, 11.135100000000001], [72.73172000000001, 11.13587], [72.73516000000001, 11.13527], [72.73578, 11.13203], [72.73313, 11.124640000000001], [72.72937, 11.11903], [72.72209000000001, 11.112770000000001], [72.72191000000001, 11.11153], [72.72006, 11.112060000000001]]]}}, {"id": "24", "type": "Feature", "properties": {"village_name": "Kadmat CT", "vil_lgd": 627034, "district_name": "Lakshadweep District", "subdistrict_name": "Kadmat", "block_name": "", "gp_name": "", "state_name": "LAKSHADWEEP", "dist_lgd": 553, "state_lgd": 31, "population": 5404, "households": 1061}, "geometry": {"type": "Polygon", "coordinates": [[[72.76219, 11.18119], [72.76309, 11.182820000000001], [72.76344, 11.19026], [72.77238000000001, 11.214690000000001], [72.77955, 11.24037], [72.78664, 11.255880000000001], [72.78847, 11.257980000000002], [72.79119, 11.259060000000002], [72.79191, 11.25791], [72.79106, 11.25318], [72.78527000000001, 11.23933], [72.78029000000001, 11.22372], [72.77809, 11.214110000000002], [72.77055, 11.202750000000002], [72.76354, 11.18111], [72.76219, 11.18119]]]}}, {"id": "25", "type": "Feature", "properties": {"village_name": "Not Available", "vil_lgd": 999999, "district_name": "Lakshadweep District", "subdistrict_name": "Bitra", "block_name": "", "gp_name": "", "state_name": "LAKSHADWEEP", "dist_lgd": 553, "state_lgd": 31, "population": 0, "households": 0}, "geometry": {"type": "Polygon", "coordinates": [[[72.53182000000001, 10.779160000000001], [72.53101000000001, 10.77983], [72.5317, 10.78115], [72.53506, 10.783180000000002], [72.53731, 10.783100000000001], [72.53766, 10.78148], [72.53445, 10.7797], [72.53182000000001, 10.779160000000001]]]}}, {"id": "26", "type": "Feature", "properties": {"village_name": "Not Available", "vil_lgd": 999999, "district_name": "Lakshadweep District", "subdistrict_name": "Agatti", "block_name": "", "gp_name": "", "state_name": "LAKSHADWEEP", "dist_lgd": 553, "state_lgd": 31, "population": 0, "households": 0}, "geometry": {"type": "Polygon", "coordinates": [[[72.334, 10.950500000000002], [72.33206000000001, 10.949010000000001], [72.32833000000001, 10.95039], [72.33420000000001, 10.95157], [72.334, 10.950500000000002]]]}}, {"id": "27", "type": "Feature", "properties": {"village_name": "Not Available", "vil_lgd": 999999, "district_name": "Lakshadweep District", "subdistrict_name": "Agatti", "block_name": "", "gp_name": "", "state_name": "LAKSHADWEEP", "dist_lgd": 553, "state_lgd": 31, "population": 0, "households": 0}, "geometry": {"type": "Polygon", "coordinates": [[[72.33414, 10.952710000000002], [72.33255000000001, 10.95297], [72.33383, 10.95401], [72.33537000000001, 10.953890000000001], [72.33529, 10.95246], [72.33437, 10.95167], [72.33414, 10.952710000000002]]]}}, {"id": "28", "type": "Feature", "properties": {"village_name": "Not Available", "vil_lgd": 999999, "district_name": "Lakshadweep District", "subdistrict_name": "Bitra", "block_name": "", "gp_name": "", "state_name": "LAKSHADWEEP", "dist_lgd": 553, "state_lgd": 31, "population": 0, "households": 0}, "geometry": {"type": "Polygon", "coordinates": [[[72.08762, 11.163530000000002], [72.0848, 11.14648], [72.07969, 11.135570000000001], [72.07559, 11.1294], [72.06935, 11.125330000000002], [72.05956, 11.1219], [72.05458, 11.12138], [72.05115, 11.122330000000002], [72.04312, 11.12818], [72.03767, 11.13653], [72.02548, 11.160730000000001], [72.01781000000001, 11.16948], [72.00966000000001, 11.181510000000001], [72.00623, 11.184560000000001], [72.00444, 11.18804], [72.00128000000001, 11.19156], [72.00094, 11.193940000000001], [72.00161, 11.19519], [72.00419000000001, 11.19524], [72.00978, 11.193850000000001], [72.02548, 11.187650000000001], [72.02824000000001, 11.187410000000002], [72.06711, 11.192850000000002], [72.07266, 11.1949], [72.08278, 11.201970000000001], [72.09045, 11.20931], [72.09688000000001, 11.220920000000001], [72.10014000000001, 11.22207], [72.102, 11.22161], [72.10289, 11.220020000000002], [72.10206000000001, 11.210930000000001], [72.09563, 11.192400000000001], [72.08762, 11.163530000000002]]]}}, {"id": "29", "type": "Feature", "properties": {"village_name": "Not Available", "vil_lgd": 999999, "district_name": "Lakshadweep District", "subdistrict_name": "Andrott", "block_name": "", "gp_name": "", "state_name": "LAKSHADWEEP", "dist_lgd": 553, "state_lgd": 31, "population": 0, "households": 0}, "geometry": {"type": "Polygon", "coordinates": [[[74.0948, 11.20307], [74.08208, 11.202950000000001], [74.06808000000001, 11.20608], [74.05565, 11.21124], [74.01608, 11.237440000000001], [74.00069, 11.25023], [73.99031000000001, 11.26309], [73.97824, 11.279900000000001], [73.97638, 11.284080000000001], [73.96914000000001, 11.29523], [73.96506000000001, 11.30596], [73.96345000000001, 11.313], [73.96262, 11.32164], [73.96366, 11.32845], [73.96728, 11.336870000000001], [73.9727, 11.34365], [73.97831000000001, 11.347660000000001], [73.99143000000001, 11.35209], [74.00014, 11.352210000000001], [74.01208000000001, 11.348540000000002], [74.03079000000001, 11.33937], [74.04401, 11.333910000000001], [74.06188, 11.323300000000001], [74.07283000000001, 11.314900000000002], [74.08997000000001, 11.29779], [74.10112000000001, 11.284550000000001], [74.11271, 11.26675], [74.11762, 11.257790000000002], [74.12046000000001, 11.250770000000001], [74.12277, 11.239220000000001], [74.123, 11.23038], [74.1213, 11.223590000000002], [74.11883, 11.21854], [74.1113, 11.209510000000002], [74.10773, 11.206840000000001], [74.10131000000001, 11.204320000000001], [74.0948, 11.20307]]]}}, {"id": "30", "type": "Feature", "properties": {"village_name": "Not Available", "vil_lgd": 999999, "district_name": "Lakshadweep District", "subdistrict_name": "Bitra", "block_name": "", "gp_name": "", "state_name": "LAKSHADWEEP", "dist_lgd": 553, "state_lgd": 31, "population": 0, "households": 0}, "geometry": {"type": "Polygon", "coordinates": [[[72.18596000000001, 11.599760000000002], [72.18960000000001, 11.599850000000002], [72.18948, 11.600470000000001], [72.19057000000001, 11.599920000000001], [72.19257, 11.594030000000002], [72.19504, 11.590940000000002], [72.19369, 11.571250000000001], [72.19012000000001, 11.55165], [72.19204, 11.53358], [72.19146, 11.52641], [72.19201000000001, 11.519390000000001], [72.19707000000001, 11.4992], [72.19512, 11.495780000000002], [72.19147000000001, 11.493490000000001], [72.18706, 11.492140000000001], [72.17352000000001, 11.49112], [72.16318000000001, 11.49277], [72.15636, 11.49511], [72.14794, 11.502120000000001], [72.14582, 11.510700000000002], [72.13874000000001, 11.523750000000001], [72.13709, 11.552430000000001], [72.13909000000001, 11.55737], [72.14781, 11.56878], [72.15140000000001, 11.57947], [72.15819, 11.58904], [72.16096, 11.590860000000001], [72.16359, 11.597520000000001], [72.16632, 11.60176], [72.17055, 11.605360000000001], [72.17436000000001, 11.606750000000002], [72.17766, 11.60599], [72.1846, 11.60265], [72.18596000000001, 11.599760000000002]]]}}, {"id": "31", "type": "Feature", "properties": {"village_name": "Not Available", "vil_lgd": 999999, "district_name": "Lakshadweep District", "subdistrict_name": "Bitra", "block_name": "", "gp_name": "", "state_name": "LAKSHADWEEP", "dist_lgd": 553, "state_lgd": 31, "population": 0, "households": 0}, "geometry": {"type": "Polygon", "coordinates": [[[71.8401, 11.82146], [71.83403000000001, 11.823580000000002], [71.82764, 11.82709], [71.81489, 11.831290000000001], [71.80731, 11.831890000000001], [71.79556000000001, 11.83135], [71.78790000000001, 11.83295], [71.78201, 11.83529], [71.7753, 11.842770000000002], [71.77099000000001, 11.85566], [71.76103, 11.87232], [71.75837, 11.89957], [71.75625000000001, 11.905610000000001], [71.75508, 11.917340000000001], [71.75176, 11.927900000000001], [71.74995000000001, 11.931470000000001], [71.73764, 11.940370000000001], [71.7329, 11.947070000000002], [71.73148, 11.954440000000002], [71.73184, 11.956610000000001], [71.73445000000001, 11.96109], [71.73712, 11.96283], [71.74023000000001, 11.9677], [71.75598000000001, 11.98393], [71.76078000000001, 11.99154], [71.77335000000001, 12.00351], [71.78086, 12.004650000000002], [71.78392000000001, 12.003820000000001], [71.78596, 12.002120000000001], [71.79485000000001, 11.98653], [71.80080000000001, 11.97043], [71.80356, 11.95354], [71.80656, 11.94683], [71.80848, 11.93998], [71.81656000000001, 11.92722], [71.82232, 11.914750000000002], [71.83068, 11.89301], [71.83154, 11.88255], [71.83967000000001, 11.848450000000001], [71.83980000000001, 11.845350000000002], [71.84546, 11.833110000000001], [71.84578, 11.826720000000002], [71.84518, 11.824060000000001], [71.84192, 11.8216], [71.8401, 11.82146]]]}}, {"id": "32", "type": "Feature", "properties": {"village_name": "Not Available", "vil_lgd": 999999, "district_name": "Lakshadweep District", "subdistrict_name": "Bitra", "block_name": "", "gp_name": "", "state_name": "LAKSHADWEEP", "dist_lgd": 553, "state_lgd": 31, "population": 0, "households": 0}, "geometry": {"type": "Polygon", "coordinates": [[[71.89654, 12.285210000000001], [71.89222000000001, 12.287350000000002], [71.88928, 12.295380000000002], [71.88882000000001, 12.30081], [71.8914, 12.31154], [71.89104, 12.31581], [71.88999000000001, 12.320450000000001], [71.88562, 12.329450000000001], [71.88297, 12.337250000000001], [71.88214, 12.34706], [71.88355, 12.35429], [71.8816, 12.376890000000001], [71.87954, 12.38944], [71.87989, 12.39395], [71.88198000000001, 12.397110000000001], [71.88614000000001, 12.40028], [71.89019, 12.402040000000001], [71.89668, 12.403150000000002], [71.91362000000001, 12.390680000000001], [71.92042000000001, 12.387810000000002], [71.92306, 12.38502], [71.92512, 12.38132], [71.92643000000001, 12.378150000000002], [71.92663, 12.37387], [71.92552, 12.363080000000002], [71.92637, 12.35402], [71.92580000000001, 12.34584], [71.92314, 12.33849], [71.92208000000001, 12.326120000000001], [71.91984000000001, 12.31638], [71.91348, 12.302280000000001], [71.91266, 12.29897], [71.90682000000001, 12.289290000000001], [71.90432000000001, 12.286930000000002], [71.90091000000001, 12.28532], [71.89654, 12.285210000000001]]]}}, {"id": "33", "type": "Feature", "properties": {"village_name": "Not Available", "vil_lgd": 999999, "district_name": "Lakshadweep District", "subdistrict_name": "Kavaratti", "block_name": "", "gp_name": "", "state_name": "LAKSHADWEEP", "dist_lgd": 553, "state_lgd": 31, "population": 0, "households": 0}, "geometry": {"type": "Polygon", "coordinates": [[[72.32761, 10.134260000000001], [72.32671, 10.13086], [72.33032, 10.130820000000002], [72.33252, 10.1292], [72.33102000000001, 10.13409], [72.32778, 10.13931], [72.32958, 10.13906], [72.33420000000001, 10.131], [72.33588, 10.116650000000002], [72.33755000000001, 10.11064], [72.34112, 10.1056], [72.34225, 10.09928], [72.33429000000001, 10.07877], [72.32610000000001, 10.067350000000001], [72.32265000000001, 10.056420000000001], [72.32031, 10.05259], [72.31172000000001, 10.04456], [72.30566, 10.033900000000001], [72.30120000000001, 10.02996], [72.28523000000001, 10.02363], [72.26263, 10.01032], [72.25171, 10.010430000000001], [72.24442, 10.00633], [72.24069, 10.007610000000001], [72.2381, 10.012720000000002], [72.23586, 10.014790000000001], [72.23502, 10.016960000000001], [72.23481000000001, 10.02209], [72.24128, 10.048630000000001], [72.24451, 10.05593], [72.25782000000001, 10.07029], [72.26926, 10.07731], [72.27199, 10.08263], [72.27293, 10.087280000000002], [72.27633, 10.093060000000001], [72.296, 10.10801], [72.30088, 10.110420000000001], [72.30611, 10.116050000000001], [72.31346, 10.121410000000001], [72.32293, 10.13691], [72.32558, 10.13917], [72.32692, 10.13915], [72.32761, 10.134260000000001]], [[72.33756000000001, 10.10603], [72.33638, 10.107600000000001], [72.33611, 10.10476], [72.33418, 10.100940000000001], [72.33756000000001, 10.10603]], [[72.28565, 10.04357], [72.28796000000001, 10.046700000000001], [72.28981, 10.05428], [72.28802, 10.050930000000001], [72.28479, 10.047440000000002], [72.28269, 10.04227], [72.28565, 10.04357]]]}}]}