{"type": "FeatureCollection", "metadata": {"source": "Survey of India (per src_agency attribute in the source data)", "hosted_via": "National Water Data Portal (NWDP), NWIC, Ministry of Jal Shakti -- https://nwdp.nwic.gov.in/", "access": "public, no login required", "crs_original": "EPSG:7755 (WGS 84 / India NSF LCC)", "fetch_date": "2026-08-02", "quality": "verified-official -- Survey of India source", "state": "Nagaland", "district": "Longleng", "processing": "reprojected to EPSG:4326, topology-preserving simplify (shared-arc, tolerance 0.0005 deg) so adjacent polygons never overlap/gap at shared borders, coords rounded 5dp, 0 feature(s) needed the per-feature fallback", "feature_count": 55}, "features": [{"id": "0", "type": "Feature", "properties": {"village_name": "Data Partially Available", "vil_lgd": 999999, "district_name": "Longleng", "dist_lgd": 615, "subdistrict_name": "Yongnyah", "sdcode": 1832, "block_name": "", "block_lgd": null, "gp_name": "", "state_name": "NAGALAND", "state_lgd": 13, "population": 0, "households": 0}, "geometry": {"type": "Polygon", "coordinates": [[[94.88603, 26.544580000000003], [94.88505, 26.54622], [94.88318000000001, 26.545930000000002], [94.88171000000001, 26.545270000000002], [94.88196, 26.543590000000002], [94.87935, 26.54221], [94.87727000000001, 26.542540000000002], [94.87674000000001, 26.543560000000003], [94.87299, 26.54286], [94.8725, 26.540930000000003], [94.86842000000001, 26.540350000000004], [94.86801000000001, 26.541770000000003], [94.86402000000001, 26.54108], [94.86386, 26.539690000000004], [94.86157000000001, 26.539150000000003], [94.85888000000001, 26.539730000000002], [94.8588, 26.541660000000004], [94.85505, 26.54173], [94.85375, 26.5406], [94.85040000000001, 26.540020000000002], [94.84959, 26.54079], [94.84987000000001, 26.54155], [94.84759000000001, 26.542060000000003], [94.84543000000001, 26.54097], [94.84563000000001, 26.539220000000004], [94.84486000000001, 26.538780000000003], [94.84103, 26.538420000000002], [94.84054, 26.539550000000002], [94.83385000000001, 26.54006], [94.83300000000001, 26.54294], [94.83365, 26.545930000000002], [94.83120000000001, 26.547200000000004], [94.82896000000001, 26.546290000000003], [94.82574000000001, 26.547100000000004], [94.82505, 26.54801], [94.82175000000001, 26.54699], [94.81995, 26.54567], [94.81999, 26.54436], [94.81649, 26.542830000000002], [94.81543, 26.54297], [94.81514000000001, 26.545160000000003], [94.81359, 26.545090000000002], [94.81147000000001, 26.54651], [94.81013, 26.54502], [94.80626000000001, 26.545270000000002], [94.80548, 26.546840000000003], [94.80308000000001, 26.54688], [94.80063000000001, 26.545600000000004], [94.80079, 26.544100000000004], [94.79725, 26.543380000000003], [94.79615000000001, 26.544760000000004], [94.79525000000001, 26.54472], [94.79187, 26.543740000000003], [94.79060000000001, 26.542170000000002], [94.78714000000001, 26.541300000000003], [94.7853, 26.5421], [94.78249000000001, 26.539980000000003], [94.78265, 26.53743], [94.78057000000001, 26.536630000000002], [94.77735000000001, 26.536700000000003], [94.77715, 26.538890000000002], [94.77572, 26.539730000000002], [94.77250000000001, 26.53853], [94.77161000000001, 26.536810000000003], [94.76684, 26.537580000000002], [94.76696000000001, 26.54031], [94.76504000000001, 26.54013], [94.76357, 26.541190000000004], [94.76121, 26.540680000000002], [94.75938000000001, 26.543190000000003], [94.75766, 26.543380000000003], [94.75770000000001, 26.54549], [94.75567000000001, 26.548520000000003], [94.75155000000001, 26.546370000000003], [94.74845, 26.54699], [94.74780000000001, 26.54943], [94.74511000000001, 26.55009], [94.74433, 26.54979], [94.74331000000001, 26.547060000000002], [94.74091000000001, 26.54801], [94.74009000000001, 26.54848], [94.74022000000001, 26.550890000000003], [94.73675, 26.552380000000003], [94.73569, 26.551250000000003], [94.733, 26.553220000000003], [94.73341, 26.555190000000003], [94.73145000000001, 26.5561], [94.72986, 26.55545], [94.72905, 26.55618], [94.72811, 26.55836], [94.72905, 26.56143], [94.72685000000001, 26.5619], [94.72386, 26.563760000000002], [94.72616000000001, 26.566280000000003], [94.72710000000001, 26.57253], [94.727, 26.573860000000003], [94.72498, 26.575940000000003], [94.72628, 26.57991], [94.72475000000001, 26.58246], [94.72605, 26.583240000000004], [94.72795, 26.582130000000003], [94.72911, 26.58265], [94.72771, 26.584970000000002], [94.7295, 26.58667], [94.73049, 26.58904], [94.73354, 26.590590000000002], [94.73297000000001, 26.594680000000004], [94.73119000000001, 26.595810000000004], [94.73307000000001, 26.598830000000003], [94.73315000000001, 26.600630000000002], [94.73, 26.60216], [94.73081, 26.605320000000003], [94.72914, 26.607380000000003], [94.72311, 26.608240000000002], [94.71961, 26.6109], [94.71821000000001, 26.615730000000003], [94.72126, 26.618450000000003], [94.72187000000001, 26.62037], [94.72154, 26.622370000000004], [94.71935, 26.623540000000002], [94.72247, 26.623870000000004], [94.72276000000001, 26.621640000000003], [94.72457000000001, 26.621080000000003], [94.72593, 26.621940000000002], [94.72559000000001, 26.624270000000003], [94.72865, 26.627060000000004], [94.73069000000001, 26.62676], [94.73177000000001, 26.627370000000003], [94.73245000000001, 26.62975], [94.73069000000001, 26.631220000000003], [94.73086, 26.631880000000002], [94.73647000000001, 26.632530000000003], [94.73687000000001, 26.6334], [94.73438, 26.637200000000004], [94.73511, 26.63775], [94.73664000000001, 26.63689], [94.73846, 26.638260000000002], [94.74152000000001, 26.63699], [94.74384, 26.638720000000003], [94.74209, 26.641550000000002], [94.74305000000001, 26.642970000000002], [94.75110000000001, 26.643780000000003], [94.75189, 26.64703], [94.75529, 26.648190000000003], [94.75728000000001, 26.645960000000002], [94.75977, 26.64581], [94.76091000000001, 26.648090000000003], [94.76465, 26.649860000000004], [94.76578, 26.649810000000002], [94.76674000000001, 26.64768], [94.76935, 26.64834], [94.77032000000001, 26.649150000000002], [94.77037000000001, 26.65133], [94.77321, 26.65265], [94.77678, 26.65255], [94.77888, 26.654420000000002], [94.77831, 26.65696], [94.77995000000001, 26.65781], [94.78393000000001, 26.65699], [94.78752, 26.655030000000004], [94.78712, 26.652], [94.78799000000001, 26.649030000000003], [94.78638000000001, 26.642570000000003], [94.78656000000001, 26.64044], [94.78827000000001, 26.63783], [94.78671000000001, 26.634590000000003], [94.78748, 26.63303], [94.79055000000001, 26.633110000000002], [94.79302000000001, 26.63088], [94.80046, 26.631290000000003], [94.80376000000001, 26.630380000000002], [94.80681000000001, 26.625860000000003], [94.81306000000001, 26.624350000000003], [94.81465000000001, 26.62236], [94.81913, 26.62451], [94.82224000000001, 26.62236], [94.83071000000001, 26.62244], [94.83519000000001, 26.618810000000003], [94.83898, 26.617400000000004], [94.84076, 26.614780000000003], [94.84765, 26.61259], [94.85245, 26.614], [94.85524000000001, 26.610200000000003], [94.86038, 26.614], [94.86518000000001, 26.613170000000004], [94.86797000000001, 26.611610000000002], [94.87016000000001, 26.613650000000003], [94.87136000000001, 26.61014], [94.87388000000001, 26.608970000000003], [94.87995000000001, 26.612000000000002], [94.88235, 26.615710000000004], [94.88422000000001, 26.615270000000002], [94.88608, 26.61051], [94.88404000000001, 26.607820000000004], [94.88457000000001, 26.606530000000003], [94.88712000000001, 26.60509], [94.89069, 26.606270000000002], [94.89419000000001, 26.605040000000002], [94.89481, 26.603980000000004], [94.89388000000001, 26.60283], [94.89117, 26.60414], [94.88965, 26.603630000000003], [94.89016000000001, 26.602570000000004], [94.89388000000001, 26.600990000000003], [94.89186000000001, 26.597430000000003], [94.88902, 26.597800000000003], [94.88751, 26.595830000000003], [94.88455, 26.59579], [94.88376000000001, 26.59485], [94.88483000000001, 26.589470000000002], [94.89003000000001, 26.592270000000003], [94.89267000000001, 26.59128], [94.89334000000001, 26.58949], [94.89242, 26.588690000000003], [94.88794000000001, 26.588690000000003], [94.88641000000001, 26.587090000000003], [94.88558, 26.58453], [94.88059000000001, 26.583520000000004], [94.87997000000001, 26.5818], [94.88129, 26.579520000000002], [94.87947000000001, 26.57757], [94.88059000000001, 26.575550000000003], [94.88049000000001, 26.573300000000003], [94.88327000000001, 26.572760000000002], [94.88717000000001, 26.566370000000003], [94.88656, 26.565250000000002], [94.88313000000001, 26.56482], [94.88254, 26.564010000000003], [94.88665, 26.56275], [94.88816000000001, 26.559530000000002], [94.88995000000001, 26.56032], [94.89381, 26.5603], [94.88951, 26.55122], [94.88709000000001, 26.551980000000004], [94.88544, 26.556430000000002], [94.88358000000001, 26.555560000000003], [94.88242000000001, 26.55385], [94.88669, 26.55131], [94.88699000000001, 26.548260000000003], [94.89058000000001, 26.545610000000003], [94.88603, 26.544580000000003]], [[94.85913000000001, 26.595080000000003], [94.86006, 26.59466], [94.86077, 26.59569], [94.85954000000001, 26.59616], [94.85913000000001, 26.595080000000003]], [[94.77042, 26.603550000000002], [94.77144000000001, 26.60283], [94.77220000000001, 26.603550000000002], [94.77131000000001, 26.604400000000002], [94.77042, 26.603550000000002]], [[94.77239, 26.599040000000002], [94.77198000000001, 26.60012], [94.77075, 26.599660000000004], [94.77146, 26.598620000000004], [94.77239, 26.599040000000002]], [[94.80153000000001, 26.59186], [94.80229000000001, 26.59258], [94.8014, 26.59344], [94.80055, 26.592900000000004], [94.80114, 26.591880000000003], [94.80153000000001, 26.59186]], [[94.81102000000001, 26.590470000000003], [94.81203000000001, 26.590880000000002], [94.81191000000001, 26.591770000000004], [94.81063, 26.59183], [94.81041, 26.590950000000003], [94.81102000000001, 26.590470000000003]], [[94.81563000000001, 26.58914], [94.81638000000001, 26.588420000000003], [94.81736000000001, 26.589450000000003], [94.81613, 26.589920000000003], [94.81563000000001, 26.58914]], [[94.80139000000001, 26.578090000000003], [94.80215000000001, 26.57881], [94.80126000000001, 26.579670000000004], [94.80041000000001, 26.579120000000003], [94.80099000000001, 26.578110000000002], [94.80139000000001, 26.578090000000003]], [[94.76645, 26.569290000000002], [94.76721, 26.570010000000003], [94.76632000000001, 26.570870000000003], [94.76547000000001, 26.570320000000002], [94.76605, 26.56931], [94.76645, 26.569290000000002]], [[94.84852000000001, 26.55149], [94.84941, 26.552310000000002], [94.84878, 26.553050000000002], [94.8477, 26.55262], [94.84817000000001, 26.551550000000002], [94.84852000000001, 26.55149]], [[94.77661, 26.556490000000004], [94.77728, 26.555780000000002], [94.77839, 26.55657], [94.77711000000001, 26.557270000000003], [94.77661, 26.556490000000004]], [[94.78041, 26.55432], [94.78139, 26.555360000000004], [94.77987, 26.55563], [94.78041, 26.55432]]]}}, {"id": "1", "type": "Feature", "properties": {"village_name": "Data Partially Available", "vil_lgd": 999999, "district_name": "Longleng", "dist_lgd": 615, "subdistrict_name": "Sakshi", "sdcode": 1834, "block_name": "", "block_lgd": null, "gp_name": "", "state_name": "NAGALAND", "state_lgd": 13, "population": 0, "households": 0}, "geometry": {"type": "Polygon", "coordinates": [[[94.89367000000001, 26.491290000000003], [94.893, 26.488740000000004], [94.89115000000001, 26.48646], [94.89268000000001, 26.487180000000002], [94.89598000000001, 26.48616], [94.89658000000001, 26.48195], [94.89283, 26.48026], [94.89176, 26.477760000000004], [94.88975, 26.47707], [94.88922000000001, 26.476000000000003], [94.89071000000001, 26.47558], [94.89341, 26.476550000000003], [94.89408, 26.473580000000002], [94.89684000000001, 26.472900000000003], [94.89661000000001, 26.46946], [94.89961000000001, 26.4676], [94.90263, 26.46432], [94.90221000000001, 26.461080000000003], [94.9034, 26.457230000000003], [94.90581, 26.454590000000003], [94.90502000000001, 26.453860000000002], [94.90213000000001, 26.45426], [94.90223, 26.449820000000003], [94.89851, 26.44658], [94.89879, 26.445970000000003], [94.90163000000001, 26.445800000000002], [94.90262000000001, 26.44461], [94.90187, 26.44215], [94.8979, 26.440260000000002], [94.89857, 26.43861], [94.90147, 26.437790000000003], [94.90125, 26.436020000000003], [94.8982, 26.433750000000003], [94.90065000000001, 26.43082], [94.90051000000001, 26.429920000000003], [94.89527000000001, 26.429260000000003], [94.8931, 26.426650000000002], [94.89261, 26.42394], [94.89313000000001, 26.423330000000004], [94.89659, 26.423910000000003], [94.89672, 26.421650000000003], [94.89565, 26.418630000000004], [94.90138, 26.417650000000002], [94.90150000000001, 26.413320000000002], [94.90440000000001, 26.41262], [94.90584000000001, 26.411040000000003], [94.90626, 26.410280000000004], [94.90403, 26.40632], [94.90473, 26.402890000000003], [94.90912, 26.40236], [94.91442, 26.40032], [94.90992000000001, 26.39354], [94.91503, 26.387570000000004], [94.91602, 26.384570000000004], [94.91313000000001, 26.38209], [94.90772000000001, 26.380720000000004], [94.90799000000001, 26.379430000000003], [94.91015, 26.378480000000003], [94.9106, 26.37703], [94.90421, 26.372770000000003], [94.89756000000001, 26.374270000000003], [94.89191000000001, 26.373920000000002], [94.89024, 26.374540000000003], [94.88855000000001, 26.377100000000002], [94.88404000000001, 26.38098], [94.88238000000001, 26.38125], [94.88125000000001, 26.379530000000003], [94.87333000000001, 26.37974], [94.87128000000001, 26.37835], [94.86604000000001, 26.37956], [94.85400000000001, 26.37328], [94.84725, 26.372040000000002], [94.84668, 26.372680000000003], [94.84731000000001, 26.37433], [94.843, 26.380390000000002], [94.83157000000001, 26.38586], [94.82594, 26.390980000000003], [94.82331, 26.39178], [94.81911000000001, 26.395210000000002], [94.81802, 26.39948], [94.8131, 26.400900000000004], [94.81313, 26.40529], [94.80848, 26.41148], [94.79966, 26.416300000000003], [94.79754000000001, 26.418830000000003], [94.8418, 26.476160000000004], [94.85201, 26.48168], [94.89171, 26.493250000000003], [94.89168000000001, 26.49247], [94.89367000000001, 26.491290000000003]], [[94.87331, 26.483900000000002], [94.87279000000001, 26.48494], [94.87164000000001, 26.484450000000002], [94.87226000000001, 26.483420000000002], [94.87331, 26.483900000000002]], [[94.86647, 26.481180000000002], [94.86594000000001, 26.48222], [94.86479000000001, 26.481720000000003], [94.86542000000001, 26.480700000000002], [94.86647, 26.481180000000002]], [[94.86427, 26.451380000000004], [94.86386, 26.452460000000002], [94.86263000000001, 26.452], [94.86334000000001, 26.450960000000002], [94.86427, 26.451380000000004]], [[94.88514, 26.446360000000002], [94.8859, 26.447090000000003], [94.88501000000001, 26.447940000000003], [94.88416000000001, 26.447400000000002], [94.88474000000001, 26.44638], [94.88514, 26.446360000000002]], [[94.86881000000001, 26.445980000000002], [94.86957000000001, 26.446700000000003], [94.86868000000001, 26.447560000000003], [94.86783000000001, 26.447020000000002], [94.86842000000001, 26.446], [94.86881000000001, 26.445980000000002]], [[94.84840000000001, 26.44509], [94.84788, 26.446130000000004], [94.84673000000001, 26.44564], [94.84735, 26.44461], [94.84840000000001, 26.44509]], [[94.88093, 26.41852], [94.88169, 26.41925], [94.88080000000001, 26.4201], [94.87995000000001, 26.41956], [94.88054000000001, 26.418540000000004], [94.88093, 26.41852]], [[94.87480000000001, 26.410090000000004], [94.87556000000001, 26.41082], [94.87467000000001, 26.41167], [94.87382000000001, 26.411130000000004], [94.87440000000001, 26.410110000000003], [94.87480000000001, 26.410090000000004]], [[94.86852, 26.401660000000003], [94.86928, 26.40239], [94.86839, 26.403240000000004], [94.86755000000001, 26.402700000000003], [94.86813000000001, 26.401680000000002], [94.86852, 26.401660000000003]], [[94.8893, 26.38624], [94.88889, 26.387330000000002], [94.88765000000001, 26.386860000000002], [94.88837000000001, 26.385820000000002], [94.8893, 26.38624]]]}}, {"id": "2", "type": "Feature", "properties": {"village_name": "Mongtikong", "vil_lgd": 268073, "district_name": "Longleng", "dist_lgd": 615, "subdistrict_name": "Longleng", "sdcode": 1833, "block_name": "Longleng", "block_lgd": 41.0, "gp_name": "", "state_name": "NAGALAND", "state_lgd": 13, "population": 754, "households": 149}, "geometry": {"type": "Polygon", "coordinates": [[[94.7381, 26.45219], [94.73899, 26.45305], [94.73988000000001, 26.45219], [94.73912000000001, 26.45147], [94.7381, 26.45219]]]}}, {"id": "3", "type": "Feature", "properties": {"village_name": "Hukpang", "vil_lgd": 268075, "district_name": "Longleng", "dist_lgd": 615, "subdistrict_name": "Longleng", "sdcode": 1833, "block_name": "Longleng", "block_lgd": 41.0, "gp_name": "", "state_name": "NAGALAND", "state_lgd": 13, "population": 1602, "households": 318}, "geometry": {"type": "Polygon", "coordinates": [[[94.80714, 26.464340000000004], [94.80656, 26.46535], [94.80741, 26.4659], [94.8083, 26.465040000000002], [94.80754, 26.46432], [94.80714, 26.464340000000004]]]}}, {"id": "4", "type": "Feature", "properties": {"village_name": "Namching S Comp Ur", "vil_lgd": 268074, "district_name": "Longleng", "dist_lgd": 615, "subdistrict_name": "Longleng", "sdcode": 1833, "block_name": "Longleng", "block_lgd": 41.0, "gp_name": "", "state_name": "NAGALAND", "state_lgd": 13, "population": 107, "households": 26}, "geometry": {"type": "Polygon", "coordinates": [[[94.7925, 26.46129], [94.79191, 26.462310000000002], [94.79276, 26.462850000000003], [94.79365000000001, 26.462000000000003], [94.79289000000001, 26.461270000000003], [94.7925, 26.46129]]]}}, {"id": "5", "type": "Feature", "properties": {"village_name": "Pongching", "vil_lgd": 268077, "district_name": "Longleng", "dist_lgd": 615, "subdistrict_name": "Longleng", "sdcode": 1833, "block_name": "Longleng", "block_lgd": 41.0, "gp_name": "", "state_name": "NAGALAND", "state_lgd": 13, "population": 1710, "households": 371}, "geometry": {"type": "Polygon", "coordinates": [[[94.77812, 26.449510000000004], [94.77825000000001, 26.450400000000002], [94.7793, 26.450590000000002], [94.77981000000001, 26.449810000000003], [94.77905000000001, 26.44909], [94.77812, 26.449510000000004]]]}}, {"id": "6", "type": "Feature", "properties": {"village_name": "Auching", "vil_lgd": 268087, "district_name": "Longleng", "dist_lgd": 615, "subdistrict_name": "Sakshi", "sdcode": 1834, "block_name": "Longleng", "block_lgd": 41.0, "gp_name": "", "state_name": "NAGALAND", "state_lgd": 13, "population": 630, "households": 133}, "geometry": {"type": "Polygon", "coordinates": [[[94.88765000000001, 26.386860000000002], [94.88889, 26.387330000000002], [94.8893, 26.38624], [94.88837000000001, 26.385820000000002], [94.88765000000001, 26.386860000000002]]]}}, {"id": "7", "type": "Feature", "properties": {"village_name": "Sakshi Village", "vil_lgd": 268086, "district_name": "Longleng", "dist_lgd": 615, "subdistrict_name": "Sakshi", "sdcode": 1834, "block_name": "Longleng", "block_lgd": 41.0, "gp_name": "", "state_name": "NAGALAND", "state_lgd": 13, "population": 1831, "households": 422}, "geometry": {"type": "Polygon", "coordinates": [[[94.86813000000001, 26.401680000000002], [94.86755000000001, 26.402700000000003], [94.86839, 26.403240000000004], [94.86928, 26.40239], [94.86852, 26.401660000000003], [94.86813000000001, 26.401680000000002]]]}}, {"id": "8", "type": "Feature", "properties": {"village_name": "Yimchong", "vil_lgd": 268085, "district_name": "Longleng", "dist_lgd": 615, "subdistrict_name": "Sakshi", "sdcode": 1834, "block_name": "Longleng", "block_lgd": 41.0, "gp_name": "", "state_name": "NAGALAND", "state_lgd": 13, "population": 372, "households": 100}, "geometry": {"type": "Polygon", "coordinates": [[[94.87440000000001, 26.410110000000003], [94.87382000000001, 26.411130000000004], [94.87467000000001, 26.41167], [94.87556000000001, 26.41082], [94.87480000000001, 26.410090000000004], [94.87440000000001, 26.410110000000003]]]}}, {"id": "9", "type": "Feature", "properties": {"village_name": "Sakshi Hq Ur", "vil_lgd": 268084, "district_name": "Longleng", "dist_lgd": 615, "subdistrict_name": "Sakshi", "sdcode": 1834, "block_name": "Longleng", "block_lgd": 41.0, "gp_name": "", "state_name": "NAGALAND", "state_lgd": 13, "population": 40, "households": 11}, "geometry": {"type": "Polygon", "coordinates": [[[94.88054000000001, 26.418540000000004], [94.87995000000001, 26.41956], [94.88080000000001, 26.4201], [94.88169, 26.41925], [94.88093, 26.41852], [94.88054000000001, 26.418540000000004]]]}}, {"id": "10", "type": "Feature", "properties": {"village_name": "Yangching", "vil_lgd": 268083, "district_name": "Longleng", "dist_lgd": 615, "subdistrict_name": "Sakshi", "sdcode": 1834, "block_name": "Longleng", "block_lgd": 41.0, "gp_name": "", "state_name": "NAGALAND", "state_lgd": 13, "population": 877, "households": 207}, "geometry": {"type": "Polygon", "coordinates": [[[94.88474000000001, 26.44638], [94.88416000000001, 26.447400000000002], [94.88501000000001, 26.447940000000003], [94.8859, 26.447090000000003], [94.88514, 26.446360000000002], [94.88474000000001, 26.44638]]]}}, {"id": "11", "type": "Feature", "properties": {"village_name": "Yongphang S Comp Ur", "vil_lgd": 268082, "district_name": "Longleng", "dist_lgd": 615, "subdistrict_name": "Sakshi", "sdcode": 1834, "block_name": "Longleng", "block_lgd": 41.0, "gp_name": "", "state_name": "NAGALAND", "state_lgd": 13, "population": 173, "households": 42}, "geometry": {"type": "Polygon", "coordinates": [[[94.86842000000001, 26.446], [94.86783000000001, 26.447020000000002], [94.86868000000001, 26.447560000000003], [94.86957000000001, 26.446700000000003], [94.86881000000001, 26.445980000000002], [94.86842000000001, 26.446]]]}}, {"id": "12", "type": "Feature", "properties": {"village_name": "Yongphang", "vil_lgd": 268081, "district_name": "Longleng", "dist_lgd": 615, "subdistrict_name": "Sakshi", "sdcode": 1834, "block_name": "Longleng", "block_lgd": 41.0, "gp_name": "", "state_name": "NAGALAND", "state_lgd": 13, "population": 853, "households": 199}, "geometry": {"type": "Polygon", "coordinates": [[[94.86263000000001, 26.452], [94.86386, 26.452460000000002], [94.86427, 26.451380000000004], [94.86334000000001, 26.450960000000002], [94.86263000000001, 26.452]]]}}, {"id": "13", "type": "Feature", "properties": {"village_name": "Kangching", "vil_lgd": 268042, "district_name": "Longleng", "dist_lgd": 615, "subdistrict_name": "Tamlu", "sdcode": 1830, "block_name": "Tamlu", "block_lgd": 42.0, "gp_name": "", "state_name": "NAGALAND", "state_lgd": 13, "population": 1126, "households": 302}, "geometry": {"type": "Polygon", "coordinates": [[[94.71935, 26.64506], [94.71876, 26.64608], [94.71961, 26.646620000000002], [94.7205, 26.645770000000002], [94.71974, 26.64505], [94.71935, 26.64506]]]}}, {"id": "14", "type": "Feature", "properties": {"village_name": "Tamlu Village", "vil_lgd": 268041, "district_name": "Longleng", "dist_lgd": 615, "subdistrict_name": "Tamlu", "sdcode": 1830, "block_name": "Tamlu", "block_lgd": 42.0, "gp_name": "", "state_name": "NAGALAND", "state_lgd": 13, "population": 1837, "households": 483}, "geometry": {"type": "Polygon", "coordinates": [[[94.74701, 26.675310000000003], [94.74642000000001, 26.676330000000004], [94.74727000000001, 26.67687], [94.74816000000001, 26.67601], [94.74740000000001, 26.675290000000004], [94.74701, 26.675310000000003]]]}}, {"id": "15", "type": "Feature", "properties": {"village_name": "Tamlu Hq", "vil_lgd": 268039, "district_name": "Longleng", "dist_lgd": 615, "subdistrict_name": "Tamlu", "sdcode": 1830, "block_name": "Tamlu", "block_lgd": 42.0, "gp_name": "", "state_name": "NAGALAND", "state_lgd": 13, "population": 1401, "households": 336}, "geometry": {"type": "Polygon", "coordinates": [[[94.73424000000001, 26.66662], [94.73366000000001, 26.667630000000003], [94.73450000000001, 26.668170000000003], [94.73539000000001, 26.667320000000004], [94.73463000000001, 26.666600000000003], [94.73424000000001, 26.66662]]]}}, {"id": "16", "type": "Feature", "properties": {"village_name": "Yotan S Comp Ur", "vil_lgd": 268060, "district_name": "Longleng", "dist_lgd": 615, "subdistrict_name": "Yongnyah", "sdcode": 1832, "block_name": "Tamlu", "block_lgd": 42.0, "gp_name": "", "state_name": "NAGALAND", "state_lgd": 13, "population": 11, "households": 9}, "geometry": {"type": "Polygon", "coordinates": [[[94.76605, 26.56931], [94.76547000000001, 26.570320000000002], [94.76632000000001, 26.570870000000003], [94.76721, 26.570010000000003], [94.76645, 26.569290000000002], [94.76605, 26.56931]]]}}, {"id": "17", "type": "Feature", "properties": {"village_name": "Tangha", "vil_lgd": 268053, "district_name": "Longleng", "dist_lgd": 615, "subdistrict_name": "Yongnyah", "sdcode": 1832, "block_name": "Tamlu", "block_lgd": 42.0, "gp_name": "", "state_name": "NAGALAND", "state_lgd": 13, "population": 1342, "households": 324}, "geometry": {"type": "Polygon", "coordinates": [[[94.77042, 26.603550000000002], [94.77131000000001, 26.604400000000002], [94.77220000000001, 26.603550000000002], [94.77144000000001, 26.60283], [94.77042, 26.603550000000002]]]}}, {"id": "18", "type": "Feature", "properties": {"village_name": "Yongnyah Village", "vil_lgd": 268058, "district_name": "Longleng", "dist_lgd": 615, "subdistrict_name": "Yongnyah", "sdcode": 1832, "block_name": "Tamlu", "block_lgd": 42.0, "gp_name": "", "state_name": "NAGALAND", "state_lgd": 13, "population": 1706, "households": 440}, "geometry": {"type": "Polygon", "coordinates": [[[94.81041, 26.590950000000003], [94.81063, 26.59183], [94.81191000000001, 26.591770000000004], [94.81203000000001, 26.590880000000002], [94.81102000000001, 26.590470000000003], [94.81041, 26.590950000000003]]]}}, {"id": "19", "type": "Feature", "properties": {"village_name": "Yongnyah Hq Ur", "vil_lgd": 268056, "district_name": "Longleng", "dist_lgd": 615, "subdistrict_name": "Yongnyah", "sdcode": 1832, "block_name": "Tamlu", "block_lgd": 42.0, "gp_name": "", "state_name": "NAGALAND", "state_lgd": 13, "population": 458, "households": 125}, "geometry": {"type": "Polygon", "coordinates": [[[94.80099000000001, 26.578110000000002], [94.80041000000001, 26.579120000000003], [94.80126000000001, 26.579670000000004], [94.80215000000001, 26.57881], [94.80139000000001, 26.578090000000003], [94.80099000000001, 26.578110000000002]]]}}, {"id": "20", "type": "Feature", "properties": {"village_name": "Yongshei", "vil_lgd": 268061, "district_name": "Longleng", "dist_lgd": 615, "subdistrict_name": "Yongnyah", "sdcode": 1832, "block_name": "Tamlu", "block_lgd": 42.0, "gp_name": "", "state_name": "NAGALAND", "state_lgd": 13, "population": 1285, "households": 345}, "geometry": {"type": "Polygon", "coordinates": [[[94.77661, 26.556490000000004], [94.77711000000001, 26.557270000000003], [94.77839, 26.55657], [94.77728, 26.555780000000002], [94.77661, 26.556490000000004]]]}}, {"id": "21", "type": "Feature", "properties": {"village_name": "Yongam", "vil_lgd": 268063, "district_name": "Longleng", "dist_lgd": 615, "subdistrict_name": "Yongnyah", "sdcode": 1832, "block_name": "Tamlu", "block_lgd": 42.0, "gp_name": "", "state_name": "NAGALAND", "state_lgd": 13, "population": 1304, "households": 358}, "geometry": {"type": "Polygon", "coordinates": [[[94.84817000000001, 26.551550000000002], [94.8477, 26.55262], [94.84878, 26.553050000000002], [94.84941, 26.552310000000002], [94.84852000000001, 26.55149], [94.84817000000001, 26.551550000000002]]]}}, {"id": "22", "type": "Feature", "properties": {"village_name": "Nian", "vil_lgd": 268059, "district_name": "Longleng", "dist_lgd": 615, "subdistrict_name": "Yongnyah", "sdcode": 1832, "block_name": "Tamlu", "block_lgd": 42.0, "gp_name": "", "state_name": "NAGALAND", "state_lgd": 13, "population": 2069, "households": 513}, "geometry": {"type": "Polygon", "coordinates": [[[94.85913000000001, 26.595080000000003], [94.85954000000001, 26.59616], [94.86077, 26.59569], [94.86006, 26.59466], [94.85913000000001, 26.595080000000003]]]}}, {"id": "23", "type": "Feature", "properties": {"village_name": "Alayung", "vil_lgd": 268067, "district_name": "Longleng", "dist_lgd": 615, "subdistrict_name": "Longleng", "sdcode": 1833, "block_name": "Longleng", "block_lgd": 41.0, "gp_name": "", "state_name": "NAGALAND", "state_lgd": 13, "population": 413, "households": 140}, "geometry": {"type": "Polygon", "coordinates": [[[94.73327, 26.50382], [94.7334, 26.504710000000003], [94.73445000000001, 26.504900000000003], [94.73496, 26.504120000000004], [94.7342, 26.503400000000003], [94.73327, 26.50382]]]}}, {"id": "24", "type": "Feature", "properties": {"village_name": "Yaongyimchen", "vil_lgd": 268066, "district_name": "Longleng", "dist_lgd": 615, "subdistrict_name": "Longleng", "sdcode": 1833, "block_name": "Longleng", "block_lgd": 41.0, "gp_name": "", "state_name": "NAGALAND", "state_lgd": 13, "population": 1104, "households": 333}, "geometry": {"type": "Polygon", "coordinates": [[[94.72741, 26.504250000000003], [94.72683, 26.505270000000003], [94.72768, 26.505810000000004], [94.72857, 26.50496], [94.72781, 26.504230000000003], [94.72741, 26.504250000000003]]]}}, {"id": "25", "type": "Feature", "properties": {"village_name": "Yachem", "vil_lgd": 268065, "district_name": "Longleng", "dist_lgd": 615, "subdistrict_name": "Longleng", "sdcode": 1833, "block_name": "Longleng", "block_lgd": 41.0, "gp_name": "", "state_name": "NAGALAND", "state_lgd": 13, "population": 2962, "households": 686}, "geometry": {"type": "Polygon", "coordinates": [[[94.72347, 26.516070000000003], [94.72462, 26.516560000000002], [94.72515000000001, 26.515520000000002], [94.72409, 26.515040000000003], [94.72347, 26.516070000000003]]]}}, {"id": "26", "type": "Feature", "properties": {"village_name": "Noksosang", "vil_lgd": 268064, "district_name": "Longleng", "dist_lgd": 615, "subdistrict_name": "Longleng", "sdcode": 1833, "block_name": "Longleng", "block_lgd": 41.0, "gp_name": "", "state_name": "NAGALAND", "state_lgd": 13, "population": 661, "households": 179}, "geometry": {"type": "Polygon", "coordinates": [[[94.72347, 26.52287], [94.72462, 26.523370000000003], [94.72515000000001, 26.522330000000004], [94.72409, 26.52185], [94.72347, 26.52287]]]}}, {"id": "27", "type": "Feature", "properties": {"village_name": "Orangkong", "vil_lgd": 268070, "district_name": "Longleng", "dist_lgd": 615, "subdistrict_name": "Longleng", "sdcode": 1833, "block_name": "Longleng", "block_lgd": 41.0, "gp_name": "", "state_name": "NAGALAND", "state_lgd": 13, "population": 1950, "households": 448}, "geometry": {"type": "Polygon", "coordinates": [[[94.80144000000001, 26.50382], [94.80086000000001, 26.50484], [94.80170000000001, 26.505380000000002], [94.80259000000001, 26.504520000000003], [94.80183000000001, 26.503800000000002], [94.80144000000001, 26.50382]]]}}, {"id": "28", "type": "Feature", "properties": {"village_name": "Dungkhao", "vil_lgd": 268069, "district_name": "Longleng", "dist_lgd": 615, "subdistrict_name": "Longleng", "sdcode": 1833, "block_name": "Longleng", "block_lgd": 41.0, "gp_name": "", "state_name": "NAGALAND", "state_lgd": 13, "population": 357, "households": 91}, "geometry": {"type": "Polygon", "coordinates": [[[94.83824000000001, 26.51516], [94.83778000000001, 26.516230000000004], [94.83885000000001, 26.51666], [94.83948000000001, 26.51592], [94.83859000000001, 26.515100000000004], [94.83824000000001, 26.51516]]]}}, {"id": "29", "type": "Feature", "properties": {"village_name": "Bhumnyu Mongnyu", "vil_lgd": 268068, "district_name": "Longleng", "dist_lgd": 615, "subdistrict_name": "Longleng", "sdcode": 1833, "block_name": "Longleng", "block_lgd": 41.0, "gp_name": "", "state_name": "NAGALAND", "state_lgd": 13, "population": 2096, "households": 491}, "geometry": {"type": "Polygon", "coordinates": [[[94.84516, 26.520490000000002], [94.84639000000001, 26.520960000000002], [94.8468, 26.51987], [94.84587, 26.519450000000003], [94.84516, 26.520490000000002]]]}}, {"id": "30", "type": "Feature", "properties": {"village_name": "Oushok Ur", "vil_lgd": 268072, "district_name": "Longleng", "dist_lgd": 615, "subdistrict_name": "Longleng", "sdcode": 1833, "block_name": "Longleng", "block_lgd": 41.0, "gp_name": "", "state_name": "NAGALAND", "state_lgd": 13, "population": 520, "households": 102}, "geometry": {"type": "Polygon", "coordinates": [[[94.82977000000001, 26.494290000000003], [94.82919000000001, 26.495310000000003], [94.83003000000001, 26.49585], [94.83092, 26.49499], [94.83017000000001, 26.494270000000004], [94.82977000000001, 26.494290000000003]]]}}, {"id": "31", "type": "Feature", "properties": {"village_name": "Longleng Town Council", "vil_lgd": 253201, "district_name": "Longleng", "dist_lgd": 615, "subdistrict_name": "Longleng", "sdcode": 1833, "block_name": "", "block_lgd": 0.0, "gp_name": "", "state_name": "NAGALAND", "state_lgd": 13, "population": 7613, "households": 1690}, "geometry": {"type": "Polygon", "coordinates": [[[94.81969000000001, 26.483140000000002], [94.81911000000001, 26.484160000000003], [94.81996000000001, 26.484700000000004], [94.82085000000001, 26.483850000000004], [94.82009000000001, 26.483120000000003], [94.81969000000001, 26.483140000000002]]]}}, {"id": "32", "type": "Feature", "properties": {"village_name": "Hongnyu", "vil_lgd": 268079, "district_name": "Longleng", "dist_lgd": 615, "subdistrict_name": "Sakshi", "sdcode": 1834, "block_name": "Longleng", "block_lgd": 41.0, "gp_name": "", "state_name": "NAGALAND", "state_lgd": 13, "population": 1111, "households": 239}, "geometry": {"type": "Polygon", "coordinates": [[[94.86479000000001, 26.481720000000003], [94.86594000000001, 26.48222], [94.86647, 26.481180000000002], [94.86542000000001, 26.480700000000002], [94.86479000000001, 26.481720000000003]]]}}, {"id": "33", "type": "Feature", "properties": {"village_name": "Pongo", "vil_lgd": 268078, "district_name": "Longleng", "dist_lgd": 615, "subdistrict_name": "Sakshi", "sdcode": 1834, "block_name": "Longleng", "block_lgd": 41.0, "gp_name": "", "state_name": "NAGALAND", "state_lgd": 13, "population": 2586, "households": 466}, "geometry": {"type": "Polygon", "coordinates": [[[94.87164000000001, 26.484450000000002], [94.87279000000001, 26.48494], [94.87331, 26.483900000000002], [94.87226000000001, 26.483420000000002], [94.87164000000001, 26.484450000000002]]]}}, {"id": "34", "type": "Feature", "properties": {"village_name": "Shetap", "vil_lgd": 268044, "district_name": "Longleng", "dist_lgd": 615, "subdistrict_name": "Namsang", "sdcode": 1831, "block_name": "Tamlu", "block_lgd": 42.0, "gp_name": "", "state_name": "NAGALAND", "state_lgd": 13, "population": 499, "households": 111}, "geometry": {"type": "Polygon", "coordinates": [[[94.79960000000001, 26.786640000000002], [94.80080000000001, 26.78703], [94.80120000000001, 26.785950000000003], [94.80019000000001, 26.78554], [94.79960000000001, 26.786640000000002]]]}}, {"id": "35", "type": "Feature", "properties": {"village_name": "Namhaching", "vil_lgd": 268047, "district_name": "Longleng", "dist_lgd": 615, "subdistrict_name": "Namsang", "sdcode": 1831, "block_name": "Tamlu", "block_lgd": 42.0, "gp_name": "", "state_name": "NAGALAND", "state_lgd": 13, "population": 93, "households": 29}, "geometry": {"type": "Polygon", "coordinates": [[[94.78757, 26.779580000000003], [94.78698000000001, 26.780590000000004], [94.78783000000001, 26.78113], [94.78872000000001, 26.78028], [94.78796000000001, 26.779560000000004], [94.78757, 26.779580000000003]]]}}, {"id": "36", "type": "Feature", "properties": {"village_name": "Ladaigarh", "vil_lgd": 268045, "district_name": "Longleng", "dist_lgd": 615, "subdistrict_name": "Namsang", "sdcode": 1831, "block_name": "Tamlu", "block_lgd": 42.0, "gp_name": "", "state_name": "NAGALAND", "state_lgd": 13, "population": 422, "households": 124}, "geometry": {"type": "Polygon", "coordinates": [[[94.7381, 26.762760000000004], [94.73934000000001, 26.76322], [94.73974000000001, 26.762140000000002], [94.73882, 26.761720000000004], [94.7381, 26.762760000000004]]]}}, {"id": "37", "type": "Feature", "properties": {"village_name": "Yonglok", "vil_lgd": 268046, "district_name": "Longleng", "dist_lgd": 615, "subdistrict_name": "Namsang", "sdcode": 1831, "block_name": "Tamlu", "block_lgd": 42.0, "gp_name": "", "state_name": "NAGALAND", "state_lgd": 13, "population": 201, "households": 49}, "geometry": {"type": "Polygon", "coordinates": [[[94.74390000000001, 26.76123], [94.74441, 26.762010000000004], [94.7454, 26.76188], [94.74563, 26.761000000000003], [94.74458000000001, 26.760520000000003], [94.74390000000001, 26.76123]]]}}, {"id": "38", "type": "Feature", "properties": {"village_name": "Shemnyuching", "vil_lgd": 268050, "district_name": "Longleng", "dist_lgd": 615, "subdistrict_name": "Namsang", "sdcode": 1831, "block_name": "Tamlu", "block_lgd": 42.0, "gp_name": "", "state_name": "NAGALAND", "state_lgd": 13, "population": 404, "households": 83}, "geometry": {"type": "Polygon", "coordinates": [[[94.75849000000001, 26.739520000000002], [94.75973, 26.739980000000003], [94.76014, 26.7389], [94.75921000000001, 26.738480000000003], [94.75849000000001, 26.739520000000002]]]}}, {"id": "39", "type": "Feature", "properties": {"village_name": "Ngetchungshing", "vil_lgd": 268048, "district_name": "Longleng", "dist_lgd": 615, "subdistrict_name": "Namsang", "sdcode": 1831, "block_name": "Tamlu", "block_lgd": 42.0, "gp_name": "", "state_name": "NAGALAND", "state_lgd": 13, "population": 112, "households": 34}, "geometry": {"type": "Polygon", "coordinates": [[[94.77148000000001, 26.75111], [94.77090000000001, 26.75212], [94.77175000000001, 26.752660000000002], [94.77264000000001, 26.751810000000003], [94.77188000000001, 26.75109], [94.77148000000001, 26.75111]]]}}, {"id": "40", "type": "Feature", "properties": {"village_name": "Bura Namsang", "vil_lgd": 268051, "district_name": "Longleng", "dist_lgd": 615, "subdistrict_name": "Namsang", "sdcode": 1831, "block_name": "Tamlu", "block_lgd": 42.0, "gp_name": "", "state_name": "NAGALAND", "state_lgd": 13, "population": 1253, "households": 342}, "geometry": {"type": "Polygon", "coordinates": [[[94.79638000000001, 26.7236], [94.79758000000001, 26.72399], [94.79798000000001, 26.722910000000002], [94.79697, 26.722510000000003], [94.79638000000001, 26.7236]]]}}, {"id": "41", "type": "Feature", "properties": {"village_name": "Konsong S Comp Ur", "vil_lgd": 268052, "district_name": "Longleng", "dist_lgd": 615, "subdistrict_name": "Namsang", "sdcode": 1831, "block_name": "Tamlu", "block_lgd": 42.0, "gp_name": "", "state_name": "NAGALAND", "state_lgd": 13, "population": 398, "households": 93}, "geometry": {"type": "Polygon", "coordinates": [[[94.80608000000001, 26.71731], [94.80549, 26.71833], [94.80634, 26.718870000000003], [94.80723, 26.718010000000003], [94.80647, 26.717290000000002], [94.80608000000001, 26.71731]]]}}, {"id": "42", "type": "Feature", "properties": {"village_name": "Data Partially Available", "vil_lgd": 999999, "district_name": "Longleng", "dist_lgd": 615, "subdistrict_name": "Tamlu", "sdcode": 1830, "block_name": "", "block_lgd": null, "gp_name": "", "state_name": "NAGALAND", "state_lgd": 13, "population": 0, "households": 0}, "geometry": {"type": "Polygon", "coordinates": [[[94.76663, 26.69619], [94.76936, 26.695520000000002], [94.77095000000001, 26.69619], [94.77387, 26.695860000000003], [94.77762000000001, 26.69854], [94.77856000000001, 26.69846], [94.77847000000001, 26.69687], [94.77978, 26.6962], [94.78102000000001, 26.69415], [94.78886000000001, 26.690050000000003], [94.79010000000001, 26.688430000000004], [94.78746000000001, 26.67799], [94.78587, 26.676510000000004], [94.78267000000001, 26.675290000000004], [94.78111000000001, 26.673140000000004], [94.78133000000001, 26.671940000000003], [94.78587, 26.669300000000003], [94.78622000000001, 26.66785], [94.78449, 26.664690000000004], [94.77959000000001, 26.65903], [94.77995000000001, 26.65781], [94.77831, 26.65696], [94.77888, 26.654420000000002], [94.77678, 26.65255], [94.77321, 26.65265], [94.77037000000001, 26.65133], [94.77032000000001, 26.649150000000002], [94.76935, 26.64834], [94.76674000000001, 26.64768], [94.76578, 26.649810000000002], [94.76465, 26.649860000000004], [94.76091000000001, 26.648090000000003], [94.75977, 26.64581], [94.75728000000001, 26.645960000000002], [94.75529, 26.648190000000003], [94.75189, 26.64703], [94.75110000000001, 26.643780000000003], [94.74305000000001, 26.642970000000002], [94.74209, 26.641550000000002], [94.74384, 26.638720000000003], [94.74152000000001, 26.63699], [94.73846, 26.638260000000002], [94.73664000000001, 26.63689], [94.73511, 26.63775], [94.73438, 26.637200000000004], [94.73687000000001, 26.6334], [94.73647000000001, 26.632530000000003], [94.73086, 26.631880000000002], [94.73069000000001, 26.631220000000003], [94.73245000000001, 26.62975], [94.73177000000001, 26.627370000000003], [94.73069000000001, 26.62676], [94.72865, 26.627060000000004], [94.72559000000001, 26.624270000000003], [94.72593, 26.621940000000002], [94.72457000000001, 26.621080000000003], [94.72276000000001, 26.621640000000003], [94.72247, 26.623870000000004], [94.71935, 26.623540000000002], [94.71945000000001, 26.62469], [94.71562, 26.627640000000003], [94.71488000000001, 26.63059], [94.70989, 26.634140000000002], [94.7051, 26.639260000000004], [94.69896000000001, 26.63886], [94.68968000000001, 26.640040000000003], [94.68621, 26.63971], [94.68387000000001, 26.643970000000003], [94.67782000000001, 26.64816], [94.67173000000001, 26.6492], [94.66690000000001, 26.64795], [94.66713000000001, 26.648860000000003], [94.67018, 26.651120000000002], [94.66984000000001, 26.652500000000003], [94.67117, 26.65386], [94.67411000000001, 26.653370000000002], [94.67591, 26.654030000000002], [94.67742000000001, 26.6563], [94.67854000000001, 26.656100000000002], [94.67981, 26.657180000000004], [94.67943000000001, 26.658440000000002], [94.68140000000001, 26.658590000000004], [94.68148000000001, 26.659920000000003], [94.68279000000001, 26.65949], [94.68312, 26.66073], [94.68480000000001, 26.66036], [94.68560000000001, 26.662190000000002], [94.68866000000001, 26.662850000000002], [94.68990000000001, 26.660420000000002], [94.69083, 26.660750000000004], [94.69642, 26.665550000000003], [94.70245000000001, 26.668660000000003], [94.70705000000001, 26.675300000000004], [94.71411, 26.67828], [94.71700000000001, 26.681040000000003], [94.71855000000001, 26.68082], [94.71893000000001, 26.68185], [94.71794000000001, 26.682340000000003], [94.71867, 26.686400000000003], [94.72634000000001, 26.69263], [94.72673, 26.694730000000003], [94.72761000000001, 26.69543], [94.72537000000001, 26.6963], [94.72375000000001, 26.698480000000004], [94.74883000000001, 26.69809], [94.7485, 26.700110000000002], [94.75075000000001, 26.701150000000002], [94.75141, 26.700470000000003], [94.75348000000001, 26.70098], [94.75667000000001, 26.6993], [94.76287, 26.70031], [94.76372, 26.699800000000003], [94.76663, 26.69619]], [[94.74740000000001, 26.675290000000004], [94.74816000000001, 26.67601], [94.74727000000001, 26.67687], [94.74642000000001, 26.676330000000004], [94.74701, 26.675310000000003], [94.74740000000001, 26.675290000000004]], [[94.74830000000001, 26.674080000000004], [94.74923000000001, 26.67366], [94.74994000000001, 26.6747], [94.74871, 26.67516], [94.74830000000001, 26.674080000000004]], [[94.73463000000001, 26.666600000000003], [94.73539000000001, 26.667320000000004], [94.73450000000001, 26.668170000000003], [94.73366000000001, 26.667630000000003], [94.73424000000001, 26.66662], [94.73463000000001, 26.666600000000003]], [[94.71974, 26.64505], [94.7205, 26.645770000000002], [94.71961, 26.646620000000002], [94.71876, 26.64608], [94.71935, 26.64506], [94.71974, 26.64505]], [[94.71635, 26.642840000000003], [94.71594, 26.64392], [94.71471000000001, 26.64346], [94.71542000000001, 26.64242], [94.71635, 26.642840000000003]]]}}, {"id": "43", "type": "Feature", "properties": {"village_name": "Data Partially Available", "vil_lgd": 999999, "district_name": "Longleng", "dist_lgd": 615, "subdistrict_name": "Longleng", "sdcode": 1833, "block_name": "", "block_lgd": null, "gp_name": "", "state_name": "NAGALAND", "state_lgd": 13, "population": 0, "households": 0}, "geometry": {"type": "Polygon", "coordinates": [[[94.72905, 26.56143], [94.72811, 26.55836], [94.72905, 26.55618], [94.72986, 26.55545], [94.73145000000001, 26.5561], [94.73341, 26.555190000000003], [94.733, 26.553220000000003], [94.73569, 26.551250000000003], [94.73675, 26.552380000000003], [94.74022000000001, 26.550890000000003], [94.74009000000001, 26.54848], [94.74091000000001, 26.54801], [94.74331000000001, 26.547060000000002], [94.74433, 26.54979], [94.74511000000001, 26.55009], [94.74780000000001, 26.54943], [94.74845, 26.54699], [94.75155000000001, 26.546370000000003], [94.75567000000001, 26.548520000000003], [94.75770000000001, 26.54549], [94.75766, 26.543380000000003], [94.75938000000001, 26.543190000000003], [94.76121, 26.540680000000002], [94.76357, 26.541190000000004], [94.76504000000001, 26.54013], [94.76696000000001, 26.54031], [94.76684, 26.537580000000002], [94.77161000000001, 26.536810000000003], [94.77250000000001, 26.53853], [94.77572, 26.539730000000002], [94.77715, 26.538890000000002], [94.77735000000001, 26.536700000000003], [94.78057000000001, 26.536630000000002], [94.78265, 26.53743], [94.78249000000001, 26.539980000000003], [94.7853, 26.5421], [94.78714000000001, 26.541300000000003], [94.79060000000001, 26.542170000000002], [94.79187, 26.543740000000003], [94.79525000000001, 26.54472], [94.79615000000001, 26.544760000000004], [94.79725, 26.543380000000003], [94.80079, 26.544100000000004], [94.80063000000001, 26.545600000000004], [94.80308000000001, 26.54688], [94.80548, 26.546840000000003], [94.80626000000001, 26.545270000000002], [94.81013, 26.54502], [94.81147000000001, 26.54651], [94.81359, 26.545090000000002], [94.81514000000001, 26.545160000000003], [94.81543, 26.54297], [94.81649, 26.542830000000002], [94.81999, 26.54436], [94.81995, 26.54567], [94.82175000000001, 26.54699], [94.82505, 26.54801], [94.82574000000001, 26.547100000000004], [94.82896000000001, 26.546290000000003], [94.83120000000001, 26.547200000000004], [94.83365, 26.545930000000002], [94.83300000000001, 26.54294], [94.83385000000001, 26.54006], [94.84054, 26.539550000000002], [94.84103, 26.538420000000002], [94.84486000000001, 26.538780000000003], [94.84563000000001, 26.539220000000004], [94.84543000000001, 26.54097], [94.84759000000001, 26.542060000000003], [94.84987000000001, 26.54155], [94.84959, 26.54079], [94.85040000000001, 26.540020000000002], [94.85375, 26.5406], [94.85505, 26.54173], [94.8588, 26.541660000000004], [94.85888000000001, 26.539730000000002], [94.86157000000001, 26.539150000000003], [94.86386, 26.539690000000004], [94.86402000000001, 26.54108], [94.86801000000001, 26.541770000000003], [94.86842000000001, 26.540350000000004], [94.8725, 26.540930000000003], [94.87299, 26.54286], [94.87674000000001, 26.543560000000003], [94.87727000000001, 26.542540000000002], [94.87935, 26.54221], [94.88196, 26.543590000000002], [94.88171000000001, 26.545270000000002], [94.88318000000001, 26.545930000000002], [94.88505, 26.54622], [94.88603, 26.544580000000003], [94.89058000000001, 26.545610000000003], [94.89131, 26.544300000000003], [94.89025000000001, 26.537760000000002], [94.89110000000001, 26.53385], [94.89363, 26.533130000000003], [94.89401000000001, 26.532210000000003], [94.89399, 26.52549], [94.89170000000001, 26.521860000000004], [94.89263000000001, 26.517070000000004], [94.89080000000001, 26.514170000000004], [94.89264000000001, 26.51159], [94.89131, 26.509380000000004], [94.89323, 26.50737], [94.89762, 26.50543], [94.89724000000001, 26.50299], [94.89408, 26.49874], [94.89285000000001, 26.499190000000002], [94.89274, 26.50363], [94.89185, 26.50391], [94.89062000000001, 26.502360000000003], [94.89145, 26.500040000000002], [94.89044000000001, 26.497770000000003], [94.893, 26.49517], [94.89171, 26.493250000000003], [94.85201, 26.48168], [94.8418, 26.476160000000004], [94.79754000000001, 26.418830000000003], [94.79398, 26.424210000000002], [94.78816, 26.426980000000004], [94.78471, 26.426470000000002], [94.78342, 26.427930000000003], [94.78227000000001, 26.426360000000003], [94.78179, 26.422700000000003], [94.77467000000001, 26.418910000000004], [94.76698, 26.416220000000003], [94.75543, 26.415070000000004], [94.74759, 26.425250000000002], [94.74468, 26.4263], [94.74076000000001, 26.42574], [94.73855, 26.427570000000003], [94.73734, 26.430970000000002], [94.73508000000001, 26.43381], [94.7321, 26.435010000000002], [94.72357000000001, 26.43541], [94.7197, 26.436860000000003], [94.71650000000001, 26.437050000000003], [94.7081, 26.433020000000003], [94.70348000000001, 26.42828], [94.70326000000001, 26.430570000000003], [94.70086, 26.430790000000002], [94.70569, 26.434540000000002], [94.70728000000001, 26.437870000000004], [94.71014000000001, 26.43682], [94.71149000000001, 26.43719], [94.71162000000001, 26.43841], [94.70817000000001, 26.442280000000004], [94.71064000000001, 26.44562], [94.70778000000001, 26.447210000000002], [94.70483, 26.447470000000003], [94.70368, 26.45172], [94.7073, 26.45175], [94.70791000000001, 26.453960000000002], [94.70535000000001, 26.458450000000003], [94.70162, 26.459410000000002], [94.70184, 26.462650000000004], [94.69890000000001, 26.46376], [94.69915, 26.46732], [94.69605000000001, 26.47078], [94.69049000000001, 26.473920000000003], [94.69044000000001, 26.477130000000002], [94.68838000000001, 26.479100000000003], [94.68838000000001, 26.480230000000002], [94.69095, 26.48411], [94.69369, 26.48646], [94.69430000000001, 26.49735], [94.69383, 26.500020000000003], [94.69026000000001, 26.50776], [94.6897, 26.511650000000003], [94.68494000000001, 26.51631], [94.68658, 26.51891], [94.68609000000001, 26.52354], [94.68681000000001, 26.52522], [94.69438000000001, 26.53057], [94.69510000000001, 26.534720000000004], [94.6967, 26.536800000000003], [94.69854000000001, 26.537860000000002], [94.70142000000001, 26.53721], [94.70321000000001, 26.53837], [94.70411000000001, 26.540910000000004], [94.71374, 26.552590000000002], [94.71366, 26.55638], [94.71733, 26.55892], [94.71907, 26.562220000000003], [94.72386, 26.563760000000002], [94.72685000000001, 26.5619], [94.72905, 26.56143]], [[94.8468, 26.51987], [94.84639000000001, 26.520960000000002], [94.84516, 26.520490000000002], [94.84587, 26.519450000000003], [94.8468, 26.51987]], [[94.83859000000001, 26.515100000000004], [94.83948000000001, 26.51592], [94.83885000000001, 26.51666], [94.83778000000001, 26.516230000000004], [94.83824000000001, 26.51516], [94.83859000000001, 26.515100000000004]], [[94.72515000000001, 26.522330000000004], [94.72462, 26.523370000000003], [94.72347, 26.52287], [94.72409, 26.52185], [94.72515000000001, 26.522330000000004]], [[94.72515000000001, 26.515520000000002], [94.72462, 26.516560000000002], [94.72347, 26.516070000000003], [94.72409, 26.515040000000003], [94.72515000000001, 26.515520000000002]], [[94.80183000000001, 26.503800000000002], [94.80259000000001, 26.504520000000003], [94.80170000000001, 26.505380000000002], [94.80086000000001, 26.50484], [94.80144000000001, 26.50382], [94.80183000000001, 26.503800000000002]], [[94.7985, 26.500130000000002], [94.7981, 26.501220000000004], [94.79686000000001, 26.500750000000004], [94.79758000000001, 26.499720000000003], [94.7985, 26.500130000000002]], [[94.72781, 26.504230000000003], [94.72857, 26.50496], [94.72768, 26.505810000000004], [94.72683, 26.505270000000003], [94.72741, 26.504250000000003], [94.72781, 26.504230000000003]], [[94.7342, 26.503400000000003], [94.73496, 26.504120000000004], [94.73445000000001, 26.504900000000003], [94.7334, 26.504710000000003], [94.73327, 26.50382], [94.7342, 26.503400000000003]], [[94.83017000000001, 26.494270000000004], [94.83092, 26.49499], [94.83003000000001, 26.49585], [94.82919000000001, 26.495310000000003], [94.82977000000001, 26.494290000000003], [94.83017000000001, 26.494270000000004]], [[94.82009000000001, 26.483120000000003], [94.82085000000001, 26.483850000000004], [94.81996000000001, 26.484700000000004], [94.81911000000001, 26.484160000000003], [94.81969000000001, 26.483140000000002], [94.82009000000001, 26.483120000000003]], [[94.8187, 26.470080000000003], [94.81817000000001, 26.471130000000002], [94.81702000000001, 26.470630000000003], [94.81765000000001, 26.469600000000003], [94.8187, 26.470080000000003]], [[94.80754, 26.46432], [94.8083, 26.465040000000002], [94.80741, 26.4659], [94.80656, 26.46535], [94.80714, 26.464340000000004], [94.80754, 26.46432]], [[94.79289000000001, 26.461270000000003], [94.79365000000001, 26.462000000000003], [94.79276, 26.462850000000003], [94.79191, 26.462310000000002], [94.7925, 26.46129], [94.79289000000001, 26.461270000000003]], [[94.77905000000001, 26.44909], [94.77981000000001, 26.449810000000003], [94.7793, 26.450590000000002], [94.77825000000001, 26.450400000000002], [94.77812, 26.449510000000004], [94.77905000000001, 26.44909]], [[94.7381, 26.45219], [94.73912000000001, 26.45147], [94.73988000000001, 26.45219], [94.73899, 26.45305], [94.7381, 26.45219]]]}}, {"id": "44", "type": "Feature", "properties": {"village_name": "Data Partially Available", "vil_lgd": 999999, "district_name": "Longleng", "dist_lgd": 615, "subdistrict_name": "Namsang", "sdcode": 1831, "block_name": "", "block_lgd": null, "gp_name": "", "state_name": "NAGALAND", "state_lgd": 13, "population": 0, "households": 0}, "geometry": {"type": "Polygon", "coordinates": [[[94.81044000000001, 26.792350000000003], [94.8134, 26.79202], [94.81245000000001, 26.78911], [94.80886000000001, 26.784920000000003], [94.81178000000001, 26.783520000000003], [94.81421, 26.7846], [94.81534, 26.784070000000003], [94.81619, 26.778810000000004], [94.81491000000001, 26.775060000000003], [94.81257000000001, 26.77352], [94.80676000000001, 26.774500000000003], [94.79518, 26.770650000000003], [94.79369000000001, 26.769520000000004], [94.79363000000001, 26.76847], [94.79606000000001, 26.767730000000004], [94.79705000000001, 26.76566], [94.79839000000001, 26.765110000000004], [94.80124, 26.768700000000003], [94.80366000000001, 26.76882], [94.80495, 26.76781], [94.80559000000001, 26.766320000000004], [94.80456000000001, 26.764110000000002], [94.79947000000001, 26.76255], [94.79803000000001, 26.760910000000003], [94.79876, 26.759130000000003], [94.80273000000001, 26.755260000000003], [94.80437, 26.749150000000004], [94.80720000000001, 26.747390000000003], [94.80838000000001, 26.74444], [94.81332, 26.7448], [94.81581000000001, 26.743570000000002], [94.81815, 26.73956], [94.82569000000001, 26.73111], [94.82541, 26.725970000000004], [94.82626, 26.724320000000002], [94.83031000000001, 26.720950000000002], [94.83389000000001, 26.719210000000004], [94.83418, 26.71835], [94.83085000000001, 26.715010000000003], [94.82566000000001, 26.71207], [94.82358, 26.70726], [94.81886, 26.702710000000003], [94.81491000000001, 26.69584], [94.81250000000001, 26.695110000000003], [94.80723, 26.697570000000002], [94.80551000000001, 26.69751], [94.80473, 26.69612], [94.80650000000001, 26.69124], [94.80520000000001, 26.68936], [94.80290000000001, 26.689670000000003], [94.79833, 26.6933], [94.79245, 26.694490000000002], [94.78814000000001, 26.698680000000003], [94.7818, 26.69956], [94.77997, 26.698420000000002], [94.77978, 26.6962], [94.77847000000001, 26.69687], [94.77856000000001, 26.69846], [94.77762000000001, 26.69854], [94.77387, 26.695860000000003], [94.77095000000001, 26.69619], [94.76936, 26.695520000000002], [94.76663, 26.69619], [94.76372, 26.699800000000003], [94.76287, 26.70031], [94.75667000000001, 26.6993], [94.75348000000001, 26.70098], [94.75141, 26.700470000000003], [94.75075000000001, 26.701150000000002], [94.7485, 26.700110000000002], [94.74820000000001, 26.701780000000003], [94.74896000000001, 26.70268], [94.74751, 26.704150000000002], [94.74876, 26.706290000000003], [94.74973000000001, 26.7115], [94.74744000000001, 26.71553], [94.74634, 26.722160000000002], [94.74488000000001, 26.724490000000003], [94.74343, 26.731420000000004], [94.74380000000001, 26.732100000000003], [94.74883000000001, 26.731510000000004], [94.75211, 26.728360000000002], [94.75666000000001, 26.7296], [94.75376000000001, 26.735300000000002], [94.74849, 26.741600000000002], [94.73886, 26.74584], [94.73624000000001, 26.74977], [94.73677, 26.75644], [94.73588000000001, 26.759690000000003], [94.73750000000001, 26.766330000000004], [94.74068000000001, 26.77184], [94.74018000000001, 26.77598], [94.74369, 26.7739], [94.74676000000001, 26.77372], [94.74835, 26.772700000000004], [94.75182000000001, 26.76619], [94.75833, 26.76601], [94.76059000000001, 26.77541], [94.76171000000001, 26.77616], [94.76355000000001, 26.775900000000004], [94.7668, 26.77756], [94.76740000000001, 26.78534], [94.77143000000001, 26.789810000000003], [94.77374, 26.79061], [94.77566, 26.78976], [94.78906, 26.795900000000003], [94.79323000000001, 26.794950000000004], [94.79905000000001, 26.79632], [94.80349000000001, 26.796120000000002], [94.80615, 26.795450000000002], [94.80883000000001, 26.793580000000002], [94.81044000000001, 26.792350000000003]], [[94.80120000000001, 26.785950000000003], [94.80080000000001, 26.78703], [94.79960000000001, 26.786640000000002], [94.80019000000001, 26.78554], [94.80120000000001, 26.785950000000003]], [[94.78796000000001, 26.779560000000004], [94.78872000000001, 26.78028], [94.78783000000001, 26.78113], [94.78698000000001, 26.780590000000004], [94.78757, 26.779580000000003], [94.78796000000001, 26.779560000000004]], [[94.73974000000001, 26.762140000000002], [94.73934000000001, 26.76322], [94.7381, 26.762760000000004], [94.73882, 26.761720000000004], [94.73974000000001, 26.762140000000002]], [[94.74458000000001, 26.760520000000003], [94.74563, 26.761000000000003], [94.7454, 26.76188], [94.74441, 26.762010000000004], [94.74390000000001, 26.76123], [94.74458000000001, 26.760520000000003]], [[94.77188000000001, 26.75109], [94.77264000000001, 26.751810000000003], [94.77175000000001, 26.752660000000002], [94.77090000000001, 26.75212], [94.77148000000001, 26.75111], [94.77188000000001, 26.75109]], [[94.79834000000001, 26.747220000000002], [94.79793000000001, 26.748300000000004], [94.7967, 26.74783], [94.79742, 26.746800000000004], [94.79834000000001, 26.747220000000002]], [[94.76014, 26.7389], [94.75973, 26.739980000000003], [94.75849000000001, 26.739520000000002], [94.75921000000001, 26.738480000000003], [94.76014, 26.7389]], [[94.79798000000001, 26.722910000000002], [94.79758000000001, 26.72399], [94.79638000000001, 26.7236], [94.79697, 26.722510000000003], [94.79798000000001, 26.722910000000002]], [[94.80647, 26.717290000000002], [94.80723, 26.718010000000003], [94.80634, 26.718870000000003], [94.80549, 26.71833], [94.80608000000001, 26.71731], [94.80647, 26.717290000000002]]]}}, {"id": "45", "type": "Feature", "properties": {"village_name": "Lingtak Ur", "vil_lgd": 268076, "district_name": "Longleng", "dist_lgd": 615, "subdistrict_name": "Longleng", "sdcode": 1833, "block_name": "Longleng", "block_lgd": 41.0, "gp_name": "", "state_name": "NAGALAND", "state_lgd": 13, "population": 1016, "households": 190}, "geometry": {"type": "Polygon", "coordinates": [[[94.81702000000001, 26.470630000000003], [94.81817000000001, 26.471130000000002], [94.8187, 26.470080000000003], [94.81765000000001, 26.469600000000003], [94.81702000000001, 26.470630000000003]]]}}, {"id": "46", "type": "Feature", "properties": {"village_name": "Mungkhu Ur", "vil_lgd": 268080, "district_name": "Longleng", "dist_lgd": 615, "subdistrict_name": "Sakshi", "sdcode": 1834, "block_name": "Longleng", "block_lgd": 41.0, "gp_name": "", "state_name": "NAGALAND", "state_lgd": 13, "population": 142, "households": 34}, "geometry": {"type": "Polygon", "coordinates": [[[94.84673000000001, 26.44564], [94.84788, 26.446130000000004], [94.84840000000001, 26.44509], [94.84735, 26.44461], [94.84673000000001, 26.44564]]]}}, {"id": "47", "type": "Feature", "properties": {"village_name": "Netnyuching", "vil_lgd": 268043, "district_name": "Longleng", "dist_lgd": 615, "subdistrict_name": "Tamlu", "sdcode": 1830, "block_name": "Tamlu", "block_lgd": 42.0, "gp_name": "", "state_name": "NAGALAND", "state_lgd": 13, "population": 426, "households": 120}, "geometry": {"type": "Polygon", "coordinates": [[[94.71471000000001, 26.64346], [94.71594, 26.64392], [94.71635, 26.642840000000003], [94.71542000000001, 26.64242], [94.71471000000001, 26.64346]]]}}, {"id": "48", "type": "Feature", "properties": {"village_name": "Ametchong Ur", "vil_lgd": 268040, "district_name": "Longleng", "dist_lgd": 615, "subdistrict_name": "Tamlu", "sdcode": 1830, "block_name": "Tamlu", "block_lgd": 42.0, "gp_name": "", "state_name": "NAGALAND", "state_lgd": 13, "population": 546, "households": 142}, "geometry": {"type": "Polygon", "coordinates": [[[94.74830000000001, 26.674080000000004], [94.74871, 26.67516], [94.74994000000001, 26.6747], [94.74923000000001, 26.67366], [94.74830000000001, 26.674080000000004]]]}}, {"id": "49", "type": "Feature", "properties": {"village_name": "Amosen Ur", "vil_lgd": 268054, "district_name": "Longleng", "dist_lgd": 615, "subdistrict_name": "Yongnyah", "sdcode": 1832, "block_name": "Tamlu", "block_lgd": 42.0, "gp_name": "", "state_name": "NAGALAND", "state_lgd": 13, "population": 440, "households": 95}, "geometry": {"type": "Polygon", "coordinates": [[[94.77075, 26.599660000000004], [94.77198000000001, 26.60012], [94.77239, 26.599040000000002], [94.77146, 26.598620000000004], [94.77075, 26.599660000000004]]]}}, {"id": "50", "type": "Feature", "properties": {"village_name": "Chingong Ur", "vil_lgd": 268055, "district_name": "Longleng", "dist_lgd": 615, "subdistrict_name": "Yongnyah", "sdcode": 1832, "block_name": "Tamlu", "block_lgd": 42.0, "gp_name": "", "state_name": "NAGALAND", "state_lgd": 13, "population": 449, "households": 118}, "geometry": {"type": "Polygon", "coordinates": [[[94.80114, 26.591880000000003], [94.80055, 26.592900000000004], [94.8014, 26.59344], [94.80229000000001, 26.59258], [94.80153000000001, 26.59186], [94.80114, 26.591880000000003]]]}}, {"id": "51", "type": "Feature", "properties": {"village_name": "Shamshangching Ur", "vil_lgd": 268057, "district_name": "Longleng", "dist_lgd": 615, "subdistrict_name": "Yongnyah", "sdcode": 1832, "block_name": "Tamlu", "block_lgd": 42.0, "gp_name": "", "state_name": "NAGALAND", "state_lgd": 13, "population": 447, "households": 115}, "geometry": {"type": "Polygon", "coordinates": [[[94.81563000000001, 26.58914], [94.81613, 26.589920000000003], [94.81736000000001, 26.589450000000003], [94.81638000000001, 26.588420000000003], [94.81563000000001, 26.58914]]]}}, {"id": "52", "type": "Feature", "properties": {"village_name": "Yungja Ur", "vil_lgd": 268062, "district_name": "Longleng", "dist_lgd": 615, "subdistrict_name": "Yongnyah", "sdcode": 1832, "block_name": "Tamlu", "block_lgd": 42.0, "gp_name": "", "state_name": "NAGALAND", "state_lgd": 13, "population": 320, "households": 94}, "geometry": {"type": "Polygon", "coordinates": [[[94.77987, 26.55563], [94.78139, 26.555360000000004], [94.78041, 26.55432], [94.77987, 26.55563]]]}}, {"id": "53", "type": "Feature", "properties": {"village_name": "Hamlikhong Ur", "vil_lgd": 268071, "district_name": "Longleng", "dist_lgd": 615, "subdistrict_name": "Longleng", "sdcode": 1833, "block_name": "Longleng", "block_lgd": 41.0, "gp_name": "", "state_name": "NAGALAND", "state_lgd": 13, "population": 319, "households": 88}, "geometry": {"type": "Polygon", "coordinates": [[[94.79686000000001, 26.500750000000004], [94.7981, 26.501220000000004], [94.7985, 26.500130000000002], [94.79758000000001, 26.499720000000003], [94.79686000000001, 26.500750000000004]]]}}, {"id": "54", "type": "Feature", "properties": {"village_name": "Aboiche Ur", "vil_lgd": 268049, "district_name": "Longleng", "dist_lgd": 615, "subdistrict_name": "Namsang", "sdcode": 1831, "block_name": "Tamlu", "block_lgd": 42.0, "gp_name": "", "state_name": "NAGALAND", "state_lgd": 13, "population": 136, "households": 46}, "geometry": {"type": "Polygon", "coordinates": [[[94.7967, 26.74783], [94.79793000000001, 26.748300000000004], [94.79834000000001, 26.747220000000002], [94.79742, 26.746800000000004], [94.7967, 26.74783]]]}}]}