{"type": "FeatureCollection", "metadata": {"source": "Survey of India (per src_agency attribute in the source data)", "hosted_via": "National Water Data Portal (NWDP), NWIC, Ministry of Jal Shakti -- https://nwdp.nwic.gov.in/", "access": "public, no login required", "crs_original": "EPSG:7755 (WGS 84 / India NSF LCC)", "fetch_date": "2026-08-02", "quality": "verified-official -- Survey of India source", "state": "Manipur", "district": "Bishnupur", "processing": "reprojected to EPSG:4326, topology-preserving simplify (shared-arc, tolerance 0.0005 deg) so adjacent polygons never overlap/gap at shared borders, coords rounded 5dp, 0 feature(s) needed the per-feature fallback", "feature_count": 59}, "features": [{"id": "0", "type": "Feature", "properties": {"village_name": "Ithing", "vil_lgd": 269902, "district_name": "Bishnupur", "dist_lgd": 252, "subdistrict_name": "Moirang", "sdcode": 1875, "block_name": "Moirang", "block_lgd": 23.0, "gp_name": "THANGA PART -  II", "state_name": "MANIPUR", "state_lgd": 14, "population": 1832, "households": 299}, "geometry": {"type": "Polygon", "coordinates": [[[93.77954000000001, 24.49971], [93.77883000000001, 24.5009], [93.77936000000001, 24.503770000000003], [93.78107000000001, 24.505270000000003], [93.78554000000001, 24.504530000000003], [93.78596, 24.5029], [93.78483000000001, 24.50074], [93.78275000000001, 24.499280000000002], [93.77954000000001, 24.49971]]]}}, {"id": "1", "type": "Feature", "properties": {"village_name": "Lourembam", "vil_lgd": 269871, "district_name": "Bishnupur", "dist_lgd": 252, "subdistrict_name": "Nambol", "sdcode": 1873, "block_name": "Bishnupur", "block_lgd": 22.0, "gp_name": "SANJENBAM PUKHRAMBAM", "state_name": "MANIPUR", "state_lgd": 14, "population": 1093, "households": 227}, "geometry": {"type": "Polygon", "coordinates": [[[93.8824, 24.697940000000003], [93.87991000000001, 24.70053], [93.88305000000001, 24.70428], [93.88953000000001, 24.701500000000003], [93.88861000000001, 24.69845], [93.88554, 24.69742], [93.8824, 24.697940000000003]]]}}, {"id": "2", "type": "Feature", "properties": {"village_name": "Ngaikhong Khunou", "vil_lgd": 269881, "district_name": "Bishnupur", "dist_lgd": 252, "subdistrict_name": "Nambol", "sdcode": 1873, "block_name": "Bishnupur", "block_lgd": 22.0, "gp_name": "KEINOU", "state_name": "MANIPUR", "state_lgd": 14, "population": 1003, "households": 236}, "geometry": {"type": "Polygon", "coordinates": [[[93.77324, 24.65154], [93.76483, 24.651790000000002], [93.76091000000001, 24.65367], [93.75633, 24.653530000000003], [93.75422, 24.658040000000003], [93.75797000000001, 24.665300000000002], [93.77402000000001, 24.66081], [93.77709, 24.655890000000003], [93.77987, 24.653810000000004], [93.77987, 24.65245], [93.77324, 24.65154]]]}}, {"id": "3", "type": "Feature", "properties": {"village_name": "Saiton", "vil_lgd": 269900, "district_name": "Bishnupur", "dist_lgd": 252, "subdistrict_name": "Moirang", "sdcode": 1875, "block_name": "Moirang", "block_lgd": 23.0, "gp_name": "SAITON", "state_name": "MANIPUR", "state_lgd": 14, "population": 4660, "households": 860}, "geometry": {"type": "Polygon", "coordinates": [[[93.77212, 24.425790000000003], [93.77716000000001, 24.41964], [93.78391, 24.414880000000004], [93.78539, 24.41159], [93.78087000000001, 24.410220000000002], [93.77425000000001, 24.40528], [93.77154, 24.405], [93.76822000000001, 24.40734], [93.76657, 24.40734], [93.76446000000001, 24.405140000000003], [93.75738000000001, 24.405140000000003], [93.74744000000001, 24.39787], [93.74202000000001, 24.39732], [93.74096, 24.398970000000002], [93.74142, 24.403360000000003], [93.74021, 24.408430000000003], [93.73343000000001, 24.412820000000004], [93.72896, 24.416760000000004], [93.73257000000001, 24.422240000000002], [93.73675, 24.42406], [93.73542, 24.428210000000004], [93.73656000000001, 24.43202], [93.73542, 24.433320000000002], [93.73494000000001, 24.435830000000003], [93.73827000000001, 24.43531], [93.74806000000001, 24.43739], [93.75149, 24.440500000000004], [93.75681, 24.44198], [93.7629, 24.440420000000003], [93.76594000000001, 24.43877], [93.76974000000001, 24.436000000000003], [93.77117000000001, 24.433490000000003], [93.77212, 24.425790000000003]]]}}, {"id": "4", "type": "Feature", "properties": {"village_name": "Sagang", "vil_lgd": 269905, "district_name": "Bishnupur", "dist_lgd": 252, "subdistrict_name": "Moirang", "sdcode": 1875, "block_name": "Moirang", "block_lgd": 23.0, "gp_name": "WANGOO TERAKHONG", "state_name": "MANIPUR", "state_lgd": 14, "population": 4296, "households": 787}, "geometry": {"type": "Polygon", "coordinates": [[[93.84106000000001, 24.377850000000002], [93.83888, 24.370260000000002], [93.83629, 24.373870000000004], [93.82771000000001, 24.368250000000003], [93.82078000000001, 24.367970000000003], [93.81957000000001, 24.360840000000003], [93.81867000000001, 24.360020000000002], [93.81581000000001, 24.3607], [93.81024000000001, 24.365640000000003], [93.80376000000001, 24.36907], [93.80301000000001, 24.37058], [93.80452000000001, 24.37524], [93.80015, 24.375790000000002], [93.79247000000001, 24.37949], [93.79593000000001, 24.382240000000003], [93.79156, 24.38772], [93.79141000000001, 24.38951], [93.79232, 24.391150000000003], [93.80783000000001, 24.38841], [93.81280000000001, 24.389920000000004], [93.81461, 24.392940000000003], [93.81414000000001, 24.39852], [93.82481000000001, 24.405250000000002], [93.82823, 24.40707], [93.8298, 24.406940000000002], [93.83564000000001, 24.400840000000002], [93.84171, 24.386360000000003], [93.84106000000001, 24.377850000000002]]]}}, {"id": "5", "type": "Feature", "properties": {"village_name": "Wangoo Keirap", "vil_lgd": 269906, "district_name": "Bishnupur", "dist_lgd": 252, "subdistrict_name": "Moirang", "sdcode": 1875, "block_name": "Moirang", "block_lgd": 23.0, "gp_name": "WANGOO TERAKHONG", "state_name": "MANIPUR", "state_lgd": 14, "population": 431, "households": 80}, "geometry": {"type": "Polygon", "coordinates": [[[93.80769000000001, 24.413690000000003], [93.80641000000001, 24.410380000000004], [93.80691, 24.4098], [93.8134, 24.408160000000002], [93.81039000000001, 24.406650000000003], [93.80602, 24.40171], [93.80120000000001, 24.40144], [93.79744000000001, 24.403630000000003], [93.79623000000001, 24.406650000000003], [93.79819, 24.4109], [93.79804000000001, 24.41364], [93.79518, 24.4157], [93.79081000000001, 24.41666], [93.78855, 24.41598], [93.78539, 24.41159], [93.78391, 24.414880000000004], [93.786, 24.416790000000002], [93.78267000000001, 24.422500000000003], [93.78391, 24.425960000000003], [93.78505000000001, 24.426830000000002], [93.78999, 24.42752], [93.80015, 24.427830000000004], [93.80034, 24.42366], [93.80426000000001, 24.41862], [93.80462000000001, 24.416680000000003], [93.80665, 24.41541], [93.80769000000001, 24.413690000000003]]]}}, {"id": "6", "type": "Feature", "properties": {"village_name": "Torbung", "vil_lgd": 269907, "district_name": "Bishnupur", "dist_lgd": 252, "subdistrict_name": "Moirang", "sdcode": 1875, "block_name": "Moirang", "block_lgd": 23.0, "gp_name": "TORBUNG", "state_name": "MANIPUR", "state_lgd": 14, "population": 2781, "households": 572}, "geometry": {"type": "Polygon", "coordinates": [[[93.71175000000001, 24.437220000000003], [93.71755, 24.437220000000003], [93.72097000000001, 24.435830000000003], [93.72996, 24.435820000000003], [93.73494000000001, 24.435830000000003], [93.73542, 24.433320000000002], [93.73656000000001, 24.43202], [93.73542, 24.428210000000004], [93.73675, 24.42406], [93.73257000000001, 24.422240000000002], [93.72896, 24.416760000000004], [93.71627000000001, 24.422970000000003], [93.71265000000001, 24.4264], [93.70994, 24.432570000000002], [93.71009000000001, 24.438190000000002], [93.71175000000001, 24.437220000000003]]]}}, {"id": "7", "type": "Feature", "properties": {"village_name": "Kwakta Pt", "vil_lgd": 269898, "district_name": "Bishnupur", "dist_lgd": 252, "subdistrict_name": "Moirang", "sdcode": 1875, "block_name": "Moirang", "block_lgd": 23.0, "gp_name": "KWAKTA", "state_name": "MANIPUR", "state_lgd": 14, "population": 10735, "households": 1958}, "geometry": {"type": "Polygon", "coordinates": [[[93.74892000000001, 24.45643], [93.74046000000001, 24.45643], [93.73666000000001, 24.455650000000002], [93.72943000000001, 24.446130000000004], [93.7262, 24.444570000000002], [93.72544, 24.44319], [93.72601, 24.44189], [93.72791000000001, 24.44094], [93.72848, 24.438080000000003], [93.72996, 24.435820000000003], [93.72097000000001, 24.435830000000003], [93.71755, 24.437220000000003], [93.71175000000001, 24.437220000000003], [93.71009000000001, 24.438190000000002], [93.71582000000001, 24.447100000000002], [93.71521000000001, 24.45025], [93.71326, 24.452720000000003], [93.70663, 24.45409], [93.70482000000001, 24.45532], [93.70603000000001, 24.45765], [93.7107, 24.463], [93.72139000000001, 24.45916], [93.72214000000001, 24.460530000000002], [93.72838, 24.460060000000002], [93.73428000000001, 24.461360000000003], [93.73694, 24.46309], [93.74179000000001, 24.464480000000002], [93.74569000000001, 24.464480000000002], [93.74740000000001, 24.463440000000002], [93.74854, 24.459460000000004], [93.74892000000001, 24.45643]]]}}, {"id": "8", "type": "Feature", "properties": {"village_name": "Kumbi Pt", "vil_lgd": 269904, "district_name": "Bishnupur", "dist_lgd": 252, "subdistrict_name": "Moirang", "sdcode": 1875, "block_name": "Moirang", "block_lgd": 23.0, "gp_name": "KUMBI (PT)", "state_name": "MANIPUR", "state_lgd": 14, "population": 490, "households": 88}, "geometry": {"type": "Polygon", "coordinates": [[[93.80378, 24.43652], [93.80197000000001, 24.433410000000002], [93.80321, 24.431680000000004], [93.80254000000001, 24.427870000000002], [93.80015, 24.427830000000004], [93.78999, 24.42752], [93.78505000000001, 24.426830000000002], [93.78391, 24.425960000000003], [93.78267000000001, 24.422500000000003], [93.786, 24.416790000000002], [93.78391, 24.414880000000004], [93.77716000000001, 24.41964], [93.77212, 24.425790000000003], [93.77117000000001, 24.433490000000003], [93.76974000000001, 24.436000000000003], [93.76594000000001, 24.43877], [93.7629, 24.440420000000003], [93.75681, 24.44198], [93.75795000000001, 24.443620000000003], [93.76396000000001, 24.44781], [93.76603, 24.444660000000002], [93.77126000000001, 24.442670000000003], [93.77392, 24.442580000000003], [93.78790000000001, 24.44968], [93.79779, 24.45297], [93.80444000000001, 24.45747], [93.80625, 24.462310000000002], [93.82279000000001, 24.46664], [93.82270000000001, 24.468980000000002], [93.82507000000001, 24.471140000000002], [93.82688, 24.46223], [93.82593000000001, 24.45868], [93.82726000000001, 24.45634], [93.82754000000001, 24.453010000000003], [93.82802000000001, 24.448290000000004], [93.83163, 24.4444], [93.83439000000001, 24.443450000000002], [93.81737000000001, 24.44189], [93.81148, 24.439380000000003], [93.80378, 24.43652]]]}}, {"id": "9", "type": "Feature", "properties": {"village_name": "Tangjeng", "vil_lgd": 269912, "district_name": "Bishnupur", "dist_lgd": 252, "subdistrict_name": "Moirang", "sdcode": 1875, "block_name": "Moirang", "block_lgd": 23.0, "gp_name": "BORAYANBI", "state_name": "MANIPUR", "state_lgd": 14, "population": 1964, "households": 400}, "geometry": {"type": "Polygon", "coordinates": [[[93.86406000000001, 24.324900000000003], [93.86406000000001, 24.32101], [93.86097000000001, 24.31971], [93.85907, 24.31624], [93.85551000000001, 24.313640000000003], [93.85052, 24.313640000000003], [93.84526000000001, 24.318910000000002], [93.84036, 24.332030000000003], [93.85739000000001, 24.335240000000002], [93.86546000000001, 24.335510000000003], [93.86528000000001, 24.32956], [93.86406000000001, 24.324900000000003]]]}}, {"id": "10", "type": "Feature", "properties": {"village_name": "Kasom Tampak", "vil_lgd": 269911, "district_name": "Bishnupur", "dist_lgd": 252, "subdistrict_name": "Moirang", "sdcode": 1875, "block_name": "Moirang", "block_lgd": 23.0, "gp_name": "BORAYANGBI", "state_name": "MANIPUR", "state_lgd": 14, "population": 259, "households": 51}, "geometry": {"type": "Polygon", "coordinates": [[[93.85457000000001, 24.34945], [93.85957, 24.35049], [93.86406000000001, 24.341800000000003], [93.86546000000001, 24.335510000000003], [93.85739000000001, 24.335240000000002], [93.84036, 24.332030000000003], [93.84066000000001, 24.334500000000002], [93.84231000000001, 24.337650000000004], [93.83855000000001, 24.34136], [93.83840000000001, 24.344920000000002], [93.84006000000001, 24.350820000000002], [93.84763000000001, 24.352870000000003], [93.852, 24.352050000000002], [93.85376000000001, 24.35001], [93.85457000000001, 24.34945]]]}}, {"id": "11", "type": "Feature", "properties": {"village_name": "Wangoo Ahallup", "vil_lgd": 269909, "district_name": "Bishnupur", "dist_lgd": 252, "subdistrict_name": "Moirang", "sdcode": 1875, "block_name": "Moirang", "block_lgd": 23.0, "gp_name": "WANGOO TEARAKHONG", "state_name": "MANIPUR", "state_lgd": 14, "population": 9148, "households": 1779}, "geometry": {"type": "Polygon", "coordinates": [[[93.84802, 24.40501], [93.84719000000001, 24.39516], [93.8498, 24.391270000000002], [93.85301000000001, 24.39008], [93.85349000000001, 24.38596], [93.85170000000001, 24.381960000000003], [93.85206000000001, 24.37687], [93.85467000000001, 24.37384], [93.85387, 24.369870000000002], [93.84548000000001, 24.366870000000002], [93.84022, 24.36379], [93.83888, 24.370260000000002], [93.84106000000001, 24.377850000000002], [93.84171, 24.386360000000003], [93.83564000000001, 24.400840000000002], [93.8298, 24.406940000000002], [93.82823, 24.40707], [93.82481000000001, 24.405250000000002], [93.81414000000001, 24.39852], [93.8143, 24.405420000000003], [93.8134, 24.408160000000002], [93.80691, 24.4098], [93.80641000000001, 24.410380000000004], [93.80769000000001, 24.413690000000003], [93.83358000000001, 24.41869], [93.8442, 24.42454], [93.84813000000001, 24.4248], [93.84743, 24.421460000000003], [93.85063000000001, 24.417890000000003], [93.85123, 24.41551], [93.84707, 24.40923], [93.84802, 24.40501]]]}}, {"id": "12", "type": "Feature", "properties": {"village_name": "Ithai", "vil_lgd": 269908, "district_name": "Bishnupur", "dist_lgd": 252, "subdistrict_name": "Moirang", "sdcode": 1875, "block_name": "Moirang", "block_lgd": 23.0, "gp_name": "WANGOO", "state_name": "MANIPUR", "state_lgd": 14, "population": 1989, "households": 356}, "geometry": {"type": "Polygon", "coordinates": [[[93.85325, 24.43044], [93.84813000000001, 24.4248], [93.8442, 24.42454], [93.83358000000001, 24.41869], [93.80769000000001, 24.413690000000003], [93.80665, 24.41541], [93.80462000000001, 24.416680000000003], [93.80426000000001, 24.41862], [93.80034, 24.42366], [93.80015, 24.427830000000004], [93.80254000000001, 24.427870000000002], [93.80622000000001, 24.428030000000003], [93.82441000000001, 24.433760000000003], [93.83231, 24.434250000000002], [93.83504, 24.43539], [93.84140000000001, 24.436090000000004], [93.85293, 24.434900000000003], [93.85503000000001, 24.435430000000004], [93.85325, 24.43044]]]}}, {"id": "13", "type": "Feature", "properties": {"village_name": "Wapokpi", "vil_lgd": 269914, "district_name": "Bishnupur", "dist_lgd": 252, "subdistrict_name": "Moirang", "sdcode": 1875, "block_name": "Moirang", "block_lgd": 23.0, "gp_name": "WANGOO", "state_name": "MANIPUR", "state_lgd": 14, "population": 701, "households": 142}, "geometry": {"type": "Polygon", "coordinates": [[[93.83315, 24.450740000000003], [93.83846000000001, 24.45043], [93.84028, 24.448300000000003], [93.84102000000001, 24.44425], [93.84251, 24.443320000000003], [93.84456, 24.44264], [93.84986, 24.44311], [93.85158000000001, 24.43984], [93.85386000000001, 24.440150000000003], [93.85774, 24.44207], [93.85503000000001, 24.435430000000004], [93.85293, 24.434900000000003], [93.84140000000001, 24.436090000000004], [93.83504, 24.43539], [93.83439000000001, 24.443450000000002], [93.83163, 24.4444], [93.82802000000001, 24.448290000000004], [93.82754000000001, 24.453010000000003], [93.83093000000001, 24.451780000000003], [93.83315, 24.450740000000003]]]}}, {"id": "14", "type": "Feature", "properties": {"village_name": "Nongmaikhong", "vil_lgd": 269915, "district_name": "Bishnupur", "dist_lgd": 252, "subdistrict_name": "Moirang", "sdcode": 1875, "block_name": "Moirang", "block_lgd": 23.0, "gp_name": "KHA THINUNGEI", "state_name": "MANIPUR", "state_lgd": 14, "population": 989, "households": 211}, "geometry": {"type": "Polygon", "coordinates": [[[93.85158000000001, 24.43984], [93.84986, 24.44311], [93.85283000000001, 24.445860000000003], [93.85175000000001, 24.44919], [93.8542, 24.450640000000003], [93.85454000000001, 24.45474], [93.85625, 24.457130000000003], [93.85792000000001, 24.456480000000003], [93.85846000000001, 24.44386], [93.85774, 24.44207], [93.85386000000001, 24.440150000000003], [93.85158000000001, 24.43984]]]}}, {"id": "15", "type": "Feature", "properties": {"village_name": "Chairen", "vil_lgd": 269910, "district_name": "Bishnupur", "dist_lgd": 252, "subdistrict_name": "Moirang", "sdcode": 1875, "block_name": "Moirang", "block_lgd": 23.0, "gp_name": "BORA YANGBI", "state_name": "MANIPUR", "state_lgd": 14, "population": 785, "households": 182}, "geometry": {"type": "Polygon", "coordinates": [[[93.85957, 24.35049], [93.85457000000001, 24.34945], [93.85376000000001, 24.35001], [93.852, 24.352050000000002], [93.84763000000001, 24.352870000000003], [93.84006000000001, 24.350820000000002], [93.84111000000001, 24.358510000000003], [93.84022, 24.36379], [93.84548000000001, 24.366870000000002], [93.85387, 24.369870000000002], [93.85467000000001, 24.365070000000003], [93.85848000000001, 24.361390000000004], [93.85836, 24.354680000000002], [93.85957, 24.35049]]]}}, {"id": "16", "type": "Feature", "properties": {"village_name": "Khordak", "vil_lgd": 269916, "district_name": "Bishnupur", "dist_lgd": 252, "subdistrict_name": "Moirang", "sdcode": 1875, "block_name": "Moirang", "block_lgd": 23.0, "gp_name": "KHA THINUNGEI", "state_name": "MANIPUR", "state_lgd": 14, "population": 832, "households": 162}, "geometry": {"type": "Polygon", "coordinates": [[[93.85792000000001, 24.456480000000003], [93.85625, 24.457130000000003], [93.85614000000001, 24.46186], [93.85488000000001, 24.464760000000002], [93.85677000000001, 24.47546], [93.86030000000001, 24.480500000000003], [93.86162, 24.48429], [93.86238, 24.48441], [93.86365, 24.480880000000003], [93.86395, 24.471560000000004], [93.86018000000001, 24.460590000000003], [93.85792000000001, 24.456480000000003]]]}}, {"id": "17", "type": "Feature", "properties": {"village_name": "Tengkhal Khunou", "vil_lgd": 269882, "district_name": "Bishnupur", "dist_lgd": 252, "subdistrict_name": "Bishnupur", "sdcode": 1874, "block_name": "Bishnupur", "block_lgd": 22.0, "gp_name": "NGAIKHONG KHULLEN", "state_name": "MANIPUR", "state_lgd": 14, "population": 964, "households": 185}, "geometry": {"type": "Polygon", "coordinates": [[[93.76234000000001, 24.640410000000003], [93.75492000000001, 24.63922], [93.75633, 24.653530000000003], [93.76091000000001, 24.65367], [93.76483, 24.651790000000002], [93.76989, 24.64693], [93.76975, 24.64356], [93.77132, 24.641620000000003], [93.77034, 24.640030000000003], [93.76234000000001, 24.640410000000003]]]}}, {"id": "18", "type": "Feature", "properties": {"village_name": "Ngangkha Lawai", "vil_lgd": 269897, "district_name": "Bishnupur", "dist_lgd": 252, "subdistrict_name": "Moirang", "sdcode": 1875, "block_name": "Moirang", "block_lgd": 23.0, "gp_name": "NGANGKHA  LAWAI", "state_name": "MANIPUR", "state_lgd": 14, "population": 3514, "households": 685}, "geometry": {"type": "Polygon", "coordinates": [[[93.75805000000001, 24.47062], [93.75624, 24.46846], [93.75187000000001, 24.465950000000003], [93.74569000000001, 24.464480000000002], [93.74179000000001, 24.464480000000002], [93.73694, 24.46309], [93.73428000000001, 24.461360000000003], [93.72838, 24.460060000000002], [93.72214000000001, 24.460530000000002], [93.72169000000001, 24.46985], [93.72335000000001, 24.47397], [93.72621000000001, 24.47698], [93.72696, 24.47931], [93.72651, 24.485750000000003], [93.72741, 24.489040000000003], [93.72676000000001, 24.494130000000002], [93.73371, 24.493280000000002], [93.74455, 24.494110000000003], [93.74726000000001, 24.494190000000003], [93.76023, 24.495710000000003], [93.76052000000001, 24.491300000000003], [93.75805000000001, 24.47062]]]}}, {"id": "19", "type": "Feature", "properties": {"village_name": "Thamnapokpi", "vil_lgd": 269896, "district_name": "Bishnupur", "dist_lgd": 252, "subdistrict_name": "Moirang", "sdcode": 1875, "block_name": "Moirang", "block_lgd": 23.0, "gp_name": "NGANGKHA LAWAI", "state_name": "MANIPUR", "state_lgd": 14, "population": 2201, "households": 434}, "geometry": {"type": "Polygon", "coordinates": [[[93.74455, 24.494110000000003], [93.74441, 24.50327], [93.74359000000001, 24.50692], [93.75682, 24.509240000000002], [93.76118000000001, 24.511200000000002], [93.76118000000001, 24.506790000000002], [93.75985000000001, 24.50402], [93.76023, 24.495710000000003], [93.74726000000001, 24.494190000000003], [93.74455, 24.494110000000003]]]}}, {"id": "20", "type": "Feature", "properties": {"village_name": "Naranseina", "vil_lgd": 269894, "district_name": "Bishnupur", "dist_lgd": 252, "subdistrict_name": "Bishnupur", "sdcode": 1874, "block_name": "Bishnupur", "block_lgd": 22.0, "gp_name": "PHUBALA", "state_name": "MANIPUR", "state_lgd": 14, "population": 2648, "households": 540}, "geometry": {"type": "Polygon", "coordinates": [[[93.75701000000001, 24.524490000000004], [93.76259, 24.51876], [93.76295, 24.515900000000002], [93.7642, 24.513900000000003], [93.76575000000001, 24.51378], [93.76118000000001, 24.511200000000002], [93.75682, 24.509240000000002], [93.74359000000001, 24.50692], [93.73571000000001, 24.50626], [93.72455000000001, 24.5074], [93.72711000000001, 24.51152], [93.72847, 24.51686], [93.72782000000001, 24.520950000000003], [93.74138, 24.526010000000003], [93.74524000000001, 24.526870000000002], [93.74756000000001, 24.526010000000003], [93.75576000000001, 24.527680000000004], [93.75665000000001, 24.52633], [93.75701000000001, 24.524490000000004]]]}}, {"id": "21", "type": "Feature", "properties": {"village_name": "Sunusiphai", "vil_lgd": 269893, "district_name": "Bishnupur", "dist_lgd": 252, "subdistrict_name": "Bishnupur", "sdcode": 1874, "block_name": "Bishnupur", "block_lgd": 22.0, "gp_name": "PHUBALA", "state_name": "MANIPUR", "state_lgd": 14, "population": 1561, "households": 315}, "geometry": {"type": "Polygon", "coordinates": [[[93.75558000000001, 24.53065], [93.75576000000001, 24.527680000000004], [93.74756000000001, 24.526010000000003], [93.74524000000001, 24.526870000000002], [93.74138, 24.526010000000003], [93.72782000000001, 24.520950000000003], [93.72621000000001, 24.525900000000004], [93.72597, 24.530330000000003], [93.73603000000001, 24.532220000000002], [93.74732, 24.53563], [93.75154, 24.535030000000003], [93.7579, 24.53714], [93.75665000000001, 24.53471], [93.75558000000001, 24.53065]]]}}, {"id": "22", "type": "Feature", "properties": {"village_name": "Phubala", "vil_lgd": 269892, "district_name": "Bishnupur", "dist_lgd": 252, "subdistrict_name": "Bishnupur", "sdcode": 1874, "block_name": "Bishnupur", "block_lgd": 22.0, "gp_name": "PHUBALA", "state_name": "MANIPUR", "state_lgd": 14, "population": 2800, "households": 551}, "geometry": {"type": "Polygon", "coordinates": [[[93.75154, 24.535030000000003], [93.74732, 24.53563], [93.73603000000001, 24.532220000000002], [93.72597, 24.530330000000003], [93.72380000000001, 24.538230000000002], [93.75796000000001, 24.54406], [93.75903000000001, 24.539630000000002], [93.7579, 24.53714], [93.75154, 24.535030000000003]]]}}, {"id": "23", "type": "Feature", "properties": {"village_name": "Thinungei", "vil_lgd": 269891, "district_name": "Bishnupur", "dist_lgd": 252, "subdistrict_name": "Bishnupur", "sdcode": 1874, "block_name": "Bishnupur", "block_lgd": 22.0, "gp_name": "THINUNGEI", "state_name": "MANIPUR", "state_lgd": 14, "population": 4027, "households": 859}, "geometry": {"type": "Polygon", "coordinates": [[[93.75576000000001, 24.548820000000003], [93.75582000000001, 24.54698], [93.75796000000001, 24.54406], [93.72380000000001, 24.538230000000002], [93.72244, 24.543300000000002], [93.72500000000001, 24.545630000000003], [93.72500000000001, 24.55056], [93.72681000000001, 24.55686], [93.74875, 24.556600000000003], [93.75261, 24.557090000000002], [93.75445, 24.55908], [93.75855000000001, 24.55984], [93.75849000000001, 24.55752], [93.75576000000001, 24.548820000000003]]]}}, {"id": "24", "type": "Feature", "properties": {"village_name": "Potsangbam", "vil_lgd": 269888, "district_name": "Bishnupur", "dist_lgd": 252, "subdistrict_name": "Bishnupur", "sdcode": 1874, "block_name": "Bishnupur", "block_lgd": 22.0, "gp_name": "NACHOU", "state_name": "MANIPUR", "state_lgd": 14, "population": 3721, "households": 804}, "geometry": {"type": "Polygon", "coordinates": [[[93.76360000000001, 24.591620000000002], [93.76069000000001, 24.58048], [93.75439, 24.57984], [93.74803000000001, 24.580000000000002], [93.74459, 24.581290000000003], [93.72816, 24.58151], [93.72560000000001, 24.588500000000003], [93.72545000000001, 24.59411], [93.72689000000001, 24.598550000000003], [93.74786, 24.59605], [93.76360000000001, 24.591620000000002]]]}}, {"id": "25", "type": "Feature", "properties": {"village_name": "Ningthoukhong Kha Pt", "vil_lgd": 269890, "district_name": "Bishnupur", "dist_lgd": 252, "subdistrict_name": "Bishnupur", "sdcode": 1874, "block_name": "Bishnupur", "block_lgd": 22.0, "gp_name": "THINUNGEI", "state_name": "MANIPUR", "state_lgd": 14, "population": 844, "households": 166}, "geometry": {"type": "Polygon", "coordinates": [[[93.75941, 24.575170000000004], [93.75734000000001, 24.568550000000002], [93.75577000000001, 24.56641], [93.75613000000001, 24.563560000000003], [93.75855000000001, 24.55984], [93.75445, 24.55908], [93.75261, 24.557090000000002], [93.74875, 24.556600000000003], [93.72681000000001, 24.55686], [93.72575, 24.560150000000004], [93.75107000000001, 24.560810000000004], [93.75374000000001, 24.575840000000003], [93.75563000000001, 24.575840000000003], [93.75941, 24.575170000000004]]]}}, {"id": "26", "type": "Feature", "properties": {"village_name": "Ngaikhong Khullen", "vil_lgd": 269883, "district_name": "Bishnupur", "dist_lgd": 252, "subdistrict_name": "Bishnupur", "sdcode": 1874, "block_name": "Bishnupur", "block_lgd": 22.0, "gp_name": "NGAIKHONG KHULLEN", "state_name": "MANIPUR", "state_lgd": 14, "population": 5256, "households": 1084}, "geometry": {"type": "Polygon", "coordinates": [[[93.79784000000001, 24.635930000000002], [93.80055, 24.63483], [93.8019, 24.629080000000002], [93.80446, 24.627720000000004], [93.80416000000001, 24.626070000000002], [93.80205000000001, 24.624160000000003], [93.79973000000001, 24.62458], [93.78827000000001, 24.62364], [93.77492000000001, 24.61898], [93.76739, 24.61887], [93.7664, 24.62975], [93.77034, 24.640030000000003], [93.77132, 24.641620000000003], [93.77389000000001, 24.64065], [93.77817, 24.640600000000003], [93.78336, 24.64215], [93.79335, 24.651280000000003], [93.79904, 24.651940000000003], [93.79558, 24.64551], [93.79693, 24.640990000000002], [93.79784000000001, 24.635930000000002]]]}}, {"id": "27", "type": "Feature", "properties": {"village_name": "Toubul", "vil_lgd": 269884, "district_name": "Bishnupur", "dist_lgd": 252, "subdistrict_name": "Bishnupur", "sdcode": 1874, "block_name": "Bishnupur", "block_lgd": 22.0, "gp_name": "TOUBUL", "state_name": "MANIPUR", "state_lgd": 14, "population": 4542, "households": 921}, "geometry": {"type": "Polygon", "coordinates": [[[93.79574000000001, 24.611770000000003], [93.78234, 24.61306], [93.76832, 24.61238], [93.76739, 24.61887], [93.77492000000001, 24.61898], [93.78827000000001, 24.62364], [93.79973000000001, 24.62458], [93.80205000000001, 24.624160000000003], [93.79994, 24.62046], [93.79779, 24.61259], [93.79574000000001, 24.611770000000003]]]}}, {"id": "28", "type": "Feature", "properties": {"village_name": "Khoijuman Khullen", "vil_lgd": 269885, "district_name": "Bishnupur", "dist_lgd": 252, "subdistrict_name": "Bishnupur", "sdcode": 1874, "block_name": "Bishnupur", "block_lgd": 22.0, "gp_name": "KHOIJUMAN- KWAKSIPHAI", "state_name": "MANIPUR", "state_lgd": 14, "population": 2951, "households": 632}, "geometry": {"type": "Polygon", "coordinates": [[[93.79814, 24.60732], [93.79982000000001, 24.60619], [93.79808000000001, 24.603730000000002], [93.79722000000001, 24.598390000000002], [93.77521, 24.600250000000003], [93.77321, 24.60077], [93.76716, 24.605], [93.76925000000001, 24.60817], [93.76832, 24.61238], [93.78234, 24.61306], [93.79574000000001, 24.611770000000003], [93.79779, 24.61259], [93.79769, 24.61184], [93.79814, 24.60732]]]}}, {"id": "29", "type": "Feature", "properties": {"village_name": "Khoijuman Khunou", "vil_lgd": 269886, "district_name": "Bishnupur", "dist_lgd": 252, "subdistrict_name": "Bishnupur", "sdcode": 1874, "block_name": "Bishnupur", "block_lgd": 22.0, "gp_name": "KHOIJUMAN- KWAKSIPHAI", "state_name": "MANIPUR", "state_lgd": 14, "population": 2738, "households": 551}, "geometry": {"type": "Polygon", "coordinates": [[[93.79722000000001, 24.598390000000002], [93.79580000000001, 24.592730000000003], [93.79631, 24.589100000000002], [93.79534000000001, 24.590190000000003], [93.78833, 24.58998], [93.78753, 24.58848], [93.7865, 24.59061], [93.78490000000001, 24.590760000000003], [93.78165000000001, 24.59315], [93.77521, 24.59543], [93.7711, 24.59559], [93.76853000000001, 24.596570000000003], [93.76482000000001, 24.60029], [93.76716, 24.605], [93.77321, 24.60077], [93.77521, 24.600250000000003], [93.79722000000001, 24.598390000000002]]]}}, {"id": "30", "type": "Feature", "properties": {"village_name": "Nachou", "vil_lgd": 269887, "district_name": "Bishnupur", "dist_lgd": 252, "subdistrict_name": "Bishnupur", "sdcode": 1874, "block_name": "Bishnupur", "block_lgd": 22.0, "gp_name": "NACHOU", "state_name": "MANIPUR", "state_lgd": 14, "population": 4313, "households": 882}, "geometry": {"type": "Polygon", "coordinates": [[[93.76361000000001, 24.59916], [93.76482000000001, 24.60029], [93.76853000000001, 24.596570000000003], [93.7711, 24.59559], [93.77521, 24.59543], [93.78165000000001, 24.59315], [93.78490000000001, 24.590760000000003], [93.7865, 24.59061], [93.78753, 24.58848], [93.78764000000001, 24.58677], [93.78325000000001, 24.58651], [93.76830000000001, 24.58978], [93.76360000000001, 24.591620000000002], [93.74786, 24.59605], [93.74957, 24.599480000000003], [93.75470000000001, 24.60396], [93.75698000000001, 24.603830000000002], [93.76155000000001, 24.599610000000002], [93.76361000000001, 24.59916]]]}}, {"id": "31", "type": "Feature", "properties": {"village_name": "Irengbam", "vil_lgd": 269878, "district_name": "Bishnupur", "dist_lgd": 252, "subdistrict_name": "Nambol", "sdcode": 1873, "block_name": "Bishnupur", "block_lgd": 22.0, "gp_name": "IRENGBAM", "state_name": "MANIPUR", "state_lgd": 14, "population": 3384, "households": 702}, "geometry": {"type": "Polygon", "coordinates": [[[93.78309, 24.699810000000003], [93.78677, 24.703100000000003], [93.79343, 24.69733], [93.79649, 24.695950000000003], [93.79937000000001, 24.69387], [93.79545, 24.689230000000002], [93.79319000000001, 24.68242], [93.78226000000001, 24.681130000000003], [93.77863, 24.68221], [93.77132, 24.686470000000003], [93.76491000000001, 24.688560000000003], [93.76898000000001, 24.69882], [93.76969000000001, 24.704780000000003], [93.78036, 24.703590000000002], [93.78154, 24.70035], [93.78309, 24.699810000000003]]]}}, {"id": "32", "type": "Feature", "properties": {"village_name": "Yumnam Khunou", "vil_lgd": 269879, "district_name": "Bishnupur", "dist_lgd": 252, "subdistrict_name": "Nambol", "sdcode": 1873, "block_name": "Bishnupur", "block_lgd": 22.0, "gp_name": "KEINOU", "state_name": "MANIPUR", "state_lgd": 14, "population": 1253, "households": 251}, "geometry": {"type": "Polygon", "coordinates": [[[93.78226000000001, 24.681130000000003], [93.79319000000001, 24.68242], [93.79862000000001, 24.680960000000002], [93.79926, 24.679340000000003], [93.79834000000001, 24.676940000000002], [93.79869000000001, 24.67461], [93.79805, 24.67358], [93.79506, 24.67332], [93.78458, 24.676560000000002], [93.78322000000001, 24.677660000000003], [93.77516000000001, 24.679470000000002], [93.76732000000001, 24.68627], [93.76452, 24.68672], [93.76491000000001, 24.688560000000003], [93.77132, 24.686470000000003], [93.77863, 24.68221], [93.78226000000001, 24.681130000000003]]]}}, {"id": "33", "type": "Feature", "properties": {"village_name": "Keinou", "vil_lgd": 269880, "district_name": "Bishnupur", "dist_lgd": 252, "subdistrict_name": "Nambol", "sdcode": 1873, "block_name": "Bishnupur", "block_lgd": 22.0, "gp_name": "KEINOU", "state_name": "MANIPUR", "state_lgd": 14, "population": 4935, "households": 968}, "geometry": {"type": "Polygon", "coordinates": [[[93.79805, 24.67358], [93.79869000000001, 24.67461], [93.80012, 24.67085], [93.80411000000001, 24.667230000000004], [93.80513, 24.66525], [93.80145, 24.663710000000002], [93.80040000000001, 24.661520000000003], [93.80205000000001, 24.6581], [93.8019, 24.656460000000003], [93.79904, 24.651940000000003], [93.79335, 24.651280000000003], [93.78336, 24.64215], [93.77817, 24.640600000000003], [93.77389000000001, 24.64065], [93.77132, 24.641620000000003], [93.76975, 24.64356], [93.76989, 24.64693], [93.76483, 24.651790000000002], [93.77324, 24.65154], [93.77987, 24.65245], [93.77987, 24.653810000000004], [93.77709, 24.655890000000003], [93.77402000000001, 24.66081], [93.75797000000001, 24.665300000000002], [93.75994000000001, 24.675700000000003], [93.76452, 24.68672], [93.76732000000001, 24.68627], [93.77516000000001, 24.679470000000002], [93.78322000000001, 24.677660000000003], [93.78458, 24.676560000000002], [93.79506, 24.67332], [93.79805, 24.67358]]]}}, {"id": "34", "type": "Feature", "properties": {"village_name": "Leimapokpam", "vil_lgd": 269873, "district_name": "Bishnupur", "dist_lgd": 252, "subdistrict_name": "Nambol", "sdcode": 1873, "block_name": "Bishnupur", "block_lgd": 22.0, "gp_name": "LEIMAPOKPAM", "state_name": "MANIPUR", "state_lgd": 14, "population": 8120, "households": 1579}, "geometry": {"type": "Polygon", "coordinates": [[[93.89306, 24.69499], [93.89472, 24.69321], [93.88454, 24.685950000000002], [93.88355000000001, 24.68427], [93.88618000000001, 24.668850000000003], [93.88219000000001, 24.661130000000004], [93.88212000000001, 24.656470000000002], [93.88329, 24.651860000000003], [93.87283000000001, 24.65013], [93.86507, 24.651220000000002], [93.86515000000001, 24.656080000000003], [93.86465000000001, 24.65951], [93.86536000000001, 24.663860000000003], [93.86458, 24.666900000000002], [93.84968, 24.68465], [93.85616, 24.693920000000002], [93.86715000000001, 24.69366], [93.86964, 24.69703], [93.87007000000001, 24.70305], [93.87991000000001, 24.70053], [93.8824, 24.697940000000003], [93.88554, 24.69742], [93.88861000000001, 24.69845], [93.88953000000001, 24.701500000000003], [93.89421, 24.699830000000002], [93.89337, 24.697860000000002], [93.89306, 24.69499]]]}}, {"id": "35", "type": "Feature", "properties": {"village_name": "Pukhrambam", "vil_lgd": 269872, "district_name": "Bishnupur", "dist_lgd": 252, "subdistrict_name": "Nambol", "sdcode": 1873, "block_name": "Bishnupur", "block_lgd": 22.0, "gp_name": "SANJENBAM PUKHRAMBAM", "state_name": "MANIPUR", "state_lgd": 14, "population": 3716, "households": 684}, "geometry": {"type": "Polygon", "coordinates": [[[93.88329, 24.651860000000003], [93.88212000000001, 24.656470000000002], [93.88219000000001, 24.661130000000004], [93.88618000000001, 24.668850000000003], [93.88355000000001, 24.68427], [93.88454, 24.685950000000002], [93.89472, 24.69321], [93.89728000000001, 24.69581], [93.89894000000001, 24.698960000000003], [93.90074000000001, 24.699920000000002], [93.90481000000001, 24.6991], [93.90682000000001, 24.69592], [93.90540000000001, 24.691820000000003], [93.90706, 24.687500000000004], [93.90349, 24.682530000000003], [93.90302000000001, 24.678210000000004], [93.90017, 24.67519], [93.89945, 24.673240000000003], [93.89969, 24.66741], [93.89731, 24.664600000000004], [93.89731, 24.660280000000004], [93.89018, 24.653370000000002], [93.88625, 24.652510000000003], [93.88329, 24.651860000000003]]]}}, {"id": "36", "type": "Feature", "properties": {"village_name": "Ishok", "vil_lgd": 269874, "district_name": "Bishnupur", "dist_lgd": 252, "subdistrict_name": "Nambol", "sdcode": 1873, "block_name": "Bishnupur", "block_lgd": 22.0, "gp_name": "ISHOK", "state_name": "MANIPUR", "state_lgd": 14, "population": 3055, "households": 591}, "geometry": {"type": "Polygon", "coordinates": [[[93.86507, 24.651220000000002], [93.85235, 24.65386], [93.84844000000001, 24.654000000000003], [93.84437000000001, 24.655500000000004], [93.84076, 24.663990000000002], [93.84121, 24.667820000000003], [93.84045, 24.67028], [93.84041, 24.67293], [93.84162, 24.674090000000003], [93.83877000000001, 24.67688], [93.83898, 24.679280000000002], [93.84404, 24.679990000000004], [93.84968, 24.68465], [93.86458, 24.666900000000002], [93.86536000000001, 24.663860000000003], [93.86465000000001, 24.65951], [93.86515000000001, 24.656080000000003], [93.86507, 24.651220000000002]]]}}, {"id": "37", "type": "Feature", "properties": {"village_name": "Champu Khangpok", "vil_lgd": 269913, "district_name": "Bishnupur", "dist_lgd": 252, "subdistrict_name": "Moirang", "sdcode": 1875, "block_name": "Moirang", "block_lgd": 23.0, "gp_name": "THANGA PT- I", "state_name": "MANIPUR", "state_lgd": 14, "population": 832, "households": 311}, "geometry": {"type": "Polygon", "coordinates": [[[93.80395000000001, 24.5344], [93.79925, 24.53574], [93.79706, 24.539440000000003], [93.80283000000001, 24.539620000000003], [93.80841000000001, 24.538770000000003], [93.80676000000001, 24.53591], [93.80395000000001, 24.5344]]]}}, {"id": "38", "type": "Feature", "properties": {"village_name": "Karang", "vil_lgd": 269901, "district_name": "Bishnupur", "dist_lgd": 252, "subdistrict_name": "Moirang", "sdcode": 1875, "block_name": "Moirang", "block_lgd": 23.0, "gp_name": "THANGA PT - I", "state_name": "MANIPUR", "state_lgd": 14, "population": 1859, "households": 297}, "geometry": {"type": "Polygon", "coordinates": [[[93.79905000000001, 24.522820000000003], [93.79697, 24.523670000000003], [93.79407, 24.527260000000002], [93.79568, 24.531160000000003], [93.79872, 24.532320000000002], [93.802, 24.53224], [93.80319, 24.53111], [93.804, 24.52783], [93.80557, 24.525450000000003], [93.80177, 24.523850000000003], [93.79905000000001, 24.522820000000003]]]}}, {"id": "39", "type": "Feature", "properties": {"village_name": "Khoirentak", "vil_lgd": 269895, "district_name": "Bishnupur", "dist_lgd": 252, "subdistrict_name": "Moirang", "sdcode": 1875, "block_name": "Moirang", "block_lgd": 23.0, "gp_name": "NGANGKHA LAWAI", "state_name": "MANIPUR", "state_lgd": 14, "population": 0, "households": 0}, "geometry": {"type": "Polygon", "coordinates": [[[93.74441, 24.50327], [93.74455, 24.494110000000003], [93.73371, 24.493280000000002], [93.72676000000001, 24.494130000000002], [93.72606, 24.496850000000002], [93.72365, 24.499730000000003], [93.72455000000001, 24.5074], [93.73571000000001, 24.50626], [93.74359000000001, 24.50692], [93.74441, 24.50327]]]}}, {"id": "40", "type": "Feature", "properties": {"village_name": "Thanga", "vil_lgd": 269903, "district_name": "Bishnupur", "dist_lgd": 252, "subdistrict_name": "Moirang", "sdcode": 1875, "block_name": "Moirang", "block_lgd": 23.0, "gp_name": "THANGA PT- I & II", "state_name": "MANIPUR", "state_lgd": 14, "population": 14316, "households": 2458}, "geometry": {"type": "MultiPolygon", "coordinates": [[[[93.84621000000001, 24.52108], [93.85643, 24.519910000000003], [93.85724, 24.51883], [93.85681000000001, 24.513550000000002], [93.85372000000001, 24.51113], [93.85263, 24.51113], [93.85016, 24.512990000000002], [93.84835000000001, 24.51572], [93.84284000000001, 24.52004], [93.83585000000001, 24.520210000000002], [93.83575, 24.52091], [93.83919, 24.524040000000003], [93.84398, 24.521990000000002], [93.84621000000001, 24.52108]]], [[[93.79553000000001, 24.501980000000003], [93.79344, 24.502250000000004], [93.7925, 24.505770000000002], [93.79267, 24.51009], [93.79404000000001, 24.512420000000002], [93.79475000000001, 24.51707], [93.79594, 24.51761], [93.79856000000001, 24.51761], [93.80236000000001, 24.515990000000002], [93.80289, 24.514100000000003], [93.80206000000001, 24.51096], [93.79969000000001, 24.50869], [93.79830000000001, 24.50459], [93.79784000000001, 24.50334], [93.79553000000001, 24.501980000000003]]], [[[93.80514000000001, 24.518050000000002], [93.80405, 24.519440000000003], [93.79944, 24.52185], [93.80733000000001, 24.524630000000002], [93.80918000000001, 24.524540000000002], [93.80985000000001, 24.52389], [93.80856000000001, 24.520950000000003], [93.81132000000001, 24.51922], [93.80857, 24.51723], [93.80514000000001, 24.518050000000002]]], [[[93.8341, 24.52401], [93.83394000000001, 24.52267], [93.83244, 24.521210000000004], [93.82999000000001, 24.52054], [93.82446, 24.52324], [93.82429, 24.52495], [93.82509, 24.525570000000002], [93.83313000000001, 24.52521], [93.8341, 24.52401]]]]}}, {"id": "41", "type": "Feature", "properties": {"village_name": "Kha Thingungei", "vil_lgd": 269899, "district_name": "Bishnupur", "dist_lgd": 252, "subdistrict_name": "Moirang", "sdcode": 1875, "block_name": "Moirang", "block_lgd": 23.0, "gp_name": "KHA THINUNGEI", "state_name": "MANIPUR", "state_lgd": 14, "population": 10107, "households": 1858}, "geometry": {"type": "Polygon", "coordinates": [[[93.84656000000001, 24.521890000000003], [93.85310000000001, 24.522750000000002], [93.85839000000001, 24.52117], [93.85883000000001, 24.519250000000003], [93.85566000000001, 24.509520000000002], [93.85476000000001, 24.502670000000002], [93.85672000000001, 24.49911], [93.85822, 24.49116], [93.86199, 24.488960000000002], [93.86238, 24.48441], [93.86162, 24.48429], [93.86070000000001, 24.485270000000003], [93.85774, 24.48496], [93.85597000000001, 24.48579], [93.85677000000001, 24.488490000000002], [93.85072000000001, 24.493840000000002], [93.84142000000001, 24.493840000000002], [93.83971000000001, 24.495600000000003], [93.83640000000001, 24.497780000000002], [93.83372000000001, 24.49773], [93.82927000000001, 24.496280000000002], [93.82996000000001, 24.493270000000003], [93.83446, 24.49041], [93.83463, 24.487710000000003], [93.83191000000001, 24.484090000000002], [93.83797000000001, 24.478790000000004], [93.84022, 24.47576], [93.83963000000001, 24.474030000000003], [93.83191000000001, 24.47933], [93.82917, 24.480300000000003], [93.82418000000001, 24.477380000000004], [93.82501, 24.474890000000002], [93.8165, 24.479560000000003], [93.81332, 24.47895], [93.81311000000001, 24.476290000000002], [93.82270000000001, 24.468980000000002], [93.82279000000001, 24.46664], [93.80625, 24.462310000000002], [93.80444000000001, 24.45747], [93.79779, 24.45297], [93.78790000000001, 24.44968], [93.77392, 24.442580000000003], [93.77126000000001, 24.442670000000003], [93.76603, 24.444660000000002], [93.76396000000001, 24.44781], [93.76717000000001, 24.450460000000003], [93.76518, 24.45513], [93.77145, 24.458160000000003], [93.77098000000001, 24.462310000000002], [93.7724, 24.466730000000002], [93.77525000000001, 24.468370000000004], [93.7917, 24.47183], [93.80625, 24.475990000000003], [93.81043000000001, 24.478150000000003], [93.81159000000001, 24.47895], [93.80653000000001, 24.485450000000004], [93.80514000000001, 24.489520000000002], [93.80671000000001, 24.49791], [93.80262, 24.50112], [93.79784000000001, 24.50334], [93.79830000000001, 24.50459], [93.80243, 24.50429], [93.80492000000001, 24.503110000000003], [93.81039000000001, 24.49743], [93.81289000000001, 24.497210000000003], [93.81306000000001, 24.489210000000003], [93.81592, 24.48937], [93.81907000000001, 24.502350000000003], [93.81396000000001, 24.511110000000002], [93.80857, 24.51723], [93.81132000000001, 24.51922], [93.80856000000001, 24.520950000000003], [93.80985000000001, 24.52389], [93.80918000000001, 24.524540000000002], [93.80733000000001, 24.524630000000002], [93.79944, 24.52185], [93.79905000000001, 24.522820000000003], [93.80177, 24.523850000000003], [93.80557, 24.525450000000003], [93.804, 24.52783], [93.8092, 24.52756], [93.81282, 24.525990000000004], [93.82269000000001, 24.52513], [93.82509, 24.525570000000002], [93.82429, 24.52495], [93.82446, 24.52324], [93.82999000000001, 24.52054], [93.83244, 24.521210000000004], [93.83394000000001, 24.52267], [93.83635000000001, 24.522910000000003], [93.83896000000001, 24.525240000000004], [93.843, 24.52383], [93.84656000000001, 24.521890000000003]], [[93.84284000000001, 24.52004], [93.84835000000001, 24.51572], [93.85016, 24.512990000000002], [93.85263, 24.51113], [93.85372000000001, 24.51113], [93.85681000000001, 24.513550000000002], [93.85724, 24.51883], [93.85643, 24.519910000000003], [93.84621000000001, 24.52108], [93.84398, 24.521990000000002], [93.83919, 24.524040000000003], [93.83575, 24.52091], [93.83585000000001, 24.520210000000002], [93.84284000000001, 24.52004]], [[93.82219, 24.521770000000004], [93.81785, 24.521770000000004], [93.81757, 24.52032], [93.81985, 24.517930000000003], [93.82225000000001, 24.510620000000003], [93.82709000000001, 24.50543], [93.83565, 24.502730000000003], [93.84073000000001, 24.50278], [93.84803000000001, 24.49613], [93.85088, 24.495820000000002], [93.85373000000001, 24.49904], [93.85379, 24.506520000000002], [93.85276, 24.508020000000002], [93.85003, 24.508850000000002], [93.84729, 24.511450000000004], [93.84033000000001, 24.515030000000003], [93.82738, 24.517930000000003], [93.82504, 24.52017], [93.82219, 24.521770000000004]]]}}, {"id": "42", "type": "Feature", "properties": {"village_name": "Ningthoukhong Awang Pt", "vil_lgd": 269889, "district_name": "Bishnupur", "dist_lgd": 252, "subdistrict_name": "Bishnupur", "sdcode": 1874, "block_name": "Bishnupur", "block_lgd": 22.0, "gp_name": "THINUNGEI", "state_name": "MANIPUR", "state_lgd": 14, "population": 1168, "households": 238}, "geometry": {"type": "Polygon", "coordinates": [[[93.75941, 24.575170000000004], [93.75563000000001, 24.575840000000003], [93.75374000000001, 24.575840000000003], [93.75439, 24.57984], [93.76069000000001, 24.58048], [93.75991, 24.5775], [93.75941, 24.575170000000004]]]}}, {"id": "43", "type": "Feature", "properties": {"village_name": "Kwakta Np", "vil_lgd": 801474, "district_name": "Bishnupur", "dist_lgd": 252, "subdistrict_name": "Moirang", "sdcode": 1875, "block_name": "", "block_lgd": null, "gp_name": "", "state_name": "MANIPUR", "state_lgd": 14, "population": 8579, "households": 1430}, "geometry": {"type": "Polygon", "coordinates": [[[93.76194000000001, 24.451760000000004], [93.76518, 24.45513], [93.76717000000001, 24.450460000000003], [93.76396000000001, 24.44781], [93.75795000000001, 24.443620000000003], [93.75681, 24.44198], [93.75149, 24.440500000000004], [93.74806000000001, 24.43739], [93.73827000000001, 24.43531], [93.73494000000001, 24.435830000000003], [93.72996, 24.435820000000003], [93.72848, 24.438080000000003], [93.72791000000001, 24.44094], [93.72601, 24.44189], [93.72544, 24.44319], [93.7262, 24.444570000000002], [93.72943000000001, 24.446130000000004], [93.73666000000001, 24.455650000000002], [93.74046000000001, 24.45643], [93.74892000000001, 24.45643], [93.75805000000001, 24.456780000000002], [93.76004, 24.45193], [93.76194000000001, 24.451760000000004]]]}}, {"id": "44", "type": "Feature", "properties": {"village_name": "Kumbi Np", "vil_lgd": 801475, "district_name": "Bishnupur", "dist_lgd": 252, "subdistrict_name": "Moirang", "sdcode": 1875, "block_name": "", "block_lgd": null, "gp_name": "", "state_name": "MANIPUR", "state_lgd": 14, "population": 9546, "households": 1859}, "geometry": {"type": "Polygon", "coordinates": [[[93.80254000000001, 24.427870000000002], [93.80321, 24.431680000000004], [93.80197000000001, 24.433410000000002], [93.80378, 24.43652], [93.81148, 24.439380000000003], [93.81737000000001, 24.44189], [93.83439000000001, 24.443450000000002], [93.83504, 24.43539], [93.83231, 24.434250000000002], [93.82441000000001, 24.433760000000003], [93.80622000000001, 24.428030000000003], [93.80254000000001, 24.427870000000002]]]}}, {"id": "45", "type": "Feature", "properties": {"village_name": "Keibul Lamjao National Sanctuary", "vil_lgd": 999999, "district_name": "Bishnupur", "dist_lgd": 252, "subdistrict_name": "Moirang", "sdcode": 1875, "block_name": "", "block_lgd": null, "gp_name": "", "state_name": "MANIPUR", "state_lgd": 14, "population": 0, "households": 0}, "geometry": {"type": "MultiPolygon", "coordinates": [[[[93.84142000000001, 24.493840000000002], [93.85072000000001, 24.493840000000002], [93.85677000000001, 24.488490000000002], [93.85597000000001, 24.48579], [93.85774, 24.48496], [93.86070000000001, 24.485270000000003], [93.86162, 24.48429], [93.86030000000001, 24.480500000000003], [93.85677000000001, 24.47546], [93.85488000000001, 24.464760000000002], [93.85614000000001, 24.46186], [93.85625, 24.457130000000003], [93.85454000000001, 24.45474], [93.8542, 24.450640000000003], [93.85175000000001, 24.44919], [93.85283000000001, 24.445860000000003], [93.84986, 24.44311], [93.84456, 24.44264], [93.84251, 24.443320000000003], [93.84102000000001, 24.44425], [93.84028, 24.448300000000003], [93.83846000000001, 24.45043], [93.83315, 24.450740000000003], [93.83093000000001, 24.451780000000003], [93.82754000000001, 24.453010000000003], [93.82726000000001, 24.45634], [93.82593000000001, 24.45868], [93.82688, 24.46223], [93.82507000000001, 24.471140000000002], [93.82270000000001, 24.468980000000002], [93.81311000000001, 24.476290000000002], [93.81332, 24.47895], [93.8165, 24.479560000000003], [93.82501, 24.474890000000002], [93.82418000000001, 24.477380000000004], [93.82917, 24.480300000000003], [93.83191000000001, 24.47933], [93.83963000000001, 24.474030000000003], [93.84022, 24.47576], [93.83797000000001, 24.478790000000004], [93.83191000000001, 24.484090000000002], [93.83463, 24.487710000000003], [93.83446, 24.49041], [93.82996000000001, 24.493270000000003], [93.82927000000001, 24.496280000000002], [93.83372000000001, 24.49773], [93.83640000000001, 24.497780000000002], [93.83971000000001, 24.495600000000003], [93.84142000000001, 24.493840000000002]]], [[[93.80672000000001, 24.477980000000002], [93.80166000000001, 24.484740000000002], [93.80319, 24.48926], [93.80514000000001, 24.489520000000002], [93.80653000000001, 24.485450000000004], [93.81159000000001, 24.47895], [93.81043000000001, 24.478150000000003], [93.80672000000001, 24.477980000000002]]]]}}, {"id": "46", "type": "Feature", "properties": {"village_name": "Moirang Mci", "vil_lgd": 801473, "district_name": "Bishnupur", "dist_lgd": 252, "subdistrict_name": "Moirang", "sdcode": 1875, "block_name": "", "block_lgd": null, "gp_name": "", "state_name": "MANIPUR", "state_lgd": 14, "population": 19893, "households": 3723}, "geometry": {"type": "Polygon", "coordinates": [[[93.76898000000001, 24.502290000000002], [93.77573000000001, 24.50532], [93.77402000000001, 24.50082], [93.77383, 24.498910000000002], [93.77468, 24.498220000000003], [93.78391, 24.49744], [93.79427000000001, 24.49294], [93.79741000000001, 24.48862], [93.80166000000001, 24.484740000000002], [93.80672000000001, 24.477980000000002], [93.81043000000001, 24.478150000000003], [93.80625, 24.475990000000003], [93.7917, 24.47183], [93.77525000000001, 24.468370000000004], [93.7724, 24.466730000000002], [93.77098000000001, 24.462310000000002], [93.77145, 24.458160000000003], [93.76518, 24.45513], [93.76194000000001, 24.451760000000004], [93.76004, 24.45193], [93.75805000000001, 24.456780000000002], [93.74892000000001, 24.45643], [93.74854, 24.459460000000004], [93.74740000000001, 24.463440000000002], [93.74569000000001, 24.464480000000002], [93.75187000000001, 24.465950000000003], [93.75624, 24.46846], [93.75805000000001, 24.47062], [93.76052000000001, 24.491300000000003], [93.76023, 24.495710000000003], [93.75985000000001, 24.50402], [93.76118000000001, 24.506790000000002], [93.76118000000001, 24.511200000000002], [93.76660000000001, 24.509040000000002], [93.76774, 24.507740000000002], [93.76879000000001, 24.50324], [93.76898000000001, 24.502290000000002]]]}}, {"id": "47", "type": "Feature", "properties": {"village_name": "Ningthoukhong Np", "vil_lgd": 801472, "district_name": "Bishnupur", "dist_lgd": 252, "subdistrict_name": "Bishnupur", "sdcode": 1874, "block_name": "", "block_lgd": null, "gp_name": "", "state_name": "MANIPUR", "state_lgd": 14, "population": 13078, "households": 2780}, "geometry": {"type": "Polygon", "coordinates": [[[93.74803000000001, 24.580000000000002], [93.75439, 24.57984], [93.75374000000001, 24.575840000000003], [93.75107000000001, 24.560810000000004], [93.72575, 24.560150000000004], [93.72595000000001, 24.56256], [93.72907000000001, 24.567000000000004], [93.73103, 24.574800000000003], [93.72816, 24.58151], [93.74459, 24.581290000000003], [93.74803000000001, 24.580000000000002]]]}}, {"id": "48", "type": "Feature", "properties": {"village_name": "Bishnupur Mci", "vil_lgd": 801471, "district_name": "Bishnupur", "dist_lgd": 252, "subdistrict_name": "Bishnupur", "sdcode": 1874, "block_name": "", "block_lgd": null, "gp_name": "", "state_name": "MANIPUR", "state_lgd": 14, "population": 12167, "households": 2501}, "geometry": {"type": "Polygon", "coordinates": [[[93.76832, 24.61238], [93.76925000000001, 24.60817], [93.76716, 24.605], [93.76482000000001, 24.60029], [93.76361000000001, 24.59916], [93.76155000000001, 24.599610000000002], [93.75698000000001, 24.603830000000002], [93.75470000000001, 24.60396], [93.74957, 24.599480000000003], [93.74786, 24.59605], [93.72689000000001, 24.598550000000003], [93.73133000000001, 24.608900000000002], [93.73223, 24.616290000000003], [93.73645, 24.620130000000003], [93.74247000000001, 24.620400000000004], [93.74458000000001, 24.622590000000002], [93.74413000000001, 24.62506], [93.73780000000001, 24.62779], [93.73795000000001, 24.63053], [93.74443000000001, 24.630670000000002], [93.75241000000001, 24.6293], [93.75527000000001, 24.630670000000002], [93.75492000000001, 24.63922], [93.76234000000001, 24.640410000000003], [93.77034, 24.640030000000003], [93.7664, 24.62975], [93.76739, 24.61887], [93.76832, 24.61238]]]}}, {"id": "49", "type": "Feature", "properties": {"village_name": "Oinam Np", "vil_lgd": 801470, "district_name": "Bishnupur", "dist_lgd": 252, "subdistrict_name": "Nambol", "sdcode": 1873, "block_name": "", "block_lgd": null, "gp_name": "", "state_name": "MANIPUR", "state_lgd": 14, "population": 7161, "households": 1582}, "geometry": {"type": "Polygon", "coordinates": [[[93.82780000000001, 24.669600000000003], [93.82645000000001, 24.67097], [93.82178, 24.66891], [93.81681, 24.6685], [93.81425, 24.666590000000003], [93.80747000000001, 24.666310000000003], [93.80513, 24.66525], [93.80411000000001, 24.667230000000004], [93.80012, 24.67085], [93.79869000000001, 24.67461], [93.79834000000001, 24.676940000000002], [93.79926, 24.679340000000003], [93.79862000000001, 24.680960000000002], [93.79319000000001, 24.68242], [93.79545, 24.689230000000002], [93.79937000000001, 24.69387], [93.79649, 24.695950000000003], [93.79913, 24.700080000000003], [93.80098000000001, 24.7037], [93.81333000000001, 24.69809], [93.80770000000001, 24.69349], [93.81469000000001, 24.68999], [93.81668, 24.68539], [93.81804000000001, 24.68513], [93.82267, 24.680270000000004], [93.82388, 24.675610000000002], [93.82766000000001, 24.672110000000004], [93.82780000000001, 24.669600000000003]]]}}, {"id": "50", "type": "Feature", "properties": {"village_name": "Water Body", "vil_lgd": 999999, "district_name": "Bishnupur", "dist_lgd": 252, "subdistrict_name": "Moirang", "sdcode": 1875, "block_name": "", "block_lgd": null, "gp_name": "", "state_name": "MANIPUR", "state_lgd": 14, "population": 0, "households": 0}, "geometry": {"type": "MultiPolygon", "coordinates": [[[[93.83527000000001, 24.527730000000002], [93.83896000000001, 24.525240000000004], [93.83635000000001, 24.522910000000003], [93.83394000000001, 24.52267], [93.8341, 24.52401], [93.83313000000001, 24.52521], [93.82509, 24.525570000000002], [93.82269000000001, 24.52513], [93.81282, 24.525990000000004], [93.8092, 24.52756], [93.804, 24.52783], [93.80319, 24.53111], [93.802, 24.53224], [93.79872, 24.532320000000002], [93.79568, 24.531160000000003], [93.79407, 24.527260000000002], [93.79697, 24.523670000000003], [93.79905000000001, 24.522820000000003], [93.79944, 24.52185], [93.80405, 24.519440000000003], [93.80514000000001, 24.518050000000002], [93.80857, 24.51723], [93.81396000000001, 24.511110000000002], [93.81907000000001, 24.502350000000003], [93.81592, 24.48937], [93.81306000000001, 24.489210000000003], [93.81289000000001, 24.497210000000003], [93.81039000000001, 24.49743], [93.80492000000001, 24.503110000000003], [93.80243, 24.50429], [93.79830000000001, 24.50459], [93.79969000000001, 24.50869], [93.80206000000001, 24.51096], [93.80289, 24.514100000000003], [93.80236000000001, 24.515990000000002], [93.79856000000001, 24.51761], [93.79594, 24.51761], [93.79475000000001, 24.51707], [93.79404000000001, 24.512420000000002], [93.79267, 24.51009], [93.7925, 24.505770000000002], [93.79344, 24.502250000000004], [93.79553000000001, 24.501980000000003], [93.79784000000001, 24.50334], [93.80262, 24.50112], [93.80671000000001, 24.49791], [93.80514000000001, 24.489520000000002], [93.80319, 24.48926], [93.80166000000001, 24.484740000000002], [93.79741000000001, 24.48862], [93.79427000000001, 24.49294], [93.78391, 24.49744], [93.77468, 24.498220000000003], [93.77383, 24.498910000000002], [93.77402000000001, 24.50082], [93.77573000000001, 24.50532], [93.76898000000001, 24.502290000000002], [93.76879000000001, 24.50324], [93.76774, 24.507740000000002], [93.76660000000001, 24.509040000000002], [93.76118000000001, 24.511200000000002], [93.76575000000001, 24.51378], [93.77407000000001, 24.52145], [93.78108, 24.526000000000003], [93.78524, 24.53205], [93.79154000000001, 24.538], [93.79706, 24.539440000000003], [93.79925, 24.53574], [93.80395000000001, 24.5344], [93.80676000000001, 24.53591], [93.80841000000001, 24.538770000000003], [93.81507, 24.53724], [93.81911000000001, 24.533350000000002], [93.83527000000001, 24.527730000000002]], [[93.77936000000001, 24.503770000000003], [93.77883000000001, 24.5009], [93.77954000000001, 24.49971], [93.78275000000001, 24.499280000000002], [93.78483000000001, 24.50074], [93.78596, 24.5029], [93.78554000000001, 24.504530000000003], [93.78107000000001, 24.505270000000003], [93.77936000000001, 24.503770000000003]]], [[[93.85373000000001, 24.49904], [93.85088, 24.495820000000002], [93.84803000000001, 24.49613], [93.84073000000001, 24.50278], [93.83565, 24.502730000000003], [93.82709000000001, 24.50543], [93.82225000000001, 24.510620000000003], [93.81985, 24.517930000000003], [93.81757, 24.52032], [93.81785, 24.521770000000004], [93.82219, 24.521770000000004], [93.82504, 24.52017], [93.82738, 24.517930000000003], [93.84033000000001, 24.515030000000003], [93.84729, 24.511450000000004], [93.85003, 24.508850000000002], [93.85276, 24.508020000000002], [93.85379, 24.506520000000002], [93.85373000000001, 24.49904]]]]}}, {"id": "51", "type": "Feature", "properties": {"village_name": "Loktak Lake", "vil_lgd": 999999, "district_name": "Bishnupur", "dist_lgd": 252, "subdistrict_name": "Bishnupur", "sdcode": 1874, "block_name": "", "block_lgd": null, "gp_name": "", "state_name": "MANIPUR", "state_lgd": 14, "population": 0, "households": 0}, "geometry": {"type": "Polygon", "coordinates": [[[93.85310000000001, 24.522750000000002], [93.84656000000001, 24.521890000000003], [93.843, 24.52383], [93.83896000000001, 24.525240000000004], [93.83527000000001, 24.527730000000002], [93.81911000000001, 24.533350000000002], [93.81507, 24.53724], [93.80841000000001, 24.538770000000003], [93.80283000000001, 24.539620000000003], [93.79706, 24.539440000000003], [93.79154000000001, 24.538], [93.78524, 24.53205], [93.78108, 24.526000000000003], [93.77407000000001, 24.52145], [93.76575000000001, 24.51378], [93.7642, 24.513900000000003], [93.76295, 24.515900000000002], [93.76259, 24.51876], [93.75701000000001, 24.524490000000004], [93.75665000000001, 24.52633], [93.75576000000001, 24.527680000000004], [93.75558000000001, 24.53065], [93.75665000000001, 24.53471], [93.7579, 24.53714], [93.75903000000001, 24.539630000000002], [93.75796000000001, 24.54406], [93.75582000000001, 24.54698], [93.75576000000001, 24.548820000000003], [93.75849000000001, 24.55752], [93.75855000000001, 24.55984], [93.75613000000001, 24.563560000000003], [93.75577000000001, 24.56641], [93.75734000000001, 24.568550000000002], [93.75941, 24.575170000000004], [93.75991, 24.5775], [93.76069000000001, 24.58048], [93.76360000000001, 24.591620000000002], [93.76830000000001, 24.58978], [93.78325000000001, 24.58651], [93.78764000000001, 24.58677], [93.78753, 24.58848], [93.78833, 24.58998], [93.79534000000001, 24.590190000000003], [93.79631, 24.589100000000002], [93.79580000000001, 24.592730000000003], [93.79722000000001, 24.598390000000002], [93.79808000000001, 24.603730000000002], [93.79982000000001, 24.60619], [93.80326000000001, 24.603890000000003], [93.81229, 24.60225], [93.82133, 24.605400000000003], [93.82690000000001, 24.604580000000002], [93.83021000000001, 24.602110000000003], [93.83127, 24.59842], [93.82916, 24.5939], [93.82886, 24.589650000000002], [93.83067000000001, 24.584180000000003], [93.83609000000001, 24.581570000000003], [93.84045, 24.57842], [93.84618, 24.576780000000003], [93.84829, 24.573900000000002], [93.84859, 24.570480000000003], [93.85190000000001, 24.569660000000002], [93.85777, 24.574180000000002], [93.86184, 24.58527], [93.86410000000001, 24.587740000000004], [93.86847, 24.58527], [93.86831000000001, 24.58144], [93.86199, 24.57158], [93.86124000000001, 24.56651], [93.86229, 24.56267], [93.86470000000001, 24.559800000000003], [93.86169000000001, 24.55226], [93.86124000000001, 24.54569], [93.85943, 24.540480000000002], [93.85702, 24.527880000000003], [93.85839000000001, 24.52117], [93.85310000000001, 24.522750000000002]]]}}, {"id": "52", "type": "Feature", "properties": {"village_name": "Sadu Koireng", "vil_lgd": 269875, "district_name": "Bishnupur", "dist_lgd": 252, "subdistrict_name": "Nambol", "sdcode": 1873, "block_name": "Bishnupur", "block_lgd": 22.0, "gp_name": "IRENGBAM", "state_name": "MANIPUR", "state_lgd": 14, "population": 655, "households": 122}, "geometry": {"type": "Polygon", "coordinates": [[[93.76882, 24.733020000000003], [93.77078, 24.736300000000004], [93.78554000000001, 24.73507], [93.78622000000001, 24.735550000000003], [93.78713, 24.734140000000004], [93.78701000000001, 24.73241], [93.79075, 24.72869], [93.79081000000001, 24.726850000000002], [93.78951, 24.723830000000003], [93.7877, 24.72211], [93.78185, 24.726000000000003], [93.77130000000001, 24.726260000000003], [93.76945, 24.727680000000003], [93.76745000000001, 24.727680000000003], [93.76642000000001, 24.725910000000002], [93.76446000000001, 24.72755], [93.75873000000001, 24.7281], [93.75738000000001, 24.72905], [93.75271000000001, 24.73562], [93.75301, 24.739040000000003], [93.75693000000001, 24.74013], [93.7625, 24.733980000000003], [93.76882, 24.733020000000003]]]}}, {"id": "53", "type": "Feature", "properties": {"village_name": "Leimaram", "vil_lgd": 269876, "district_name": "Bishnupur", "dist_lgd": 252, "subdistrict_name": "Nambol", "sdcode": 1873, "block_name": "Bishnupur", "block_lgd": 22.0, "gp_name": "IRENGBAM", "state_name": "MANIPUR", "state_lgd": 14, "population": 2337, "households": 472}, "geometry": {"type": "Polygon", "coordinates": [[[93.77130000000001, 24.726260000000003], [93.78185, 24.726000000000003], [93.7877, 24.72211], [93.78969000000001, 24.718490000000003], [93.78847, 24.717200000000002], [93.78749, 24.71649], [93.78743000000001, 24.71487], [93.79075, 24.709580000000003], [93.79010000000001, 24.707310000000003], [93.78677, 24.703100000000003], [93.78309, 24.699810000000003], [93.78154, 24.70035], [93.78036, 24.703590000000002], [93.76969000000001, 24.704780000000003], [93.76822000000001, 24.714280000000002], [93.76491000000001, 24.719890000000003], [93.76491000000001, 24.72276], [93.76642000000001, 24.725910000000002], [93.76745000000001, 24.727680000000003], [93.76945, 24.727680000000003], [93.77130000000001, 24.726260000000003]]]}}, {"id": "54", "type": "Feature", "properties": {"village_name": "Namoikhul", "vil_lgd": 269877, "district_name": "Bishnupur", "dist_lgd": 252, "subdistrict_name": "Nambol", "sdcode": 1873, "block_name": "Bishnupur", "block_lgd": 22.0, "gp_name": "IRENGBAM", "state_name": "MANIPUR", "state_lgd": 14, "population": 872, "households": 175}, "geometry": {"type": "Polygon", "coordinates": [[[93.79649, 24.695950000000003], [93.79343, 24.69733], [93.78677, 24.703100000000003], [93.79010000000001, 24.707310000000003], [93.79075, 24.709580000000003], [93.78743000000001, 24.71487], [93.78749, 24.71649], [93.78847, 24.717200000000002], [93.80098000000001, 24.7037], [93.79913, 24.700080000000003], [93.79649, 24.695950000000003]]]}}, {"id": "55", "type": "Feature", "properties": {"village_name": "Utlou", "vil_lgd": 269868, "district_name": "Bishnupur", "dist_lgd": 252, "subdistrict_name": "Nambol", "sdcode": 1873, "block_name": "Bishnupur", "block_lgd": 22.0, "gp_name": "UTLOU", "state_name": "MANIPUR", "state_lgd": 14, "population": 3355, "households": 717}, "geometry": {"type": "Polygon", "coordinates": [[[93.87570000000001, 24.711930000000002], [93.87499000000001, 24.710500000000003], [93.86871000000001, 24.71206], [93.86765000000001, 24.711090000000002], [93.867, 24.71439], [93.86037, 24.712580000000003], [93.86037, 24.718020000000003], [93.8593, 24.72087], [93.85973000000001, 24.72734], [93.85997, 24.73364], [93.87183, 24.742600000000003], [93.87273, 24.74041], [93.87635, 24.739590000000003], [93.8768, 24.73863], [93.87514, 24.73466], [93.87304, 24.73206], [93.87243000000001, 24.72905], [93.87228, 24.723580000000002], [93.87349, 24.719890000000003], [93.87549000000001, 24.71458], [93.87570000000001, 24.711930000000002]]]}}, {"id": "56", "type": "Feature", "properties": {"village_name": "Kakyai Langpok", "vil_lgd": 269869, "district_name": "Bishnupur", "dist_lgd": 252, "subdistrict_name": "Nambol", "sdcode": 1873, "block_name": "Bishnupur", "block_lgd": 22.0, "gp_name": "SANJENBAM PUKHRAMBAM", "state_name": "MANIPUR", "state_lgd": 14, "population": 2518, "households": 536}, "geometry": {"type": "Polygon", "coordinates": [[[93.89276000000001, 24.71647], [93.89412, 24.71442], [93.89623, 24.70457], [93.89421, 24.699830000000002], [93.88953000000001, 24.701500000000003], [93.88305000000001, 24.70428], [93.88654000000001, 24.708360000000003], [93.88447000000001, 24.70992], [93.88276, 24.71102], [93.88162000000001, 24.713220000000003], [93.87570000000001, 24.711930000000002], [93.87549000000001, 24.71458], [93.87349, 24.719890000000003], [93.87695000000001, 24.7188], [93.88313000000001, 24.719890000000003], [93.8893, 24.71921], [93.89276000000001, 24.71647]]]}}, {"id": "57", "type": "Feature", "properties": {"village_name": "Thiyam", "vil_lgd": 269870, "district_name": "Bishnupur", "dist_lgd": 252, "subdistrict_name": "Nambol", "sdcode": 1873, "block_name": "Bishnupur", "block_lgd": 22.0, "gp_name": "UTLOU", "state_name": "MANIPUR", "state_lgd": 14, "population": 1344, "households": 279}, "geometry": {"type": "Polygon", "coordinates": [[[93.88654000000001, 24.708360000000003], [93.88305000000001, 24.70428], [93.87991000000001, 24.70053], [93.87007000000001, 24.70305], [93.86765000000001, 24.711090000000002], [93.86871000000001, 24.71206], [93.87499000000001, 24.710500000000003], [93.87570000000001, 24.711930000000002], [93.88162000000001, 24.713220000000003], [93.88276, 24.71102], [93.88447000000001, 24.70992], [93.88654000000001, 24.708360000000003]]]}}, {"id": "58", "type": "Feature", "properties": {"village_name": "Nambol Mci", "vil_lgd": 801469, "district_name": "Bishnupur", "dist_lgd": 252, "subdistrict_name": "Nambol", "sdcode": 1873, "block_name": "", "block_lgd": null, "gp_name": "", "state_name": "MANIPUR", "state_lgd": 14, "population": 17081, "households": 3468}, "geometry": {"type": "Polygon", "coordinates": [[[93.8593, 24.72087], [93.86037, 24.718020000000003], [93.86037, 24.712580000000003], [93.867, 24.71439], [93.86765000000001, 24.711090000000002], [93.87007000000001, 24.70305], [93.86964, 24.69703], [93.86715000000001, 24.69366], [93.85616, 24.693920000000002], [93.84968, 24.68465], [93.84404, 24.679990000000004], [93.83898, 24.679280000000002], [93.83877000000001, 24.67688], [93.84162, 24.674090000000003], [93.84041, 24.67293], [93.84045, 24.67028], [93.83699000000001, 24.671380000000003], [93.83036000000001, 24.66796], [93.82780000000001, 24.669600000000003], [93.82766000000001, 24.672110000000004], [93.82388, 24.675610000000002], [93.82267, 24.680270000000004], [93.81804000000001, 24.68513], [93.81668, 24.68539], [93.81469000000001, 24.68999], [93.80770000000001, 24.69349], [93.81333000000001, 24.69809], [93.80098000000001, 24.7037], [93.78847, 24.717200000000002], [93.78969000000001, 24.718490000000003], [93.7877, 24.72211], [93.78951, 24.723830000000003], [93.79081000000001, 24.726850000000002], [93.79075, 24.72869], [93.78701000000001, 24.73241], [93.78713, 24.734140000000004], [93.78622000000001, 24.735550000000003], [93.78825, 24.736990000000002], [93.79518, 24.733710000000002], [93.80316, 24.734250000000003], [93.80677000000001, 24.733430000000002], [93.81114000000001, 24.730700000000002], [93.81852, 24.731790000000004], [93.82349, 24.730420000000002], [93.82876, 24.727], [93.83268000000001, 24.723170000000003], [93.83734000000001, 24.716880000000003], [93.83885000000001, 24.7162], [93.84021000000001, 24.717560000000002], [93.83945000000001, 24.720440000000004], [93.84472000000001, 24.72878], [93.84879000000001, 24.730150000000002], [93.8524, 24.727410000000003], [93.85997, 24.73364], [93.85973000000001, 24.72734], [93.8593, 24.72087]]]}}]}