{"type": "FeatureCollection", "metadata": {"source": "Survey of India (per src_agency attribute in the source data)", "hosted_via": "National Water Data Portal (NWDP), NWIC, Ministry of Jal Shakti -- https://nwdp.nwic.gov.in/", "access": "public, no login required", "crs_original": "EPSG:7755 (WGS 84 / India NSF LCC)", "fetch_date": "2026-08-02", "quality": "verified-official -- Survey of India source", "state": "Manipur", "district": "Jiribam", "processing": "reprojected to EPSG:4326, topology-preserving simplify (shared-arc, tolerance 0.0005 deg) so adjacent polygons never overlap/gap at shared borders, coords rounded 5dp, 0 feature(s) needed the per-feature fallback", "feature_count": 53}, "features": [{"id": "0", "type": "Feature", "properties": {"village_name": "Hilghat", "vil_lgd": 270153, "district_name": "Jiribam", "dist_lgd": 713, "subdistrict_name": "Jiribam", "sdcode": 1883, "block_name": "Jiribam", "block_lgd": 28.0, "gp_name": "", "state_name": "MANIPUR", "state_lgd": 14, "population": 2286, "households": 494}, "geometry": {"type": "Polygon", "coordinates": [[[93.1419, 24.793580000000002], [93.14132000000001, 24.794610000000002], [93.14217000000001, 24.795160000000003], [93.14306, 24.794290000000004], [93.1423, 24.793560000000003], [93.1419, 24.793580000000002]]]}}, {"id": "1", "type": "Feature", "properties": {"village_name": "Dibong", "vil_lgd": 270160, "district_name": "Jiribam", "dist_lgd": 713, "subdistrict_name": "Jiribam", "sdcode": 1883, "block_name": "Jiribam", "block_lgd": 28.0, "gp_name": "DIBONG", "state_name": "MANIPUR", "state_lgd": 14, "population": 1163, "households": 235}, "geometry": {"type": "Polygon", "coordinates": [[[93.11185, 24.78612], [93.11093000000001, 24.786540000000002], [93.11105, 24.787450000000003], [93.11257, 24.787170000000003], [93.11185, 24.78612]]]}}, {"id": "2", "type": "Feature", "properties": {"village_name": "Nungkhal", "vil_lgd": 270176, "district_name": "Jiribam", "dist_lgd": 713, "subdistrict_name": "Jiribam", "sdcode": 1883, "block_name": "Jiribam", "block_lgd": 28.0, "gp_name": "SONAPUR", "state_name": "MANIPUR", "state_lgd": 14, "population": 318, "households": 64}, "geometry": {"type": "Polygon", "coordinates": [[[93.14341, 24.73272], [93.14354, 24.73363], [93.14459000000001, 24.73382], [93.14500000000001, 24.73272], [93.14408, 24.732300000000002], [93.14341, 24.73272]]]}}, {"id": "3", "type": "Feature", "properties": {"village_name": "Baiboni", "vil_lgd": 270183, "district_name": "Jiribam", "dist_lgd": 713, "subdistrict_name": "Jiribam", "sdcode": 1883, "block_name": "Jiribam", "block_lgd": 28.0, "gp_name": "LATINGKHAL  GP", "state_name": "MANIPUR", "state_lgd": 14, "population": 534, "households": 96}, "geometry": {"type": "Polygon", "coordinates": [[[93.10136000000001, 24.69208], [93.10068000000001, 24.692880000000002], [93.10162000000001, 24.69367], [93.10246000000001, 24.692800000000002], [93.10179000000001, 24.69207], [93.10136000000001, 24.69208]]]}}, {"id": "4", "type": "Feature", "properties": {"village_name": "Abompunjee", "vil_lgd": 270187, "district_name": "Jiribam", "dist_lgd": 713, "subdistrict_name": "Jiribam", "sdcode": 1883, "block_name": "Jiribam", "block_lgd": 28.0, "gp_name": "LATINGKHAL  GP", "state_name": "MANIPUR", "state_lgd": 14, "population": 191, "households": 37}, "geometry": {"type": "Polygon", "coordinates": [[[93.09461, 24.699730000000002], [93.09585000000001, 24.700210000000002], [93.09625000000001, 24.69911], [93.09533, 24.698680000000003], [93.09461, 24.699730000000002]]]}}, {"id": "5", "type": "Feature", "properties": {"village_name": "Lamabhutangkhal", "vil_lgd": 270190, "district_name": "Jiribam", "dist_lgd": 713, "subdistrict_name": "Jiribam", "sdcode": 1883, "block_name": "Jiribam", "block_lgd": 28.0, "gp_name": "BOROBEKRA   GP", "state_name": "MANIPUR", "state_lgd": 14, "population": 171, "households": 32}, "geometry": {"type": "Polygon", "coordinates": [[[93.09887, 24.661700000000003], [93.09829, 24.662730000000003], [93.09914, 24.66328], [93.10003, 24.66241], [93.09927, 24.66168], [93.09887, 24.661700000000003]]]}}, {"id": "6", "type": "Feature", "properties": {"village_name": "Bhutangkhal", "vil_lgd": 270191, "district_name": "Jiribam", "dist_lgd": 713, "subdistrict_name": "Jiribam", "sdcode": 1883, "block_name": "Jiribam", "block_lgd": 28.0, "gp_name": "BOROBEKRA", "state_name": "MANIPUR", "state_lgd": 14, "population": 1046, "households": 189}, "geometry": {"type": "Polygon", "coordinates": [[[93.10684, 24.65623], [93.10808, 24.6567], [93.10848000000001, 24.655600000000003], [93.10756, 24.65518], [93.10684, 24.65623]]]}}, {"id": "7", "type": "Feature", "properties": {"village_name": "Chotobekra", "vil_lgd": 270189, "district_name": "Jiribam", "dist_lgd": 713, "subdistrict_name": "Jiribam", "sdcode": 1883, "block_name": "Jiribam", "block_lgd": 28.0, "gp_name": "BOROBEKRA   GP", "state_name": "MANIPUR", "state_lgd": 14, "population": 1345, "households": 244}, "geometry": {"type": "Polygon", "coordinates": [[[93.10471000000001, 24.681220000000003], [93.10413000000001, 24.682250000000003], [93.10497000000001, 24.6828], [93.10586, 24.68193], [93.10510000000001, 24.6812], [93.10471000000001, 24.681220000000003]]]}}, {"id": "8", "type": "Feature", "properties": {"village_name": "Jatrapur", "vil_lgd": 270192, "district_name": "Jiribam", "dist_lgd": 713, "subdistrict_name": "Jiribam", "sdcode": 1883, "block_name": "Jiribam", "block_lgd": 28.0, "gp_name": "BOROBEKRA  GP", "state_name": "MANIPUR", "state_lgd": 14, "population": 715, "households": 124}, "geometry": {"type": "Polygon", "coordinates": [[[93.09015000000001, 24.63268], [93.08956, 24.63371], [93.09041, 24.63426], [93.0913, 24.633390000000002], [93.09054, 24.63266], [93.09015000000001, 24.63268]]]}}, {"id": "9", "type": "Feature", "properties": {"village_name": "Borobekra", "vil_lgd": 270193, "district_name": "Jiribam", "dist_lgd": 713, "subdistrict_name": "Jiribam", "sdcode": 1883, "block_name": "Jiribam", "block_lgd": 28.0, "gp_name": "BOROBEKRA  GP", "state_name": "MANIPUR", "state_lgd": 14, "population": 741, "households": 154}, "geometry": {"type": "Polygon", "coordinates": [[[93.08301, 24.62421], [93.08234, 24.624930000000003], [93.08319, 24.6258], [93.08412000000001, 24.625010000000003], [93.08345000000001, 24.62421], [93.08301, 24.62421]]]}}, {"id": "10", "type": "Feature", "properties": {"village_name": "Guakhal", "vil_lgd": 270194, "district_name": "Jiribam", "dist_lgd": 713, "subdistrict_name": "Jiribam", "sdcode": 1883, "block_name": "Jiribam", "block_lgd": 28.0, "gp_name": "BOROBEKRA  GP", "state_name": "MANIPUR", "state_lgd": 14, "population": 824, "households": 165}, "geometry": {"type": "Polygon", "coordinates": [[[93.1093, 24.6273], [93.11002, 24.62807], [93.11108, 24.6273], [93.11019, 24.62647], [93.1093, 24.6273]]]}}, {"id": "11", "type": "Feature", "properties": {"village_name": "Harinagar", "vil_lgd": 270195, "district_name": "Jiribam", "dist_lgd": 713, "subdistrict_name": "Jiribam", "sdcode": 1883, "block_name": "Jiribam", "block_lgd": 28.0, "gp_name": "BOBOBEKRA GP", "state_name": "MANIPUR", "state_lgd": 14, "population": 421, "households": 78}, "geometry": {"type": "Polygon", "coordinates": [[[93.10610000000001, 24.6154], [93.10552000000001, 24.61643], [93.10636000000001, 24.61698], [93.10725000000001, 24.616110000000003], [93.10650000000001, 24.615380000000002], [93.10610000000001, 24.6154]]]}}, {"id": "12", "type": "Feature", "properties": {"village_name": "Bhomikpara", "vil_lgd": 270196, "district_name": "Jiribam", "dist_lgd": 713, "subdistrict_name": "Jiribam", "sdcode": 1883, "block_name": "Jiribam", "block_lgd": 28.0, "gp_name": "BOROBEKRA  GP", "state_name": "MANIPUR", "state_lgd": 14, "population": 822, "households": 145}, "geometry": {"type": "Polygon", "coordinates": [[[93.08713, 24.61541], [93.08836000000001, 24.61588], [93.08877000000001, 24.614780000000003], [93.08784000000001, 24.61435], [93.08713, 24.61541]]]}}, {"id": "13", "type": "Feature", "properties": {"village_name": "Tupidhor", "vil_lgd": 270199, "district_name": "Jiribam", "dist_lgd": 713, "subdistrict_name": "Jiribam", "sdcode": 1883, "block_name": "Jiribam", "block_lgd": 28.0, "gp_name": "BOROBEKRA  GP", "state_name": "MANIPUR", "state_lgd": 14, "population": 180, "households": 35}, "geometry": {"type": "Polygon", "coordinates": [[[93.07489000000001, 24.599880000000002], [93.07578000000001, 24.60075], [93.07667000000001, 24.599880000000002], [93.07565000000001, 24.59915], [93.07489000000001, 24.599880000000002]]]}}, {"id": "14", "type": "Feature", "properties": {"village_name": "Durgapur", "vil_lgd": 270200, "district_name": "Jiribam", "dist_lgd": 713, "subdistrict_name": "Jiribam", "sdcode": 1883, "block_name": "Jiribam", "block_lgd": 28.0, "gp_name": "BOROBEKRA  GP", "state_name": "MANIPUR", "state_lgd": 14, "population": 434, "households": 93}, "geometry": {"type": "Polygon", "coordinates": [[[93.10318000000001, 24.589260000000003], [93.10260000000001, 24.590290000000003], [93.10344, 24.590840000000004], [93.10433, 24.58997], [93.10357, 24.589240000000004], [93.10318000000001, 24.589260000000003]]]}}, {"id": "15", "type": "Feature", "properties": {"village_name": "Narayanpur", "vil_lgd": 270201, "district_name": "Jiribam", "dist_lgd": 713, "subdistrict_name": "Jiribam", "sdcode": 1883, "block_name": "Jiribam", "block_lgd": 28.0, "gp_name": "BOROBEKRA", "state_name": "MANIPUR", "state_lgd": 14, "population": 464, "households": 87}, "geometry": {"type": "Polygon", "coordinates": [[[93.08718, 24.59907], [93.08807, 24.599940000000004], [93.08896000000001, 24.59907], [93.08821, 24.59834], [93.08718, 24.59907]]]}}, {"id": "16", "type": "Feature", "properties": {"village_name": "Jakuradhor Part I", "vil_lgd": 270197, "district_name": "Jiribam", "dist_lgd": 713, "subdistrict_name": "Jiribam", "sdcode": 1883, "block_name": "Jiribam", "block_lgd": 28.0, "gp_name": "BOROBEKRA  GP", "state_name": "MANIPUR", "state_lgd": 14, "population": 1486, "households": 290}, "geometry": {"type": "Polygon", "coordinates": [[[93.10224000000001, 24.60912], [93.10157000000001, 24.609920000000002], [93.10251000000001, 24.61071], [93.10335, 24.609840000000002], [93.10268, 24.60912], [93.10224000000001, 24.60912]]]}}, {"id": "17", "type": "Feature", "properties": {"village_name": "Jakuradhor Part Ii", "vil_lgd": 270198, "district_name": "Jiribam", "dist_lgd": 713, "subdistrict_name": "Jiribam", "sdcode": 1883, "block_name": "Jiribam", "block_lgd": 28.0, "gp_name": "BOROBEKRA  GP", "state_name": "MANIPUR", "state_lgd": 14, "population": 1171, "households": 232}, "geometry": {"type": "Polygon", "coordinates": [[[93.1101, 24.60309], [93.10943, 24.603890000000003], [93.11037, 24.604680000000002], [93.11121000000001, 24.603800000000003], [93.11054000000001, 24.603080000000002], [93.1101, 24.60309]]]}}, {"id": "18", "type": "Feature", "properties": {"village_name": "Madhupur", "vil_lgd": 270202, "district_name": "Jiribam", "dist_lgd": 713, "subdistrict_name": "Jiribam", "sdcode": 1883, "block_name": "Jiribam", "block_lgd": 28.0, "gp_name": "LATINGKHAL  GP", "state_name": "MANIPUR", "state_lgd": 14, "population": 156, "households": 35}, "geometry": {"type": "Polygon", "coordinates": [[[93.0991, 24.59822], [93.09960000000001, 24.599010000000003], [93.10084, 24.598540000000003], [93.09986, 24.59749], [93.0991, 24.59822]]]}}, {"id": "19", "type": "Feature", "properties": {"village_name": "Choudhurikhal", "vil_lgd": 270203, "district_name": "Jiribam", "dist_lgd": 713, "subdistrict_name": "Jiribam", "sdcode": 1883, "block_name": "Jiribam", "block_lgd": 28.0, "gp_name": "LATINGKHAL   GP", "state_name": "MANIPUR", "state_lgd": 14, "population": 136, "households": 21}, "geometry": {"type": "Polygon", "coordinates": [[[93.11646, 24.570690000000003], [93.11696, 24.57148], [93.11802, 24.57129], [93.11748000000001, 24.569950000000002], [93.11646, 24.570690000000003]]]}}, {"id": "20", "type": "Feature", "properties": {"village_name": "Dholakhal", "vil_lgd": 270185, "district_name": "Jiribam", "dist_lgd": 713, "subdistrict_name": "Jiribam", "sdcode": 1883, "block_name": "Jiribam", "block_lgd": 28.0, "gp_name": "LATINKHAL", "state_name": "MANIPUR", "state_lgd": 14, "population": 95, "households": 20}, "geometry": {"type": "Polygon", "coordinates": [[[93.13846000000001, 24.5836], [93.13788000000001, 24.58463], [93.13872, 24.58518], [93.13961, 24.584310000000002], [93.13885, 24.58358], [93.13846000000001, 24.5836]]]}}, {"id": "21", "type": "Feature", "properties": {"village_name": "Kamaranga", "vil_lgd": 270162, "district_name": "Jiribam", "dist_lgd": 713, "subdistrict_name": "Jiribam", "sdcode": 1883, "block_name": "Jiribam", "block_lgd": 28.0, "gp_name": "HILGHAT", "state_name": "MANIPUR", "state_lgd": 14, "population": 1915, "households": 363}, "geometry": {"type": "Polygon", "coordinates": [[[93.1354, 24.79297], [93.13448000000001, 24.793390000000002], [93.1346, 24.794300000000003], [93.13612, 24.794020000000003], [93.1354, 24.79297]]]}}, {"id": "22", "type": "Feature", "properties": {"village_name": "Mahadebpur", "vil_lgd": 270161, "district_name": "Jiribam", "dist_lgd": 713, "subdistrict_name": "Jiribam", "sdcode": 1883, "block_name": "Jiribam", "block_lgd": 28.0, "gp_name": "DIBONG", "state_name": "MANIPUR", "state_lgd": 14, "population": 30, "households": 9}, "geometry": {"type": "Polygon", "coordinates": [[[93.11513000000001, 24.78602], [93.11602, 24.786890000000003], [93.11691, 24.78602], [93.11615, 24.785290000000003], [93.11513000000001, 24.78602]]]}}, {"id": "23", "type": "Feature", "properties": {"village_name": "Chindong Leikai", "vil_lgd": 270159, "district_name": "Jiribam", "dist_lgd": 713, "subdistrict_name": "Jiribam", "sdcode": 1883, "block_name": "Jiribam", "block_lgd": 28.0, "gp_name": "DIBONG", "state_name": "MANIPUR", "state_lgd": 14, "population": 1249, "households": 249}, "geometry": {"type": "Polygon", "coordinates": [[[93.11955, 24.77457], [93.12044, 24.775430000000004], [93.12133000000001, 24.77457], [93.12057, 24.773830000000004], [93.11955, 24.77457]]]}}, {"id": "24", "type": "Feature", "properties": {"village_name": "Islamabad", "vil_lgd": 270167, "district_name": "Jiribam", "dist_lgd": 713, "subdistrict_name": "Jiribam", "sdcode": 1883, "block_name": "Jiribam", "block_lgd": 28.0, "gp_name": "DIBONG", "state_name": "MANIPUR", "state_lgd": 14, "population": 679, "households": 114}, "geometry": {"type": "Polygon", "coordinates": [[[93.10777, 24.776370000000004], [93.10767000000001, 24.777520000000003], [93.10901000000001, 24.777520000000003], [93.10891000000001, 24.776370000000004], [93.10777, 24.776370000000004]]]}}, {"id": "25", "type": "Feature", "properties": {"village_name": "Champanagar Meitei", "vil_lgd": 270168, "district_name": "Jiribam", "dist_lgd": 713, "subdistrict_name": "Jiribam", "sdcode": 1883, "block_name": "Jiribam", "block_lgd": 28.0, "gp_name": "DIBONG GP", "state_name": "MANIPUR", "state_lgd": 14, "population": 560, "households": 115}, "geometry": {"type": "Polygon", "coordinates": [[[93.10643, 24.77042], [93.10576, 24.771220000000003], [93.10669000000001, 24.77201], [93.10754000000001, 24.771140000000003], [93.10687, 24.77042], [93.10643, 24.77042]]]}}, {"id": "26", "type": "Feature", "properties": {"village_name": "Sonapur", "vil_lgd": 270164, "district_name": "Jiribam", "dist_lgd": 713, "subdistrict_name": "Jiribam", "sdcode": 1883, "block_name": "Jiribam", "block_lgd": 28.0, "gp_name": "SONAPUR", "state_name": "MANIPUR", "state_lgd": 14, "population": 2320, "households": 437}, "geometry": {"type": "Polygon", "coordinates": [[[93.12431000000001, 24.766930000000002], [93.12579000000001, 24.76713], [93.12534000000001, 24.765810000000002], [93.12431000000001, 24.766930000000002]]]}}, {"id": "27", "type": "Feature", "properties": {"village_name": "Bakhal", "vil_lgd": 270169, "district_name": "Jiribam", "dist_lgd": 713, "subdistrict_name": "Jiribam", "sdcode": 1883, "block_name": "Jiribam", "block_lgd": 28.0, "gp_name": "DIBONG", "state_name": "MANIPUR", "state_lgd": 14, "population": 502, "households": 106}, "geometry": {"type": "Polygon", "coordinates": [[[93.10808, 24.76263], [93.10749000000001, 24.76366], [93.10834000000001, 24.764210000000002], [93.10923000000001, 24.763340000000003], [93.10847000000001, 24.762610000000002], [93.10808, 24.76263]]]}}, {"id": "28", "type": "Feature", "properties": {"village_name": "Champanagar Muslim", "vil_lgd": 270170, "district_name": "Jiribam", "dist_lgd": 713, "subdistrict_name": "Jiribam", "sdcode": 1883, "block_name": "Jiribam", "block_lgd": 28.0, "gp_name": "DIBONG", "state_name": "MANIPUR", "state_lgd": 14, "population": 590, "households": 103}, "geometry": {"type": "Polygon", "coordinates": [[[93.11595000000001, 24.76508], [93.11718, 24.76555], [93.11759, 24.764450000000004], [93.11666000000001, 24.76403], [93.11595000000001, 24.76508]]]}}, {"id": "29", "type": "Feature", "properties": {"village_name": "Aglapur", "vil_lgd": 270165, "district_name": "Jiribam", "dist_lgd": 713, "subdistrict_name": "Jiribam", "sdcode": 1883, "block_name": "Jiribam", "block_lgd": 28.0, "gp_name": "SONAPUR", "state_name": "MANIPUR", "state_lgd": 14, "population": 918, "households": 153}, "geometry": {"type": "Polygon", "coordinates": [[[93.14102000000001, 24.774210000000004], [93.14152000000001, 24.775000000000002], [93.14275, 24.774530000000002], [93.14177000000001, 24.773480000000003], [93.14102000000001, 24.774210000000004]]]}}, {"id": "30", "type": "Feature", "properties": {"village_name": "Jarolpokpi", "vil_lgd": 270172, "district_name": "Jiribam", "dist_lgd": 713, "subdistrict_name": "Jiribam", "sdcode": 1883, "block_name": "Jiribam", "block_lgd": 28.0, "gp_name": "DIBONG", "state_name": "MANIPUR", "state_lgd": 14, "population": 1287, "households": 218}, "geometry": {"type": "Polygon", "coordinates": [[[93.13592000000001, 24.755300000000002], [93.13533000000001, 24.75634], [93.13618000000001, 24.756890000000002], [93.13707000000001, 24.756020000000003], [93.13631000000001, 24.755280000000003], [93.13592000000001, 24.755300000000002]]]}}, {"id": "31", "type": "Feature", "properties": {"village_name": "Mullargao", "vil_lgd": 270174, "district_name": "Jiribam", "dist_lgd": 713, "subdistrict_name": "Jiribam", "sdcode": 1883, "block_name": "Jiribam", "block_lgd": 28.0, "gp_name": "SONAPUR", "state_name": "MANIPUR", "state_lgd": 14, "population": 836, "households": 158}, "geometry": {"type": "Polygon", "coordinates": [[[93.14401000000001, 24.749070000000003], [93.14546000000001, 24.7494], [93.14508000000001, 24.748030000000004], [93.14401000000001, 24.749070000000003]]]}}, {"id": "32", "type": "Feature", "properties": {"village_name": "Leishabithol", "vil_lgd": 270175, "district_name": "Jiribam", "dist_lgd": 713, "subdistrict_name": "Jiribam", "sdcode": 1883, "block_name": "Jiribam", "block_lgd": 28.0, "gp_name": "SONAPUR", "state_name": "MANIPUR", "state_lgd": 14, "population": 231, "households": 52}, "geometry": {"type": "Polygon", "coordinates": [[[93.14423000000001, 24.74048], [93.14473000000001, 24.741270000000004], [93.14579, 24.74107], [93.14525, 24.73974], [93.14423000000001, 24.74048]]]}}, {"id": "33", "type": "Feature", "properties": {"village_name": "Lalpani", "vil_lgd": 270166, "district_name": "Jiribam", "dist_lgd": 713, "subdistrict_name": "Jiribam", "sdcode": 1883, "block_name": "Jiribam", "block_lgd": 28.0, "gp_name": "SONAPUR  GP", "state_name": "MANIPUR", "state_lgd": 14, "population": 1375, "households": 281}, "geometry": {"type": "Polygon", "coordinates": [[[93.11725000000001, 24.745590000000004], [93.11877000000001, 24.74586], [93.11823000000001, 24.74453], [93.11725000000001, 24.745590000000004]]]}}, {"id": "34", "type": "Feature", "properties": {"village_name": "Rasidpur", "vil_lgd": 270171, "district_name": "Jiribam", "dist_lgd": 713, "subdistrict_name": "Jiribam", "sdcode": 1883, "block_name": "Jiribam", "block_lgd": 28.0, "gp_name": "DIBONG", "state_name": "MANIPUR", "state_lgd": 14, "population": 210, "households": 41}, "geometry": {"type": "Polygon", "coordinates": [[[93.10904000000001, 24.750940000000003], [93.10764, 24.75061], [93.10736000000001, 24.75149], [93.10851000000001, 24.752000000000002], [93.10904000000001, 24.750940000000003]]]}}, {"id": "35", "type": "Feature", "properties": {"village_name": "Binselu", "vil_lgd": 270179, "district_name": "Jiribam", "dist_lgd": 713, "subdistrict_name": "Jiribam", "sdcode": 1883, "block_name": "Jiribam", "block_lgd": 28.0, "gp_name": "LATINGKHAL  GP", "state_name": "MANIPUR", "state_lgd": 14, "population": 226, "households": 42}, "geometry": {"type": "Polygon", "coordinates": [[[93.10445000000001, 24.735190000000003], [93.10539000000001, 24.73598], [93.10624000000001, 24.735100000000003], [93.10557000000001, 24.73438], [93.10445000000001, 24.735190000000003]]]}}, {"id": "36", "type": "Feature", "properties": {"village_name": "Nungphou", "vil_lgd": 270181, "district_name": "Jiribam", "dist_lgd": 713, "subdistrict_name": "Jiribam", "sdcode": 1883, "block_name": "Jiribam", "block_lgd": 28.0, "gp_name": "LATINGKHAL  GP", "state_name": "MANIPUR", "state_lgd": 14, "population": 595, "households": 108}, "geometry": {"type": "Polygon", "coordinates": [[[93.10967000000001, 24.74208], [93.11056, 24.74294], [93.11145, 24.74208], [93.11069, 24.74134], [93.10967000000001, 24.74208]]]}}, {"id": "37", "type": "Feature", "properties": {"village_name": "Kashimpur", "vil_lgd": 270173, "district_name": "Jiribam", "dist_lgd": 713, "subdistrict_name": "Jiribam", "sdcode": 1883, "block_name": "Jiribam", "block_lgd": 28.0, "gp_name": "SONAPUR  GP", "state_name": "MANIPUR", "state_lgd": 14, "population": 1307, "households": 240}, "geometry": {"type": "Polygon", "coordinates": [[[93.13000000000001, 24.742510000000003], [93.13123, 24.742990000000002], [93.13164, 24.74189], [93.13072000000001, 24.741460000000004], [93.13000000000001, 24.742510000000003]]]}}, {"id": "38", "type": "Feature", "properties": {"village_name": "Ahamadabad", "vil_lgd": 270177, "district_name": "Jiribam", "dist_lgd": 713, "subdistrict_name": "Jiribam", "sdcode": 1883, "block_name": "Jiribam", "block_lgd": 28.0, "gp_name": "SONAPUR", "state_name": "MANIPUR", "state_lgd": 14, "population": 1816, "households": 372}, "geometry": {"type": "Polygon", "coordinates": [[[93.13066, 24.72556], [93.13057, 24.72672], [93.13162000000001, 24.726920000000003], [93.13213, 24.72612], [93.13137, 24.72539], [93.13066, 24.72556]]]}}, {"id": "39", "type": "Feature", "properties": {"village_name": "Chandranathpur", "vil_lgd": 270178, "district_name": "Jiribam", "dist_lgd": 713, "subdistrict_name": "Jiribam", "sdcode": 1883, "block_name": "Jiribam", "block_lgd": 28.0, "gp_name": "LATINGKHAL", "state_name": "MANIPUR", "state_lgd": 14, "population": 580, "households": 113}, "geometry": {"type": "Polygon", "coordinates": [[[93.10807000000001, 24.71683], [93.10847000000001, 24.717930000000003], [93.10971, 24.717460000000003], [93.10899, 24.716410000000003], [93.10807000000001, 24.71683]]]}}, {"id": "40", "type": "Feature", "properties": {"village_name": "Berabak", "vil_lgd": 270180, "district_name": "Jiribam", "dist_lgd": 713, "subdistrict_name": "Jiribam", "sdcode": 1883, "block_name": "Jiribam", "block_lgd": 28.0, "gp_name": "LATINGKHAL", "state_name": "MANIPUR", "state_lgd": 14, "population": 175, "households": 28}, "geometry": {"type": "Polygon", "coordinates": [[[93.09930000000001, 24.72916], [93.10053, 24.729630000000004], [93.10094000000001, 24.728530000000003], [93.10001000000001, 24.72811], [93.09930000000001, 24.72916]]]}}, {"id": "41", "type": "Feature", "properties": {"village_name": "Latingkhal", "vil_lgd": 270182, "district_name": "Jiribam", "dist_lgd": 713, "subdistrict_name": "Jiribam", "sdcode": 1883, "block_name": "Jiribam", "block_lgd": 28.0, "gp_name": "LATINGKHAL", "state_name": "MANIPUR", "state_lgd": 14, "population": 1525, "households": 281}, "geometry": {"type": "Polygon", "coordinates": [[[93.09576000000001, 24.719140000000003], [93.09509000000001, 24.71986], [93.09594000000001, 24.720730000000003], [93.09687000000001, 24.71994], [93.09620000000001, 24.719140000000003], [93.09576000000001, 24.719140000000003]]]}}, {"id": "42", "type": "Feature", "properties": {"village_name": "Makhabosti", "vil_lgd": 270184, "district_name": "Jiribam", "dist_lgd": 713, "subdistrict_name": "Jiribam", "sdcode": 1883, "block_name": "Jiribam", "block_lgd": 28.0, "gp_name": "LATINHKHAL", "state_name": "MANIPUR", "state_lgd": 14, "population": 575, "households": 132}, "geometry": {"type": "Polygon", "coordinates": [[[93.09025000000001, 24.709690000000002], [93.08967000000001, 24.71073], [93.09052000000001, 24.711270000000003], [93.09141000000001, 24.710410000000003], [93.09065000000001, 24.709670000000003], [93.09025000000001, 24.709690000000002]]]}}, {"id": "43", "type": "Feature", "properties": {"village_name": "Tilka Compani", "vil_lgd": 270186, "district_name": "Jiribam", "dist_lgd": 713, "subdistrict_name": "Jiribam", "sdcode": 1883, "block_name": "Jiribam", "block_lgd": 28.0, "gp_name": "LATINGKHAL", "state_name": "MANIPUR", "state_lgd": 14, "population": 219, "households": 52}, "geometry": {"type": "Polygon", "coordinates": [[[93.10598, 24.70466], [93.10611, 24.70557], [93.10717000000001, 24.70576], [93.10767000000001, 24.704970000000003], [93.10691000000001, 24.704240000000002], [93.10598, 24.70466]]]}}, {"id": "44", "type": "Feature", "properties": {"village_name": "Jirimukh", "vil_lgd": 270188, "district_name": "Jiribam", "dist_lgd": 713, "subdistrict_name": "Jiribam", "sdcode": 1883, "block_name": "Jiribam", "block_lgd": 28.0, "gp_name": "LATINGKHAL GP", "state_name": "MANIPUR", "state_lgd": 14, "population": 396, "households": 65}, "geometry": {"type": "Polygon", "coordinates": [[[93.07913, 24.706930000000003], [93.07855, 24.707970000000003], [93.07939, 24.708520000000004], [93.08028, 24.70765], [93.07952, 24.70691], [93.07913, 24.706930000000003]]]}}, {"id": "45", "type": "Feature", "properties": {"village_name": "Kamrangha Kuki", "vil_lgd": 270163, "district_name": "Jiribam", "dist_lgd": 713, "subdistrict_name": "Jiribam", "sdcode": 1883, "block_name": "Jiribam", "block_lgd": 28.0, "gp_name": "HILGHAT", "state_name": "MANIPUR", "state_lgd": 14, "population": 0, "households": 0}, "geometry": {"type": "Polygon", "coordinates": [[[93.13461000000001, 24.797880000000003], [93.13501000000001, 24.798980000000004], [93.13625, 24.79851], [93.13553, 24.79745], [93.13461000000001, 24.797880000000003]]]}}, {"id": "46", "type": "Feature", "properties": {"village_name": "Babukhal", "vil_lgd": 270156, "district_name": "Jiribam", "dist_lgd": 713, "subdistrict_name": "Jiribam", "sdcode": 1883, "block_name": "Jiribam", "block_lgd": 28.0, "gp_name": "HILGHAT", "state_name": "MANIPUR", "state_lgd": 14, "population": 118, "households": 31}, "geometry": {"type": "Polygon", "coordinates": [[[93.19878000000001, 24.80476], [93.19949000000001, 24.80553], [93.20056000000001, 24.80476], [93.19967000000001, 24.80393], [93.19878000000001, 24.80476]]]}}, {"id": "47", "type": "Feature", "properties": {"village_name": "Sabughat", "vil_lgd": 270157, "district_name": "Jiribam", "dist_lgd": 713, "subdistrict_name": "Jiribam", "sdcode": 1883, "block_name": "Jiribam", "block_lgd": 28.0, "gp_name": "HILGHAT", "state_name": "MANIPUR", "state_lgd": 14, "population": 44, "households": 15}, "geometry": {"type": "Polygon", "coordinates": [[[93.20270000000001, 24.816250000000004], [93.20203000000001, 24.817050000000002], [93.20297000000001, 24.81783], [93.20381, 24.81696], [93.20314, 24.81624], [93.20270000000001, 24.816250000000004]]]}}, {"id": "48", "type": "Feature", "properties": {"village_name": "Boroikhal", "vil_lgd": 270158, "district_name": "Jiribam", "dist_lgd": 713, "subdistrict_name": "Jiribam", "sdcode": 1883, "block_name": "Jiribam", "block_lgd": 28.0, "gp_name": "HILGHAT", "state_name": "MANIPUR", "state_lgd": 14, "population": 44, "households": 13}, "geometry": {"type": "Polygon", "coordinates": [[[93.21470000000001, 24.832520000000002], [93.21621, 24.832790000000003], [93.21567, 24.831460000000003], [93.21470000000001, 24.832520000000002]]]}}, {"id": "49", "type": "Feature", "properties": {"village_name": "Uchathol", "vil_lgd": 270154, "district_name": "Jiribam", "dist_lgd": 713, "subdistrict_name": "Jiribam", "sdcode": 1883, "block_name": "Jiribam", "block_lgd": 28.0, "gp_name": "HILGHAT", "state_name": "MANIPUR", "state_lgd": 14, "population": 1180, "households": 129}, "geometry": {"type": "Polygon", "coordinates": [[[93.16099000000001, 24.782760000000003], [93.16111000000001, 24.78366], [93.16263000000001, 24.78338], [93.16191, 24.78233], [93.16099000000001, 24.782760000000003]]]}}, {"id": "50", "type": "Feature", "properties": {"village_name": "Narandhor Basa", "vil_lgd": 270155, "district_name": "Jiribam", "dist_lgd": 713, "subdistrict_name": "Jiribam", "sdcode": 1883, "block_name": "Jiribam", "block_lgd": 28.0, "gp_name": "DIBONG", "state_name": "MANIPUR", "state_lgd": 14, "population": 294, "households": 59}, "geometry": {"type": "Polygon", "coordinates": [[[93.15517000000001, 24.788590000000003], [93.15641000000001, 24.789060000000003], [93.15682000000001, 24.78796], [93.15589000000001, 24.787540000000003], [93.15517000000001, 24.788590000000003]]]}}, {"id": "51", "type": "Feature", "properties": {"village_name": "Jiribam M Cl", "vil_lgd": 801493, "district_name": "Jiribam", "dist_lgd": 713, "subdistrict_name": "Jiribam", "sdcode": 1883, "block_name": "", "block_lgd": null, "gp_name": "", "state_name": "MANIPUR", "state_lgd": 14, "population": 7343, "households": 1406}, "geometry": {"type": "Polygon", "coordinates": [[[93.12733, 24.79943], [93.12408, 24.79258], [93.12018, 24.79081], [93.1079, 24.79136], [93.10848000000001, 24.792340000000003], [93.10798000000001, 24.794870000000003], [93.10975, 24.79663], [93.1114, 24.800700000000003], [93.10929, 24.811020000000003], [93.11028, 24.81256], [93.11528000000001, 24.814280000000004], [93.12137000000001, 24.81922], [93.12194000000001, 24.81662], [93.11856, 24.811030000000002], [93.11801000000001, 24.808410000000002], [93.12016000000001, 24.80742], [93.12662, 24.808790000000002], [93.12813000000001, 24.80795], [93.12733, 24.79943]]]}}, {"id": "52", "type": "Feature", "properties": {"village_name": "Data Partially Available", "vil_lgd": 999999, "district_name": "Jiribam", "dist_lgd": 713, "subdistrict_name": "Jiribam", "sdcode": 1883, "block_name": "", "block_lgd": null, "gp_name": "", "state_name": "MANIPUR", "state_lgd": 14, "population": 0, "households": 0}, "geometry": {"type": "Polygon", "coordinates": [[[93.12018, 24.79081], [93.12408, 24.79258], [93.12733, 24.79943], [93.12813000000001, 24.80795], [93.13031000000001, 24.80543], [93.13176000000001, 24.805210000000002], [93.13277000000001, 24.805690000000002], [93.13483000000001, 24.81058], [93.13863, 24.809890000000003], [93.13807000000001, 24.80883], [93.13473, 24.80806], [93.13712000000001, 24.80657], [93.13906, 24.802740000000004], [93.14110000000001, 24.801260000000003], [93.14175, 24.79728], [93.14340000000001, 24.796450000000004], [93.14626000000001, 24.79744], [93.15117000000001, 24.794680000000003], [93.15115, 24.79228], [93.14850000000001, 24.789080000000002], [93.1491, 24.787440000000004], [93.15424, 24.788710000000002], [93.15618, 24.791330000000002], [93.15987000000001, 24.793380000000003], [93.16109, 24.79623], [93.17068, 24.80185], [93.17349, 24.8013], [93.17359, 24.796000000000003], [93.17469000000001, 24.7938], [93.17615, 24.793850000000003], [93.17935000000001, 24.797210000000003], [93.18003, 24.803120000000003], [93.18273, 24.80254], [93.19112000000001, 24.80395], [93.19422, 24.80902], [93.19696, 24.81146], [93.19683, 24.812340000000003], [93.19011, 24.818540000000002], [93.19189, 24.82458], [93.19591000000001, 24.830910000000003], [93.19156000000001, 24.833090000000002], [93.19161000000001, 24.834400000000002], [93.19327000000001, 24.83557], [93.19779000000001, 24.83416], [93.20059, 24.837950000000003], [93.19969, 24.839480000000002], [93.19622000000001, 24.836660000000002], [93.19175000000001, 24.840020000000003], [93.19231, 24.842760000000002], [93.19354000000001, 24.843980000000002], [93.19543, 24.844330000000003], [93.19997000000001, 24.841520000000003], [93.20120000000001, 24.841400000000004], [93.20155000000001, 24.842060000000004], [93.20078000000001, 24.844640000000002], [93.20110000000001, 24.84879], [93.19854000000001, 24.85264], [93.19488000000001, 24.853250000000003], [93.19507, 24.85413], [93.19741, 24.855300000000003], [93.20004, 24.85498], [93.20135, 24.854020000000002], [93.20239000000001, 24.85124], [93.20356000000001, 24.850880000000004], [93.20589000000001, 24.852770000000003], [93.20696000000001, 24.85584], [93.21003, 24.856080000000002], [93.21163000000001, 24.85885], [93.22344000000001, 24.85771], [93.22917000000001, 24.855200000000004], [93.23491000000001, 24.85395], [93.24065, 24.85396], [93.24208, 24.851440000000004], [93.23921000000001, 24.84138], [93.2292, 24.82252], [93.22204, 24.80618], [93.22061000000001, 24.79989], [93.2206, 24.794860000000003], [93.21774, 24.792350000000003], [93.21344, 24.79109], [93.20485000000001, 24.783540000000002], [93.20190000000001, 24.77973], [93.19626000000001, 24.777250000000002], [93.19196000000001, 24.777240000000003], [93.18910000000001, 24.7785], [93.18623000000001, 24.78226], [93.18623000000001, 24.78477], [93.17620000000001, 24.783510000000003], [93.16905000000001, 24.762130000000003], [93.15475, 24.743250000000003], [93.14619, 24.72565], [93.14476, 24.718110000000003], [93.1419, 24.711820000000003], [93.14476, 24.709310000000002], [93.14894000000001, 24.709200000000003], [93.14321000000001, 24.695670000000003], [93.13654000000001, 24.68391], [93.13087, 24.66662], [93.12521000000001, 24.641800000000003], [93.12339, 24.62065], [93.12662, 24.61034], [93.13107000000001, 24.605010000000004], [93.13633, 24.603540000000002], [93.15070000000001, 24.5971], [93.15394, 24.594340000000003], [93.15434, 24.590660000000003], [93.14807, 24.576310000000003], [93.14483000000001, 24.571890000000003], [93.1329, 24.560670000000002], [93.12784, 24.55919], [93.12359000000001, 24.56011], [93.11651, 24.56361], [93.10416000000001, 24.56527], [93.09789, 24.56858], [93.09303000000001, 24.572630000000004], [93.08865, 24.572830000000003], [93.09288000000001, 24.581310000000002], [93.10293, 24.581030000000002], [93.10436000000001, 24.58238], [93.10396, 24.585060000000002], [93.10158000000001, 24.587590000000002], [93.09746000000001, 24.590180000000004], [93.09178000000001, 24.59221], [93.08921000000001, 24.592380000000002], [93.08008000000001, 24.590220000000002], [93.07119, 24.599940000000004], [93.07165, 24.60255], [93.07394000000001, 24.605610000000002], [93.08418, 24.613500000000002], [93.08327000000001, 24.61576], [93.07707, 24.62017], [93.07568, 24.624540000000003], [93.07629000000001, 24.626590000000004], [93.07872, 24.628850000000003], [93.08521, 24.62817], [93.08728, 24.62967], [93.08763, 24.63699], [93.08327000000001, 24.646900000000002], [93.08319, 24.649810000000002], [93.08456000000001, 24.651960000000003], [93.08625, 24.652730000000002], [93.09404, 24.652220000000003], [93.09537, 24.65283], [93.09620000000001, 24.655350000000002], [93.09655000000001, 24.664360000000002], [93.10415, 24.67416], [93.10391000000001, 24.677850000000003], [93.10191, 24.6807], [93.09855, 24.680110000000003], [93.09228, 24.67686], [93.09011000000001, 24.67717], [93.08985000000001, 24.679720000000003], [93.09173000000001, 24.68288], [93.09229, 24.685480000000002], [93.09126, 24.68803], [93.08342, 24.698130000000003], [93.08184000000001, 24.702160000000003], [93.07901000000001, 24.70455], [93.07434, 24.706460000000003], [93.07355000000001, 24.707810000000002], [93.07749000000001, 24.712970000000002], [93.08292, 24.70867], [93.08662000000001, 24.70953], [93.0901, 24.71432], [93.09079000000001, 24.71818], [93.09322, 24.71882], [93.09273, 24.720250000000004], [93.0905, 24.72115], [93.09057000000001, 24.72491], [93.09589000000001, 24.724210000000003], [93.09622, 24.729550000000003], [93.09710000000001, 24.73195], [93.1076, 24.741010000000003], [93.10732, 24.74265], [93.10299, 24.746750000000002], [93.10182, 24.746380000000002], [93.10149000000001, 24.742700000000003], [93.09988000000001, 24.743170000000003], [93.09833, 24.746750000000002], [93.10096, 24.749090000000002], [93.10104000000001, 24.750010000000003], [93.09825000000001, 24.75437], [93.10238000000001, 24.759220000000003], [93.10361, 24.767200000000003], [93.10329, 24.769420000000004], [93.10028000000001, 24.773600000000002], [93.10052, 24.779420000000002], [93.10131000000001, 24.780250000000002], [93.10522, 24.78111], [93.10430000000001, 24.78631], [93.10611, 24.78844], [93.10481, 24.79128], [93.1079, 24.79136], [93.12018, 24.79081]], [[93.21567, 24.831460000000003], [93.21621, 24.832790000000003], [93.21470000000001, 24.832520000000002], [93.21567, 24.831460000000003]], [[93.20314, 24.81624], [93.20381, 24.81696], [93.20297000000001, 24.81783], [93.20203000000001, 24.817050000000002], [93.20270000000001, 24.816250000000004], [93.20314, 24.81624]], [[93.20056000000001, 24.80476], [93.19949000000001, 24.80553], [93.19878000000001, 24.80476], [93.19967000000001, 24.80393], [93.20056000000001, 24.80476]], [[93.15682000000001, 24.78796], [93.15641000000001, 24.789060000000003], [93.15517000000001, 24.788590000000003], [93.15589000000001, 24.787540000000003], [93.15682000000001, 24.78796]], [[93.13612, 24.794020000000003], [93.1346, 24.794300000000003], [93.13448000000001, 24.793390000000002], [93.1354, 24.79297], [93.13612, 24.794020000000003]], [[93.1423, 24.793560000000003], [93.14306, 24.794290000000004], [93.14217000000001, 24.795160000000003], [93.14132000000001, 24.794610000000002], [93.1419, 24.793580000000002], [93.1423, 24.793560000000003]], [[93.13625, 24.79851], [93.13501000000001, 24.798980000000004], [93.13461000000001, 24.797880000000003], [93.13553, 24.79745], [93.13625, 24.79851]], [[93.16099000000001, 24.782760000000003], [93.16191, 24.78233], [93.16263000000001, 24.78338], [93.16111000000001, 24.78366], [93.16099000000001, 24.782760000000003]], [[93.11513000000001, 24.78602], [93.11615, 24.785290000000003], [93.11691, 24.78602], [93.11602, 24.786890000000003], [93.11513000000001, 24.78602]], [[93.11257, 24.787170000000003], [93.11105, 24.787450000000003], [93.11093000000001, 24.786540000000002], [93.11185, 24.78612], [93.11257, 24.787170000000003]], [[93.14102000000001, 24.774210000000004], [93.14177000000001, 24.773480000000003], [93.14275, 24.774530000000002], [93.14152000000001, 24.775000000000002], [93.14102000000001, 24.774210000000004]], [[93.11955, 24.77457], [93.12057, 24.773830000000004], [93.12133000000001, 24.77457], [93.12044, 24.775430000000004], [93.11955, 24.77457]], [[93.10901000000001, 24.777520000000003], [93.10767000000001, 24.777520000000003], [93.10777, 24.776370000000004], [93.10891000000001, 24.776370000000004], [93.10901000000001, 24.777520000000003]], [[93.10687, 24.77042], [93.10754000000001, 24.771140000000003], [93.10669000000001, 24.77201], [93.10576, 24.771220000000003], [93.10643, 24.77042], [93.10687, 24.77042]], [[93.12534000000001, 24.765810000000002], [93.12579000000001, 24.76713], [93.12431000000001, 24.766930000000002], [93.12534000000001, 24.765810000000002]], [[93.11759, 24.764450000000004], [93.11718, 24.76555], [93.11595000000001, 24.76508], [93.11666000000001, 24.76403], [93.11759, 24.764450000000004]], [[93.10847000000001, 24.762610000000002], [93.10923000000001, 24.763340000000003], [93.10834000000001, 24.764210000000002], [93.10749000000001, 24.76366], [93.10808, 24.76263], [93.10847000000001, 24.762610000000002]], [[93.13631000000001, 24.755280000000003], [93.13707000000001, 24.756020000000003], [93.13618000000001, 24.756890000000002], [93.13533000000001, 24.75634], [93.13592000000001, 24.755300000000002], [93.13631000000001, 24.755280000000003]], [[93.14508000000001, 24.748030000000004], [93.14546000000001, 24.7494], [93.14401000000001, 24.749070000000003], [93.14508000000001, 24.748030000000004]], [[93.10736000000001, 24.75149], [93.10764, 24.75061], [93.10904000000001, 24.750940000000003], [93.10851000000001, 24.752000000000002], [93.10736000000001, 24.75149]], [[93.11823000000001, 24.74453], [93.11877000000001, 24.74586], [93.11725000000001, 24.745590000000004], [93.11823000000001, 24.74453]], [[93.13164, 24.74189], [93.13123, 24.742990000000002], [93.13000000000001, 24.742510000000003], [93.13072000000001, 24.741460000000004], [93.13164, 24.74189]], [[93.14525, 24.73974], [93.14579, 24.74107], [93.14473000000001, 24.741270000000004], [93.14423000000001, 24.74048], [93.14525, 24.73974]], [[93.10967000000001, 24.74208], [93.11069, 24.74134], [93.11145, 24.74208], [93.11056, 24.74294], [93.10967000000001, 24.74208]], [[93.14408, 24.732300000000002], [93.14500000000001, 24.73272], [93.14459000000001, 24.73382], [93.14354, 24.73363], [93.14341, 24.73272], [93.14408, 24.732300000000002]], [[93.10445000000001, 24.735190000000003], [93.10557000000001, 24.73438], [93.10624000000001, 24.735100000000003], [93.10539000000001, 24.73598], [93.10445000000001, 24.735190000000003]], [[93.10094000000001, 24.728530000000003], [93.10053, 24.729630000000004], [93.09930000000001, 24.72916], [93.10001000000001, 24.72811], [93.10094000000001, 24.728530000000003]], [[93.13137, 24.72539], [93.13213, 24.72612], [93.13162000000001, 24.726920000000003], [93.13057, 24.72672], [93.13066, 24.72556], [93.13137, 24.72539]], [[93.09620000000001, 24.719140000000003], [93.09687000000001, 24.71994], [93.09594000000001, 24.720730000000003], [93.09509000000001, 24.71986], [93.09576000000001, 24.719140000000003], [93.09620000000001, 24.719140000000003]], [[93.10971, 24.717460000000003], [93.10847000000001, 24.717930000000003], [93.10807000000001, 24.71683], [93.10899, 24.716410000000003], [93.10971, 24.717460000000003]], [[93.09065000000001, 24.709670000000003], [93.09141000000001, 24.710410000000003], [93.09052000000001, 24.711270000000003], [93.08967000000001, 24.71073], [93.09025000000001, 24.709690000000002], [93.09065000000001, 24.709670000000003]], [[93.07952, 24.70691], [93.08028, 24.70765], [93.07939, 24.708520000000004], [93.07855, 24.707970000000003], [93.07913, 24.706930000000003], [93.07952, 24.70691]], [[93.10691000000001, 24.704240000000002], [93.10767000000001, 24.704970000000003], [93.10717000000001, 24.70576], [93.10611, 24.70557], [93.10598, 24.70466], [93.10691000000001, 24.704240000000002]], [[93.09625000000001, 24.69911], [93.09585000000001, 24.700210000000002], [93.09461, 24.699730000000002], [93.09533, 24.698680000000003], [93.09625000000001, 24.69911]], [[93.10179000000001, 24.69207], [93.10246000000001, 24.692800000000002], [93.10162000000001, 24.69367], [93.10068000000001, 24.692880000000002], [93.10136000000001, 24.69208], [93.10179000000001, 24.69207]], [[93.10510000000001, 24.6812], [93.10586, 24.68193], [93.10497000000001, 24.6828], [93.10413000000001, 24.682250000000003], [93.10471000000001, 24.681220000000003], [93.10510000000001, 24.6812]], [[93.09927, 24.66168], [93.10003, 24.66241], [93.09914, 24.66328], [93.09829, 24.662730000000003], [93.09887, 24.661700000000003], [93.09927, 24.66168]], [[93.10848000000001, 24.655600000000003], [93.10808, 24.6567], [93.10684, 24.65623], [93.10756, 24.65518], [93.10848000000001, 24.655600000000003]], [[93.09054, 24.63266], [93.0913, 24.633390000000002], [93.09041, 24.63426], [93.08956, 24.63371], [93.09015000000001, 24.63268], [93.09054, 24.63266]], [[93.11108, 24.6273], [93.11002, 24.62807], [93.1093, 24.6273], [93.11019, 24.62647], [93.11108, 24.6273]], [[93.08345000000001, 24.62421], [93.08412000000001, 24.625010000000003], [93.08319, 24.6258], [93.08234, 24.624930000000003], [93.08301, 24.62421], [93.08345000000001, 24.62421]], [[93.10650000000001, 24.615380000000002], [93.10725000000001, 24.616110000000003], [93.10636000000001, 24.61698], [93.10552000000001, 24.61643], [93.10610000000001, 24.6154], [93.10650000000001, 24.615380000000002]], [[93.08877000000001, 24.614780000000003], [93.08836000000001, 24.61588], [93.08713, 24.61541], [93.08784000000001, 24.61435], [93.08877000000001, 24.614780000000003]], [[93.10268, 24.60912], [93.10335, 24.609840000000002], [93.10251000000001, 24.61071], [93.10157000000001, 24.609920000000002], [93.10224000000001, 24.60912], [93.10268, 24.60912]], [[93.11054000000001, 24.603080000000002], [93.11121000000001, 24.603800000000003], [93.11037, 24.604680000000002], [93.10943, 24.603890000000003], [93.1101, 24.60309], [93.11054000000001, 24.603080000000002]], [[93.0991, 24.59822], [93.09986, 24.59749], [93.10084, 24.598540000000003], [93.09960000000001, 24.599010000000003], [93.0991, 24.59822]], [[93.08718, 24.59907], [93.08821, 24.59834], [93.08896000000001, 24.59907], [93.08807, 24.599940000000004], [93.08718, 24.59907]], [[93.07489000000001, 24.599880000000002], [93.07565000000001, 24.59915], [93.07667000000001, 24.599880000000002], [93.07578000000001, 24.60075], [93.07489000000001, 24.599880000000002]], [[93.10357, 24.589240000000004], [93.10433, 24.58997], [93.10344, 24.590840000000004], [93.10260000000001, 24.590290000000003], [93.10318000000001, 24.589260000000003], [93.10357, 24.589240000000004]], [[93.13885, 24.58358], [93.13961, 24.584310000000002], [93.13872, 24.58518], [93.13788000000001, 24.58463], [93.13846000000001, 24.5836], [93.13885, 24.58358]], [[93.11748000000001, 24.569950000000002], [93.11802, 24.57129], [93.11696, 24.57148], [93.11646, 24.570690000000003], [93.11748000000001, 24.569950000000002]]]}}]}