{"type": "FeatureCollection", "metadata": {"source": "Survey of India (per src_agency attribute in the source data)", "hosted_via": "National Water Data Portal (NWDP), NWIC, Ministry of Jal Shakti -- https://nwdp.nwic.gov.in/", "access": "public, no login required", "crs_original": "EPSG:7755 (WGS 84 / India NSF LCC)", "fetch_date": "2026-08-02", "quality": "verified-official -- Survey of India source", "state": "Manipur", "district": "Kakching", "processing": "reprojected to EPSG:4326, topology-preserving simplify (shared-arc, tolerance 0.0005 deg) so adjacent polygons never overlap/gap at shared borders, coords rounded 5dp, 0 feature(s) needed the per-feature fallback", "feature_count": 42}, "features": [{"id": "0", "type": "Feature", "properties": {"village_name": "Nungoo", "vil_lgd": 270017, "district_name": "Kakching", "dist_lgd": 711, "subdistrict_name": "Kakching", "sdcode": 1878, "block_name": "Kakching", "block_lgd": 25.0, "gp_name": "CHAIREL", "state_name": "MANIPUR", "state_lgd": 14, "population": 871, "households": 184}, "geometry": {"type": "Polygon", "coordinates": [[[93.89183000000001, 24.36016], [93.90603, 24.359170000000002], [93.90067, 24.35208], [93.90078000000001, 24.3484], [93.90567, 24.33988], [93.88974, 24.339810000000003], [93.88508, 24.342930000000003], [93.88099000000001, 24.34362], [93.87937000000001, 24.34475], [93.87766, 24.348640000000003], [93.87576000000001, 24.352890000000002], [93.87538, 24.3625], [93.87633000000001, 24.36363], [93.88470000000001, 24.361720000000002], [93.89183000000001, 24.36016]]]}}, {"id": "1", "type": "Feature", "properties": {"village_name": "Tangjeng", "vil_lgd": 270019, "district_name": "Kakching", "dist_lgd": 711, "subdistrict_name": "Kakching", "sdcode": 1878, "block_name": "Kakching", "block_lgd": 25.0, "gp_name": "Pangaltabi", "state_name": "MANIPUR", "state_lgd": 14, "population": 2427, "households": 473}, "geometry": {"type": "Polygon", "coordinates": [[[93.87985, 24.326120000000003], [93.87861000000001, 24.324040000000004], [93.88203000000001, 24.32092], [93.88042, 24.317890000000002], [93.8798, 24.31464], [93.87604, 24.311220000000002], [93.87167000000001, 24.30909], [93.87036, 24.317760000000003], [93.86406000000001, 24.32101], [93.86406000000001, 24.324900000000003], [93.86528000000001, 24.32956], [93.87414000000001, 24.32898], [93.87652000000001, 24.33011], [93.87719000000001, 24.32872], [93.87985, 24.326120000000003]]]}}, {"id": "2", "type": "Feature", "properties": {"village_name": "Nungoo Wapokpi", "vil_lgd": 270018, "district_name": "Kakching", "dist_lgd": 711, "subdistrict_name": "Kakching", "sdcode": 1878, "block_name": "Kakching", "block_lgd": 25.0, "gp_name": "PANGANTABI", "state_name": "MANIPUR", "state_lgd": 14, "population": 2494, "households": 493}, "geometry": {"type": "Polygon", "coordinates": [[[93.86528000000001, 24.32956], [93.86573000000001, 24.33432], [93.86301, 24.3441], [93.87433000000001, 24.3457], [93.87757, 24.337560000000003], [93.87861000000001, 24.332790000000003], [93.87652000000001, 24.33011], [93.87414000000001, 24.32898], [93.86528000000001, 24.32956]]]}}, {"id": "3", "type": "Feature", "properties": {"village_name": "Serou", "vil_lgd": 270023, "district_name": "Kakching", "dist_lgd": 711, "subdistrict_name": "Kakching", "sdcode": 1878, "block_name": "Kakching", "block_lgd": 25.0, "gp_name": "SEROU", "state_name": "MANIPUR", "state_lgd": 14, "population": 4216, "households": 780}, "geometry": {"type": "Polygon", "coordinates": [[[93.89164000000001, 24.273090000000003], [93.89496000000001, 24.26425], [93.90209, 24.255850000000002], [93.90144000000001, 24.253670000000003], [93.89829, 24.255360000000003], [93.89603000000001, 24.255360000000003], [93.88557, 24.249730000000003], [93.88557, 24.247130000000002], [93.89258000000001, 24.244740000000004], [93.89449, 24.24236], [93.89413, 24.238030000000002], [93.89056000000001, 24.235100000000003], [93.88593, 24.23532], [93.87547, 24.24041], [93.87428000000001, 24.24442], [93.87452, 24.265110000000004], [93.87761, 24.27595], [93.88189000000001, 24.28405], [93.8846, 24.28245], [93.88869000000001, 24.277690000000003], [93.89164000000001, 24.273090000000003]]]}}, {"id": "4", "type": "Feature", "properties": {"village_name": "Toupokpi", "vil_lgd": 270022, "district_name": "Kakching", "dist_lgd": 711, "subdistrict_name": "Kakching", "sdcode": 1878, "block_name": "Kakching", "block_lgd": 25.0, "gp_name": "", "state_name": "MANIPUR", "state_lgd": 14, "population": 0, "households": 0}, "geometry": {"type": "Polygon", "coordinates": [[[93.9034, 24.268800000000002], [93.91314000000001, 24.258070000000004], [93.91647, 24.252760000000002], [93.91968000000001, 24.247130000000002], [93.92063, 24.24182], [93.92004000000001, 24.23542], [93.91743000000001, 24.23401], [93.91457000000001, 24.233800000000002], [93.91203, 24.23562], [93.9097, 24.2403], [93.90637000000001, 24.250600000000002], [93.90399000000001, 24.253200000000003], [93.90144000000001, 24.253670000000003], [93.90209, 24.255850000000002], [93.89496000000001, 24.26425], [93.89164000000001, 24.273090000000003], [93.88869000000001, 24.277690000000003], [93.89145, 24.276560000000003], [93.89472, 24.27672], [93.9034, 24.268800000000002]]]}}, {"id": "5", "type": "Feature", "properties": {"village_name": "Lakhi Maru", "vil_lgd": 270021, "district_name": "Kakching", "dist_lgd": 711, "subdistrict_name": "Kakching", "sdcode": 1878, "block_name": "Kakching", "block_lgd": 25.0, "gp_name": "", "state_name": "MANIPUR", "state_lgd": 14, "population": 0, "households": 0}, "geometry": {"type": "Polygon", "coordinates": [[[93.89971000000001, 24.298150000000003], [93.89437000000001, 24.29999], [93.89763, 24.30516], [93.90277, 24.318270000000002], [93.90851, 24.307360000000003], [93.90863, 24.30346], [93.90364000000001, 24.29794], [93.89971000000001, 24.298150000000003]]]}}, {"id": "6", "type": "Feature", "properties": {"village_name": "Tonsel", "vil_lgd": 270020, "district_name": "Kakching", "dist_lgd": 711, "subdistrict_name": "Kakching", "sdcode": 1878, "block_name": "Kakching", "block_lgd": 25.0, "gp_name": "", "state_name": "MANIPUR", "state_lgd": 14, "population": 0, "households": 0}, "geometry": {"type": "Polygon", "coordinates": [[[93.88099000000001, 24.34362], [93.88508, 24.342930000000003], [93.88974, 24.339810000000003], [93.90567, 24.33988], [93.90780000000001, 24.334970000000002], [93.90815, 24.32869], [93.9034, 24.323710000000002], [93.89135, 24.321360000000002], [93.88641000000001, 24.319100000000002], [93.8798, 24.31464], [93.88042, 24.317890000000002], [93.88203000000001, 24.32092], [93.87861000000001, 24.324040000000004], [93.87985, 24.326120000000003], [93.87719000000001, 24.32872], [93.87652000000001, 24.33011], [93.87861000000001, 24.332790000000003], [93.87757, 24.337560000000003], [93.87433000000001, 24.3457], [93.87766, 24.348640000000003], [93.87937000000001, 24.34475], [93.88099000000001, 24.34362]]]}}, {"id": "7", "type": "Feature", "properties": {"village_name": "Chairel", "vil_lgd": 270016, "district_name": "Kakching", "dist_lgd": 711, "subdistrict_name": "Kakching", "sdcode": 1878, "block_name": "Kakching", "block_lgd": 25.0, "gp_name": "CHAIREL", "state_name": "MANIPUR", "state_lgd": 14, "population": 3220, "households": 676}, "geometry": {"type": "Polygon", "coordinates": [[[93.90696000000001, 24.360200000000003], [93.90603, 24.359170000000002], [93.89183000000001, 24.36016], [93.88470000000001, 24.361720000000002], [93.87633000000001, 24.36363], [93.87538, 24.3625], [93.87576000000001, 24.352890000000002], [93.87766, 24.348640000000003], [93.87433000000001, 24.3457], [93.86301, 24.3441], [93.85931000000001, 24.350890000000003], [93.85836, 24.354680000000002], [93.85848000000001, 24.361390000000004], [93.85467000000001, 24.365070000000003], [93.85361, 24.368540000000003], [93.85404000000001, 24.370680000000004], [93.85941000000001, 24.374540000000003], [93.86844, 24.38294], [93.87367, 24.37948], [93.88337000000001, 24.375230000000002], [93.88707000000001, 24.37281], [93.90575000000001, 24.36616], [93.90542, 24.364860000000004], [93.90696000000001, 24.360200000000003]]]}}, {"id": "8", "type": "Feature", "properties": {"village_name": "Thongam", "vil_lgd": 270013, "district_name": "Kakching", "dist_lgd": 711, "subdistrict_name": "Kakching", "sdcode": 1878, "block_name": "Kakching", "block_lgd": 25.0, "gp_name": "", "state_name": "MANIPUR", "state_lgd": 14, "population": 257, "households": 50}, "geometry": {"type": "Polygon", "coordinates": [[[93.90875000000001, 24.42], [93.90371, 24.413420000000002], [93.90010000000001, 24.413850000000004], [93.88584, 24.418870000000002], [93.88907, 24.423370000000002], [93.89078, 24.423370000000002], [93.89240000000001, 24.42216], [93.89392000000001, 24.42303], [93.89468000000001, 24.42536], [93.89420000000001, 24.42874], [93.8923, 24.43298], [93.89363, 24.436010000000003], [93.9, 24.43073], [93.9098, 24.42545], [93.90875000000001, 24.42]]]}}, {"id": "9", "type": "Feature", "properties": {"village_name": "Wangoo", "vil_lgd": 270015, "district_name": "Kakching", "dist_lgd": 711, "subdistrict_name": "Kakching", "sdcode": 1878, "block_name": "Kakching", "block_lgd": 25.0, "gp_name": "WANGOO", "state_name": "MANIPUR", "state_lgd": 14, "population": 6134, "households": 1244}, "geometry": {"type": "Polygon", "coordinates": [[[93.85789000000001, 24.410470000000004], [93.86045000000001, 24.412380000000002], [93.86273000000001, 24.41203], [93.8635, 24.40857], [93.86464000000001, 24.408140000000003], [93.86787000000001, 24.409090000000003], [93.87063, 24.40857], [93.87481000000001, 24.40433], [93.87747, 24.403290000000002], [93.88165000000001, 24.39939], [93.87738, 24.39177], [93.87310000000001, 24.389260000000004], [93.86844, 24.38294], [93.85941000000001, 24.374540000000003], [93.85404000000001, 24.370680000000004], [93.85467000000001, 24.37384], [93.85206000000001, 24.37687], [93.85170000000001, 24.381960000000003], [93.85349000000001, 24.38596], [93.85301000000001, 24.39008], [93.8498, 24.391270000000002], [93.84719000000001, 24.39516], [93.84802, 24.40501], [93.84707, 24.40923], [93.85123, 24.41551], [93.85063000000001, 24.417890000000003], [93.84743, 24.421460000000003], [93.84754000000001, 24.423840000000002], [93.84933000000001, 24.42676], [93.85325, 24.43044], [93.85663000000001, 24.43936], [93.86321000000001, 24.437220000000003], [93.86378, 24.43428], [93.85922000000001, 24.429430000000004], [93.85884, 24.425880000000003], [93.86169000000001, 24.422680000000003], [93.86254000000001, 24.420260000000003], [93.86064, 24.417050000000003], [93.85475000000001, 24.413940000000004], [93.85399000000001, 24.411340000000003], [93.85456, 24.410210000000003], [93.85789000000001, 24.410470000000004]]]}}, {"id": "10", "type": "Feature", "properties": {"village_name": "Arong Nongmaikhong", "vil_lgd": 270014, "district_name": "Kakching", "dist_lgd": 711, "subdistrict_name": "Kakching", "sdcode": 1878, "block_name": "Kakching", "block_lgd": 25.0, "gp_name": "ARONG NONGMAIKHONG", "state_name": "MANIPUR", "state_lgd": 14, "population": 5571, "households": 1049}, "geometry": {"type": "Polygon", "coordinates": [[[93.8943, 24.48309], [93.89401000000001, 24.480580000000003], [93.88869000000001, 24.470110000000002], [93.88536, 24.46526], [93.87177000000001, 24.451670000000004], [93.86844, 24.444490000000002], [93.86416000000001, 24.439560000000004], [93.86321000000001, 24.437220000000003], [93.85663000000001, 24.43936], [93.86608000000001, 24.45879], [93.86977, 24.460520000000002], [93.87535000000001, 24.460410000000003], [93.87832, 24.461920000000003], [93.87963, 24.464840000000002], [93.88403000000001, 24.469500000000004], [93.88581, 24.473280000000003], [93.88510000000001, 24.47642], [93.88545, 24.47923], [93.88854, 24.486800000000002], [93.88640000000001, 24.491130000000002], [93.88652, 24.494590000000002], [93.89242, 24.494040000000002], [93.8943, 24.48309]]]}}, {"id": "11", "type": "Feature", "properties": {"village_name": "Waikhong Ningthoumanai", "vil_lgd": 270011, "district_name": "Kakching", "dist_lgd": 711, "subdistrict_name": "Kakching", "sdcode": 1878, "block_name": "Kakching", "block_lgd": 25.0, "gp_name": "WAIKHONG", "state_name": "MANIPUR", "state_lgd": 14, "population": 1300, "households": 281}, "geometry": {"type": "Polygon", "coordinates": [[[93.93917, 24.402310000000003], [93.93620000000001, 24.403820000000003], [93.93358, 24.406850000000002], [93.93299, 24.411600000000004], [93.92767, 24.417740000000002], [93.92139, 24.421550000000003], [93.91588, 24.42432], [93.9098, 24.42545], [93.9, 24.43073], [93.89363, 24.436010000000003], [93.89668, 24.43982], [93.90162000000001, 24.443450000000002], [93.90315000000001, 24.445760000000003], [93.92372, 24.43783], [93.92924000000001, 24.434450000000002], [93.94559000000001, 24.42179], [93.94048000000001, 24.417460000000002], [93.93881, 24.413240000000002], [93.93976, 24.410420000000002], [93.94404, 24.40783], [93.94380000000001, 24.403930000000003], [93.93917, 24.402310000000003]]]}}, {"id": "12", "type": "Feature", "properties": {"village_name": "Waikhong Laimanai", "vil_lgd": 270010, "district_name": "Kakching", "dist_lgd": 711, "subdistrict_name": "Kakching", "sdcode": 1878, "block_name": "Kakching", "block_lgd": 25.0, "gp_name": "WAIKHONG", "state_name": "MANIPUR", "state_lgd": 14, "population": 1804, "households": 403}, "geometry": {"type": "Polygon", "coordinates": [[[93.95723000000001, 24.41973], [93.95593000000001, 24.41778], [93.95189, 24.41822], [93.95034000000001, 24.420160000000003], [93.94749, 24.42179], [93.94559000000001, 24.42179], [93.92924000000001, 24.434450000000002], [93.92372, 24.43783], [93.90315000000001, 24.445760000000003], [93.90799000000001, 24.45418], [93.91165000000001, 24.452280000000002], [93.93266000000001, 24.445790000000002], [93.94179000000001, 24.436870000000003], [93.94666000000001, 24.43326], [93.95676, 24.423520000000003], [93.95723000000001, 24.41973]]]}}, {"id": "13", "type": "Feature", "properties": {"village_name": "Thongjao", "vil_lgd": 270008, "district_name": "Kakching", "dist_lgd": 711, "subdistrict_name": "Kakching", "sdcode": 1878, "block_name": "Kakching", "block_lgd": 25.0, "gp_name": "WAIKHONG", "state_name": "MANIPUR", "state_lgd": 14, "population": 2019, "households": 435}, "geometry": {"type": "Polygon", "coordinates": [[[93.94666000000001, 24.43326], [93.94179000000001, 24.436870000000003], [93.93266000000001, 24.445790000000002], [93.91165000000001, 24.452280000000002], [93.90799000000001, 24.45418], [93.90903, 24.46007], [93.91046000000001, 24.461800000000004], [93.92981, 24.456090000000003], [93.93874000000001, 24.45202], [93.94559000000001, 24.448300000000003], [93.95358, 24.442500000000003], [93.95735, 24.438670000000002], [93.94927000000001, 24.43661], [93.94725000000001, 24.43531], [93.94666000000001, 24.43326]]]}}, {"id": "14", "type": "Feature", "properties": {"village_name": "Elangkhangpokpi", "vil_lgd": 270007, "district_name": "Kakching", "dist_lgd": 711, "subdistrict_name": "Kakching", "sdcode": 1878, "block_name": "Kakching", "block_lgd": 25.0, "gp_name": "WAIKHONG", "state_name": "MANIPUR", "state_lgd": 14, "population": 2815, "households": 638}, "geometry": {"type": "Polygon", "coordinates": [[[93.95735, 24.438670000000002], [93.95358, 24.442500000000003], [93.94559000000001, 24.448300000000003], [93.93874000000001, 24.45202], [93.92981, 24.456090000000003], [93.91046000000001, 24.461800000000004], [93.91436, 24.464480000000002], [93.91493000000001, 24.465780000000002], [93.91398000000001, 24.468980000000002], [93.9162, 24.4735], [93.92524, 24.470110000000002], [93.93437, 24.469240000000003], [93.93817000000001, 24.468030000000002], [93.94892, 24.46197], [93.9569, 24.45418], [93.95997000000001, 24.449270000000002], [93.95985, 24.447540000000004], [93.96246000000001, 24.444180000000003], [93.96175000000001, 24.441370000000003], [93.95735, 24.438670000000002]]]}}, {"id": "15", "type": "Feature", "properties": {"village_name": "Thounaojam", "vil_lgd": 270006, "district_name": "Kakching", "dist_lgd": 711, "subdistrict_name": "Kakching", "sdcode": 1878, "block_name": "Kakching", "block_lgd": 25.0, "gp_name": "LANGMEIDONG", "state_name": "MANIPUR", "state_lgd": 14, "population": 1468, "households": 330}, "geometry": {"type": "Polygon", "coordinates": [[[93.95997000000001, 24.449270000000002], [93.9569, 24.45418], [93.94892, 24.46197], [93.93817000000001, 24.468030000000002], [93.93437, 24.469240000000003], [93.92524, 24.470110000000002], [93.9162, 24.4735], [93.91854000000001, 24.477200000000003], [93.92185, 24.479770000000002], [93.93057, 24.474610000000002], [93.95738000000001, 24.468200000000003], [93.96931000000001, 24.461100000000002], [93.96852000000001, 24.457060000000002], [93.96294, 24.451], [93.95997000000001, 24.449270000000002]]]}}, {"id": "16", "type": "Feature", "properties": {"village_name": "Pallel", "vil_lgd": 270000, "district_name": "Kakching", "dist_lgd": 711, "subdistrict_name": "Kakching", "sdcode": 1878, "block_name": "Kakching", "block_lgd": 25.0, "gp_name": "PALLEL", "state_name": "MANIPUR", "state_lgd": 14, "population": 4193, "households": 893}, "geometry": {"type": "Polygon", "coordinates": [[[94.02041000000001, 24.46291], [94.02326000000001, 24.468980000000002], [94.02336000000001, 24.46743], [94.02597, 24.46477], [94.02392, 24.46253], [94.02013000000001, 24.455140000000004], [94.01585000000001, 24.45202], [94.00358000000001, 24.45954], [94.00691, 24.46225], [94.00833, 24.46441], [94.00869, 24.466680000000004], [94.00513000000001, 24.46928], [94.00331000000001, 24.469720000000002], [94.00406000000001, 24.47097], [94.00843, 24.472440000000002], [94.01233, 24.47002], [94.01880000000001, 24.462410000000002], [94.02041000000001, 24.46291]]]}}, {"id": "17", "type": "Feature", "properties": {"village_name": "Mahou", "vil_lgd": 270012, "district_name": "Kakching", "dist_lgd": 711, "subdistrict_name": "Kakching", "sdcode": 1878, "block_name": "Kakching", "block_lgd": 25.0, "gp_name": "", "state_name": "MANIPUR", "state_lgd": 14, "population": 0, "households": 0}, "geometry": {"type": "Polygon", "coordinates": [[[93.90575000000001, 24.36616], [93.88707000000001, 24.37281], [93.88337000000001, 24.375230000000002], [93.87367, 24.37948], [93.86844, 24.38294], [93.87310000000001, 24.389260000000004], [93.87738, 24.39177], [93.88165000000001, 24.39939], [93.89088000000001, 24.395840000000003], [93.90190000000001, 24.38961], [93.91184000000001, 24.38218], [93.91005000000001, 24.38109], [93.90685, 24.370490000000004], [93.90575000000001, 24.36616]]]}}, {"id": "18", "type": "Feature", "properties": {"village_name": "Purul Tampak", "vil_lgd": 270009, "district_name": "Kakching", "dist_lgd": 711, "subdistrict_name": "Kakching", "sdcode": 1878, "block_name": "Kakching", "block_lgd": 25.0, "gp_name": "", "state_name": "MANIPUR", "state_lgd": 14, "population": 0, "households": 0}, "geometry": {"type": "Polygon", "coordinates": [[[94.01166, 24.44894], [94.00976000000001, 24.449920000000002], [94.00394000000001, 24.450020000000002], [94.0018, 24.451], [94.00049000000001, 24.452620000000003], [94.00168000000001, 24.45803], [94.00358000000001, 24.45954], [94.01585000000001, 24.45202], [94.01166, 24.44894]]]}}, {"id": "19", "type": "Feature", "properties": {"village_name": "Aimol Khunou", "vil_lgd": 270002, "district_name": "Kakching", "dist_lgd": 711, "subdistrict_name": "Kakching", "sdcode": 1878, "block_name": "Kakching", "block_lgd": 25.0, "gp_name": "", "state_name": "MANIPUR", "state_lgd": 14, "population": 0, "households": 0}, "geometry": {"type": "Polygon", "coordinates": [[[94.01404000000001, 24.447100000000002], [94.01166, 24.44894], [94.01585000000001, 24.45202], [94.02013000000001, 24.455140000000004], [94.02602, 24.456870000000002], [94.02954000000001, 24.45418], [94.03008000000001, 24.450460000000003], [94.02153000000001, 24.450460000000003], [94.01939, 24.449700000000004], [94.01701000000001, 24.447000000000003], [94.01404000000001, 24.447100000000002]]]}}, {"id": "20", "type": "Feature", "properties": {"village_name": "Kangoi", "vil_lgd": 270003, "district_name": "Kakching", "dist_lgd": 711, "subdistrict_name": "Kakching", "sdcode": 1878, "block_name": "Kakching", "block_lgd": 25.0, "gp_name": "", "state_name": "MANIPUR", "state_lgd": 14, "population": 0, "households": 0}, "geometry": {"type": "Polygon", "coordinates": [[[94.04297000000001, 24.457210000000003], [94.02597, 24.46477], [94.02336000000001, 24.46743], [94.02326000000001, 24.468980000000002], [94.0283, 24.478150000000003], [94.03074000000001, 24.479730000000004], [94.03389000000001, 24.47144], [94.03781000000001, 24.46798], [94.04292000000001, 24.458460000000002], [94.04297000000001, 24.457210000000003]]]}}, {"id": "21", "type": "Feature", "properties": {"village_name": "Aimol Khullel Do", "vil_lgd": 270001, "district_name": "Kakching", "dist_lgd": 711, "subdistrict_name": "Kakching", "sdcode": 1878, "block_name": "Kakching", "block_lgd": 25.0, "gp_name": "", "state_name": "MANIPUR", "state_lgd": 14, "population": 0, "households": 0}, "geometry": {"type": "Polygon", "coordinates": [[[94.04315000000001, 24.452840000000002], [94.04090000000001, 24.45089], [94.03008000000001, 24.450460000000003], [94.02954000000001, 24.45418], [94.02602, 24.456870000000002], [94.02013000000001, 24.455140000000004], [94.02392, 24.46253], [94.02597, 24.46477], [94.04297000000001, 24.457210000000003], [94.04315000000001, 24.452840000000002]]]}}, {"id": "22", "type": "Feature", "properties": {"village_name": "Maring Phunal", "vil_lgd": 270004, "district_name": "Kakching", "dist_lgd": 711, "subdistrict_name": "Kakching", "sdcode": 1878, "block_name": "Kakching", "block_lgd": 25.0, "gp_name": "", "state_name": "MANIPUR", "state_lgd": 14, "population": 0, "households": 0}, "geometry": {"type": "Polygon", "coordinates": [[[93.99003, 24.46712], [93.98682000000001, 24.46874], [93.98469000000001, 24.47274], [93.98326, 24.477500000000003], [93.9835, 24.47988], [93.98576000000001, 24.484530000000003], [93.98901000000001, 24.4799], [93.99924000000001, 24.470440000000004], [93.99681000000001, 24.470360000000003], [93.99312, 24.46787], [93.99003, 24.46712]]]}}, {"id": "23", "type": "Feature", "properties": {"village_name": "Hiyanglam Ii", "vil_lgd": 269996, "district_name": "Kakching", "dist_lgd": 711, "subdistrict_name": "Kakching", "sdcode": 1878, "block_name": "Kakching", "block_lgd": 25.0, "gp_name": "HIYANGLAM", "state_name": "MANIPUR", "state_lgd": 14, "population": 2851, "households": 590}, "geometry": {"type": "Polygon", "coordinates": [[[93.90057, 24.534380000000002], [93.91217, 24.526510000000002], [93.9116, 24.52401], [93.90466, 24.52747], [93.90286, 24.527030000000003], [93.90057, 24.529020000000003], [93.89943000000001, 24.53179], [93.89240000000001, 24.53845], [93.88793000000001, 24.542080000000002], [93.88508, 24.542], [93.88270000000001, 24.540090000000003], [93.88080000000001, 24.53646], [93.88061, 24.53196], [93.88308, 24.51311], [93.89012000000001, 24.50307], [93.89242, 24.494040000000002], [93.88652, 24.494590000000002], [93.88640000000001, 24.500100000000003], [93.88355000000001, 24.50205], [93.88141, 24.502480000000002], [93.87939, 24.504540000000002], [93.87832, 24.510920000000002], [93.87500000000001, 24.515240000000002], [93.87179, 24.534160000000004], [93.87630000000001, 24.547030000000003], [93.89623, 24.55195], [93.89649000000001, 24.543550000000003], [93.90057, 24.534380000000002]]]}}, {"id": "24", "type": "Feature", "properties": {"village_name": "Wabagai", "vil_lgd": 269992, "district_name": "Kakching", "dist_lgd": 711, "subdistrict_name": "Kakching", "sdcode": 1878, "block_name": "Kakching", "block_lgd": 25.0, "gp_name": "WABAGAI", "state_name": "MANIPUR", "state_lgd": 14, "population": 8578, "households": 1810}, "geometry": {"type": "Polygon", "coordinates": [[[93.91512, 24.537070000000003], [93.92101000000001, 24.537580000000002], [93.92377, 24.536030000000004], [93.92729000000001, 24.536030000000004], [93.92976, 24.53508], [93.93100000000001, 24.536630000000002], [93.93309, 24.534560000000003], [93.92961000000001, 24.5328], [93.92733000000001, 24.532600000000002], [93.92341, 24.53027], [93.92241000000001, 24.52793], [93.92239000000001, 24.52373], [93.91742, 24.525730000000003], [93.91217, 24.526510000000002], [93.90057, 24.534380000000002], [93.89649000000001, 24.543550000000003], [93.89623, 24.55195], [93.90154000000001, 24.55112], [93.9, 24.549870000000002], [93.9, 24.54857], [93.90419000000001, 24.54165], [93.90552000000001, 24.540270000000003], [93.91246000000001, 24.53845], [93.91512, 24.537070000000003]]]}}, {"id": "25", "type": "Feature", "properties": {"village_name": "Khoidum", "vil_lgd": 269995, "district_name": "Kakching", "dist_lgd": 711, "subdistrict_name": "Kakching", "sdcode": 1878, "block_name": "Kakching", "block_lgd": 25.0, "gp_name": "SEKMAIJIN", "state_name": "MANIPUR", "state_lgd": 14, "population": 521, "households": 113}, "geometry": {"type": "Polygon", "coordinates": [[[93.90409000000001, 24.51951], [93.89449, 24.521060000000002], [93.8905, 24.523400000000002], [93.88878000000001, 24.5253], [93.88812, 24.533520000000003], [93.88916, 24.53611], [93.89240000000001, 24.53845], [93.89943000000001, 24.53179], [93.90057, 24.529020000000003], [93.90286, 24.527030000000003], [93.90419000000001, 24.522620000000003], [93.90409000000001, 24.51951]]]}}, {"id": "26", "type": "Feature", "properties": {"village_name": "Laphupat", "vil_lgd": 270005, "district_name": "Kakching", "dist_lgd": 711, "subdistrict_name": "Kakching", "sdcode": 1878, "block_name": "Kakching", "block_lgd": 25.0, "gp_name": "SEKMAIJIN", "state_name": "MANIPUR", "state_lgd": 14, "population": 709, "households": 135}, "geometry": {"type": "Polygon", "coordinates": [[[93.92006, 24.50299], [93.91179000000001, 24.50671], [93.90751, 24.5073], [93.90742, 24.511550000000003], [93.90409000000001, 24.51951], [93.90419000000001, 24.522620000000003], [93.90286, 24.527030000000003], [93.90466, 24.52747], [93.9116, 24.52401], [93.91769000000001, 24.510170000000002], [93.92006, 24.50299]]]}}, {"id": "27", "type": "Feature", "properties": {"village_name": "Kharungpat", "vil_lgd": 269993, "district_name": "Kakching", "dist_lgd": 711, "subdistrict_name": "Kakching", "sdcode": 1878, "block_name": "Kakching", "block_lgd": 25.0, "gp_name": "", "state_name": "MANIPUR", "state_lgd": 14, "population": 184, "households": 40}, "geometry": {"type": "Polygon", "coordinates": [[[93.93936000000001, 24.534380000000002], [93.93765, 24.533260000000002], [93.93309, 24.534560000000003], [93.93100000000001, 24.536630000000002], [93.92976, 24.53508], [93.92729000000001, 24.536030000000004], [93.92377, 24.536030000000004], [93.92101000000001, 24.537580000000002], [93.92149, 24.542], [93.92415000000001, 24.54269], [93.93832, 24.542510000000004], [93.93860000000001, 24.54435], [93.94127, 24.54435], [93.94469000000001, 24.542700000000004], [93.94155, 24.537580000000002], [93.93936000000001, 24.534380000000002]]]}}, {"id": "28", "type": "Feature", "properties": {"village_name": "Langmeidong", "vil_lgd": 269999, "district_name": "Kakching", "dist_lgd": 711, "subdistrict_name": "Kakching", "sdcode": 1878, "block_name": "Kakching", "block_lgd": 25.0, "gp_name": "LANGMEIDONG", "state_name": "MANIPUR", "state_lgd": 14, "population": 5935, "households": 1435}, "geometry": {"type": "Polygon", "coordinates": [[[93.96137, 24.478150000000003], [93.97297, 24.475130000000004], [93.97304000000001, 24.471880000000002], [93.96936000000001, 24.4643], [93.96931000000001, 24.461100000000002], [93.95738000000001, 24.468200000000003], [93.93057, 24.474610000000002], [93.92185, 24.479770000000002], [93.92472000000001, 24.48309], [93.92425, 24.491650000000003], [93.92308000000001, 24.49359], [93.92762, 24.493560000000002], [93.93047000000001, 24.492520000000003], [93.93095000000001, 24.487330000000004], [93.93218, 24.48413], [93.93390000000001, 24.482310000000002], [93.94293, 24.48075], [93.96137, 24.478150000000003]]]}}, {"id": "29", "type": "Feature", "properties": {"village_name": "Laimanai", "vil_lgd": 269998, "district_name": "Kakching", "dist_lgd": 711, "subdistrict_name": "Kakching", "sdcode": 1878, "block_name": "Kakching", "block_lgd": 25.0, "gp_name": "Mayeng Lamjao", "state_name": "MANIPUR", "state_lgd": 14, "population": 1484, "households": 350}, "geometry": {"type": "Polygon", "coordinates": [[[93.97066000000001, 24.486580000000004], [93.97297, 24.475130000000004], [93.96137, 24.478150000000003], [93.94293, 24.48075], [93.93390000000001, 24.482310000000002], [93.93218, 24.48413], [93.93095000000001, 24.487330000000004], [93.93047000000001, 24.492520000000003], [93.93209, 24.49304], [93.93580000000001, 24.490350000000003], [93.94131, 24.488360000000004], [93.94759, 24.489140000000003], [93.94806000000001, 24.49087], [93.94664, 24.49217], [93.94359000000001, 24.494850000000003], [93.94483000000001, 24.49762], [93.94664, 24.497880000000002], [93.94930000000001, 24.49511], [93.96270000000001, 24.493730000000003], [93.97069, 24.49208], [93.97126, 24.49059], [93.97066000000001, 24.486580000000004]]]}}, {"id": "30", "type": "Feature", "properties": {"village_name": "Mayenglamjao", "vil_lgd": 269997, "district_name": "Kakching", "dist_lgd": 711, "subdistrict_name": "Kakching", "sdcode": 1878, "block_name": "Kakching", "block_lgd": 25.0, "gp_name": "MAYENG LAMJAO", "state_name": "MANIPUR", "state_lgd": 14, "population": 3393, "households": 728}, "geometry": {"type": "Polygon", "coordinates": [[[93.94806000000001, 24.49087], [93.94759, 24.489140000000003], [93.94131, 24.488360000000004], [93.93580000000001, 24.490350000000003], [93.93209, 24.49304], [93.93047000000001, 24.492520000000003], [93.92762, 24.493560000000002], [93.92429000000001, 24.497970000000002], [93.92363, 24.500390000000003], [93.92562000000001, 24.50541], [93.92819, 24.50627], [93.93047000000001, 24.50645], [93.94198, 24.500300000000003], [93.94483000000001, 24.49762], [93.94359000000001, 24.494850000000003], [93.94664, 24.49217], [93.94806000000001, 24.49087]]]}}, {"id": "31", "type": "Feature", "properties": {"village_name": "Irengband", "vil_lgd": 269988, "district_name": "Kakching", "dist_lgd": 711, "subdistrict_name": "Kakching", "sdcode": 1878, "block_name": "Kakching", "block_lgd": 25.0, "gp_name": "IRENGBAND", "state_name": "MANIPUR", "state_lgd": 14, "population": 10600, "households": 2037}, "geometry": {"type": "Polygon", "coordinates": [[[93.96476000000001, 24.517550000000004], [93.97524000000001, 24.51704], [93.97995, 24.515610000000002], [93.99614000000001, 24.50815], [94.00562000000001, 24.504970000000004], [94.01874000000001, 24.504900000000003], [94.02585, 24.50785], [94.03056000000001, 24.50054], [94.02925, 24.48832], [94.02279000000001, 24.490160000000003], [94.02207000000001, 24.49395], [94.02098000000001, 24.49442], [94.0168, 24.494850000000003], [94.00786000000001, 24.493990000000004], [94.00387, 24.494590000000002], [93.99778, 24.49624], [93.97392, 24.506190000000004], [93.97173000000001, 24.50991], [93.96014000000001, 24.516050000000003], [93.95842, 24.517860000000002], [93.95871000000001, 24.52098], [93.96052, 24.52401], [93.96148000000001, 24.5206], [93.96319000000001, 24.51827], [93.96476000000001, 24.517550000000004]]]}}, {"id": "32", "type": "Feature", "properties": {"village_name": "Loushipat", "vil_lgd": 269989, "district_name": "Kakching", "dist_lgd": 711, "subdistrict_name": "Kakching", "sdcode": 1878, "block_name": "Kakching", "block_lgd": 25.0, "gp_name": "IRENGBAND", "state_name": "MANIPUR", "state_lgd": 14, "population": 4, "households": 1}, "geometry": {"type": "Polygon", "coordinates": [[[94.02585, 24.50785], [94.01874000000001, 24.504900000000003], [94.00562000000001, 24.504970000000004], [93.99614000000001, 24.50815], [93.97995, 24.515610000000002], [93.97524000000001, 24.51704], [93.96476000000001, 24.517550000000004], [93.96319000000001, 24.51827], [93.96148000000001, 24.5206], [93.96469, 24.52034], [93.96776000000001, 24.520280000000003], [93.96797000000001, 24.521710000000002], [93.96404000000001, 24.52871], [93.97124000000001, 24.52287], [93.99249, 24.519070000000003], [93.99885, 24.515600000000003], [94.02585, 24.50785]]]}}, {"id": "33", "type": "Feature", "properties": {"village_name": "Laijing", "vil_lgd": 269987, "district_name": "Kakching", "dist_lgd": 711, "subdistrict_name": "Kakching", "sdcode": 1878, "block_name": "Kakching", "block_lgd": 25.0, "gp_name": "", "state_name": "MANIPUR", "state_lgd": 14, "population": 0, "households": 0}, "geometry": {"type": "Polygon", "coordinates": [[[94.01880000000001, 24.462410000000002], [94.02336000000001, 24.475040000000003], [94.02307, 24.47876], [94.02089000000001, 24.486120000000003], [94.02098000000001, 24.49442], [94.02207000000001, 24.49395], [94.02279000000001, 24.490160000000003], [94.02925, 24.48832], [94.03074000000001, 24.479730000000004], [94.0283, 24.478150000000003], [94.02326000000001, 24.468980000000002], [94.02041000000001, 24.46291], [94.01880000000001, 24.462410000000002]]]}}, {"id": "34", "type": "Feature", "properties": {"village_name": "Keirak", "vil_lgd": 269991, "district_name": "Kakching", "dist_lgd": 711, "subdistrict_name": "Kakching", "sdcode": 1878, "block_name": "Kakching", "block_lgd": 25.0, "gp_name": "KEIRAK", "state_name": "MANIPUR", "state_lgd": 14, "population": 4912, "households": 1079}, "geometry": {"type": "Polygon", "coordinates": [[[93.92562000000001, 24.50541], [93.92262000000001, 24.51463], [93.92177000000001, 24.52015], [93.92239000000001, 24.52373], [93.92241000000001, 24.52793], [93.92341, 24.53027], [93.92733000000001, 24.532600000000002], [93.92961000000001, 24.5328], [93.93309, 24.534560000000003], [93.93765, 24.533260000000002], [93.93588000000001, 24.529100000000003], [93.93325, 24.52643], [93.93349, 24.524970000000003], [93.93158000000001, 24.524540000000002], [93.93236, 24.522000000000002], [93.92952000000001, 24.517860000000002], [93.93047000000001, 24.50645], [93.92819, 24.50627], [93.92562000000001, 24.50541]]]}}, {"id": "35", "type": "Feature", "properties": {"village_name": "Hiyanglam I", "vil_lgd": 269994, "district_name": "Kakching", "dist_lgd": 711, "subdistrict_name": "Kakching", "sdcode": 1878, "block_name": "Kakching", "block_lgd": 25.0, "gp_name": "HIYANGLAM", "state_name": "MANIPUR", "state_lgd": 14, "population": 8872, "households": 1809}, "geometry": {"type": "Polygon", "coordinates": [[[93.91742, 24.525730000000003], [93.92239000000001, 24.52373], [93.92177000000001, 24.52015], [93.92262000000001, 24.51463], [93.92562000000001, 24.50541], [93.92363, 24.500390000000003], [93.92429000000001, 24.497970000000002], [93.92762, 24.493560000000002], [93.92308000000001, 24.49359], [93.92154000000001, 24.495120000000004], [93.92006, 24.50299], [93.91769000000001, 24.510170000000002], [93.9116, 24.52401], [93.91217, 24.526510000000002], [93.91742, 24.525730000000003]]]}}, {"id": "36", "type": "Feature", "properties": {"village_name": "Mantak", "vil_lgd": 269990, "district_name": "Kakching", "dist_lgd": 711, "subdistrict_name": "Kakching", "sdcode": 1878, "block_name": "Kakching", "block_lgd": 25.0, "gp_name": "KEIRAK", "state_name": "MANIPUR", "state_lgd": 14, "population": 0, "households": 0}, "geometry": {"type": "Polygon", "coordinates": [[[93.94626000000001, 24.521150000000002], [93.94236000000001, 24.521500000000003], [93.93808000000001, 24.52383], [93.93570000000001, 24.52305], [93.92952000000001, 24.517860000000002], [93.93236, 24.522000000000002], [93.93158000000001, 24.524540000000002], [93.93349, 24.524970000000003], [93.93325, 24.52643], [93.93588000000001, 24.529100000000003], [93.93765, 24.533260000000002], [93.93936000000001, 24.534380000000002], [93.94155, 24.537580000000002], [93.94469000000001, 24.542700000000004], [93.94708000000001, 24.54155], [93.94772, 24.53714], [93.9444, 24.532220000000002], [93.94729000000001, 24.5302], [93.95348000000001, 24.5285], [93.94987, 24.524780000000003], [93.94626000000001, 24.521150000000002]]]}}, {"id": "37", "type": "Feature", "properties": {"village_name": "Sugnu Np", "vil_lgd": 801482, "district_name": "Kakching", "dist_lgd": 711, "subdistrict_name": "Kakching", "sdcode": 1878, "block_name": "", "block_lgd": null, "gp_name": "", "state_name": "MANIPUR", "state_lgd": 14, "population": 5132, "households": 1094}, "geometry": {"type": "Polygon", "coordinates": [[[93.89763, 24.30516], [93.89437000000001, 24.29999], [93.89306, 24.298260000000003], [93.89413, 24.28602], [93.89781, 24.284070000000003], [93.8996, 24.281260000000003], [93.89556, 24.279960000000003], [93.89401000000001, 24.27757], [93.89472, 24.27672], [93.89145, 24.276560000000003], [93.88869000000001, 24.277690000000003], [93.8846, 24.28245], [93.88189000000001, 24.28405], [93.88355000000001, 24.28808], [93.88308, 24.290350000000004], [93.87951000000001, 24.293930000000003], [93.87523, 24.294040000000003], [93.87298000000001, 24.295230000000004], [93.87274000000001, 24.29869], [93.87381, 24.30476], [93.87167000000001, 24.30909], [93.87604, 24.311220000000002], [93.8798, 24.31464], [93.88641000000001, 24.319100000000002], [93.89135, 24.321360000000002], [93.9034, 24.323710000000002], [93.90221000000001, 24.31971], [93.90277, 24.318270000000002], [93.89763, 24.30516]]]}}, {"id": "38", "type": "Feature", "properties": {"village_name": "Kakching Khunou Np", "vil_lgd": 801483, "district_name": "Kakching", "dist_lgd": 711, "subdistrict_name": "Kakching", "sdcode": 1878, "block_name": "", "block_lgd": null, "gp_name": "", "state_name": "MANIPUR", "state_lgd": 14, "population": 11379, "households": 2278}, "geometry": {"type": "Polygon", "coordinates": [[[93.93358, 24.406850000000002], [93.93085, 24.409450000000003], [93.92598000000001, 24.40858], [93.92443, 24.39516], [93.92455000000001, 24.38867], [93.92111000000001, 24.38369], [93.91956, 24.379150000000003], [93.91778000000001, 24.37817], [93.91611, 24.378500000000003], [93.91457000000001, 24.38099], [93.91184000000001, 24.38218], [93.90190000000001, 24.38961], [93.89088000000001, 24.395840000000003], [93.88165000000001, 24.39939], [93.87747, 24.403290000000002], [93.88061, 24.406920000000003], [93.88080000000001, 24.410210000000003], [93.88584, 24.418870000000002], [93.90010000000001, 24.413850000000004], [93.90371, 24.413420000000002], [93.90875000000001, 24.42], [93.9098, 24.42545], [93.91588, 24.42432], [93.92139, 24.421550000000003], [93.92767, 24.417740000000002], [93.93299, 24.411600000000004], [93.93358, 24.406850000000002]]]}}, {"id": "39", "type": "Feature", "properties": {"village_name": "Mondum Ching", "vil_lgd": 999999, "district_name": "Kakching", "dist_lgd": 711, "subdistrict_name": "Kakching", "sdcode": 1878, "block_name": "", "block_lgd": null, "gp_name": "", "state_name": "MANIPUR", "state_lgd": 14, "population": 0, "households": 0}, "geometry": {"type": "Polygon", "coordinates": [[[93.89392000000001, 24.42303], [93.89240000000001, 24.42216], [93.89078, 24.423370000000002], [93.88907, 24.423370000000002], [93.88584, 24.418870000000002], [93.88080000000001, 24.410210000000003], [93.88061, 24.406920000000003], [93.87747, 24.403290000000002], [93.87481000000001, 24.40433], [93.87063, 24.40857], [93.86787000000001, 24.409090000000003], [93.86464000000001, 24.408140000000003], [93.8635, 24.40857], [93.86273000000001, 24.41203], [93.86045000000001, 24.412380000000002], [93.85789000000001, 24.410470000000004], [93.85456, 24.410210000000003], [93.85399000000001, 24.411340000000003], [93.85475000000001, 24.413940000000004], [93.86064, 24.417050000000003], [93.86254000000001, 24.420260000000003], [93.86169000000001, 24.422680000000003], [93.85884, 24.425880000000003], [93.85922000000001, 24.429430000000004], [93.86378, 24.43428], [93.87709000000001, 24.434710000000003], [93.87804000000001, 24.433850000000003], [93.87833, 24.42761], [93.87928000000001, 24.425880000000003], [93.88118000000001, 24.425800000000002], [93.88308, 24.425880000000003], [93.88916, 24.43532], [93.89363, 24.436010000000003], [93.8923, 24.43298], [93.89420000000001, 24.42874], [93.89468000000001, 24.42536], [93.89392000000001, 24.42303]]]}}, {"id": "40", "type": "Feature", "properties": {"village_name": "Kakching M Cl", "vil_lgd": 801484, "district_name": "Kakching", "dist_lgd": 711, "subdistrict_name": "Kakching", "sdcode": 1878, "block_name": "", "block_lgd": null, "gp_name": "", "state_name": "MANIPUR", "state_lgd": 14, "population": 32138, "households": 7144}, "geometry": {"type": "Polygon", "coordinates": [[[93.95842, 24.517860000000002], [93.96014000000001, 24.516050000000003], [93.97173000000001, 24.50991], [93.97392, 24.506190000000004], [93.99778, 24.49624], [94.00387, 24.494590000000002], [94.00786000000001, 24.493990000000004], [94.0168, 24.494850000000003], [94.02098000000001, 24.49442], [94.02089000000001, 24.486120000000003], [94.02307, 24.47876], [94.02336000000001, 24.475040000000003], [94.01880000000001, 24.462410000000002], [94.01233, 24.47002], [94.00843, 24.472440000000002], [94.00406000000001, 24.47097], [94.00331000000001, 24.469720000000002], [93.99924000000001, 24.470440000000004], [93.98901000000001, 24.4799], [93.98576000000001, 24.484530000000003], [93.98576000000001, 24.487560000000002], [93.9848, 24.489400000000003], [93.98088000000001, 24.491020000000002], [93.97815000000001, 24.489720000000002], [93.97126, 24.49059], [93.97069, 24.49208], [93.96270000000001, 24.493730000000003], [93.94930000000001, 24.49511], [93.94664, 24.497880000000002], [93.94483000000001, 24.49762], [93.94198, 24.500300000000003], [93.93047000000001, 24.50645], [93.92952000000001, 24.517860000000002], [93.93570000000001, 24.52305], [93.93808000000001, 24.52383], [93.94236000000001, 24.521500000000003], [93.94626000000001, 24.521150000000002], [93.94987, 24.524780000000003], [93.95348000000001, 24.5285], [93.95643000000001, 24.52764], [93.96052, 24.52401], [93.95871000000001, 24.52098], [93.95842, 24.517860000000002]]]}}, {"id": "41", "type": "Feature", "properties": {"village_name": "Pumlen Pat", "vil_lgd": 999999, "district_name": "Kakching", "dist_lgd": 711, "subdistrict_name": "Kakching", "sdcode": 1878, "block_name": "", "block_lgd": null, "gp_name": "", "state_name": "MANIPUR", "state_lgd": 14, "population": 0, "households": 0}, "geometry": {"type": "MultiPolygon", "coordinates": [[[[93.88308, 24.425880000000003], [93.88118000000001, 24.425800000000002], [93.87928000000001, 24.425880000000003], [93.87833, 24.42761], [93.87804000000001, 24.433850000000003], [93.87709000000001, 24.434710000000003], [93.86378, 24.43428], [93.86321000000001, 24.437220000000003], [93.86416000000001, 24.439560000000004], [93.86844, 24.444490000000002], [93.87177000000001, 24.451670000000004], [93.88536, 24.46526], [93.88869000000001, 24.470110000000002], [93.89401000000001, 24.480580000000003], [93.8943, 24.48309], [93.89242, 24.494040000000002], [93.89012000000001, 24.50307], [93.88308, 24.51311], [93.88061, 24.53196], [93.88080000000001, 24.53646], [93.88270000000001, 24.540090000000003], [93.88508, 24.542], [93.88793000000001, 24.542080000000002], [93.89240000000001, 24.53845], [93.88916, 24.53611], [93.88812, 24.533520000000003], [93.88878000000001, 24.5253], [93.8905, 24.523400000000002], [93.89449, 24.521060000000002], [93.90409000000001, 24.51951], [93.90742, 24.511550000000003], [93.90751, 24.5073], [93.91179000000001, 24.50671], [93.92006, 24.50299], [93.92154000000001, 24.495120000000004], [93.92308000000001, 24.49359], [93.92425, 24.491650000000003], [93.92472000000001, 24.48309], [93.92185, 24.479770000000002], [93.91854000000001, 24.477200000000003], [93.9162, 24.4735], [93.91398000000001, 24.468980000000002], [93.91493000000001, 24.465780000000002], [93.91436, 24.464480000000002], [93.91046000000001, 24.461800000000004], [93.90903, 24.46007], [93.90799000000001, 24.45418], [93.90315000000001, 24.445760000000003], [93.90162000000001, 24.443450000000002], [93.89668, 24.43982], [93.89363, 24.436010000000003], [93.88916, 24.43532], [93.88308, 24.425880000000003]]], [[[93.96148000000001, 24.5206], [93.96052, 24.52401], [93.95643000000001, 24.52764], [93.95348000000001, 24.5285], [93.94729000000001, 24.5302], [93.9444, 24.532220000000002], [93.94772, 24.53714], [93.94708000000001, 24.54155], [93.95853000000001, 24.534280000000003], [93.96404000000001, 24.52871], [93.96797000000001, 24.521710000000002], [93.96776000000001, 24.520280000000003], [93.96469, 24.52034], [93.96148000000001, 24.5206]]], [[[93.92202, 24.54501], [93.93860000000001, 24.54435], [93.93832, 24.542510000000004], [93.92415000000001, 24.54269], [93.92149, 24.542], [93.92101000000001, 24.537580000000002], [93.91512, 24.537070000000003], [93.91246000000001, 24.53845], [93.90552000000001, 24.540270000000003], [93.90419000000001, 24.54165], [93.9, 24.54857], [93.9, 24.549870000000002], [93.90154000000001, 24.55112], [93.91512, 24.54898], [93.91711000000001, 24.54766], [93.92202, 24.54501]]]]}}]}