{"type": "FeatureCollection", "metadata": {"source": "Survey of India (per src_agency attribute in the source data)", "hosted_via": "National Water Data Portal (NWDP), NWIC, Ministry of Jal Shakti -- https://nwdp.nwic.gov.in/", "access": "public, no login required", "crs_original": "EPSG:7755 (WGS 84 / India NSF LCC)", "fetch_date": "2026-08-02", "quality": "verified-official -- Survey of India source", "state": "Manipur", "district": "Noney", "processing": "reprojected to EPSG:4326, topology-preserving simplify (shared-arc, tolerance 0.0005 deg) so adjacent polygons never overlap/gap at shared borders, coords rounded 5dp, 0 feature(s) needed the per-feature fallback", "feature_count": 58}, "features": [{"id": "0", "type": "Feature", "properties": {"village_name": "Data Partially Available", "vil_lgd": 999999, "district_name": "Noney", "dist_lgd": 714, "subdistrict_name": "Nungba", "sdcode": 1867, "block_name": "", "block_lgd": null, "gp_name": "", "state_name": "MANIPUR", "state_lgd": 14, "population": 0, "households": 0}, "geometry": {"type": "Polygon", "coordinates": [[[93.63449000000001, 24.801610000000004], [93.66537000000001, 24.79538], [93.66191, 24.79331], [93.68394, 24.70757], [93.69658000000001, 24.62084], [93.6971, 24.612190000000002], [93.68564, 24.60976], [93.67704, 24.604750000000003], [93.66417000000001, 24.607300000000002], [93.65845, 24.607310000000002], [93.65128000000001, 24.602300000000003], [93.64982, 24.59476], [93.64695, 24.59099], [93.63126000000001, 24.604850000000003], [93.62268, 24.603610000000003], [93.61980000000001, 24.601100000000002], [93.61260000000001, 24.58226], [93.60829000000001, 24.57599], [93.60398, 24.570970000000003], [93.59540000000001, 24.569730000000003], [93.59253000000001, 24.56596], [93.58682, 24.56848], [93.58397000000001, 24.57477], [93.5797, 24.579810000000002], [93.57256000000001, 24.584840000000003], [93.56829, 24.591130000000003], [93.55683, 24.584870000000002], [93.55539, 24.581100000000003], [93.5468, 24.581120000000002], [93.54394, 24.577350000000003], [93.53965000000001, 24.57861], [93.53677, 24.571070000000002], [93.53391, 24.56856], [93.53388000000001, 24.557250000000003], [93.52959000000001, 24.556], [93.50958000000001, 24.56482], [93.50529, 24.559790000000003], [93.49813, 24.55478], [93.49527, 24.556040000000003], [93.48954, 24.55102], [93.48099, 24.566110000000002], [93.47528000000001, 24.56988], [93.46813, 24.56989], [93.4624, 24.567380000000004], [93.45093000000001, 24.544770000000003], [93.44520000000001, 24.538490000000003], [93.42663, 24.554840000000002], [93.40948, 24.559870000000004], [93.40377000000001, 24.563650000000003], [93.39948000000001, 24.56868], [93.39805000000001, 24.572450000000003], [93.39234, 24.57496], [93.38661, 24.56491], [93.34514, 24.57497], [93.33799, 24.572460000000003], [93.33370000000001, 24.566170000000003], [93.32369000000001, 24.566170000000003], [93.30509, 24.56239], [93.28508000000001, 24.56615], [93.27793000000001, 24.563640000000003], [93.28221, 24.559870000000004], [93.27363000000001, 24.547300000000003], [93.26791, 24.544780000000003], [93.27077000000001, 24.541020000000003], [93.26506, 24.53599], [93.25791000000001, 24.523410000000002], [93.26648, 24.5209], [93.26363, 24.51713], [93.26363, 24.509590000000003], [93.25791000000001, 24.50833], [93.25077, 24.50833], [93.24361, 24.513350000000003], [93.23218000000001, 24.510820000000002], [93.22646, 24.50202], [93.21933000000001, 24.494480000000003], [93.21075, 24.498240000000003], [93.20360000000001, 24.513320000000004], [93.19501000000001, 24.514560000000003], [93.19072000000001, 24.520840000000003], [93.18215000000001, 24.522090000000002], [93.18072000000001, 24.51329], [93.17500000000001, 24.515800000000002], [93.17072, 24.515790000000003], [93.17213000000001, 24.52082], [93.16928, 24.528360000000003], [93.17499000000001, 24.532130000000002], [93.17784, 24.540930000000003], [93.18069000000001, 24.54596], [93.18784000000001, 24.551000000000002], [93.19498, 24.559810000000002], [93.19498, 24.562320000000003], [93.19355, 24.56483], [93.19069, 24.56735], [93.19354000000001, 24.57112], [93.19926000000001, 24.568610000000003], [93.20212000000001, 24.566100000000002], [93.20499000000001, 24.566100000000002], [93.20785000000001, 24.56736], [93.20499000000001, 24.571130000000004], [93.20213000000001, 24.572380000000003], [93.20498, 24.574890000000003], [93.20069000000001, 24.5774], [93.19925, 24.588720000000002], [93.20926000000001, 24.5837], [93.21213, 24.584960000000002], [93.21355000000001, 24.587480000000003], [93.21640000000001, 24.600040000000003], [93.21355000000001, 24.606330000000003], [93.21354000000001, 24.61135], [93.21497000000001, 24.616380000000003], [93.20781000000001, 24.622660000000003], [93.20924000000001, 24.626430000000003], [93.21783, 24.626440000000002], [93.22068, 24.632730000000002], [93.22069, 24.637760000000004], [93.21783, 24.641520000000003], [93.2121, 24.645290000000003], [93.21209, 24.651570000000003], [93.20779, 24.659110000000002], [93.20779, 24.66288], [93.21065, 24.6654], [93.21495, 24.66289], [93.21781000000001, 24.664150000000003], [93.21780000000001, 24.67169], [93.20349, 24.667910000000003], [93.20634000000001, 24.68551], [93.21349000000001, 24.694300000000002], [93.21493000000001, 24.69808], [93.21589, 24.69808], [93.22854000000001, 24.686210000000003], [93.23895, 24.66985], [93.25263000000001, 24.65884], [93.27911, 24.65884], [93.29154000000001, 24.66739], [93.29868, 24.67453], [93.30344000000001, 24.690230000000003], [93.31581000000001, 24.691660000000002], [93.33913000000001, 24.712600000000002], [93.34055000000001, 24.72164], [93.33009000000001, 24.7264], [93.34008000000001, 24.750670000000003], [93.35249, 24.7526], [93.36292, 24.758290000000002], [93.36340000000001, 24.777800000000003], [93.36625000000001, 24.79541], [93.37177000000001, 24.809210000000004], [93.39890000000001, 24.806350000000002], [93.40747, 24.81349], [93.40747, 24.824910000000003], [93.45556, 24.823500000000003], [93.49744000000001, 24.823500000000003], [93.51076, 24.82064], [93.54312, 24.809220000000003], [93.56073, 24.811130000000002], [93.57072000000001, 24.82064], [93.57643, 24.835400000000003], [93.61308000000001, 24.80684], [93.63449000000001, 24.801610000000004]], [[93.57974, 24.80543], [93.58056, 24.805950000000003], [93.58021000000001, 24.806900000000002], [93.57884000000001, 24.80627], [93.57974, 24.80543]], [[93.44072000000001, 24.81764], [93.44084000000001, 24.8165], [93.44217, 24.816740000000003], [93.44174000000001, 24.817850000000004], [93.44072000000001, 24.81764]], [[93.46209, 24.802300000000002], [93.46296000000001, 24.803140000000003], [93.46234000000001, 24.803870000000003], [93.46128, 24.80345], [93.46171000000001, 24.802370000000003], [93.46209, 24.802300000000002]], [[93.51081, 24.7955], [93.5116, 24.796650000000003], [93.51, 24.796650000000003], [93.51081, 24.7955]], [[93.37478, 24.79586], [93.37383000000001, 24.79662], [93.37301000000001, 24.795740000000002], [93.37384, 24.79502], [93.37478, 24.79586]], [[93.46011000000001, 24.786530000000003], [93.45934000000001, 24.787280000000003], [93.45834, 24.786530000000003], [93.45921000000001, 24.785680000000003], [93.46011000000001, 24.786530000000003]], [[93.58679000000001, 24.767000000000003], [93.58602, 24.767750000000003], [93.58502000000001, 24.767000000000003], [93.58589, 24.766150000000003], [93.58679000000001, 24.767000000000003]], [[93.62292000000001, 24.75664], [93.62197, 24.7574], [93.62115000000001, 24.756520000000002], [93.62198000000001, 24.7558], [93.62292000000001, 24.75664]], [[93.36749, 24.776030000000002], [93.36836000000001, 24.776870000000002], [93.36774000000001, 24.777600000000003], [93.36668, 24.77718], [93.36711000000001, 24.776100000000003], [93.36749, 24.776030000000002]], [[93.38476000000001, 24.772280000000002], [93.38381000000001, 24.77305], [93.38300000000001, 24.772160000000003], [93.38382000000001, 24.77145], [93.38476000000001, 24.772280000000002]], [[93.51263, 24.7575], [93.51187, 24.758260000000003], [93.51086000000001, 24.7575], [93.51173000000001, 24.756660000000004], [93.51263, 24.7575]], [[93.54409000000001, 24.74716], [93.54496, 24.748], [93.54419000000001, 24.74876], [93.54327, 24.748310000000004], [93.54371, 24.747230000000002], [93.54409000000001, 24.74716]], [[93.63345000000001, 24.734640000000002], [93.63432, 24.735480000000003], [93.63371000000001, 24.736210000000003], [93.63264000000001, 24.73579], [93.63308, 24.734710000000003], [93.63345000000001, 24.734640000000002]], [[93.40449000000001, 24.75372], [93.40372, 24.75448], [93.40272, 24.75372], [93.40359000000001, 24.75288], [93.40449000000001, 24.75372]], [[93.64154, 24.7178], [93.64241000000001, 24.71864], [93.64164000000001, 24.7194], [93.64072, 24.718950000000003], [93.64116000000001, 24.71787], [93.64154, 24.7178]], [[93.37834000000001, 24.734510000000004], [93.37739, 24.735270000000003], [93.37658, 24.73439], [93.37740000000001, 24.733670000000004], [93.37834000000001, 24.734510000000004]], [[93.61159, 24.710890000000003], [93.61246000000001, 24.711740000000002], [93.61169000000001, 24.712490000000003], [93.61078, 24.712040000000002], [93.61121000000001, 24.710960000000004], [93.61159, 24.710890000000003]], [[93.65342000000001, 24.697070000000004], [93.65429, 24.697920000000003], [93.65367, 24.69864], [93.65261000000001, 24.698220000000003], [93.65304, 24.69714], [93.65342000000001, 24.697070000000004]], [[93.3923, 24.70258], [93.39287, 24.7039], [93.39191000000001, 24.704140000000002], [93.39131, 24.70342], [93.3923, 24.70258]], [[93.35382000000001, 24.706360000000004], [93.35376000000001, 24.70521], [93.35518, 24.705370000000002], [93.35481000000001, 24.706470000000003], [93.35382000000001, 24.706360000000004]], [[93.66055, 24.676340000000003], [93.66137, 24.67687], [93.66102000000001, 24.67781], [93.65965000000001, 24.677180000000003], [93.66055, 24.676340000000003]], [[93.57243000000001, 24.683870000000002], [93.57325, 24.68315], [93.57419, 24.68399], [93.57324000000001, 24.68475], [93.57243000000001, 24.683870000000002]], [[93.53711000000001, 24.684630000000002], [93.53635000000001, 24.68539], [93.53534, 24.684630000000002], [93.53621000000001, 24.683790000000002], [93.53711000000001, 24.684630000000002]], [[93.57368000000001, 24.66954], [93.57455, 24.67038], [93.57393, 24.671110000000002], [93.57287000000001, 24.67069], [93.5733, 24.669610000000002], [93.57368000000001, 24.66954]], [[93.66142, 24.659910000000004], [93.66042, 24.660660000000004], [93.65965000000001, 24.659910000000004], [93.66052, 24.659060000000004], [93.66142, 24.659910000000004]], [[93.63441, 24.6569], [93.63528000000001, 24.65774], [93.63466000000001, 24.65847], [93.63359000000001, 24.658050000000003], [93.63403000000001, 24.65697], [93.63441, 24.6569]], [[93.35133, 24.677310000000002], [93.35220000000001, 24.678160000000002], [93.35143000000001, 24.678910000000002], [93.35052, 24.67846], [93.35095000000001, 24.677380000000003], [93.35133, 24.677310000000002]], [[93.41146, 24.668020000000002], [93.41233000000001, 24.668870000000002], [93.41156000000001, 24.66963], [93.41065, 24.66918], [93.41108000000001, 24.668100000000003], [93.41146, 24.668020000000002]], [[93.57855, 24.650100000000002], [93.57942000000001, 24.650940000000002], [93.57865000000001, 24.6517], [93.57774, 24.65125], [93.57817000000001, 24.650170000000003], [93.57855, 24.650100000000002]], [[93.45781000000001, 24.654310000000002], [93.45868, 24.655150000000003], [93.45806, 24.655880000000003], [93.45700000000001, 24.65546], [93.45743, 24.654380000000003], [93.45781000000001, 24.654310000000002]], [[93.59424000000001, 24.63454], [93.59511, 24.63539], [93.59449000000001, 24.636110000000002], [93.59343000000001, 24.635700000000003], [93.59386, 24.634610000000002], [93.59424000000001, 24.63454]], [[93.30843, 24.655720000000002], [93.30918000000001, 24.656460000000003], [93.30829000000001, 24.65733], [93.30745, 24.65678], [93.30803, 24.65574], [93.30843, 24.655720000000002]], [[93.38038, 24.645780000000002], [93.38119, 24.646500000000003], [93.38038, 24.647380000000002], [93.37943000000001, 24.646620000000002], [93.37998, 24.645830000000004], [93.38038, 24.645780000000002]], [[93.33992, 24.6475], [93.34079000000001, 24.64835], [93.34017000000001, 24.64908], [93.33911, 24.648660000000003], [93.33954000000001, 24.64758], [93.33992, 24.6475]], [[93.50110000000001, 24.623400000000004], [93.50034000000001, 24.624150000000004], [93.49934, 24.623400000000004], [93.50021000000001, 24.62255], [93.50110000000001, 24.623400000000004]], [[93.65259, 24.608290000000004], [93.65341000000001, 24.60882], [93.65316000000001, 24.609700000000004], [93.65169, 24.60913], [93.65259, 24.608290000000004]], [[93.53105000000001, 24.61756], [93.53005, 24.61832], [93.52928000000001, 24.61756], [93.53015, 24.61672], [93.53105000000001, 24.61756]], [[93.37021000000001, 24.627290000000002], [93.37106000000001, 24.62676], [93.37184, 24.627920000000003], [93.37046000000001, 24.62817], [93.37021000000001, 24.627290000000002]], [[93.46357, 24.617690000000003], [93.46418000000001, 24.619010000000003], [93.46270000000001, 24.618840000000002], [93.46357, 24.617690000000003]], [[93.30481, 24.632600000000004], [93.30469000000001, 24.63351], [93.30363000000001, 24.6337], [93.30322000000001, 24.632600000000004], [93.30415, 24.632170000000002], [93.30481, 24.632600000000004]], [[93.38870000000001, 24.61867], [93.38951, 24.619390000000003], [93.38870000000001, 24.62027], [93.38775000000001, 24.619510000000002], [93.3883, 24.618720000000003], [93.38870000000001, 24.61867]], [[93.32934, 24.61597], [93.3301, 24.6167], [93.32960000000001, 24.617500000000003], [93.32854, 24.617300000000004], [93.32864000000001, 24.61614], [93.32934, 24.61597]], [[93.28861, 24.61925], [93.28871000000001, 24.618090000000002], [93.29011000000001, 24.61841], [93.28959, 24.619470000000003], [93.28861, 24.61925]], [[93.49618000000001, 24.598770000000002], [93.49703000000001, 24.59824], [93.49781, 24.599390000000003], [93.49652, 24.59971], [93.49618000000001, 24.598770000000002]], [[93.5284, 24.593380000000003], [93.52927000000001, 24.594220000000004], [93.52850000000001, 24.594980000000003], [93.52759, 24.594530000000002], [93.52802000000001, 24.59345], [93.5284, 24.593380000000003]], [[93.26383000000001, 24.609280000000002], [93.26450000000001, 24.610010000000003], [93.26365000000001, 24.61088], [93.26272, 24.610090000000003], [93.26339, 24.60929], [93.26383000000001, 24.609280000000002]], [[93.33992, 24.602130000000002], [93.34074000000001, 24.602660000000004], [93.34039000000001, 24.603600000000004], [93.33902, 24.602980000000002], [93.33992, 24.602130000000002]], [[93.36651, 24.59889], [93.36732, 24.600040000000003], [93.36573000000001, 24.600040000000003], [93.36651, 24.59889]], [[93.29084, 24.598470000000002], [93.2916, 24.599200000000003], [93.29071, 24.600070000000002], [93.28986, 24.599520000000002], [93.29044, 24.59849], [93.29084, 24.598470000000002]], [[93.33754, 24.5896], [93.33841000000001, 24.59044], [93.3378, 24.59117], [93.33673, 24.590750000000003], [93.33717000000001, 24.58967], [93.33754, 24.5896]], [[93.34135, 24.57684], [93.34222000000001, 24.57769], [93.34145000000001, 24.578450000000004], [93.34053, 24.578000000000003], [93.34097000000001, 24.57691], [93.34135, 24.57684]], [[93.32102, 24.569940000000003], [93.32178, 24.570670000000003], [93.32089, 24.571540000000002], [93.32005000000001, 24.570990000000002], [93.32063000000001, 24.569960000000002], [93.32102, 24.569940000000003]], [[93.22186, 24.577280000000002], [93.22145, 24.578380000000003], [93.22022000000001, 24.577910000000003], [93.22093000000001, 24.57685], [93.22186, 24.577280000000002]], [[93.20218000000001, 24.55805], [93.20294000000001, 24.558780000000002], [93.20205000000001, 24.55965], [93.20121, 24.5591], [93.20179, 24.55807], [93.20218000000001, 24.55805]], [[93.21763000000001, 24.546370000000003], [93.21839000000001, 24.547110000000004], [93.2175, 24.547980000000003], [93.21665, 24.547430000000002], [93.21724, 24.546390000000002], [93.21763000000001, 24.546370000000003]], [[93.19886000000001, 24.539240000000003], [93.19961, 24.53997], [93.19872000000001, 24.540840000000003], [93.19788000000001, 24.540290000000002], [93.19846000000001, 24.539260000000002], [93.19886000000001, 24.539240000000003]], [[93.19173, 24.52389], [93.19248, 24.524620000000002], [93.19159, 24.52549], [93.19075000000001, 24.52494], [93.19133000000001, 24.52391], [93.19173, 24.52389]]]}}, {"id": "1", "type": "Feature", "properties": {"village_name": "Nungbai", "vil_lgd": 269245, "district_name": "Noney", "dist_lgd": 714, "subdistrict_name": "Nungba", "sdcode": 1867, "block_name": "Khoupum", "block_lgd": 11.0, "gp_name": "", "state_name": "MANIPUR", "state_lgd": 14, "population": 218, "households": 49}, "geometry": {"type": "Polygon", "coordinates": [[[93.49934, 24.623400000000004], [93.50034000000001, 24.624150000000004], [93.50110000000001, 24.623400000000004], [93.50021000000001, 24.62255], [93.49934, 24.623400000000004]]]}}, {"id": "2", "type": "Feature", "properties": {"village_name": "Muktikhullen", "vil_lgd": 269217, "district_name": "Noney", "dist_lgd": 714, "subdistrict_name": "Nungba", "sdcode": 1867, "block_name": "Tamenglong", "block_lgd": 10.0, "gp_name": "", "state_name": "MANIPUR", "state_lgd": 14, "population": 983, "households": 160}, "geometry": {"type": "Polygon", "coordinates": [[[93.37998, 24.645830000000004], [93.37943000000001, 24.646620000000002], [93.38038, 24.647380000000002], [93.38119, 24.646500000000003], [93.38038, 24.645780000000002], [93.37998, 24.645830000000004]]]}}, {"id": "3", "type": "Feature", "properties": {"village_name": "Muktina", "vil_lgd": 269218, "district_name": "Noney", "dist_lgd": 714, "subdistrict_name": "Nungba", "sdcode": 1867, "block_name": "Tamenglong", "block_lgd": 10.0, "gp_name": "", "state_name": "MANIPUR", "state_lgd": 14, "population": 218, "households": 42}, "geometry": {"type": "Polygon", "coordinates": [[[93.41108000000001, 24.668100000000003], [93.41065, 24.66918], [93.41156000000001, 24.66963], [93.41233000000001, 24.668870000000002], [93.41146, 24.668020000000002], [93.41108000000001, 24.668100000000003]]]}}, {"id": "4", "type": "Feature", "properties": {"village_name": "T Khongmol", "vil_lgd": 269220, "district_name": "Noney", "dist_lgd": 714, "subdistrict_name": "Nungba", "sdcode": 1867, "block_name": "Tamenglong", "block_lgd": 10.0, "gp_name": "", "state_name": "MANIPUR", "state_lgd": 14, "population": 176, "households": 30}, "geometry": {"type": "Polygon", "coordinates": [[[93.35095000000001, 24.677380000000003], [93.35052, 24.67846], [93.35143000000001, 24.678910000000002], [93.35220000000001, 24.678160000000002], [93.35133, 24.677310000000002], [93.35095000000001, 24.677380000000003]]]}}, {"id": "5", "type": "Feature", "properties": {"village_name": "Leikot", "vil_lgd": 269221, "district_name": "Noney", "dist_lgd": 714, "subdistrict_name": "Nungba", "sdcode": 1867, "block_name": "Tamenglong", "block_lgd": 10.0, "gp_name": "", "state_name": "MANIPUR", "state_lgd": 14, "population": 96, "households": 16}, "geometry": {"type": "Polygon", "coordinates": [[[93.33954000000001, 24.64758], [93.33911, 24.648660000000003], [93.34017000000001, 24.64908], [93.34079000000001, 24.64835], [93.33992, 24.6475], [93.33954000000001, 24.64758]]]}}, {"id": "6", "type": "Feature", "properties": {"village_name": "Changjal", "vil_lgd": 269222, "district_name": "Noney", "dist_lgd": 714, "subdistrict_name": "Nungba", "sdcode": 1867, "block_name": "Tamenglong", "block_lgd": 10.0, "gp_name": "", "state_name": "MANIPUR", "state_lgd": 14, "population": 114, "households": 19}, "geometry": {"type": "Polygon", "coordinates": [[[93.30803, 24.65574], [93.30745, 24.65678], [93.30829000000001, 24.65733], [93.30918000000001, 24.656460000000003], [93.30843, 24.655720000000002], [93.30803, 24.65574]]]}}, {"id": "7", "type": "Feature", "properties": {"village_name": "Laihaojang", "vil_lgd": 269226, "district_name": "Noney", "dist_lgd": 714, "subdistrict_name": "Nungba", "sdcode": 1867, "block_name": "Tamenglong", "block_lgd": 10.0, "gp_name": "", "state_name": "MANIPUR", "state_lgd": 14, "population": 167, "households": 28}, "geometry": {"type": "Polygon", "coordinates": [[[93.30415, 24.632170000000002], [93.30322000000001, 24.632600000000004], [93.30363000000001, 24.6337], [93.30469000000001, 24.63351], [93.30481, 24.632600000000004], [93.30415, 24.632170000000002]]]}}, {"id": "8", "type": "Feature", "properties": {"village_name": "K Daveijang", "vil_lgd": 269224, "district_name": "Noney", "dist_lgd": 714, "subdistrict_name": "Nungba", "sdcode": 1867, "block_name": "Tamenglong", "block_lgd": 10.0, "gp_name": "", "state_name": "MANIPUR", "state_lgd": 14, "population": 91, "households": 19}, "geometry": {"type": "Polygon", "coordinates": [[[93.32864000000001, 24.61614], [93.32854, 24.617300000000004], [93.32960000000001, 24.617500000000003], [93.3301, 24.6167], [93.32934, 24.61597], [93.32864000000001, 24.61614]]]}}, {"id": "9", "type": "Feature", "properties": {"village_name": "Longkaiphun", "vil_lgd": 269223, "district_name": "Noney", "dist_lgd": 714, "subdistrict_name": "Nungba", "sdcode": 1867, "block_name": "Tamenglong", "block_lgd": 10.0, "gp_name": "", "state_name": "MANIPUR", "state_lgd": 14, "population": 220, "households": 39}, "geometry": {"type": "Polygon", "coordinates": [[[93.29011000000001, 24.61841], [93.28871000000001, 24.618090000000002], [93.28861, 24.61925], [93.28959, 24.619470000000003], [93.29011000000001, 24.61841]]]}}, {"id": "10", "type": "Feature", "properties": {"village_name": "T Molbung", "vil_lgd": 269225, "district_name": "Noney", "dist_lgd": 714, "subdistrict_name": "Nungba", "sdcode": 1867, "block_name": "Tamenglong", "block_lgd": 10.0, "gp_name": "", "state_name": "MANIPUR", "state_lgd": 14, "population": 42, "households": 7}, "geometry": {"type": "Polygon", "coordinates": [[[93.33902, 24.602980000000002], [93.34039000000001, 24.603600000000004], [93.34074000000001, 24.602660000000004], [93.33992, 24.602130000000002], [93.33902, 24.602980000000002]]]}}, {"id": "11", "type": "Feature", "properties": {"village_name": "Longphailum", "vil_lgd": 269227, "district_name": "Noney", "dist_lgd": 714, "subdistrict_name": "Nungba", "sdcode": 1867, "block_name": "Tamenglong", "block_lgd": 10.0, "gp_name": "", "state_name": "MANIPUR", "state_lgd": 14, "population": 255, "households": 41}, "geometry": {"type": "Polygon", "coordinates": [[[93.26339, 24.60929], [93.26272, 24.610090000000003], [93.26365000000001, 24.61088], [93.26450000000001, 24.610010000000003], [93.26383000000001, 24.609280000000002], [93.26339, 24.60929]]]}}, {"id": "12", "type": "Feature", "properties": {"village_name": "Bijang", "vil_lgd": 269228, "district_name": "Noney", "dist_lgd": 714, "subdistrict_name": "Nungba", "sdcode": 1867, "block_name": "Tamenglong", "block_lgd": 10.0, "gp_name": "", "state_name": "MANIPUR", "state_lgd": 14, "population": 130, "households": 26}, "geometry": {"type": "Polygon", "coordinates": [[[93.29044, 24.59849], [93.28986, 24.599520000000002], [93.29071, 24.600070000000002], [93.2916, 24.599200000000003], [93.29084, 24.598470000000002], [93.29044, 24.59849]]]}}, {"id": "13", "type": "Feature", "properties": {"village_name": "S Molbung", "vil_lgd": 269230, "district_name": "Noney", "dist_lgd": 714, "subdistrict_name": "Nungba", "sdcode": 1867, "block_name": "Tamenglong", "block_lgd": 10.0, "gp_name": "", "state_name": "MANIPUR", "state_lgd": 14, "population": 149, "households": 33}, "geometry": {"type": "Polygon", "coordinates": [[[93.33717000000001, 24.58967], [93.33673, 24.590750000000003], [93.3378, 24.59117], [93.33841000000001, 24.59044], [93.33754, 24.5896], [93.33717000000001, 24.58967]]]}}, {"id": "14", "type": "Feature", "properties": {"village_name": "Sekjang", "vil_lgd": 269229, "district_name": "Noney", "dist_lgd": 714, "subdistrict_name": "Nungba", "sdcode": 1867, "block_name": "Tamenglong", "block_lgd": 10.0, "gp_name": "", "state_name": "MANIPUR", "state_lgd": 14, "population": 119, "households": 25}, "geometry": {"type": "Polygon", "coordinates": [[[93.22022000000001, 24.577910000000003], [93.22145, 24.578380000000003], [93.22186, 24.577280000000002], [93.22093000000001, 24.57685], [93.22022000000001, 24.577910000000003]]]}}, {"id": "15", "type": "Feature", "properties": {"village_name": "Tuiphai", "vil_lgd": 269231, "district_name": "Noney", "dist_lgd": 714, "subdistrict_name": "Nungba", "sdcode": 1867, "block_name": "Tamenglong", "block_lgd": 10.0, "gp_name": "", "state_name": "MANIPUR", "state_lgd": 14, "population": 271, "households": 50}, "geometry": {"type": "Polygon", "coordinates": [[[93.20179, 24.55807], [93.20121, 24.5591], [93.20205000000001, 24.55965], [93.20294000000001, 24.558780000000002], [93.20218000000001, 24.55805], [93.20179, 24.55807]]]}}, {"id": "16", "type": "Feature", "properties": {"village_name": "Chongmun", "vil_lgd": 269232, "district_name": "Noney", "dist_lgd": 714, "subdistrict_name": "Nungba", "sdcode": 1867, "block_name": "Tamenglong", "block_lgd": 10.0, "gp_name": "", "state_name": "MANIPUR", "state_lgd": 14, "population": 272, "households": 50}, "geometry": {"type": "Polygon", "coordinates": [[[93.21724, 24.546390000000002], [93.21665, 24.547430000000002], [93.2175, 24.547980000000003], [93.21839000000001, 24.547110000000004], [93.21763000000001, 24.546370000000003], [93.21724, 24.546390000000002]]]}}, {"id": "17", "type": "Feature", "properties": {"village_name": "Bolphai", "vil_lgd": 269234, "district_name": "Noney", "dist_lgd": 714, "subdistrict_name": "Nungba", "sdcode": 1867, "block_name": "Tamenglong", "block_lgd": 10.0, "gp_name": "", "state_name": "MANIPUR", "state_lgd": 14, "population": 76, "households": 15}, "geometry": {"type": "Polygon", "coordinates": [[[93.19846000000001, 24.539260000000002], [93.19788000000001, 24.540290000000002], [93.19872000000001, 24.540840000000003], [93.19961, 24.53997], [93.19886000000001, 24.539240000000003], [93.19846000000001, 24.539260000000002]]]}}, {"id": "18", "type": "Feature", "properties": {"village_name": "Gallon", "vil_lgd": 269233, "district_name": "Noney", "dist_lgd": 714, "subdistrict_name": "Nungba", "sdcode": 1867, "block_name": "Tamenglong", "block_lgd": 10.0, "gp_name": "", "state_name": "MANIPUR", "state_lgd": 14, "population": 314, "households": 55}, "geometry": {"type": "Polygon", "coordinates": [[[93.19133000000001, 24.52391], [93.19075000000001, 24.52494], [93.19159, 24.52549], [93.19248, 24.524620000000002], [93.19173, 24.52389], [93.19133000000001, 24.52391]]]}}, {"id": "19", "type": "Feature", "properties": {"village_name": "Longpi", "vil_lgd": 269235, "district_name": "Noney", "dist_lgd": 714, "subdistrict_name": "Nungba", "sdcode": 1867, "block_name": "Tamenglong", "block_lgd": 10.0, "gp_name": "", "state_name": "MANIPUR", "state_lgd": 14, "population": 530, "households": 90}, "geometry": {"type": "Polygon", "coordinates": [[[93.37021000000001, 24.627290000000002], [93.37046000000001, 24.62817], [93.37184, 24.627920000000003], [93.37106000000001, 24.62676], [93.37021000000001, 24.627290000000002]]]}}, {"id": "20", "type": "Feature", "properties": {"village_name": "Sempat Naga", "vil_lgd": 269238, "district_name": "Noney", "dist_lgd": 714, "subdistrict_name": "Nungba", "sdcode": 1867, "block_name": "Tamenglong", "block_lgd": 10.0, "gp_name": "", "state_name": "MANIPUR", "state_lgd": 14, "population": 117, "households": 23}, "geometry": {"type": "Polygon", "coordinates": [[[93.32063000000001, 24.569960000000002], [93.32005000000001, 24.570990000000002], [93.32089, 24.571540000000002], [93.32178, 24.570670000000003], [93.32102, 24.569940000000003], [93.32063000000001, 24.569960000000002]]]}}, {"id": "21", "type": "Feature", "properties": {"village_name": "Sempat Gangte", "vil_lgd": 269239, "district_name": "Noney", "dist_lgd": 714, "subdistrict_name": "Nungba", "sdcode": 1867, "block_name": "Tamenglong", "block_lgd": 10.0, "gp_name": "", "state_name": "MANIPUR", "state_lgd": 14, "population": 205, "households": 31}, "geometry": {"type": "Polygon", "coordinates": [[[93.34097000000001, 24.57691], [93.34053, 24.578000000000003], [93.34145000000001, 24.578450000000004], [93.34222000000001, 24.57769], [93.34135, 24.57684], [93.34097000000001, 24.57691]]]}}, {"id": "22", "type": "Feature", "properties": {"village_name": "Taikhang", "vil_lgd": 269237, "district_name": "Noney", "dist_lgd": 714, "subdistrict_name": "Nungba", "sdcode": 1867, "block_name": "Tamenglong", "block_lgd": 10.0, "gp_name": "", "state_name": "MANIPUR", "state_lgd": 14, "population": 281, "households": 40}, "geometry": {"type": "Polygon", "coordinates": [[[93.36573000000001, 24.600040000000003], [93.36732, 24.600040000000003], [93.36651, 24.59889], [93.36573000000001, 24.600040000000003]]]}}, {"id": "23", "type": "Feature", "properties": {"village_name": "Lenglong", "vil_lgd": 269236, "district_name": "Noney", "dist_lgd": 714, "subdistrict_name": "Nungba", "sdcode": 1867, "block_name": "Tamenglong", "block_lgd": 10.0, "gp_name": "", "state_name": "MANIPUR", "state_lgd": 14, "population": 191, "households": 29}, "geometry": {"type": "Polygon", "coordinates": [[[93.3883, 24.618720000000003], [93.38775000000001, 24.619510000000002], [93.38870000000001, 24.62027], [93.38951, 24.619390000000003], [93.38870000000001, 24.61867], [93.3883, 24.618720000000003]]]}}, {"id": "24", "type": "Feature", "properties": {"village_name": "Khoupum", "vil_lgd": 269243, "district_name": "Noney", "dist_lgd": 714, "subdistrict_name": "Nungba", "sdcode": 1867, "block_name": "Khoupum", "block_lgd": 11.0, "gp_name": "", "state_name": "MANIPUR", "state_lgd": 14, "population": 4279, "households": 798}, "geometry": {"type": "Polygon", "coordinates": [[[93.45743, 24.654380000000003], [93.45700000000001, 24.65546], [93.45806, 24.655880000000003], [93.45868, 24.655150000000003], [93.45781000000001, 24.654310000000002], [93.45743, 24.654380000000003]]]}}, {"id": "25", "type": "Feature", "properties": {"village_name": "Lubanglong", "vil_lgd": 269241, "district_name": "Noney", "dist_lgd": 714, "subdistrict_name": "Nungba", "sdcode": 1867, "block_name": "Khoupum", "block_lgd": 11.0, "gp_name": "", "state_name": "MANIPUR", "state_lgd": 14, "population": 931, "households": 145}, "geometry": {"type": "Polygon", "coordinates": [[[93.53534, 24.684630000000002], [93.53635000000001, 24.68539], [93.53711000000001, 24.684630000000002], [93.53621000000001, 24.683790000000002], [93.53534, 24.684630000000002]]]}}, {"id": "26", "type": "Feature", "properties": {"village_name": "Ragailong", "vil_lgd": 269240, "district_name": "Noney", "dist_lgd": 714, "subdistrict_name": "Nungba", "sdcode": 1867, "block_name": "Khoupum", "block_lgd": 11.0, "gp_name": "", "state_name": "MANIPUR", "state_lgd": 14, "population": 102, "households": 22}, "geometry": {"type": "Polygon", "coordinates": [[[93.5733, 24.669610000000002], [93.57287000000001, 24.67069], [93.57393, 24.671110000000002], [93.57455, 24.67038], [93.57368000000001, 24.66954], [93.5733, 24.669610000000002]]]}}, {"id": "27", "type": "Feature", "properties": {"village_name": "Leishok", "vil_lgd": 269251, "district_name": "Noney", "dist_lgd": 714, "subdistrict_name": "Nungba", "sdcode": 1867, "block_name": "Khoupum", "block_lgd": 11.0, "gp_name": "", "state_name": "MANIPUR", "state_lgd": 14, "population": 460, "households": 86}, "geometry": {"type": "Polygon", "coordinates": [[[93.57243000000001, 24.683870000000002], [93.57324000000001, 24.68475], [93.57419, 24.68399], [93.57325, 24.68315], [93.57243000000001, 24.683870000000002]]]}}, {"id": "28", "type": "Feature", "properties": {"village_name": "Nungadang", "vil_lgd": 269244, "district_name": "Noney", "dist_lgd": 714, "subdistrict_name": "Nungba", "sdcode": 1867, "block_name": "Khoupum", "block_lgd": 11.0, "gp_name": "", "state_name": "MANIPUR", "state_lgd": 14, "population": 942, "households": 181}, "geometry": {"type": "Polygon", "coordinates": [[[93.52928000000001, 24.61756], [93.53005, 24.61832], [93.53105000000001, 24.61756], [93.53015, 24.61672], [93.52928000000001, 24.61756]]]}}, {"id": "29", "type": "Feature", "properties": {"village_name": "Pungsang", "vil_lgd": 269246, "district_name": "Noney", "dist_lgd": 714, "subdistrict_name": "Nungba", "sdcode": 1867, "block_name": "Khoupum", "block_lgd": 11.0, "gp_name": "", "state_name": "MANIPUR", "state_lgd": 14, "population": 156, "households": 30}, "geometry": {"type": "Polygon", "coordinates": [[[93.49618000000001, 24.598770000000002], [93.49652, 24.59971], [93.49781, 24.599390000000003], [93.49703000000001, 24.59824], [93.49618000000001, 24.598770000000002]]]}}, {"id": "30", "type": "Feature", "properties": {"village_name": "Molphei", "vil_lgd": 269247, "district_name": "Noney", "dist_lgd": 714, "subdistrict_name": "Nungba", "sdcode": 1867, "block_name": "Khoupum", "block_lgd": 11.0, "gp_name": "", "state_name": "MANIPUR", "state_lgd": 14, "population": 48, "households": 9}, "geometry": {"type": "Polygon", "coordinates": [[[93.46270000000001, 24.618840000000002], [93.46418000000001, 24.619010000000003], [93.46357, 24.617690000000003], [93.46270000000001, 24.618840000000002]]]}}, {"id": "31", "type": "Feature", "properties": {"village_name": "Chingmei Kabui", "vil_lgd": 269248, "district_name": "Noney", "dist_lgd": 714, "subdistrict_name": "Nungba", "sdcode": 1867, "block_name": "Khoupum", "block_lgd": 11.0, "gp_name": "", "state_name": "MANIPUR", "state_lgd": 14, "population": 212, "households": 43}, "geometry": {"type": "Polygon", "coordinates": [[[93.52802000000001, 24.59345], [93.52759, 24.594530000000002], [93.52850000000001, 24.594980000000003], [93.52927000000001, 24.594220000000004], [93.5284, 24.593380000000003], [93.52802000000001, 24.59345]]]}}, {"id": "32", "type": "Feature", "properties": {"village_name": "Satu", "vil_lgd": 269242, "district_name": "Noney", "dist_lgd": 714, "subdistrict_name": "Nungba", "sdcode": 1867, "block_name": "Khoupum", "block_lgd": 11.0, "gp_name": "", "state_name": "MANIPUR", "state_lgd": 14, "population": 442, "households": 100}, "geometry": {"type": "Polygon", "coordinates": [[[93.57817000000001, 24.650170000000003], [93.57774, 24.65125], [93.57865000000001, 24.6517], [93.57942000000001, 24.650940000000002], [93.57855, 24.650100000000002], [93.57817000000001, 24.650170000000003]]]}}, {"id": "33", "type": "Feature", "properties": {"village_name": "Luwanglong Khunou", "vil_lgd": 269252, "district_name": "Noney", "dist_lgd": 714, "subdistrict_name": "Nungba", "sdcode": 1867, "block_name": "Khoupum", "block_lgd": 11.0, "gp_name": "", "state_name": "MANIPUR", "state_lgd": 14, "population": 1223, "households": 226}, "geometry": {"type": "Polygon", "coordinates": [[[93.59386, 24.634610000000002], [93.59343000000001, 24.635700000000003], [93.59449000000001, 24.636110000000002], [93.59511, 24.63539], [93.59424000000001, 24.63454], [93.59386, 24.634610000000002]]]}}, {"id": "34", "type": "Feature", "properties": {"village_name": "Thingou", "vil_lgd": 269208, "district_name": "Noney", "dist_lgd": 714, "subdistrict_name": "Nungba", "sdcode": 1867, "block_name": "Tamenglong", "block_lgd": 10.0, "gp_name": "", "state_name": "MANIPUR", "state_lgd": 14, "population": 319, "households": 67}, "geometry": {"type": "Polygon", "coordinates": [[[93.37301000000001, 24.795740000000002], [93.37383000000001, 24.79662], [93.37478, 24.79586], [93.37384, 24.79502], [93.37301000000001, 24.795740000000002]]]}}, {"id": "35", "type": "Feature", "properties": {"village_name": "Okoklong", "vil_lgd": 269209, "district_name": "Noney", "dist_lgd": 714, "subdistrict_name": "Nungba", "sdcode": 1867, "block_name": "Tamenglong", "block_lgd": 10.0, "gp_name": "", "state_name": "MANIPUR", "state_lgd": 14, "population": 417, "households": 62}, "geometry": {"type": "Polygon", "coordinates": [[[93.36711000000001, 24.776100000000003], [93.36668, 24.77718], [93.36774000000001, 24.777600000000003], [93.36836000000001, 24.776870000000002], [93.36749, 24.776030000000002], [93.36711000000001, 24.776100000000003]]]}}, {"id": "36", "type": "Feature", "properties": {"village_name": "Khongsang", "vil_lgd": 269210, "district_name": "Noney", "dist_lgd": 714, "subdistrict_name": "Nungba", "sdcode": 1867, "block_name": "Tamenglong", "block_lgd": 10.0, "gp_name": "", "state_name": "MANIPUR", "state_lgd": 14, "population": 781, "households": 141}, "geometry": {"type": "Polygon", "coordinates": [[[93.44217, 24.816740000000003], [93.44084000000001, 24.8165], [93.44072000000001, 24.81764], [93.44174000000001, 24.817850000000004], [93.44217, 24.816740000000003]]]}}, {"id": "37", "type": "Feature", "properties": {"village_name": "Mongjarongkhunou", "vil_lgd": 269211, "district_name": "Noney", "dist_lgd": 714, "subdistrict_name": "Nungba", "sdcode": 1867, "block_name": "Tamenglong", "block_lgd": 10.0, "gp_name": "", "state_name": "MANIPUR", "state_lgd": 14, "population": 1495, "households": 265}, "geometry": {"type": "Polygon", "coordinates": [[[93.46171000000001, 24.802370000000003], [93.46128, 24.80345], [93.46234000000001, 24.803870000000003], [93.46296000000001, 24.803140000000003], [93.46209, 24.802300000000002], [93.46171000000001, 24.802370000000003]]]}}, {"id": "38", "type": "Feature", "properties": {"village_name": "Mongjarongkhullen", "vil_lgd": 269212, "district_name": "Noney", "dist_lgd": 714, "subdistrict_name": "Nungba", "sdcode": 1867, "block_name": "Tamenglong", "block_lgd": 10.0, "gp_name": "", "state_name": "MANIPUR", "state_lgd": 14, "population": 762, "households": 141}, "geometry": {"type": "Polygon", "coordinates": [[[93.45834, 24.786530000000003], [93.45934000000001, 24.787280000000003], [93.46011000000001, 24.786530000000003], [93.45921000000001, 24.785680000000003], [93.45834, 24.786530000000003]]]}}, {"id": "39", "type": "Feature", "properties": {"village_name": "Bolongdai", "vil_lgd": 269213, "district_name": "Noney", "dist_lgd": 714, "subdistrict_name": "Nungba", "sdcode": 1867, "block_name": "Tamenglong", "block_lgd": 10.0, "gp_name": "", "state_name": "MANIPUR", "state_lgd": 14, "population": 872, "households": 143}, "geometry": {"type": "Polygon", "coordinates": [[[93.38300000000001, 24.772160000000003], [93.38381000000001, 24.77305], [93.38476000000001, 24.772280000000002], [93.38382000000001, 24.77145], [93.38300000000001, 24.772160000000003]]]}}, {"id": "40", "type": "Feature", "properties": {"village_name": "Nungba", "vil_lgd": 269214, "district_name": "Noney", "dist_lgd": 714, "subdistrict_name": "Nungba", "sdcode": 1867, "block_name": "Tamenglong", "block_lgd": 10.0, "gp_name": "", "state_name": "MANIPUR", "state_lgd": 14, "population": 2222, "households": 350}, "geometry": {"type": "Polygon", "coordinates": [[[93.40272, 24.75372], [93.40372, 24.75448], [93.40449000000001, 24.75372], [93.40359000000001, 24.75288], [93.40272, 24.75372]]]}}, {"id": "41", "type": "Feature", "properties": {"village_name": "Kambiron", "vil_lgd": 269215, "district_name": "Noney", "dist_lgd": 714, "subdistrict_name": "Nungba", "sdcode": 1867, "block_name": "Tamenglong", "block_lgd": 10.0, "gp_name": "", "state_name": "MANIPUR", "state_lgd": 14, "population": 911, "households": 153}, "geometry": {"type": "Polygon", "coordinates": [[[93.37658, 24.73439], [93.37739, 24.735270000000003], [93.37834000000001, 24.734510000000004], [93.37740000000001, 24.733670000000004], [93.37658, 24.73439]]]}}, {"id": "42", "type": "Feature", "properties": {"village_name": "Kekrunaga", "vil_lgd": 269216, "district_name": "Noney", "dist_lgd": 714, "subdistrict_name": "Nungba", "sdcode": 1867, "block_name": "Tamenglong", "block_lgd": 10.0, "gp_name": "", "state_name": "MANIPUR", "state_lgd": 14, "population": 489, "households": 76}, "geometry": {"type": "Polygon", "coordinates": [[[93.39131, 24.70342], [93.39191000000001, 24.704140000000002], [93.39287, 24.7039], [93.3923, 24.70258], [93.39131, 24.70342]]]}}, {"id": "43", "type": "Feature", "properties": {"village_name": "Nungthut", "vil_lgd": 269219, "district_name": "Noney", "dist_lgd": 714, "subdistrict_name": "Nungba", "sdcode": 1867, "block_name": "Tamenglong", "block_lgd": 10.0, "gp_name": "", "state_name": "MANIPUR", "state_lgd": 14, "population": 138, "households": 30}, "geometry": {"type": "Polygon", "coordinates": [[[93.35518, 24.705370000000002], [93.35376000000001, 24.70521], [93.35382000000001, 24.706360000000004], [93.35481000000001, 24.706470000000003], [93.35518, 24.705370000000002]]]}}, {"id": "44", "type": "Feature", "properties": {"village_name": "Nungnang", "vil_lgd": 269249, "district_name": "Noney", "dist_lgd": 714, "subdistrict_name": "Nungba", "sdcode": 1867, "block_name": "Khoupum", "block_lgd": 11.0, "gp_name": "", "state_name": "MANIPUR", "state_lgd": 14, "population": 2030, "households": 356}, "geometry": {"type": "Polygon", "coordinates": [[[93.51086000000001, 24.7575], [93.51187, 24.758260000000003], [93.51263, 24.7575], [93.51173000000001, 24.756660000000004], [93.51086000000001, 24.7575]]]}}, {"id": "45", "type": "Feature", "properties": {"village_name": "Tousang", "vil_lgd": 269250, "district_name": "Noney", "dist_lgd": 714, "subdistrict_name": "Nungba", "sdcode": 1867, "block_name": "Khoupum", "block_lgd": 11.0, "gp_name": "", "state_name": "MANIPUR", "state_lgd": 14, "population": 995, "households": 223}, "geometry": {"type": "Polygon", "coordinates": [[[93.54371, 24.747230000000002], [93.54327, 24.748310000000004], [93.54419000000001, 24.74876], [93.54496, 24.748], [93.54409000000001, 24.74716], [93.54371, 24.747230000000002]]]}}, {"id": "46", "type": "Feature", "properties": {"village_name": "Tamlok", "vil_lgd": 269253, "district_name": "Noney", "dist_lgd": 714, "subdistrict_name": "Nungba", "sdcode": 1867, "block_name": "Khoupum", "block_lgd": 11.0, "gp_name": "", "state_name": "MANIPUR", "state_lgd": 14, "population": 182, "households": 40}, "geometry": {"type": "Polygon", "coordinates": [[[93.51, 24.796650000000003], [93.5116, 24.796650000000003], [93.51081, 24.7955], [93.51, 24.796650000000003]]]}}, {"id": "47", "type": "Feature", "properties": {"village_name": "Noney", "vil_lgd": 269254, "district_name": "Noney", "dist_lgd": 714, "subdistrict_name": "Nungba", "sdcode": 1867, "block_name": "Khoupum", "block_lgd": 10.0, "gp_name": "", "state_name": "MANIPUR", "state_lgd": 14, "population": 3854, "households": 635}, "geometry": {"type": "Polygon", "coordinates": [[[93.57884000000001, 24.80627], [93.58021000000001, 24.806900000000002], [93.58056, 24.805950000000003], [93.57974, 24.80543], [93.57884000000001, 24.80627]]]}}, {"id": "48", "type": "Feature", "properties": {"village_name": "Charoi Chakotlong I", "vil_lgd": 269255, "district_name": "Noney", "dist_lgd": 714, "subdistrict_name": "Nungba", "sdcode": 1867, "block_name": "Khoupum", "block_lgd": 10.0, "gp_name": "", "state_name": "MANIPUR", "state_lgd": 14, "population": 501, "households": 79}, "geometry": {"type": "Polygon", "coordinates": [[[93.58502000000001, 24.767000000000003], [93.58602, 24.767750000000003], [93.58679000000001, 24.767000000000003], [93.58589, 24.766150000000003], [93.58502000000001, 24.767000000000003]]]}}, {"id": "49", "type": "Feature", "properties": {"village_name": "Shangji", "vil_lgd": 269260, "district_name": "Noney", "dist_lgd": 714, "subdistrict_name": "Nungba", "sdcode": 1867, "block_name": "Khoupum", "block_lgd": 11.0, "gp_name": "", "state_name": "MANIPUR", "state_lgd": 14, "population": 403, "households": 81}, "geometry": {"type": "Polygon", "coordinates": [[[93.65304, 24.69714], [93.65261000000001, 24.698220000000003], [93.65367, 24.69864], [93.65429, 24.697920000000003], [93.65342000000001, 24.697070000000004], [93.65304, 24.69714]]]}}, {"id": "50", "type": "Feature", "properties": {"village_name": "Dollang", "vil_lgd": 269261, "district_name": "Noney", "dist_lgd": 714, "subdistrict_name": "Nungba", "sdcode": 1867, "block_name": "Khoupum", "block_lgd": 11.0, "gp_name": "", "state_name": "MANIPUR", "state_lgd": 14, "population": 1026, "households": 225}, "geometry": {"type": "Polygon", "coordinates": [[[93.65965000000001, 24.677180000000003], [93.66102000000001, 24.67781], [93.66137, 24.67687], [93.66055, 24.676340000000003], [93.65965000000001, 24.677180000000003]]]}}, {"id": "51", "type": "Feature", "properties": {"village_name": "Jouzangtek", "vil_lgd": 269262, "district_name": "Noney", "dist_lgd": 714, "subdistrict_name": "Nungba", "sdcode": 1867, "block_name": "Khoupum", "block_lgd": 11.0, "gp_name": "", "state_name": "MANIPUR", "state_lgd": 14, "population": 391, "households": 80}, "geometry": {"type": "Polygon", "coordinates": [[[93.65965000000001, 24.659910000000004], [93.66042, 24.660660000000004], [93.66142, 24.659910000000004], [93.66052, 24.659060000000004], [93.65965000000001, 24.659910000000004]]]}}, {"id": "52", "type": "Feature", "properties": {"village_name": "Nungsai", "vil_lgd": 269263, "district_name": "Noney", "dist_lgd": 714, "subdistrict_name": "Nungba", "sdcode": 1867, "block_name": "Khoupum", "block_lgd": 11.0, "gp_name": "", "state_name": "MANIPUR", "state_lgd": 14, "population": 544, "households": 103}, "geometry": {"type": "Polygon", "coordinates": [[[93.63403000000001, 24.65697], [93.63359000000001, 24.658050000000003], [93.63466000000001, 24.65847], [93.63528000000001, 24.65774], [93.63441, 24.6569], [93.63403000000001, 24.65697]]]}}, {"id": "53", "type": "Feature", "properties": {"village_name": "Luwanglong Khullen", "vil_lgd": 269264, "district_name": "Noney", "dist_lgd": 714, "subdistrict_name": "Nungba", "sdcode": 1867, "block_name": "Khoupum", "block_lgd": 11.0, "gp_name": "", "state_name": "MANIPUR", "state_lgd": 14, "population": 876, "households": 161}, "geometry": {"type": "Polygon", "coordinates": [[[93.65169, 24.60913], [93.65316000000001, 24.609700000000004], [93.65341000000001, 24.60882], [93.65259, 24.608290000000004], [93.65169, 24.60913]]]}}, {"id": "54", "type": "Feature", "properties": {"village_name": "Charoi Chakotlong I I", "vil_lgd": 269256, "district_name": "Noney", "dist_lgd": 714, "subdistrict_name": "Nungba", "sdcode": 1867, "block_name": "Khoupum", "block_lgd": 10.0, "gp_name": "", "state_name": "MANIPUR", "state_lgd": 14, "population": 1262, "households": 228}, "geometry": {"type": "Polygon", "coordinates": [[[93.62115000000001, 24.756520000000002], [93.62197, 24.7574], [93.62292000000001, 24.75664], [93.62198000000001, 24.7558], [93.62115000000001, 24.756520000000002]]]}}, {"id": "55", "type": "Feature", "properties": {"village_name": "Laphok", "vil_lgd": 269257, "district_name": "Noney", "dist_lgd": 714, "subdistrict_name": "Nungba", "sdcode": 1867, "block_name": "Khoupum", "block_lgd": 11.0, "gp_name": "", "state_name": "MANIPUR", "state_lgd": 14, "population": 203, "households": 34}, "geometry": {"type": "Polygon", "coordinates": [[[93.63308, 24.734710000000003], [93.63264000000001, 24.73579], [93.63371000000001, 24.736210000000003], [93.63432, 24.735480000000003], [93.63345000000001, 24.734640000000002], [93.63308, 24.734710000000003]]]}}, {"id": "56", "type": "Feature", "properties": {"village_name": "Lamdangmei", "vil_lgd": 269258, "district_name": "Noney", "dist_lgd": 714, "subdistrict_name": "Nungba", "sdcode": 1867, "block_name": "Khoupum", "block_lgd": 11.0, "gp_name": "", "state_name": "MANIPUR", "state_lgd": 14, "population": 607, "households": 106}, "geometry": {"type": "Polygon", "coordinates": [[[93.64116000000001, 24.71787], [93.64072, 24.718950000000003], [93.64164000000001, 24.7194], [93.64241000000001, 24.71864], [93.64154, 24.7178], [93.64116000000001, 24.71787]]]}}, {"id": "57", "type": "Feature", "properties": {"village_name": "Thangal", "vil_lgd": 269259, "district_name": "Noney", "dist_lgd": 714, "subdistrict_name": "Nungba", "sdcode": 1867, "block_name": "Khoupum", "block_lgd": 11.0, "gp_name": "", "state_name": "MANIPUR", "state_lgd": 14, "population": 1361, "households": 232}, "geometry": {"type": "Polygon", "coordinates": [[[93.61121000000001, 24.710960000000004], [93.61078, 24.712040000000002], [93.61169000000001, 24.712490000000003], [93.61246000000001, 24.711740000000002], [93.61159, 24.710890000000003], [93.61121000000001, 24.710960000000004]]]}}]}