{"type": "FeatureCollection", "metadata": {"source": "Survey of India (per src_agency attribute in the source data)", "hosted_via": "National Water Data Portal (NWDP), NWIC, Ministry of Jal Shakti -- https://nwdp.nwic.gov.in/", "access": "public, no login required", "crs_original": "EPSG:7755 (WGS 84 / India NSF LCC)", "fetch_date": "2026-08-02", "quality": "verified-official -- Survey of India source", "state": "Manipur", "district": "Pherzawl", "processing": "reprojected to EPSG:4326, topology-preserving simplify (shared-arc, tolerance 0.0005 deg) so adjacent polygons never overlap/gap at shared borders, coords rounded 5dp, 0 feature(s) needed the per-feature fallback", "feature_count": 91}, "features": [{"id": "0", "type": "Feature", "properties": {"village_name": "Data Partially Available", "vil_lgd": 999999, "district_name": "Pherzawl", "dist_lgd": 715, "subdistrict_name": "Thanlon", "sdcode": 1869, "block_name": "", "block_lgd": null, "gp_name": "", "state_name": "MANIPUR", "state_lgd": 14, "population": 0, "households": 0}, "geometry": {"type": "Polygon", "coordinates": [[[93.16549, 24.10085], [93.17604000000001, 24.12796], [93.19212, 24.157690000000002], [93.19666000000001, 24.172030000000003], [93.20158, 24.180780000000002], [93.20573, 24.194290000000002], [93.21445000000001, 24.21542], [93.2202, 24.221100000000003], [93.22301, 24.22792], [93.22775000000001, 24.246270000000003], [93.23141000000001, 24.253780000000003], [93.23095, 24.25615], [93.23208000000001, 24.261450000000004], [93.24326, 24.27736], [93.24619000000001, 24.284740000000003], [93.25072, 24.30759], [93.24962000000001, 24.314850000000003], [93.23868, 24.33023], [93.22825, 24.3529], [93.22546000000001, 24.36682], [93.22438000000001, 24.380080000000003], [93.21089, 24.442320000000002], [93.21087000000001, 24.455430000000003], [93.20771, 24.504630000000002], [93.21075, 24.498240000000003], [93.21933000000001, 24.494480000000003], [93.22646, 24.50202], [93.23218000000001, 24.510820000000002], [93.24361, 24.513350000000003], [93.25077, 24.50833], [93.25791000000001, 24.50833], [93.26363, 24.509590000000003], [93.26363, 24.51713], [93.26648, 24.5209], [93.25791000000001, 24.523410000000002], [93.26506, 24.53599], [93.27077000000001, 24.541020000000003], [93.26791, 24.544780000000003], [93.27363000000001, 24.547300000000003], [93.28221, 24.559870000000004], [93.27793000000001, 24.563640000000003], [93.28508000000001, 24.56615], [93.30509, 24.56239], [93.32369000000001, 24.566170000000003], [93.33370000000001, 24.566170000000003], [93.33799, 24.572460000000003], [93.34514, 24.57497], [93.38661, 24.56491], [93.38833000000001, 24.56793], [93.39189, 24.56118], [93.38891000000001, 24.544230000000002], [93.38451, 24.52823], [93.40259, 24.518710000000002], [93.40831000000001, 24.511090000000003], [93.40164000000001, 24.503480000000003], [93.39213000000001, 24.497770000000003], [93.39213000000001, 24.485390000000002], [93.38641000000001, 24.48064], [93.38451, 24.465410000000002], [93.36167, 24.44732], [93.35976000000001, 24.429240000000004], [93.35310000000001, 24.41496], [93.35025, 24.40069], [93.36548, 24.383550000000003], [93.41021, 24.37499], [93.47588, 24.37308], [93.49111, 24.365470000000002], [93.49206000000001, 24.315030000000004], [93.47827000000001, 24.249530000000004], [93.43424, 24.2162], [93.39498, 24.185270000000003], [93.39617000000001, 24.169800000000002], [93.38546000000001, 24.146], [93.37594000000001, 24.107930000000003], [93.3773, 24.08904], [93.37254, 24.090840000000004], [93.37001000000001, 24.091], [93.3678, 24.09006], [93.36663, 24.09166], [93.36456000000001, 24.09212], [93.35809, 24.091040000000003], [93.35928000000001, 24.09401], [93.35704000000001, 24.09409], [93.35682000000001, 24.095350000000003], [93.35451, 24.096040000000002], [93.35449000000001, 24.09889], [93.35127000000001, 24.097900000000003], [93.34829, 24.09889], [93.35078000000001, 24.10019], [93.34844000000001, 24.10124], [93.34877, 24.10181], [93.34997000000001, 24.10152], [93.34866000000001, 24.103650000000002], [93.34882, 24.104740000000003], [93.34755000000001, 24.10443], [93.34703, 24.10292], [93.34513000000001, 24.10369], [93.34194000000001, 24.10197], [93.34286, 24.097230000000003], [93.34523, 24.097050000000003], [93.3468, 24.094450000000002], [93.34966000000001, 24.095180000000003], [93.35047, 24.09371], [93.35406, 24.09108], [93.35306000000001, 24.090210000000003], [93.35115, 24.09081], [93.34716, 24.087570000000003], [93.34675000000001, 24.090090000000004], [93.34453, 24.09174], [93.33725000000001, 24.0908], [93.33448000000001, 24.089750000000002], [93.33085000000001, 24.08536], [93.33127, 24.082420000000003], [93.33038, 24.080840000000002], [93.32855, 24.08115], [93.32828, 24.07738], [93.33005000000001, 24.075570000000003], [93.33090000000001, 24.07299], [93.33306, 24.07477], [93.33445, 24.07431], [93.33465000000001, 24.072920000000003], [93.33322000000001, 24.070130000000002], [93.33716000000001, 24.06754], [93.33604000000001, 24.0634], [93.33842000000001, 24.06267], [93.33846000000001, 24.06105], [93.33611, 24.060180000000003], [93.33531, 24.056980000000003], [93.33348000000001, 24.055590000000002], [93.33212, 24.053130000000003], [93.32796, 24.05347], [93.32616, 24.051940000000002], [93.3258, 24.05035], [93.30785, 24.05093], [93.29359000000001, 24.04841], [93.28353000000001, 24.0484], [93.28071000000001, 24.043380000000003], [93.27212, 24.037080000000003], [93.26929000000001, 24.030800000000003], [93.25064, 24.02071], [93.25207, 24.025740000000003], [93.24775000000001, 24.03075], [93.25770000000001, 24.054630000000003], [93.25913000000001, 24.054640000000003], [93.26199000000001, 24.057150000000004], [93.25911, 24.064690000000002], [93.25911, 24.06971], [93.24345000000001, 24.08227], [93.23776000000001, 24.083520000000004], [93.23207000000001, 24.081000000000003], [93.22214000000001, 24.08351], [93.21929, 24.081000000000003], [93.21787, 24.078490000000002], [93.22070000000001, 24.070950000000003], [93.21786, 24.064660000000003], [93.21643, 24.058370000000004], [93.21217000000001, 24.047060000000002], [93.19372000000001, 24.049560000000003], [93.18947000000001, 24.053330000000003], [93.17101000000001, 24.050800000000002], [93.16544, 24.052030000000002], [93.16251000000001, 24.05834], [93.16538000000001, 24.0684], [93.16539, 24.072170000000003], [93.15686000000001, 24.07468], [93.15390000000001, 24.081000000000003], [93.16549, 24.10085]], [[93.34271000000001, 24.50581], [93.34223, 24.506610000000002], [93.34095, 24.505930000000003], [93.34190000000001, 24.505090000000003], [93.34271000000001, 24.50581]], [[93.39120000000001, 24.501710000000003], [93.39025000000001, 24.502480000000002], [93.38944000000001, 24.501590000000004], [93.39026000000001, 24.500870000000003], [93.39120000000001, 24.501710000000003]], [[93.33524000000001, 24.482110000000002], [93.33611, 24.482960000000002], [93.33549000000001, 24.483690000000003], [93.33442000000001, 24.48327], [93.33486, 24.482190000000003], [93.33524000000001, 24.482110000000002]], [[93.33102000000001, 24.480130000000003], [93.33002, 24.480890000000002], [93.32925, 24.480130000000003], [93.33012000000001, 24.479280000000003], [93.33102000000001, 24.480130000000003]], [[93.32625, 24.473350000000003], [93.32712000000001, 24.474200000000003], [93.32651000000001, 24.47493], [93.32544000000001, 24.474510000000002], [93.32587000000001, 24.47342], [93.32625, 24.473350000000003]], [[93.30850000000001, 24.467480000000002], [93.30926000000001, 24.468210000000003], [93.30836000000001, 24.46908], [93.30752000000001, 24.46853], [93.30810000000001, 24.4675], [93.30850000000001, 24.467480000000002]], [[93.31402000000001, 24.410940000000004], [93.31489, 24.411790000000003], [93.31428000000001, 24.41251], [93.31321000000001, 24.412090000000003], [93.31365000000001, 24.41101], [93.31402000000001, 24.410940000000004]], [[93.27730000000001, 24.405810000000002], [93.27806000000001, 24.406540000000003], [93.27717000000001, 24.407420000000002], [93.27632000000001, 24.40686], [93.27691, 24.40583], [93.27730000000001, 24.405810000000002]], [[93.34522000000001, 24.387400000000003], [93.34609, 24.388250000000003], [93.34547, 24.38897], [93.34441000000001, 24.388560000000002], [93.34484, 24.38747], [93.34522000000001, 24.387400000000003]], [[93.31400000000001, 24.383380000000002], [93.31305, 24.384140000000002], [93.31224, 24.383260000000003], [93.31306000000001, 24.382530000000003], [93.31400000000001, 24.383380000000002]], [[93.39365000000001, 24.36831], [93.39265, 24.36907], [93.39188000000001, 24.36831], [93.39275, 24.36746], [93.39365000000001, 24.36831]], [[93.46123000000001, 24.35902], [93.46205, 24.359550000000002], [93.46180000000001, 24.36043], [93.46033000000001, 24.35987], [93.46123000000001, 24.35902]], [[93.42183000000001, 24.3623], [93.42273, 24.36145], [93.42360000000001, 24.3623], [93.42280000000001, 24.36306], [93.42183000000001, 24.3623]], [[93.33391, 24.367140000000003], [93.33314000000001, 24.367900000000002], [93.33214000000001, 24.367140000000003], [93.33301, 24.366290000000003], [93.33391, 24.367140000000003]], [[93.47579, 24.34521], [93.4766, 24.345740000000003], [93.47626000000001, 24.346690000000002], [93.47519000000001, 24.34662], [93.47512, 24.345470000000002], [93.47579, 24.34521]], [[93.28787000000001, 24.36081], [93.28889000000001, 24.360080000000004], [93.28965000000001, 24.36081], [93.28876000000001, 24.361680000000003], [93.28787000000001, 24.36081]], [[93.33185, 24.347620000000003], [93.33272000000001, 24.348460000000003], [93.33195, 24.349220000000003], [93.33104, 24.348770000000002], [93.33147000000001, 24.347690000000004], [93.33185, 24.347620000000003]], [[93.29995000000001, 24.346970000000002], [93.29954000000001, 24.348070000000003], [93.29831, 24.347600000000003], [93.29902000000001, 24.34654], [93.29995000000001, 24.346970000000002]], [[93.46212000000001, 24.327890000000004], [93.46299, 24.328730000000004], [93.46237, 24.32946], [93.46131000000001, 24.329040000000003], [93.46174, 24.32796], [93.46212000000001, 24.327890000000004]], [[93.46658000000001, 24.315980000000003], [93.46745000000001, 24.316820000000003], [93.46668000000001, 24.317580000000003], [93.46577, 24.317130000000002], [93.4662, 24.31605], [93.46658000000001, 24.315980000000003]], [[93.29638000000001, 24.328290000000003], [93.29598000000001, 24.329400000000003], [93.29474, 24.328920000000004], [93.29546, 24.32787], [93.29638000000001, 24.328290000000003]], [[93.3721, 24.31706], [93.37297000000001, 24.3179], [93.3722, 24.31867], [93.37129, 24.31821], [93.37172000000001, 24.317130000000002], [93.3721, 24.31706]], [[93.25383000000001, 24.32543], [93.25459000000001, 24.32617], [93.25370000000001, 24.32704], [93.25285000000001, 24.326490000000003], [93.25344000000001, 24.325450000000004], [93.25383000000001, 24.32543]], [[93.47577000000001, 24.299490000000002], [93.47482000000001, 24.30026], [93.474, 24.299370000000003], [93.47483000000001, 24.298650000000002], [93.47577000000001, 24.299490000000002]], [[93.39091, 24.301090000000002], [93.39168000000001, 24.301810000000003], [93.39087, 24.302690000000002], [93.38992, 24.301930000000002], [93.3905, 24.30113], [93.39091, 24.301090000000002]], [[93.46390000000001, 24.287540000000003], [93.46477, 24.288390000000003], [93.46416, 24.28912], [93.46309000000001, 24.288700000000002], [93.46353, 24.28762], [93.46390000000001, 24.287540000000003]], [[93.44667000000001, 24.275630000000003], [93.44754, 24.276470000000003], [93.44677, 24.277240000000003], [93.44586000000001, 24.276780000000002], [93.44629, 24.2757], [93.44667000000001, 24.275630000000003]], [[93.34660000000001, 24.279420000000002], [93.34742000000001, 24.280150000000003], [93.34660000000001, 24.28103], [93.34565, 24.28027], [93.34620000000001, 24.279480000000003], [93.34660000000001, 24.279420000000002]], [[93.47131, 24.26781], [93.47054000000001, 24.26857], [93.46954000000001, 24.26781], [93.47041, 24.26696], [93.47131, 24.26781]], [[93.38933, 24.26452], [93.39020000000001, 24.26537], [93.38943, 24.26613], [93.38852000000001, 24.265680000000003], [93.38895000000001, 24.264590000000002], [93.38933, 24.26452]], [[93.44608000000001, 24.25261], [93.44689000000001, 24.253140000000002], [93.44636000000001, 24.254170000000002], [93.44527000000001, 24.253760000000003], [93.4457, 24.25268], [93.44608000000001, 24.25261]], [[93.28099, 24.260710000000003], [93.28174000000001, 24.261450000000004], [93.28085, 24.262320000000003], [93.28001, 24.261770000000002], [93.28059, 24.260730000000002], [93.28099, 24.260710000000003]], [[93.42082, 24.237440000000003], [93.42169000000001, 24.238280000000003], [93.42108, 24.23901], [93.42001, 24.238590000000002], [93.42045, 24.23751], [93.42082, 24.237440000000003]], [[93.30315, 24.22115], [93.30397, 24.221680000000003], [93.30343, 24.222720000000002], [93.30234, 24.22231], [93.30277000000001, 24.221220000000002], [93.30315, 24.22115]], [[93.27593, 24.21655], [93.27669, 24.217290000000002], [93.2758, 24.21816], [93.27496000000001, 24.21761], [93.27554, 24.21657], [93.27593, 24.21655]], [[93.25662000000001, 24.21411], [93.25738000000001, 24.214850000000002], [93.25649000000001, 24.21572], [93.25565, 24.21517], [93.25623, 24.21413], [93.25662000000001, 24.21411]], [[93.30380000000001, 24.192970000000003], [93.30461000000001, 24.193690000000004], [93.30380000000001, 24.194580000000002], [93.30285, 24.193810000000003], [93.30340000000001, 24.19302], [93.30380000000001, 24.192970000000003]], [[93.36051, 24.18785], [93.36133000000001, 24.188380000000002], [93.36099, 24.18933], [93.35991000000001, 24.18926], [93.35985000000001, 24.18811], [93.36051, 24.18785]], [[93.30967000000001, 24.17593], [93.30866, 24.17669], [93.3079, 24.17593], [93.30877000000001, 24.17508], [93.30967000000001, 24.17593]], [[93.3623, 24.170230000000004], [93.36317000000001, 24.171080000000003], [93.36255000000001, 24.17181], [93.36148000000001, 24.171390000000002], [93.36163, 24.17049], [93.3623, 24.170230000000004]], [[93.34714000000001, 24.157490000000003], [93.34801, 24.158340000000003], [93.34740000000001, 24.159070000000003], [93.34633000000001, 24.15865], [93.34677, 24.157560000000004], [93.34714000000001, 24.157490000000003]], [[93.30343, 24.155050000000003], [93.30248, 24.155820000000002], [93.30166000000001, 24.15493], [93.30249, 24.154210000000003], [93.30343, 24.155050000000003]], [[93.34474, 24.122320000000002], [93.34556, 24.122850000000003], [93.34532, 24.12374], [93.34385, 24.123170000000002], [93.34474, 24.122320000000002]], [[93.21668000000001, 24.132990000000003], [93.21744000000001, 24.132260000000002], [93.21846000000001, 24.132990000000003], [93.21757000000001, 24.13387], [93.21668000000001, 24.132990000000003]], [[93.29055000000001, 24.10735], [93.29142, 24.108200000000004], [93.29081000000001, 24.10893], [93.28974000000001, 24.108510000000003], [93.29018, 24.10743], [93.29055000000001, 24.10735]], [[93.23116, 24.102990000000002], [93.23183, 24.103790000000004], [93.2309, 24.104580000000002], [93.23005, 24.103710000000003], [93.23072, 24.102980000000002], [93.23116, 24.102990000000002]], [[93.27701, 24.087500000000002], [93.27788000000001, 24.088350000000002], [93.27726000000001, 24.089080000000003], [93.27619000000001, 24.08866], [93.27663000000001, 24.087570000000003], [93.27701, 24.087500000000002]], [[93.29742, 24.083930000000002], [93.29819, 24.084650000000003], [93.29738, 24.08554], [93.29643, 24.084770000000002], [93.29701000000001, 24.08397], [93.29742, 24.083930000000002]], [[93.18045000000001, 24.07824], [93.18121000000001, 24.07897], [93.18031, 24.07985], [93.17947000000001, 24.07929], [93.18005000000001, 24.07826], [93.18045000000001, 24.07824]]]}}, {"id": "1", "type": "Feature", "properties": {"village_name": "Lungthulien", "vil_lgd": 269299, "district_name": "Pherzawl", "dist_lgd": 715, "subdistrict_name": "Tipaimukh", "sdcode": 1868, "block_name": "Tipaimukh", "block_lgd": 12.0, "gp_name": "", "state_name": "MANIPUR", "state_lgd": 14, "population": 1714, "households": 302}, "geometry": {"type": "Polygon", "coordinates": [[[93.07748000000001, 24.225170000000002], [93.07690000000001, 24.226210000000002], [93.07775000000001, 24.226760000000002], [93.07864000000001, 24.225890000000003], [93.07788000000001, 24.225150000000003], [93.07748000000001, 24.225170000000002]]]}}, {"id": "2", "type": "Feature", "properties": {"village_name": "Sipuikon Tipaimukh", "vil_lgd": 269300, "district_name": "Pherzawl", "dist_lgd": 715, "subdistrict_name": "Tipaimukh", "sdcode": 1868, "block_name": "Tipaimukh", "block_lgd": 12.0, "gp_name": "", "state_name": "MANIPUR", "state_lgd": 14, "population": 771, "households": 170}, "geometry": {"type": "Polygon", "coordinates": [[[93.02413000000001, 24.226640000000003], [93.02537000000001, 24.227120000000003], [93.02578000000001, 24.226010000000002], [93.02485, 24.22558], [93.02413000000001, 24.226640000000003]]]}}, {"id": "3", "type": "Feature", "properties": {"village_name": "Rovakot", "vil_lgd": 269302, "district_name": "Pherzawl", "dist_lgd": 715, "subdistrict_name": "Tipaimukh", "sdcode": 1868, "block_name": "Tipaimukh", "block_lgd": 12.0, "gp_name": "", "state_name": "MANIPUR", "state_lgd": 14, "population": 480, "households": 77}, "geometry": {"type": "Polygon", "coordinates": [[[93.02889, 24.170710000000003], [93.03012000000001, 24.171180000000003], [93.03053000000001, 24.170080000000002], [93.0296, 24.16965], [93.02889, 24.170710000000003]]]}}, {"id": "4", "type": "Feature", "properties": {"village_name": "Leisen", "vil_lgd": 269301, "district_name": "Pherzawl", "dist_lgd": 715, "subdistrict_name": "Tipaimukh", "sdcode": 1868, "block_name": "Tipaimukh", "block_lgd": 12.0, "gp_name": "", "state_name": "MANIPUR", "state_lgd": 14, "population": 1117, "households": 182}, "geometry": {"type": "Polygon", "coordinates": [[[93.13980000000001, 24.148410000000002], [93.13913000000001, 24.149220000000003], [93.14006, 24.15001], [93.14091, 24.149140000000003], [93.14024, 24.148410000000002], [93.13980000000001, 24.148410000000002]]]}}, {"id": "5", "type": "Feature", "properties": {"village_name": "Senvon", "vil_lgd": 269303, "district_name": "Pherzawl", "dist_lgd": 715, "subdistrict_name": "Tipaimukh", "sdcode": 1868, "block_name": "Tipaimukh", "block_lgd": 12.0, "gp_name": "", "state_name": "MANIPUR", "state_lgd": 14, "population": 3136, "households": 498}, "geometry": {"type": "Polygon", "coordinates": [[[93.03744, 24.140780000000003], [93.03868000000001, 24.141260000000003], [93.03909, 24.140150000000002], [93.03816, 24.13972], [93.03744, 24.140780000000003]]]}}, {"id": "6", "type": "Feature", "properties": {"village_name": "Parvachawm", "vil_lgd": 269304, "district_name": "Pherzawl", "dist_lgd": 715, "subdistrict_name": "Tipaimukh", "sdcode": 1868, "block_name": "Tipaimukh", "block_lgd": 12.0, "gp_name": "", "state_name": "MANIPUR", "state_lgd": 14, "population": 1026, "households": 154}, "geometry": {"type": "Polygon", "coordinates": [[[93.13252000000001, 24.108240000000002], [93.13375, 24.10872], [93.13416000000001, 24.10761], [93.13323000000001, 24.107180000000003], [93.13252000000001, 24.108240000000002]]]}}, {"id": "7", "type": "Feature", "properties": {"village_name": "Umtal", "vil_lgd": 269347, "district_name": "Pherzawl", "dist_lgd": 715, "subdistrict_name": "Thanlon", "sdcode": 1869, "block_name": "Thanlon", "block_lgd": 14.0, "gp_name": "", "state_name": "MANIPUR", "state_lgd": 14, "population": 200, "households": 29}, "geometry": {"type": "Polygon", "coordinates": [[[93.42045, 24.23751], [93.42001, 24.238590000000002], [93.42108, 24.23901], [93.42169000000001, 24.238280000000003], [93.42082, 24.237440000000003], [93.42045, 24.23751]]]}}, {"id": "8", "type": "Feature", "properties": {"village_name": "Mualnuam", "vil_lgd": 269348, "district_name": "Pherzawl", "dist_lgd": 715, "subdistrict_name": "Thanlon", "sdcode": 1869, "block_name": "Thanlon", "block_lgd": 14.0, "gp_name": "", "state_name": "MANIPUR", "state_lgd": 14, "population": 1400, "households": 213}, "geometry": {"type": "Polygon", "coordinates": [[[93.35985000000001, 24.18811], [93.35991000000001, 24.18926], [93.36099, 24.18933], [93.36133000000001, 24.188380000000002], [93.36051, 24.18785], [93.35985000000001, 24.18811]]]}}, {"id": "9", "type": "Feature", "properties": {"village_name": "Songtal", "vil_lgd": 269350, "district_name": "Pherzawl", "dist_lgd": 715, "subdistrict_name": "Thanlon", "sdcode": 1869, "block_name": "Thanlon", "block_lgd": 14.0, "gp_name": "", "state_name": "MANIPUR", "state_lgd": 14, "population": 894, "households": 133}, "geometry": {"type": "Polygon", "coordinates": [[[93.36163, 24.17049], [93.36148000000001, 24.171390000000002], [93.36255000000001, 24.17181], [93.36317000000001, 24.171080000000003], [93.3623, 24.170230000000004], [93.36163, 24.17049]]]}}, {"id": "10", "type": "Feature", "properties": {"village_name": "Thuangtam", "vil_lgd": 269349, "district_name": "Pherzawl", "dist_lgd": 715, "subdistrict_name": "Thanlon", "sdcode": 1869, "block_name": "Thanlon", "block_lgd": 14.0, "gp_name": "", "state_name": "MANIPUR", "state_lgd": 14, "population": 225, "households": 35}, "geometry": {"type": "Polygon", "coordinates": [[[93.34677, 24.157560000000004], [93.34633000000001, 24.15865], [93.34740000000001, 24.159070000000003], [93.34801, 24.158340000000003], [93.34714000000001, 24.157490000000003], [93.34677, 24.157560000000004]]]}}, {"id": "11", "type": "Feature", "properties": {"village_name": "Dialkhai", "vil_lgd": 269322, "district_name": "Pherzawl", "dist_lgd": 715, "subdistrict_name": "Thanlon", "sdcode": 1869, "block_name": "Thanlon", "block_lgd": 14.0, "gp_name": "", "state_name": "MANIPUR", "state_lgd": 14, "population": 107, "households": 18}, "geometry": {"type": "Polygon", "coordinates": [[[93.30277000000001, 24.221220000000002], [93.30234, 24.22231], [93.30343, 24.222720000000002], [93.30397, 24.221680000000003], [93.30315, 24.22115], [93.30277000000001, 24.221220000000002]]]}}, {"id": "12", "type": "Feature", "properties": {"village_name": "Juotung", "vil_lgd": 269323, "district_name": "Pherzawl", "dist_lgd": 715, "subdistrict_name": "Thanlon", "sdcode": 1869, "block_name": "Thanlon", "block_lgd": 14.0, "gp_name": "", "state_name": "MANIPUR", "state_lgd": 14, "population": 398, "households": 67}, "geometry": {"type": "Polygon", "coordinates": [[[93.27554, 24.21657], [93.27496000000001, 24.21761], [93.2758, 24.21816], [93.27669, 24.217290000000002], [93.27593, 24.21655], [93.27554, 24.21657]]]}}, {"id": "13", "type": "Feature", "properties": {"village_name": "Mualpheng", "vil_lgd": 269324, "district_name": "Pherzawl", "dist_lgd": 715, "subdistrict_name": "Thanlon", "sdcode": 1869, "block_name": "Thanlon", "block_lgd": 14.0, "gp_name": "", "state_name": "MANIPUR", "state_lgd": 14, "population": 240, "households": 36}, "geometry": {"type": "Polygon", "coordinates": [[[93.30340000000001, 24.19302], [93.30285, 24.193810000000003], [93.30380000000001, 24.194580000000002], [93.30461000000001, 24.193690000000004], [93.30380000000001, 24.192970000000003], [93.30340000000001, 24.19302]]]}}, {"id": "14", "type": "Feature", "properties": {"village_name": "Sumtuh Sumtuk", "vil_lgd": 269325, "district_name": "Pherzawl", "dist_lgd": 715, "subdistrict_name": "Thanlon", "sdcode": 1869, "block_name": "Thanlon", "block_lgd": 14.0, "gp_name": "", "state_name": "MANIPUR", "state_lgd": 14, "population": 322, "households": 55}, "geometry": {"type": "Polygon", "coordinates": [[[93.30166000000001, 24.15493], [93.30248, 24.155820000000002], [93.30343, 24.155050000000003], [93.30249, 24.154210000000003], [93.30166000000001, 24.15493]]]}}, {"id": "15", "type": "Feature", "properties": {"village_name": "Bukpi", "vil_lgd": 269326, "district_name": "Pherzawl", "dist_lgd": 715, "subdistrict_name": "Thanlon", "sdcode": 1869, "block_name": "Thanlon", "block_lgd": 14.0, "gp_name": "", "state_name": "MANIPUR", "state_lgd": 14, "population": 1355, "households": 224}, "geometry": {"type": "Polygon", "coordinates": [[[93.25623, 24.21413], [93.25565, 24.21517], [93.25649000000001, 24.21572], [93.25738000000001, 24.214850000000002], [93.25662000000001, 24.21411], [93.25623, 24.21413]]]}}, {"id": "16", "type": "Feature", "properties": {"village_name": "Palkhuang", "vil_lgd": 269327, "district_name": "Pherzawl", "dist_lgd": 715, "subdistrict_name": "Thanlon", "sdcode": 1869, "block_name": "Thanlon", "block_lgd": 14.0, "gp_name": "", "state_name": "MANIPUR", "state_lgd": 14, "population": 329, "households": 48}, "geometry": {"type": "Polygon", "coordinates": [[[93.3079, 24.17593], [93.30866, 24.17669], [93.30967000000001, 24.17593], [93.30877000000001, 24.17508], [93.3079, 24.17593]]]}}, {"id": "17", "type": "Feature", "properties": {"village_name": "Hanship", "vil_lgd": 269328, "district_name": "Pherzawl", "dist_lgd": 715, "subdistrict_name": "Thanlon", "sdcode": 1869, "block_name": "Thanlon", "block_lgd": 14.0, "gp_name": "", "state_name": "MANIPUR", "state_lgd": 14, "population": 632, "households": 113}, "geometry": {"type": "Polygon", "coordinates": [[[93.21668000000001, 24.132990000000003], [93.21757000000001, 24.13387], [93.21846000000001, 24.132990000000003], [93.21744000000001, 24.132260000000002], [93.21668000000001, 24.132990000000003]]]}}, {"id": "18", "type": "Feature", "properties": {"village_name": "Aibulon", "vil_lgd": 269329, "district_name": "Pherzawl", "dist_lgd": 715, "subdistrict_name": "Thanlon", "sdcode": 1869, "block_name": "Thanlon", "block_lgd": 14.0, "gp_name": "", "state_name": "MANIPUR", "state_lgd": 14, "population": 406, "households": 56}, "geometry": {"type": "Polygon", "coordinates": [[[93.23072, 24.102980000000002], [93.23005, 24.103710000000003], [93.2309, 24.104580000000002], [93.23183, 24.103790000000004], [93.23116, 24.102990000000002], [93.23072, 24.102980000000002]]]}}, {"id": "19", "type": "Feature", "properties": {"village_name": "Phaitong", "vil_lgd": 269330, "district_name": "Pherzawl", "dist_lgd": 715, "subdistrict_name": "Thanlon", "sdcode": 1869, "block_name": "Thanlon", "block_lgd": 14.0, "gp_name": "", "state_name": "MANIPUR", "state_lgd": 14, "population": 331, "households": 54}, "geometry": {"type": "Polygon", "coordinates": [[[93.27663000000001, 24.087570000000003], [93.27619000000001, 24.08866], [93.27726000000001, 24.089080000000003], [93.27788000000001, 24.088350000000002], [93.27701, 24.087500000000002], [93.27663000000001, 24.087570000000003]]]}}, {"id": "20", "type": "Feature", "properties": {"village_name": "Khuanggin", "vil_lgd": 269351, "district_name": "Pherzawl", "dist_lgd": 715, "subdistrict_name": "Thanlon", "sdcode": 1869, "block_name": "Thanlon", "block_lgd": 14.0, "gp_name": "", "state_name": "MANIPUR", "state_lgd": 14, "population": 230, "households": 30}, "geometry": {"type": "Polygon", "coordinates": [[[93.34385, 24.123170000000002], [93.34532, 24.12374], [93.34556, 24.122850000000003], [93.34474, 24.122320000000002], [93.34385, 24.123170000000002]]]}}, {"id": "21", "type": "Feature", "properties": {"village_name": "Khajang", "vil_lgd": 269352, "district_name": "Pherzawl", "dist_lgd": 715, "subdistrict_name": "Thanlon", "sdcode": 1869, "block_name": "Thanlon", "block_lgd": 14.0, "gp_name": "", "state_name": "MANIPUR", "state_lgd": 14, "population": 373, "households": 59}, "geometry": {"type": "Polygon", "coordinates": [[[93.29018, 24.10743], [93.28974000000001, 24.108510000000003], [93.29081000000001, 24.10893], [93.29142, 24.108200000000004], [93.29055000000001, 24.10735], [93.29018, 24.10743]]]}}, {"id": "22", "type": "Feature", "properties": {"village_name": "Sinjawl", "vil_lgd": 269353, "district_name": "Pherzawl", "dist_lgd": 715, "subdistrict_name": "Thanlon", "sdcode": 1869, "block_name": "Thanlon", "block_lgd": 14.0, "gp_name": "", "state_name": "MANIPUR", "state_lgd": 14, "population": 1199, "households": 176}, "geometry": {"type": "Polygon", "coordinates": [[[93.29701000000001, 24.08397], [93.29643, 24.084770000000002], [93.29738, 24.08554], [93.29819, 24.084650000000003], [93.29742, 24.083930000000002], [93.29701000000001, 24.08397]]]}}, {"id": "23", "type": "Feature", "properties": {"village_name": "B Munpi", "vil_lgd": 269343, "district_name": "Pherzawl", "dist_lgd": 715, "subdistrict_name": "Thanlon", "sdcode": 1869, "block_name": "Thanlon", "block_lgd": 14.0, "gp_name": "", "state_name": "MANIPUR", "state_lgd": 14, "population": 110, "households": 18}, "geometry": {"type": "Polygon", "coordinates": [[[93.18005000000001, 24.07826], [93.17947000000001, 24.07929], [93.18031, 24.07985], [93.18121000000001, 24.07897], [93.18045000000001, 24.07824], [93.18005000000001, 24.07826]]]}}, {"id": "24", "type": "Feature", "properties": {"village_name": "Kh Jaikhan", "vil_lgd": 269284, "district_name": "Pherzawl", "dist_lgd": 715, "subdistrict_name": "Tipaimukh", "sdcode": 1868, "block_name": "Vangai Range", "block_lgd": 13.0, "gp_name": "", "state_name": "MANIPUR", "state_lgd": 14, "population": 287, "households": 41}, "geometry": {"type": "Polygon", "coordinates": [[[93.13381000000001, 24.46142], [93.13323000000001, 24.462460000000004], [93.13408000000001, 24.46301], [93.13497000000001, 24.46214], [93.13421000000001, 24.4614], [93.13381000000001, 24.46142]]]}}, {"id": "25", "type": "Feature", "properties": {"village_name": "Kangreng", "vil_lgd": 269286, "district_name": "Pherzawl", "dist_lgd": 715, "subdistrict_name": "Tipaimukh", "sdcode": 1868, "block_name": "Vangai Range", "block_lgd": 13.0, "gp_name": "", "state_name": "MANIPUR", "state_lgd": 14, "population": 1795, "households": 291}, "geometry": {"type": "Polygon", "coordinates": [[[93.10221000000001, 24.442010000000003], [93.10345000000001, 24.442490000000003], [93.10385000000001, 24.441380000000002], [93.10293, 24.44096], [93.10221000000001, 24.442010000000003]]]}}, {"id": "26", "type": "Feature", "properties": {"village_name": "Thingkal", "vil_lgd": 269287, "district_name": "Pherzawl", "dist_lgd": 715, "subdistrict_name": "Tipaimukh", "sdcode": 1868, "block_name": "Vangai Range", "block_lgd": 13.0, "gp_name": "", "state_name": "MANIPUR", "state_lgd": 14, "population": 444, "households": 68}, "geometry": {"type": "Polygon", "coordinates": [[[93.10471000000001, 24.425140000000003], [93.10594, 24.425610000000002], [93.10635, 24.42451], [93.10542000000001, 24.424080000000004], [93.10471000000001, 24.425140000000003]]]}}, {"id": "27", "type": "Feature", "properties": {"village_name": "Ngampabung", "vil_lgd": 269288, "district_name": "Pherzawl", "dist_lgd": 715, "subdistrict_name": "Tipaimukh", "sdcode": 1868, "block_name": "Vangai Range", "block_lgd": 13.0, "gp_name": "", "state_name": "MANIPUR", "state_lgd": 14, "population": 565, "households": 86}, "geometry": {"type": "Polygon", "coordinates": [[[93.09032, 24.402350000000002], [93.08973, 24.403380000000002], [93.09058, 24.403940000000002], [93.09147, 24.403060000000004], [93.09071, 24.402330000000003], [93.09032, 24.402350000000002]]]}}, {"id": "28", "type": "Feature", "properties": {"village_name": "Tieulien", "vil_lgd": 269290, "district_name": "Pherzawl", "dist_lgd": 715, "subdistrict_name": "Tipaimukh", "sdcode": 1868, "block_name": "Vangai Range", "block_lgd": 13.0, "gp_name": "", "state_name": "MANIPUR", "state_lgd": 14, "population": 290, "households": 51}, "geometry": {"type": "Polygon", "coordinates": [[[93.03518000000001, 24.39196], [93.03459000000001, 24.39299], [93.03544000000001, 24.39355], [93.03633, 24.392670000000003], [93.03557, 24.39194], [93.03518000000001, 24.39196]]]}}, {"id": "29", "type": "Feature", "properties": {"village_name": "Patpuihmun", "vil_lgd": 269291, "district_name": "Pherzawl", "dist_lgd": 715, "subdistrict_name": "Tipaimukh", "sdcode": 1868, "block_name": "Vangai Range", "block_lgd": 13.0, "gp_name": "", "state_name": "MANIPUR", "state_lgd": 14, "population": 1929, "households": 277}, "geometry": {"type": "Polygon", "coordinates": [[[93.07087000000001, 24.346490000000003], [93.07020000000001, 24.34729], [93.07114000000001, 24.348080000000003], [93.07198000000001, 24.34721], [93.07131000000001, 24.346480000000003], [93.07087000000001, 24.346490000000003]]]}}, {"id": "30", "type": "Feature", "properties": {"village_name": "Taithu", "vil_lgd": 269292, "district_name": "Pherzawl", "dist_lgd": 715, "subdistrict_name": "Tipaimukh", "sdcode": 1868, "block_name": "Tipaimukh", "block_lgd": 12.0, "gp_name": "", "state_name": "MANIPUR", "state_lgd": 14, "population": 1173, "households": 182}, "geometry": {"type": "Polygon", "coordinates": [[[93.14075000000001, 24.32569], [93.14008000000001, 24.326420000000002], [93.14092000000001, 24.32729], [93.14186000000001, 24.326500000000003], [93.14119000000001, 24.3257], [93.14075000000001, 24.32569]]]}}, {"id": "31", "type": "Feature", "properties": {"village_name": "Sartuinek", "vil_lgd": 269297, "district_name": "Pherzawl", "dist_lgd": 715, "subdistrict_name": "Tipaimukh", "sdcode": 1868, "block_name": "Vangai Range", "block_lgd": 13.0, "gp_name": "", "state_name": "MANIPUR", "state_lgd": 14, "population": 707, "households": 120}, "geometry": {"type": "Polygon", "coordinates": [[[93.02567, 24.29624], [93.02509, 24.29728], [93.02593, 24.29783], [93.02682, 24.296960000000002], [93.02606, 24.29622], [93.02567, 24.29624]]]}}, {"id": "32", "type": "Feature", "properties": {"village_name": "Parbung", "vil_lgd": 269298, "district_name": "Pherzawl", "dist_lgd": 715, "subdistrict_name": "Tipaimukh", "sdcode": 1868, "block_name": "Tipaimukh", "block_lgd": 12.0, "gp_name": "", "state_name": "MANIPUR", "state_lgd": 14, "population": 2545, "households": 414}, "geometry": {"type": "Polygon", "coordinates": [[[93.12411, 24.255940000000002], [93.12344, 24.25674], [93.12438, 24.257540000000002], [93.12522000000001, 24.256660000000004], [93.12455000000001, 24.255940000000002], [93.12411, 24.255940000000002]]]}}, {"id": "33", "type": "Feature", "properties": {"village_name": "Phailienthangpunji", "vil_lgd": 269265, "district_name": "Pherzawl", "dist_lgd": 715, "subdistrict_name": "Tipaimukh", "sdcode": 1868, "block_name": "Vangai Range", "block_lgd": 13.0, "gp_name": "", "state_name": "MANIPUR", "state_lgd": 14, "population": 288, "households": 53}, "geometry": {"type": "Polygon", "coordinates": [[[93.13471000000001, 24.62715], [93.13595000000001, 24.62762], [93.13636000000001, 24.626520000000003], [93.13543000000001, 24.62609], [93.13471000000001, 24.62715]]]}}, {"id": "34", "type": "Feature", "properties": {"village_name": "Phailien", "vil_lgd": 269272, "district_name": "Pherzawl", "dist_lgd": 715, "subdistrict_name": "Tipaimukh", "sdcode": 1868, "block_name": "Vangai Range", "block_lgd": 13.0, "gp_name": "", "state_name": "MANIPUR", "state_lgd": 14, "population": 74, "households": 17}, "geometry": {"type": "Polygon", "coordinates": [[[93.13975, 24.55074], [93.13917000000001, 24.55177], [93.14002, 24.55232], [93.14091, 24.551450000000003], [93.14015, 24.550720000000002], [93.13975, 24.55074]]]}}, {"id": "35", "type": "Feature", "properties": {"village_name": "Nungsekpunji", "vil_lgd": 269273, "district_name": "Pherzawl", "dist_lgd": 715, "subdistrict_name": "Tipaimukh", "sdcode": 1868, "block_name": "Vangai Range", "block_lgd": 13.0, "gp_name": "", "state_name": "MANIPUR", "state_lgd": 14, "population": 320, "households": 51}, "geometry": {"type": "Polygon", "coordinates": [[[93.12049, 24.545330000000003], [93.11981, 24.54613], [93.12075, 24.546920000000004], [93.1216, 24.54605], [93.12093, 24.54532], [93.12049, 24.545330000000003]]]}}, {"id": "36", "type": "Feature", "properties": {"village_name": "Buangmun", "vil_lgd": 269276, "district_name": "Pherzawl", "dist_lgd": 715, "subdistrict_name": "Tipaimukh", "sdcode": 1868, "block_name": "Vangai Range", "block_lgd": 13.0, "gp_name": "", "state_name": "MANIPUR", "state_lgd": 14, "population": 254, "households": 41}, "geometry": {"type": "Polygon", "coordinates": [[[93.14926000000001, 24.53263], [93.14868000000001, 24.53366], [93.14952000000001, 24.53422], [93.15042000000001, 24.533350000000002], [93.14966000000001, 24.532610000000002], [93.14926000000001, 24.53263]]]}}, {"id": "37", "type": "Feature", "properties": {"village_name": "Muolkhangthol", "vil_lgd": 269274, "district_name": "Pherzawl", "dist_lgd": 715, "subdistrict_name": "Tipaimukh", "sdcode": 1868, "block_name": "Vangai Range", "block_lgd": 13.0, "gp_name": "", "state_name": "MANIPUR", "state_lgd": 14, "population": 224, "households": 44}, "geometry": {"type": "Polygon", "coordinates": [[[93.11183000000001, 24.53236], [93.11124000000001, 24.53339], [93.11209000000001, 24.53394], [93.11298000000001, 24.533070000000002], [93.11222000000001, 24.53234], [93.11183000000001, 24.53236]]]}}, {"id": "38", "type": "Feature", "properties": {"village_name": "Tuisen Notunlalpani", "vil_lgd": 269275, "district_name": "Pherzawl", "dist_lgd": 715, "subdistrict_name": "Tipaimukh", "sdcode": 1868, "block_name": "Vangai Range", "block_lgd": 13.0, "gp_name": "", "state_name": "MANIPUR", "state_lgd": 14, "population": 657, "households": 134}, "geometry": {"type": "Polygon", "coordinates": [[[93.12105000000001, 24.523930000000004], [93.12228, 24.524410000000003], [93.12269, 24.523310000000002], [93.12176000000001, 24.52288], [93.12105000000001, 24.523930000000004]]]}}, {"id": "39", "type": "Feature", "properties": {"village_name": "Savomphai", "vil_lgd": 269278, "district_name": "Pherzawl", "dist_lgd": 715, "subdistrict_name": "Tipaimukh", "sdcode": 1868, "block_name": "Vangai Range", "block_lgd": 13.0, "gp_name": "", "state_name": "MANIPUR", "state_lgd": 14, "population": 442, "households": 75}, "geometry": {"type": "Polygon", "coordinates": [[[93.11476, 24.513150000000003], [93.11583, 24.513920000000002], [93.11655, 24.513150000000003], [93.11566, 24.512320000000003], [93.11476, 24.513150000000003]]]}}, {"id": "40", "type": "Feature", "properties": {"village_name": "Ankhasuo Sibapurikhal", "vil_lgd": 269281, "district_name": "Pherzawl", "dist_lgd": 715, "subdistrict_name": "Tipaimukh", "sdcode": 1868, "block_name": "Vangai Range", "block_lgd": 13.0, "gp_name": "", "state_name": "MANIPUR", "state_lgd": 14, "population": 1841, "households": 355}, "geometry": {"type": "Polygon", "coordinates": [[[93.11247, 24.49424], [93.11179000000001, 24.495040000000003], [93.11273000000001, 24.49583], [93.11357000000001, 24.494960000000003], [93.11290000000001, 24.49424], [93.11247, 24.49424]]]}}, {"id": "41", "type": "Feature", "properties": {"village_name": "Lower Kharkhuplien", "vil_lgd": 269283, "district_name": "Pherzawl", "dist_lgd": 715, "subdistrict_name": "Tipaimukh", "sdcode": 1868, "block_name": "Vangai Range", "block_lgd": 13.0, "gp_name": "", "state_name": "MANIPUR", "state_lgd": 14, "population": 600, "households": 111}, "geometry": {"type": "Polygon", "coordinates": [[[93.14451000000001, 24.486410000000003], [93.14393000000001, 24.487450000000003], [93.14477000000001, 24.488000000000003], [93.14566, 24.48713], [93.1449, 24.486390000000004], [93.14451000000001, 24.486410000000003]]]}}, {"id": "42", "type": "Feature", "properties": {"village_name": "Kasurbali", "vil_lgd": 269282, "district_name": "Pherzawl", "dist_lgd": 715, "subdistrict_name": "Tipaimukh", "sdcode": 1868, "block_name": "Vangai Range", "block_lgd": 13.0, "gp_name": "", "state_name": "MANIPUR", "state_lgd": 14, "population": 118, "households": 21}, "geometry": {"type": "Polygon", "coordinates": [[[93.05930000000001, 24.519550000000002], [93.05872000000001, 24.520580000000002], [93.05956, 24.521130000000003], [93.06045, 24.52026], [93.05969, 24.519530000000003], [93.05930000000001, 24.519550000000002]]]}}, {"id": "43", "type": "Feature", "properties": {"village_name": "Pamjal", "vil_lgd": 269340, "district_name": "Pherzawl", "dist_lgd": 715, "subdistrict_name": "Thanlon", "sdcode": 1869, "block_name": "Thanlon", "block_lgd": 14.0, "gp_name": "", "state_name": "MANIPUR", "state_lgd": 14, "population": 359, "households": 58}, "geometry": {"type": "Polygon", "coordinates": [[[93.37172000000001, 24.317130000000002], [93.37129, 24.31821], [93.3722, 24.31867], [93.37297000000001, 24.3179], [93.3721, 24.31706], [93.37172000000001, 24.317130000000002]]]}}, {"id": "44", "type": "Feature", "properties": {"village_name": "Mong On", "vil_lgd": 269346, "district_name": "Pherzawl", "dist_lgd": 715, "subdistrict_name": "Thanlon", "sdcode": 1869, "block_name": "Thanlon", "block_lgd": 14.0, "gp_name": "", "state_name": "MANIPUR", "state_lgd": 14, "population": 203, "households": 32}, "geometry": {"type": "Polygon", "coordinates": [[[93.34620000000001, 24.279480000000003], [93.34565, 24.28027], [93.34660000000001, 24.28103], [93.34742000000001, 24.280150000000003], [93.34660000000001, 24.279420000000002], [93.34620000000001, 24.279480000000003]]]}}, {"id": "45", "type": "Feature", "properties": {"village_name": "Suangsang", "vil_lgd": 269309, "district_name": "Pherzawl", "dist_lgd": 715, "subdistrict_name": "Thanlon", "sdcode": 1869, "block_name": "Thanlon", "block_lgd": 14.0, "gp_name": "", "state_name": "MANIPUR", "state_lgd": 14, "population": 1047, "households": 164}, "geometry": {"type": "Polygon", "coordinates": [[[93.32587000000001, 24.47342], [93.32544000000001, 24.474510000000002], [93.32651000000001, 24.47493], [93.32712000000001, 24.474200000000003], [93.32625, 24.473350000000003], [93.32587000000001, 24.47342]]]}}, {"id": "46", "type": "Feature", "properties": {"village_name": "Savaipaih", "vil_lgd": 269310, "district_name": "Pherzawl", "dist_lgd": 715, "subdistrict_name": "Thanlon", "sdcode": 1869, "block_name": "Thanlon", "block_lgd": 14.0, "gp_name": "", "state_name": "MANIPUR", "state_lgd": 14, "population": 79, "households": 18}, "geometry": {"type": "Polygon", "coordinates": [[[93.30810000000001, 24.4675], [93.30752000000001, 24.46853], [93.30836000000001, 24.46908], [93.30926000000001, 24.468210000000003], [93.30850000000001, 24.467480000000002], [93.30810000000001, 24.4675]]]}}, {"id": "47", "type": "Feature", "properties": {"village_name": "Khoken", "vil_lgd": 269311, "district_name": "Pherzawl", "dist_lgd": 715, "subdistrict_name": "Thanlon", "sdcode": 1869, "block_name": "Thanlon", "block_lgd": 14.0, "gp_name": "", "state_name": "MANIPUR", "state_lgd": 14, "population": 360, "households": 63}, "geometry": {"type": "Polygon", "coordinates": [[[93.31365000000001, 24.41101], [93.31321000000001, 24.412090000000003], [93.31428000000001, 24.41251], [93.31489, 24.411790000000003], [93.31402000000001, 24.410940000000004], [93.31365000000001, 24.41101]]]}}, {"id": "48", "type": "Feature", "properties": {"village_name": "Dailon", "vil_lgd": 269312, "district_name": "Pherzawl", "dist_lgd": 715, "subdistrict_name": "Thanlon", "sdcode": 1869, "block_name": "Thanlon", "block_lgd": 14.0, "gp_name": "", "state_name": "MANIPUR", "state_lgd": 14, "population": 234, "households": 41}, "geometry": {"type": "Polygon", "coordinates": [[[93.27691, 24.40583], [93.27632000000001, 24.40686], [93.27717000000001, 24.407420000000002], [93.27806000000001, 24.406540000000003], [93.27730000000001, 24.405810000000002], [93.27691, 24.40583]]]}}, {"id": "49", "type": "Feature", "properties": {"village_name": "Milongmun", "vil_lgd": 269313, "district_name": "Pherzawl", "dist_lgd": 715, "subdistrict_name": "Thanlon", "sdcode": 1869, "block_name": "Thanlon", "block_lgd": 14.0, "gp_name": "", "state_name": "MANIPUR", "state_lgd": 14, "population": 136, "households": 29}, "geometry": {"type": "Polygon", "coordinates": [[[93.31224, 24.383260000000003], [93.31305, 24.384140000000002], [93.31400000000001, 24.383380000000002], [93.31306000000001, 24.382530000000003], [93.31224, 24.383260000000003]]]}}, {"id": "50", "type": "Feature", "properties": {"village_name": "Gamhui", "vil_lgd": 269315, "district_name": "Pherzawl", "dist_lgd": 715, "subdistrict_name": "Thanlon", "sdcode": 1869, "block_name": "Thanlon", "block_lgd": 14.0, "gp_name": "", "state_name": "MANIPUR", "state_lgd": 14, "population": 168, "households": 29}, "geometry": {"type": "Polygon", "coordinates": [[[93.28787000000001, 24.36081], [93.28876000000001, 24.361680000000003], [93.28965000000001, 24.36081], [93.28889000000001, 24.360080000000004], [93.28787000000001, 24.36081]]]}}, {"id": "51", "type": "Feature", "properties": {"village_name": "Galkapkot", "vil_lgd": 269316, "district_name": "Pherzawl", "dist_lgd": 715, "subdistrict_name": "Thanlon", "sdcode": 1869, "block_name": "Thanlon", "block_lgd": 14.0, "gp_name": "", "state_name": "MANIPUR", "state_lgd": 14, "population": 140, "households": 25}, "geometry": {"type": "Polygon", "coordinates": [[[93.29831, 24.347600000000003], [93.29954000000001, 24.348070000000003], [93.29995000000001, 24.346970000000002], [93.29902000000001, 24.34654], [93.29831, 24.347600000000003]]]}}, {"id": "52", "type": "Feature", "properties": {"village_name": "Khuangjang", "vil_lgd": 269314, "district_name": "Pherzawl", "dist_lgd": 715, "subdistrict_name": "Thanlon", "sdcode": 1869, "block_name": "Thanlon", "block_lgd": 14.0, "gp_name": "", "state_name": "MANIPUR", "state_lgd": 14, "population": 208, "households": 35}, "geometry": {"type": "Polygon", "coordinates": [[[93.25344000000001, 24.325450000000004], [93.25285000000001, 24.326490000000003], [93.25370000000001, 24.32704], [93.25459000000001, 24.32617], [93.25383000000001, 24.32543], [93.25344000000001, 24.325450000000004]]]}}, {"id": "53", "type": "Feature", "properties": {"village_name": "Leijangphai", "vil_lgd": 269317, "district_name": "Pherzawl", "dist_lgd": 715, "subdistrict_name": "Thanlon", "sdcode": 1869, "block_name": "Thanlon", "block_lgd": 14.0, "gp_name": "", "state_name": "MANIPUR", "state_lgd": 14, "population": 801, "households": 144}, "geometry": {"type": "Polygon", "coordinates": [[[93.34484, 24.38747], [93.34441000000001, 24.388560000000002], [93.34547, 24.38897], [93.34609, 24.388250000000003], [93.34522000000001, 24.387400000000003], [93.34484, 24.38747]]]}}, {"id": "54", "type": "Feature", "properties": {"village_name": "Tallian", "vil_lgd": 269318, "district_name": "Pherzawl", "dist_lgd": 715, "subdistrict_name": "Thanlon", "sdcode": 1869, "block_name": "Thanlon", "block_lgd": 14.0, "gp_name": "", "state_name": "MANIPUR", "state_lgd": 14, "population": 140, "households": 31}, "geometry": {"type": "Polygon", "coordinates": [[[93.33214000000001, 24.367140000000003], [93.33314000000001, 24.367900000000002], [93.33391, 24.367140000000003], [93.33301, 24.366290000000003], [93.33214000000001, 24.367140000000003]]]}}, {"id": "55", "type": "Feature", "properties": {"village_name": "Bungjang", "vil_lgd": 269319, "district_name": "Pherzawl", "dist_lgd": 715, "subdistrict_name": "Thanlon", "sdcode": 1869, "block_name": "Thanlon", "block_lgd": 14.0, "gp_name": "", "state_name": "MANIPUR", "state_lgd": 14, "population": 22, "households": 5}, "geometry": {"type": "Polygon", "coordinates": [[[93.33147000000001, 24.347690000000004], [93.33104, 24.348770000000002], [93.33195, 24.349220000000003], [93.33272000000001, 24.348460000000003], [93.33185, 24.347620000000003], [93.33147000000001, 24.347690000000004]]]}}, {"id": "56", "type": "Feature", "properties": {"village_name": "Suangpekmun", "vil_lgd": 269320, "district_name": "Pherzawl", "dist_lgd": 715, "subdistrict_name": "Thanlon", "sdcode": 1869, "block_name": "Thanlon", "block_lgd": 14.0, "gp_name": "", "state_name": "MANIPUR", "state_lgd": 14, "population": 219, "households": 42}, "geometry": {"type": "Polygon", "coordinates": [[[93.29474, 24.328920000000004], [93.29598000000001, 24.329400000000003], [93.29638000000001, 24.328290000000003], [93.29546, 24.32787], [93.29474, 24.328920000000004]]]}}, {"id": "57", "type": "Feature", "properties": {"village_name": "Thanlon", "vil_lgd": 269321, "district_name": "Pherzawl", "dist_lgd": 715, "subdistrict_name": "Thanlon", "sdcode": 1869, "block_name": "Thanlon", "block_lgd": 14.0, "gp_name": "", "state_name": "MANIPUR", "state_lgd": 14, "population": 1352, "households": 219}, "geometry": {"type": "Polygon", "coordinates": [[[93.28059, 24.260730000000002], [93.28001, 24.261770000000002], [93.28085, 24.262320000000003], [93.28174000000001, 24.261450000000004], [93.28099, 24.260710000000003], [93.28059, 24.260730000000002]]]}}, {"id": "58", "type": "Feature", "properties": {"village_name": "Thingpan", "vil_lgd": 269285, "district_name": "Pherzawl", "dist_lgd": 715, "subdistrict_name": "Tipaimukh", "sdcode": 1868, "block_name": "Tipaimukh", "block_lgd": 12.0, "gp_name": "", "state_name": "MANIPUR", "state_lgd": 14, "population": 278, "households": 50}, "geometry": {"type": "Polygon", "coordinates": [[[93.18065000000001, 24.452720000000003], [93.18188, 24.453200000000002], [93.18229000000001, 24.452090000000002], [93.18136000000001, 24.451670000000004], [93.18065000000001, 24.452720000000003]]]}}, {"id": "59", "type": "Feature", "properties": {"village_name": "Tuolbung", "vil_lgd": 269289, "district_name": "Pherzawl", "dist_lgd": 715, "subdistrict_name": "Tipaimukh", "sdcode": 1868, "block_name": "Tipaimukh", "block_lgd": 12.0, "gp_name": "", "state_name": "MANIPUR", "state_lgd": 14, "population": 635, "households": 93}, "geometry": {"type": "Polygon", "coordinates": [[[93.16309000000001, 24.377670000000002], [93.16242000000001, 24.378470000000004], [93.16335000000001, 24.379260000000002], [93.16420000000001, 24.378390000000003], [93.16353000000001, 24.377660000000002], [93.16309000000001, 24.377670000000002]]]}}, {"id": "60", "type": "Feature", "properties": {"village_name": "Damdei", "vil_lgd": 269293, "district_name": "Pherzawl", "dist_lgd": 715, "subdistrict_name": "Tipaimukh", "sdcode": 1868, "block_name": "Tipaimukh", "block_lgd": 12.0, "gp_name": "", "state_name": "MANIPUR", "state_lgd": 14, "population": 682, "households": 141}, "geometry": {"type": "Polygon", "coordinates": [[[93.19062000000001, 24.314870000000003], [93.19003000000001, 24.315910000000002], [93.19088, 24.316460000000003], [93.19177, 24.31559], [93.19101, 24.314850000000003], [93.19062000000001, 24.314870000000003]]]}}, {"id": "61", "type": "Feature", "properties": {"village_name": "Tinsuong", "vil_lgd": 269294, "district_name": "Pherzawl", "dist_lgd": 715, "subdistrict_name": "Tipaimukh", "sdcode": 1868, "block_name": "Tipaimukh", "block_lgd": 12.0, "gp_name": "", "state_name": "MANIPUR", "state_lgd": 14, "population": 961, "households": 173}, "geometry": {"type": "Polygon", "coordinates": [[[93.22539, 24.318360000000002], [93.2269, 24.318080000000002], [93.22593, 24.317020000000003], [93.22539, 24.318360000000002]]]}}, {"id": "62", "type": "Feature", "properties": {"village_name": "Loibuol", "vil_lgd": 269295, "district_name": "Pherzawl", "dist_lgd": 715, "subdistrict_name": "Tipaimukh", "sdcode": 1868, "block_name": "Tipaimukh", "block_lgd": 12.0, "gp_name": "", "state_name": "MANIPUR", "state_lgd": 14, "population": 41, "households": 5}, "geometry": {"type": "Polygon", "coordinates": [[[93.21961, 24.302310000000002], [93.21903, 24.303350000000002], [93.21988, 24.303900000000002], [93.22077, 24.303030000000003], [93.22001, 24.302290000000003], [93.21961, 24.302310000000002]]]}}, {"id": "63", "type": "Feature", "properties": {"village_name": "Pherzawl", "vil_lgd": 269296, "district_name": "Pherzawl", "dist_lgd": 715, "subdistrict_name": "Tipaimukh", "sdcode": 1868, "block_name": "Tipaimukh", "block_lgd": 12.0, "gp_name": "", "state_name": "MANIPUR", "state_lgd": 14, "population": 1558, "households": 289}, "geometry": {"type": "Polygon", "coordinates": [[[93.21761000000001, 24.278650000000003], [93.21884000000001, 24.279120000000002], [93.21925, 24.27802], [93.21832, 24.277590000000004], [93.21761000000001, 24.278650000000003]]]}}, {"id": "64", "type": "Feature", "properties": {"village_name": "Mualhoihchiang", "vil_lgd": 269332, "district_name": "Pherzawl", "dist_lgd": 715, "subdistrict_name": "Thanlon", "sdcode": 1869, "block_name": "Thanlon", "block_lgd": 14.0, "gp_name": "", "state_name": "MANIPUR", "state_lgd": 14, "population": 108, "households": 15}, "geometry": {"type": "Polygon", "coordinates": [[[93.42183000000001, 24.3623], [93.42280000000001, 24.36306], [93.42360000000001, 24.3623], [93.42273, 24.36145], [93.42183000000001, 24.3623]]]}}, {"id": "65", "type": "Feature", "properties": {"village_name": "Maite", "vil_lgd": 269331, "district_name": "Pherzawl", "dist_lgd": 715, "subdistrict_name": "Thanlon", "sdcode": 1869, "block_name": "Thanlon", "block_lgd": 14.0, "gp_name": "", "state_name": "MANIPUR", "state_lgd": 14, "population": 278, "households": 50}, "geometry": {"type": "Polygon", "coordinates": [[[93.46033000000001, 24.35987], [93.46180000000001, 24.36043], [93.46205, 24.359550000000002], [93.46123000000001, 24.35902], [93.46033000000001, 24.35987]]]}}, {"id": "66", "type": "Feature", "properties": {"village_name": "Phaipheng", "vil_lgd": 269333, "district_name": "Pherzawl", "dist_lgd": 715, "subdistrict_name": "Thanlon", "sdcode": 1869, "block_name": "Thanlon", "block_lgd": 14.0, "gp_name": "", "state_name": "MANIPUR", "state_lgd": 14, "population": 589, "households": 94}, "geometry": {"type": "Polygon", "coordinates": [[[93.46174, 24.32796], [93.46131000000001, 24.329040000000003], [93.46237, 24.32946], [93.46299, 24.328730000000004], [93.46212000000001, 24.327890000000004], [93.46174, 24.32796]]]}}, {"id": "67", "type": "Feature", "properties": {"village_name": "L Phungchongjang", "vil_lgd": 269334, "district_name": "Pherzawl", "dist_lgd": 715, "subdistrict_name": "Thanlon", "sdcode": 1869, "block_name": "Thanlon", "block_lgd": 14.0, "gp_name": "", "state_name": "MANIPUR", "state_lgd": 14, "population": 243, "households": 47}, "geometry": {"type": "Polygon", "coordinates": [[[93.4662, 24.31605], [93.46577, 24.317130000000002], [93.46668000000001, 24.317580000000003], [93.46745000000001, 24.316820000000003], [93.46658000000001, 24.315980000000003], [93.4662, 24.31605]]]}}, {"id": "68", "type": "Feature", "properties": {"village_name": "Bualtang", "vil_lgd": 269335, "district_name": "Pherzawl", "dist_lgd": 715, "subdistrict_name": "Thanlon", "sdcode": 1869, "block_name": "Thanlon", "block_lgd": 14.0, "gp_name": "", "state_name": "MANIPUR", "state_lgd": 14, "population": 130, "households": 26}, "geometry": {"type": "Polygon", "coordinates": [[[93.47512, 24.345470000000002], [93.47519000000001, 24.34662], [93.47626000000001, 24.346690000000002], [93.4766, 24.345740000000003], [93.47579, 24.34521], [93.47512, 24.345470000000002]]]}}, {"id": "69", "type": "Feature", "properties": {"village_name": "Tuiku Muallum", "vil_lgd": 269336, "district_name": "Pherzawl", "dist_lgd": 715, "subdistrict_name": "Thanlon", "sdcode": 1869, "block_name": "Thanlon", "block_lgd": 14.0, "gp_name": "", "state_name": "MANIPUR", "state_lgd": 14, "population": 115, "households": 20}, "geometry": {"type": "Polygon", "coordinates": [[[93.4457, 24.25268], [93.44527000000001, 24.253760000000003], [93.44636000000001, 24.254170000000002], [93.44689000000001, 24.253140000000002], [93.44608000000001, 24.25261], [93.4457, 24.25268]]]}}, {"id": "70", "type": "Feature", "properties": {"village_name": "Tuilijang", "vil_lgd": 269338, "district_name": "Pherzawl", "dist_lgd": 715, "subdistrict_name": "Thanlon", "sdcode": 1869, "block_name": "Thanlon", "block_lgd": 14.0, "gp_name": "", "state_name": "MANIPUR", "state_lgd": 14, "population": 204, "households": 38}, "geometry": {"type": "Polygon", "coordinates": [[[93.46954000000001, 24.26781], [93.47054000000001, 24.26857], [93.47131, 24.26781], [93.47041, 24.26696], [93.46954000000001, 24.26781]]]}}, {"id": "71", "type": "Feature", "properties": {"village_name": "Phailiangbung", "vil_lgd": 269339, "district_name": "Pherzawl", "dist_lgd": 715, "subdistrict_name": "Thanlon", "sdcode": 1869, "block_name": "Thanlon", "block_lgd": 14.0, "gp_name": "", "state_name": "MANIPUR", "state_lgd": 14, "population": 416, "households": 72}, "geometry": {"type": "Polygon", "coordinates": [[[93.474, 24.299370000000003], [93.47482000000001, 24.30026], [93.47577000000001, 24.299490000000002], [93.47483000000001, 24.298650000000002], [93.474, 24.299370000000003]]]}}, {"id": "72", "type": "Feature", "properties": {"village_name": "Thiekbung", "vil_lgd": 269341, "district_name": "Pherzawl", "dist_lgd": 715, "subdistrict_name": "Thanlon", "sdcode": 1869, "block_name": "Thanlon", "block_lgd": 14.0, "gp_name": "", "state_name": "MANIPUR", "state_lgd": 14, "population": 131, "households": 27}, "geometry": {"type": "Polygon", "coordinates": [[[93.46353, 24.28762], [93.46309000000001, 24.288700000000002], [93.46416, 24.28912], [93.46477, 24.288390000000003], [93.46390000000001, 24.287540000000003], [93.46353, 24.28762]]]}}, {"id": "73", "type": "Feature", "properties": {"village_name": "Sinjang", "vil_lgd": 269342, "district_name": "Pherzawl", "dist_lgd": 715, "subdistrict_name": "Thanlon", "sdcode": 1869, "block_name": "Thanlon", "block_lgd": 14.0, "gp_name": "", "state_name": "MANIPUR", "state_lgd": 14, "population": 114, "households": 19}, "geometry": {"type": "Polygon", "coordinates": [[[93.3905, 24.30113], [93.38992, 24.301930000000002], [93.39087, 24.302690000000002], [93.39168000000001, 24.301810000000003], [93.39091, 24.301090000000002], [93.3905, 24.30113]]]}}, {"id": "74", "type": "Feature", "properties": {"village_name": "Mualkui", "vil_lgd": 269344, "district_name": "Pherzawl", "dist_lgd": 715, "subdistrict_name": "Thanlon", "sdcode": 1869, "block_name": "Thanlon", "block_lgd": 14.0, "gp_name": "", "state_name": "MANIPUR", "state_lgd": 14, "population": 191, "households": 27}, "geometry": {"type": "Polygon", "coordinates": [[[93.44629, 24.2757], [93.44586000000001, 24.276780000000002], [93.44677, 24.277240000000003], [93.44754, 24.276470000000003], [93.44667000000001, 24.275630000000003], [93.44629, 24.2757]]]}}, {"id": "75", "type": "Feature", "properties": {"village_name": "Kaihlam", "vil_lgd": 269345, "district_name": "Pherzawl", "dist_lgd": 715, "subdistrict_name": "Thanlon", "sdcode": 1869, "block_name": "Thanlon", "block_lgd": 14.0, "gp_name": "", "state_name": "MANIPUR", "state_lgd": 14, "population": 207, "households": 40}, "geometry": {"type": "Polygon", "coordinates": [[[93.38895000000001, 24.264590000000002], [93.38852000000001, 24.265680000000003], [93.38943, 24.26613], [93.39020000000001, 24.26537], [93.38933, 24.26452], [93.38895000000001, 24.264590000000002]]]}}, {"id": "76", "type": "Feature", "properties": {"village_name": "Sainoujang", "vil_lgd": 269337, "district_name": "Pherzawl", "dist_lgd": 715, "subdistrict_name": "Thanlon", "sdcode": 1869, "block_name": "Thanlon", "block_lgd": 14.0, "gp_name": "", "state_name": "MANIPUR", "state_lgd": 14, "population": 423, "households": 47}, "geometry": {"type": "Polygon", "coordinates": [[[93.39188000000001, 24.36831], [93.39265, 24.36907], [93.39365000000001, 24.36831], [93.39275, 24.36746], [93.39188000000001, 24.36831]]]}}, {"id": "77", "type": "Feature", "properties": {"village_name": "Paikholum J Muntha", "vil_lgd": 269305, "district_name": "Pherzawl", "dist_lgd": 715, "subdistrict_name": "Thanlon", "sdcode": 1869, "block_name": "Thanlon", "block_lgd": 14.0, "gp_name": "", "state_name": "MANIPUR", "state_lgd": 14, "population": 467, "households": 86}, "geometry": {"type": "Polygon", "coordinates": [[[93.38944000000001, 24.501590000000004], [93.39025000000001, 24.502480000000002], [93.39120000000001, 24.501710000000003], [93.39026000000001, 24.500870000000003], [93.38944000000001, 24.501590000000004]]]}}, {"id": "78", "type": "Feature", "properties": {"village_name": "Phaijang", "vil_lgd": 269306, "district_name": "Pherzawl", "dist_lgd": 715, "subdistrict_name": "Thanlon", "sdcode": 1869, "block_name": "Thanlon", "block_lgd": 14.0, "gp_name": "", "state_name": "MANIPUR", "state_lgd": 14, "population": 126, "households": 25}, "geometry": {"type": "Polygon", "coordinates": [[[93.34271000000001, 24.50581], [93.34190000000001, 24.505090000000003], [93.34095, 24.505930000000003], [93.34223, 24.506610000000002], [93.34271000000001, 24.50581]]]}}, {"id": "79", "type": "Feature", "properties": {"village_name": "Pangen", "vil_lgd": 269307, "district_name": "Pherzawl", "dist_lgd": 715, "subdistrict_name": "Thanlon", "sdcode": 1869, "block_name": "Thanlon", "block_lgd": 14.0, "gp_name": "", "state_name": "MANIPUR", "state_lgd": 14, "population": 284, "households": 48}, "geometry": {"type": "Polygon", "coordinates": [[[93.33486, 24.482190000000003], [93.33442000000001, 24.48327], [93.33549000000001, 24.483690000000003], [93.33611, 24.482960000000002], [93.33524000000001, 24.482110000000002], [93.33486, 24.482190000000003]]]}}, {"id": "80", "type": "Feature", "properties": {"village_name": "Thenzol", "vil_lgd": 269308, "district_name": "Pherzawl", "dist_lgd": 715, "subdistrict_name": "Thanlon", "sdcode": 1869, "block_name": "Thanlon", "block_lgd": 14.0, "gp_name": "", "state_name": "MANIPUR", "state_lgd": 14, "population": 219, "households": 38}, "geometry": {"type": "Polygon", "coordinates": [[[93.32925, 24.480130000000003], [93.33002, 24.480890000000002], [93.33102000000001, 24.480130000000003], [93.33012000000001, 24.479280000000003], [93.32925, 24.480130000000003]]]}}, {"id": "81", "type": "Feature", "properties": {"village_name": "Doltang", "vil_lgd": 269268, "district_name": "Pherzawl", "dist_lgd": 715, "subdistrict_name": "Tipaimukh", "sdcode": 1868, "block_name": "Vangai Range", "block_lgd": 13.0, "gp_name": "", "state_name": "MANIPUR", "state_lgd": 14, "population": 125, "households": 27}, "geometry": {"type": "Polygon", "coordinates": [[[93.17723000000001, 24.66391], [93.17656000000001, 24.664630000000002], [93.17741000000001, 24.6655], [93.17834, 24.664710000000003], [93.17767, 24.66391], [93.17723000000001, 24.66391]]]}}, {"id": "82", "type": "Feature", "properties": {"village_name": "Chingmun", "vil_lgd": 269269, "district_name": "Pherzawl", "dist_lgd": 715, "subdistrict_name": "Tipaimukh", "sdcode": 1868, "block_name": "Vangai Range", "block_lgd": 13.0, "gp_name": "", "state_name": "MANIPUR", "state_lgd": 14, "population": 221, "households": 50}, "geometry": {"type": "Polygon", "coordinates": [[[93.19681000000001, 24.631200000000003], [93.19804, 24.631670000000003], [93.19845000000001, 24.630570000000002], [93.19752000000001, 24.63014], [93.19681000000001, 24.631200000000003]]]}}, {"id": "83", "type": "Feature", "properties": {"village_name": "Henchungpunji", "vil_lgd": 269266, "district_name": "Pherzawl", "dist_lgd": 715, "subdistrict_name": "Tipaimukh", "sdcode": 1868, "block_name": "Vangai Range", "block_lgd": 13.0, "gp_name": "", "state_name": "MANIPUR", "state_lgd": 14, "population": 668, "households": 139}, "geometry": {"type": "Polygon", "coordinates": [[[93.16471000000001, 24.600990000000003], [93.16413000000001, 24.602030000000003], [93.16497000000001, 24.602580000000003], [93.16586000000001, 24.60171], [93.16511000000001, 24.600970000000004], [93.16471000000001, 24.600990000000003]]]}}, {"id": "84", "type": "Feature", "properties": {"village_name": "Tuaitengmun", "vil_lgd": 269270, "district_name": "Pherzawl", "dist_lgd": 715, "subdistrict_name": "Tipaimukh", "sdcode": 1868, "block_name": "Vangai Range", "block_lgd": 13.0, "gp_name": "", "state_name": "MANIPUR", "state_lgd": 14, "population": 202, "households": 30}, "geometry": {"type": "Polygon", "coordinates": [[[93.19264000000001, 24.592620000000004], [93.19206000000001, 24.593650000000004], [93.19290000000001, 24.5942], [93.19379, 24.59333], [93.19303000000001, 24.5926], [93.19264000000001, 24.592620000000004]]]}}, {"id": "85", "type": "Feature", "properties": {"village_name": "Saikulphai", "vil_lgd": 269267, "district_name": "Pherzawl", "dist_lgd": 715, "subdistrict_name": "Tipaimukh", "sdcode": 1868, "block_name": "Vangai Range", "block_lgd": 13.0, "gp_name": "", "state_name": "MANIPUR", "state_lgd": 14, "population": 221, "households": 39}, "geometry": {"type": "Polygon", "coordinates": [[[93.16264000000001, 24.5715], [93.16388, 24.57197], [93.16428, 24.570870000000003], [93.16336000000001, 24.57044], [93.16264000000001, 24.5715]]]}}, {"id": "86", "type": "Feature", "properties": {"village_name": "Suangphumun", "vil_lgd": 269271, "district_name": "Pherzawl", "dist_lgd": 715, "subdistrict_name": "Tipaimukh", "sdcode": 1868, "block_name": "Vangai Range", "block_lgd": 13.0, "gp_name": "", "state_name": "MANIPUR", "state_lgd": 14, "population": 147, "households": 27}, "geometry": {"type": "Polygon", "coordinates": [[[93.17541000000001, 24.558300000000003], [93.17482000000001, 24.559340000000002], [93.17567000000001, 24.559890000000003], [93.17656000000001, 24.55902], [93.17580000000001, 24.558280000000003], [93.17541000000001, 24.558300000000003]]]}}, {"id": "87", "type": "Feature", "properties": {"village_name": "Jakrador Phaimuol", "vil_lgd": 269277, "district_name": "Pherzawl", "dist_lgd": 715, "subdistrict_name": "Tipaimukh", "sdcode": 1868, "block_name": "Vangai Range", "block_lgd": 13.0, "gp_name": "", "state_name": "MANIPUR", "state_lgd": 14, "population": 154, "households": 26}, "geometry": {"type": "Polygon", "coordinates": [[[93.16590000000001, 24.536140000000003], [93.16532000000001, 24.537180000000003], [93.16616, 24.537730000000003], [93.16705, 24.53686], [93.16629, 24.53612], [93.16590000000001, 24.536140000000003]]]}}, {"id": "88", "type": "Feature", "properties": {"village_name": "P Munlian", "vil_lgd": 269279, "district_name": "Pherzawl", "dist_lgd": 715, "subdistrict_name": "Tipaimukh", "sdcode": 1868, "block_name": "Vangai Range", "block_lgd": 13.0, "gp_name": "", "state_name": "MANIPUR", "state_lgd": 14, "population": 42, "households": 7}, "geometry": {"type": "Polygon", "coordinates": [[[93.16085000000001, 24.52317], [93.16027000000001, 24.5242], [93.16111000000001, 24.52476], [93.162, 24.52389], [93.16124, 24.52315], [93.16085000000001, 24.52317]]]}}, {"id": "89", "type": "Feature", "properties": {"village_name": "P Munte", "vil_lgd": 269280, "district_name": "Pherzawl", "dist_lgd": 715, "subdistrict_name": "Tipaimukh", "sdcode": 1868, "block_name": "Vangai Range", "block_lgd": 13.0, "gp_name": "", "state_name": "MANIPUR", "state_lgd": 14, "population": 63, "households": 12}, "geometry": {"type": "Polygon", "coordinates": [[[93.15458000000001, 24.510530000000003], [93.15508000000001, 24.51132], [93.15631, 24.51085], [93.15534000000001, 24.509800000000002], [93.15458000000001, 24.510530000000003]]]}}, {"id": "90", "type": "Feature", "properties": {"village_name": "Data Partially Available", "vil_lgd": 999999, "district_name": "Pherzawl", "dist_lgd": 715, "subdistrict_name": "Tipaimukh", "sdcode": 1868, "block_name": "", "block_lgd": null, "gp_name": "", "state_name": "MANIPUR", "state_lgd": 14, "population": 0, "households": 0}, "geometry": {"type": "Polygon", "coordinates": [[[93.21087000000001, 24.455430000000003], [93.21089, 24.442320000000002], [93.22438000000001, 24.380080000000003], [93.22546000000001, 24.36682], [93.22825, 24.3529], [93.23868, 24.33023], [93.24962000000001, 24.314850000000003], [93.25072, 24.30759], [93.24619000000001, 24.284740000000003], [93.24326, 24.27736], [93.23208000000001, 24.261450000000004], [93.23095, 24.25615], [93.23141000000001, 24.253780000000003], [93.22775000000001, 24.246270000000003], [93.22301, 24.22792], [93.2202, 24.221100000000003], [93.21445000000001, 24.21542], [93.20573, 24.194290000000002], [93.20158, 24.180780000000002], [93.19666000000001, 24.172030000000003], [93.19212, 24.157690000000002], [93.17604000000001, 24.12796], [93.16549, 24.10085], [93.15390000000001, 24.081000000000003], [93.14347000000001, 24.085240000000002], [93.13777, 24.08395], [93.13065, 24.076390000000004], [93.13064000000001, 24.070100000000004], [93.12494000000001, 24.061280000000004], [93.11640000000001, 24.057470000000002], [93.11498, 24.053700000000003], [93.10788000000001, 24.05242], [93.10646000000001, 24.047390000000004], [93.10220000000001, 24.046120000000002], [93.09651000000001, 24.042340000000003], [93.09509000000001, 24.046110000000002], [93.09936, 24.04989], [93.09651000000001, 24.05365], [93.09794000000001, 24.05994], [93.09652000000001, 24.06371], [93.09795000000001, 24.071260000000002], [93.09084000000001, 24.077550000000002], [93.08515000000001, 24.08133], [93.08088000000001, 24.08764], [93.07516000000001, 24.100270000000002], [93.06945, 24.097800000000003], [93.06087000000001, 24.091610000000003], [93.04939, 24.088050000000003], [93.03341, 24.092570000000002], [93.03044000000001, 24.09664], [93.02613000000001, 24.098200000000002], [93.02305000000001, 24.10105], [93.01724, 24.09887], [93.00987, 24.10197], [93.00544000000001, 24.107390000000002], [92.99647, 24.11266], [92.99220000000001, 24.1142], [92.9851, 24.11382], [92.98059, 24.112330000000004], [92.97219000000001, 24.112350000000003], [92.97069, 24.11454], [92.96943, 24.1214], [92.97349000000001, 24.12393], [92.98190000000001, 24.12637], [92.98522000000001, 24.12927], [92.98870000000001, 24.137860000000003], [92.98673000000001, 24.144340000000003], [92.98696000000001, 24.147810000000003], [92.98892000000001, 24.150660000000002], [92.99649000000001, 24.154190000000003], [93.00126, 24.158060000000003], [92.99915000000001, 24.1715], [93.00673, 24.179650000000002], [92.99894, 24.191760000000002], [92.99898, 24.19497], [93.00822000000001, 24.194950000000002], [93.01246, 24.197450000000003], [93.01385, 24.204970000000003], [93.01814, 24.20757], [93.01954, 24.21497], [93.01527, 24.222500000000004], [93.01528, 24.226260000000003], [93.02245, 24.230020000000003], [93.0139, 24.233780000000003], [93.00261, 24.25139], [93.00266, 24.26022], [93.00984000000001, 24.269090000000002], [93.00415000000001, 24.277910000000002], [93.00701000000001, 24.285500000000003], [93.01415, 24.290560000000003], [93.03116000000001, 24.31577], [93.03932, 24.34074], [93.02773, 24.34186], [93.01755000000001, 24.344220000000004], [93.01531000000001, 24.356250000000003], [93.01811000000001, 24.37161], [93.01309, 24.377350000000003], [93.02035000000001, 24.38785], [92.99834000000001, 24.399770000000004], [93.00365000000001, 24.405310000000004], [93.00374000000001, 24.406740000000003], [93.00675000000001, 24.407750000000004], [93.00744, 24.409820000000003], [93.00578, 24.4094], [93.00598000000001, 24.41065], [93.00686, 24.41167], [93.00885000000001, 24.41168], [93.01007000000001, 24.41505], [93.01195000000001, 24.41672], [93.01404000000001, 24.41693], [93.01507000000001, 24.41553], [93.01495000000001, 24.410190000000004], [93.01617, 24.408710000000003], [93.02344000000001, 24.406750000000002], [93.03521, 24.40959], [93.04164, 24.413010000000003], [93.04256000000001, 24.414910000000003], [93.04329000000001, 24.41825], [93.04265000000001, 24.420550000000002], [93.03728000000001, 24.423620000000003], [93.03356000000001, 24.427000000000003], [93.03292, 24.42875], [93.03435, 24.43624], [93.03642, 24.442220000000002], [93.03572000000001, 24.459760000000003], [93.03811, 24.461930000000002], [93.04366, 24.46177], [93.04556000000001, 24.46328], [93.04677000000001, 24.46751], [93.04637000000001, 24.473570000000002], [93.04024000000001, 24.486310000000003], [93.03285000000001, 24.493530000000003], [93.03255, 24.4953], [93.04277, 24.504790000000003], [93.04273, 24.50635], [93.03721, 24.509390000000003], [93.03874, 24.512870000000003], [93.04131000000001, 24.51557], [93.04891, 24.518230000000003], [93.05014000000001, 24.519460000000002], [93.05058000000001, 24.523080000000004], [93.04758000000001, 24.526660000000003], [93.04719, 24.528570000000002], [93.04939, 24.537070000000003], [93.04916, 24.541900000000002], [93.04999000000001, 24.544210000000003], [93.05701, 24.55441], [93.06042000000001, 24.55365], [93.0617, 24.547310000000003], [93.06462, 24.54679], [93.07081000000001, 24.55805], [93.07089, 24.55948], [93.06917000000001, 24.561880000000002], [93.05877000000001, 24.571880000000004], [93.05851000000001, 24.574460000000002], [93.06216, 24.576240000000002], [93.07616, 24.575000000000003], [93.08307, 24.57102], [93.08865, 24.572830000000003], [93.09303000000001, 24.572630000000004], [93.09789, 24.56858], [93.10416000000001, 24.56527], [93.11651, 24.56361], [93.12359000000001, 24.56011], [93.12784, 24.55919], [93.1329, 24.560670000000002], [93.14483000000001, 24.571890000000003], [93.14807, 24.576310000000003], [93.15212000000001, 24.584590000000002], [93.15434, 24.590660000000003], [93.15394, 24.594340000000003], [93.15070000000001, 24.5971], [93.13633, 24.603540000000002], [93.13107000000001, 24.605010000000004], [93.12662, 24.61034], [93.12339, 24.62065], [93.12521000000001, 24.641800000000003], [93.13087, 24.66662], [93.13654000000001, 24.68391], [93.14321000000001, 24.695670000000003], [93.14894000000001, 24.709200000000003], [93.16194, 24.70933], [93.1777, 24.70558], [93.18916, 24.7056], [93.20347000000001, 24.703100000000003], [93.20347000000001, 24.700580000000002], [93.20491000000001, 24.699330000000003], [93.21350000000001, 24.696830000000002], [93.21493000000001, 24.69808], [93.21349000000001, 24.694300000000002], [93.20634000000001, 24.68551], [93.20349, 24.667910000000003], [93.21780000000001, 24.67169], [93.21781000000001, 24.664150000000003], [93.21495, 24.66289], [93.21065, 24.6654], [93.20779, 24.66288], [93.20779, 24.659110000000002], [93.21209, 24.651570000000003], [93.2121, 24.645290000000003], [93.21783, 24.641520000000003], [93.22069, 24.637760000000004], [93.22068, 24.632730000000002], [93.21783, 24.626440000000002], [93.20924000000001, 24.626430000000003], [93.20781000000001, 24.622660000000003], [93.21497000000001, 24.616380000000003], [93.21354000000001, 24.61135], [93.21355000000001, 24.606330000000003], [93.21640000000001, 24.600040000000003], [93.21355000000001, 24.587480000000003], [93.21213, 24.584960000000002], [93.20926000000001, 24.5837], [93.19925, 24.588720000000002], [93.20069000000001, 24.5774], [93.20498, 24.574890000000003], [93.20213000000001, 24.572380000000003], [93.20499000000001, 24.571130000000004], [93.20785000000001, 24.56736], [93.20499000000001, 24.566100000000002], [93.20212000000001, 24.566100000000002], [93.19926000000001, 24.568610000000003], [93.19354000000001, 24.57112], [93.19069, 24.56735], [93.19355, 24.56483], [93.19498, 24.562320000000003], [93.19498, 24.559810000000002], [93.18784000000001, 24.551000000000002], [93.18069000000001, 24.54596], [93.17784, 24.540930000000003], [93.17499000000001, 24.532130000000002], [93.16928, 24.528360000000003], [93.17213000000001, 24.52082], [93.17072, 24.515790000000003], [93.17500000000001, 24.515800000000002], [93.18072000000001, 24.51329], [93.18215000000001, 24.522090000000002], [93.19072000000001, 24.520840000000003], [93.19501000000001, 24.514560000000003], [93.20360000000001, 24.513320000000004], [93.20771, 24.504630000000002], [93.21087000000001, 24.455430000000003]], [[93.17767, 24.66391], [93.17834, 24.664710000000003], [93.17741000000001, 24.6655], [93.17656000000001, 24.664630000000002], [93.17723000000001, 24.66391], [93.17767, 24.66391]], [[93.19845000000001, 24.630570000000002], [93.19804, 24.631670000000003], [93.19681000000001, 24.631200000000003], [93.19752000000001, 24.63014], [93.19845000000001, 24.630570000000002]], [[93.13636000000001, 24.626520000000003], [93.13595000000001, 24.62762], [93.13471000000001, 24.62715], [93.13543000000001, 24.62609], [93.13636000000001, 24.626520000000003]], [[93.16511000000001, 24.600970000000004], [93.16586000000001, 24.60171], [93.16497000000001, 24.602580000000003], [93.16413000000001, 24.602030000000003], [93.16471000000001, 24.600990000000003], [93.16511000000001, 24.600970000000004]], [[93.19303000000001, 24.5926], [93.19379, 24.59333], [93.19290000000001, 24.5942], [93.19206000000001, 24.593650000000004], [93.19264000000001, 24.592620000000004], [93.19303000000001, 24.5926]], [[93.16428, 24.570870000000003], [93.16388, 24.57197], [93.16264000000001, 24.5715], [93.16336000000001, 24.57044], [93.16428, 24.570870000000003]], [[93.17580000000001, 24.558280000000003], [93.17656000000001, 24.55902], [93.17567000000001, 24.559890000000003], [93.17482000000001, 24.559340000000002], [93.17541000000001, 24.558300000000003], [93.17580000000001, 24.558280000000003]], [[93.14015, 24.550720000000002], [93.14091, 24.551450000000003], [93.14002, 24.55232], [93.13917000000001, 24.55177], [93.13975, 24.55074], [93.14015, 24.550720000000002]], [[93.12093, 24.54532], [93.1216, 24.54605], [93.12075, 24.546920000000004], [93.11981, 24.54613], [93.12049, 24.545330000000003], [93.12093, 24.54532]], [[93.16629, 24.53612], [93.16705, 24.53686], [93.16616, 24.537730000000003], [93.16532000000001, 24.537180000000003], [93.16590000000001, 24.536140000000003], [93.16629, 24.53612]], [[93.14966000000001, 24.532610000000002], [93.15042000000001, 24.533350000000002], [93.14952000000001, 24.53422], [93.14868000000001, 24.53366], [93.14926000000001, 24.53263], [93.14966000000001, 24.532610000000002]], [[93.11222000000001, 24.53234], [93.11298000000001, 24.533070000000002], [93.11209000000001, 24.53394], [93.11124000000001, 24.53339], [93.11183000000001, 24.53236], [93.11222000000001, 24.53234]], [[93.16124, 24.52315], [93.162, 24.52389], [93.16111000000001, 24.52476], [93.16027000000001, 24.5242], [93.16085000000001, 24.52317], [93.16124, 24.52315]], [[93.12269, 24.523310000000002], [93.12228, 24.524410000000003], [93.12105000000001, 24.523930000000004], [93.12176000000001, 24.52288], [93.12269, 24.523310000000002]], [[93.05969, 24.519530000000003], [93.06045, 24.52026], [93.05956, 24.521130000000003], [93.05872000000001, 24.520580000000002], [93.05930000000001, 24.519550000000002], [93.05969, 24.519530000000003]], [[93.15458000000001, 24.510530000000003], [93.15534000000001, 24.509800000000002], [93.15631, 24.51085], [93.15508000000001, 24.51132], [93.15458000000001, 24.510530000000003]], [[93.11476, 24.513150000000003], [93.11566, 24.512320000000003], [93.11655, 24.513150000000003], [93.11583, 24.513920000000002], [93.11476, 24.513150000000003]], [[93.11290000000001, 24.49424], [93.11357000000001, 24.494960000000003], [93.11273000000001, 24.49583], [93.11179000000001, 24.495040000000003], [93.11247, 24.49424], [93.11290000000001, 24.49424]], [[93.1449, 24.486390000000004], [93.14566, 24.48713], [93.14477000000001, 24.488000000000003], [93.14393000000001, 24.487450000000003], [93.14451000000001, 24.486410000000003], [93.1449, 24.486390000000004]], [[93.13421000000001, 24.4614], [93.13497000000001, 24.46214], [93.13408000000001, 24.46301], [93.13323000000001, 24.462460000000004], [93.13381000000001, 24.46142], [93.13421000000001, 24.4614]], [[93.18229000000001, 24.452090000000002], [93.18188, 24.453200000000002], [93.18065000000001, 24.452720000000003], [93.18136000000001, 24.451670000000004], [93.18229000000001, 24.452090000000002]], [[93.10385000000001, 24.441380000000002], [93.10345000000001, 24.442490000000003], [93.10221000000001, 24.442010000000003], [93.10293, 24.44096], [93.10385000000001, 24.441380000000002]], [[93.10635, 24.42451], [93.10594, 24.425610000000002], [93.10471000000001, 24.425140000000003], [93.10542000000001, 24.424080000000004], [93.10635, 24.42451]], [[93.09071, 24.402330000000003], [93.09147, 24.403060000000004], [93.09058, 24.403940000000002], [93.08973, 24.403380000000002], [93.09032, 24.402350000000002], [93.09071, 24.402330000000003]], [[93.03557, 24.39194], [93.03633, 24.392670000000003], [93.03544000000001, 24.39355], [93.03459000000001, 24.39299], [93.03518000000001, 24.39196], [93.03557, 24.39194]], [[93.16353000000001, 24.377660000000002], [93.16420000000001, 24.378390000000003], [93.16335000000001, 24.379260000000002], [93.16242000000001, 24.378470000000004], [93.16309000000001, 24.377670000000002], [93.16353000000001, 24.377660000000002]], [[93.07131000000001, 24.346480000000003], [93.07198000000001, 24.34721], [93.07114000000001, 24.348080000000003], [93.07020000000001, 24.34729], [93.07087000000001, 24.346490000000003], [93.07131000000001, 24.346480000000003]], [[93.14119000000001, 24.3257], [93.14186000000001, 24.326500000000003], [93.14092000000001, 24.32729], [93.14008000000001, 24.326420000000002], [93.14075000000001, 24.32569], [93.14119000000001, 24.3257]], [[93.22593, 24.317020000000003], [93.2269, 24.318080000000002], [93.22539, 24.318360000000002], [93.22593, 24.317020000000003]], [[93.19101, 24.314850000000003], [93.19177, 24.31559], [93.19088, 24.316460000000003], [93.19003000000001, 24.315910000000002], [93.19062000000001, 24.314870000000003], [93.19101, 24.314850000000003]], [[93.22001, 24.302290000000003], [93.22077, 24.303030000000003], [93.21988, 24.303900000000002], [93.21903, 24.303350000000002], [93.21961, 24.302310000000002], [93.22001, 24.302290000000003]], [[93.02606, 24.29622], [93.02682, 24.296960000000002], [93.02593, 24.29783], [93.02509, 24.29728], [93.02567, 24.29624], [93.02606, 24.29622]], [[93.21925, 24.27802], [93.21884000000001, 24.279120000000002], [93.21761000000001, 24.278650000000003], [93.21832, 24.277590000000004], [93.21925, 24.27802]], [[93.12455000000001, 24.255940000000002], [93.12522000000001, 24.256660000000004], [93.12438, 24.257540000000002], [93.12344, 24.25674], [93.12411, 24.255940000000002], [93.12455000000001, 24.255940000000002]], [[93.07788000000001, 24.225150000000003], [93.07864000000001, 24.225890000000003], [93.07775000000001, 24.226760000000002], [93.07690000000001, 24.226210000000002], [93.07748000000001, 24.225170000000002], [93.07788000000001, 24.225150000000003]], [[93.02578000000001, 24.226010000000002], [93.02537000000001, 24.227120000000003], [93.02413000000001, 24.226640000000003], [93.02485, 24.22558], [93.02578000000001, 24.226010000000002]], [[93.03053000000001, 24.170080000000002], [93.03012000000001, 24.171180000000003], [93.02889, 24.170710000000003], [93.0296, 24.16965], [93.03053000000001, 24.170080000000002]], [[93.14024, 24.148410000000002], [93.14091, 24.149140000000003], [93.14006, 24.15001], [93.13913000000001, 24.149220000000003], [93.13980000000001, 24.148410000000002], [93.14024, 24.148410000000002]], [[93.03909, 24.140150000000002], [93.03868000000001, 24.141260000000003], [93.03744, 24.140780000000003], [93.03816, 24.13972], [93.03909, 24.140150000000002]], [[93.13416000000001, 24.10761], [93.13375, 24.10872], [93.13252000000001, 24.108240000000002], [93.13323000000001, 24.107180000000003], [93.13416000000001, 24.10761]]]}}]}