{"type": "FeatureCollection", "metadata": {"source": "Survey of India (per src_agency attribute in the source data)", "hosted_via": "National Water Data Portal (NWDP), NWIC, Ministry of Jal Shakti -- https://nwdp.nwic.gov.in/", "access": "public, no login required", "crs_original": "EPSG:7755 (WGS 84 / India NSF LCC)", "fetch_date": "2026-08-02", "quality": "verified-official -- Survey of India source", "state": "Manipur", "district": "Thoubal", "processing": "reprojected to EPSG:4326, topology-preserving simplify (shared-arc, tolerance 0.0005 deg) so adjacent polygons never overlap/gap at shared borders, coords rounded 5dp, 0 feature(s) needed the per-feature fallback", "feature_count": 74}, "features": [{"id": "0", "type": "Feature", "properties": {"village_name": "Nepra Company", "vil_lgd": 269940, "district_name": "Thoubal", "dist_lgd": 259, "subdistrict_name": "Thoubal", "sdcode": 1877, "block_name": "Thoubal", "block_lgd": 24.0, "gp_name": "Charangpat", "state_name": "MANIPUR", "state_lgd": 14, "population": 593, "households": 128}, "geometry": {"type": "Polygon", "coordinates": [[[94.02782, 24.628960000000003], [94.02040000000001, 24.632620000000003], [94.02362000000001, 24.639370000000003], [94.02717000000001, 24.644350000000003], [94.03007000000001, 24.642590000000002], [94.03136, 24.640980000000003], [94.03185, 24.638050000000003], [94.03056000000001, 24.637020000000003], [94.02782, 24.628960000000003]]]}}, {"id": "1", "type": "Feature", "properties": {"village_name": "Purnaheitupokpi", "vil_lgd": 269980, "district_name": "Thoubal", "dist_lgd": 259, "subdistrict_name": "Thoubal", "sdcode": 1877, "block_name": "Thoubal", "block_lgd": 24.0, "gp_name": "WANGJING", "state_name": "MANIPUR", "state_lgd": 14, "population": 1131, "households": 260}, "geometry": {"type": "Polygon", "coordinates": [[[94.07086000000001, 24.592910000000003], [94.06828, 24.597310000000004], [94.06505000000001, 24.59965], [94.06151000000001, 24.610200000000003], [94.06521000000001, 24.61035], [94.07124, 24.61081], [94.07231, 24.61108], [94.07650000000001, 24.610940000000003], [94.07682000000001, 24.603610000000003], [94.07618000000001, 24.59936], [94.07150000000001, 24.594520000000003], [94.07086000000001, 24.592910000000003]]]}}, {"id": "2", "type": "Feature", "properties": {"village_name": "Irong Thokchom", "vil_lgd": 269920, "district_name": "Thoubal", "dist_lgd": 259, "subdistrict_name": "Lilong", "sdcode": 1876, "block_name": "Thoubal", "block_lgd": 24.0, "gp_name": "LEISHANGTHEM", "state_name": "MANIPUR", "state_lgd": 14, "population": 645, "households": 121}, "geometry": {"type": "Polygon", "coordinates": [[[93.92657000000001, 24.625500000000002], [93.92264, 24.62648], [93.92366000000001, 24.63089], [93.92839000000001, 24.63785], [93.92805000000001, 24.6401], [93.93206, 24.640980000000003], [93.93221000000001, 24.63894], [93.93379, 24.63669], [93.93146, 24.63219], [93.92816, 24.629530000000003], [93.92719000000001, 24.627350000000003], [93.92657000000001, 24.625500000000002]]]}}, {"id": "3", "type": "Feature", "properties": {"village_name": "Thoudam", "vil_lgd": 269921, "district_name": "Thoubal", "dist_lgd": 259, "subdistrict_name": "Lilong", "sdcode": 1876, "block_name": "Thoubal", "block_lgd": 24.0, "gp_name": "LEISHANGTHEM", "state_name": "MANIPUR", "state_lgd": 14, "population": 1884, "households": 347}, "geometry": {"type": "Polygon", "coordinates": [[[93.93881, 24.645550000000004], [93.93979, 24.644050000000004], [93.93956000000001, 24.641460000000002], [93.94076000000001, 24.63962], [93.93964000000001, 24.637300000000003], [93.93806000000001, 24.62892], [93.93476000000001, 24.629800000000003], [93.93146, 24.63219], [93.93379, 24.63669], [93.93221000000001, 24.63894], [93.93206, 24.640980000000003], [93.92805000000001, 24.6401], [93.92449, 24.63764], [93.92020000000001, 24.638], [93.92293000000001, 24.64064], [93.92420000000001, 24.647080000000003], [93.92838, 24.64823], [93.93401, 24.647240000000004], [93.93468000000001, 24.64815], [93.93881, 24.645550000000004]]]}}, {"id": "4", "type": "Feature", "properties": {"village_name": "Chaobok", "vil_lgd": 269933, "district_name": "Thoubal", "dist_lgd": 259, "subdistrict_name": "Lilong", "sdcode": 1876, "block_name": "Thoubal", "block_lgd": 24.0, "gp_name": "TUREL AHANBI ATOUKHONG", "state_name": "MANIPUR", "state_lgd": 14, "population": 1436, "households": 279}, "geometry": {"type": "Polygon", "coordinates": [[[93.97619, 24.713130000000003], [93.97722, 24.703390000000002], [93.98177000000001, 24.70566], [93.98468000000001, 24.70566], [93.98378000000001, 24.701950000000004], [93.97788000000001, 24.698480000000004], [93.97565, 24.696160000000003], [93.97756000000001, 24.694280000000003], [93.97947, 24.69413], [93.98075000000001, 24.69283], [93.97995, 24.691090000000003], [93.97724000000001, 24.689210000000003], [93.97342, 24.688190000000002], [93.96975, 24.688340000000004], [93.96975, 24.684], [93.97533000000001, 24.68298], [93.97852, 24.684], [93.98200000000001, 24.686660000000003], [93.98795000000001, 24.687510000000003], [93.99031000000001, 24.68652], [93.99721000000001, 24.688170000000003], [94.00613000000001, 24.688090000000003], [93.99609000000001, 24.676750000000002], [93.99356, 24.672690000000003], [93.99311, 24.670530000000003], [93.98626, 24.66512], [93.98307000000001, 24.660190000000004], [93.97099000000001, 24.66355], [93.96289, 24.669200000000004], [93.96049000000001, 24.670430000000003], [93.95531000000001, 24.671180000000003], [93.95423000000001, 24.680870000000002], [93.95853000000001, 24.684900000000003], [93.95345, 24.70088], [93.95595, 24.70305], [93.96178, 24.698770000000003], [93.96545, 24.698480000000004], [93.9668, 24.700590000000002], [93.96534000000001, 24.7024], [93.96453000000001, 24.70654], [93.96692, 24.707870000000003], [93.96724, 24.70917], [93.96494000000001, 24.71197], [93.96573000000001, 24.71392], [93.96858, 24.716], [93.97368, 24.715180000000004], [93.97619, 24.713130000000003]]]}}, {"id": "5", "type": "Feature", "properties": {"village_name": "Hangool", "vil_lgd": 269924, "district_name": "Thoubal", "dist_lgd": 259, "subdistrict_name": "Lilong", "sdcode": 1876, "block_name": "Thoubal", "block_lgd": 24.0, "gp_name": "HAYEL-HANGOOL", "state_name": "MANIPUR", "state_lgd": 14, "population": 1752, "households": 284}, "geometry": {"type": "Polygon", "coordinates": [[[93.90956000000001, 24.56058], [93.91348, 24.56058], [93.91253, 24.558960000000003], [93.91512, 24.54898], [93.89623, 24.55195], [93.90149000000001, 24.557240000000004], [93.90495000000001, 24.5622], [93.90694, 24.563350000000003], [93.90956000000001, 24.56058]]]}}, {"id": "6", "type": "Feature", "properties": {"village_name": "Hayel", "vil_lgd": 269923, "district_name": "Thoubal", "dist_lgd": 259, "subdistrict_name": "Lilong", "sdcode": 1876, "block_name": "Thoubal", "block_lgd": 24.0, "gp_name": "HAYEL-HANGOON", "state_name": "MANIPUR", "state_lgd": 14, "population": 2653, "households": 423}, "geometry": {"type": "Polygon", "coordinates": [[[93.90956000000001, 24.56058], [93.90694, 24.563350000000003], [93.90912, 24.571450000000002], [93.91148000000001, 24.574250000000003], [93.91148000000001, 24.57673], [93.90742, 24.58275], [93.91196000000001, 24.583090000000002], [93.91585, 24.584490000000002], [93.91585, 24.581760000000003], [93.91898, 24.577160000000003], [93.9227, 24.575400000000002], [93.9227, 24.573100000000004], [93.92181000000001, 24.56971], [93.91942, 24.56633], [93.91348, 24.56058], [93.90956000000001, 24.56058]]]}}, {"id": "7", "type": "Feature", "properties": {"village_name": "Uchiwa", "vil_lgd": 269917, "district_name": "Thoubal", "dist_lgd": 259, "subdistrict_name": "Lilong", "sdcode": 1876, "block_name": "Thoubal", "block_lgd": 24.0, "gp_name": "MAIBAM UCHIWA", "state_name": "MANIPUR", "state_lgd": 14, "population": 3385, "households": 683}, "geometry": {"type": "Polygon", "coordinates": [[[93.90742, 24.58275], [93.9064, 24.585160000000002], [93.90676, 24.588130000000003], [93.91130000000001, 24.596390000000003], [93.91451, 24.599190000000004], [93.91691, 24.599320000000002], [93.91804, 24.59823], [93.91914000000001, 24.592360000000003], [93.91585, 24.587580000000003], [93.91585, 24.584490000000002], [93.91196000000001, 24.583090000000002], [93.90742, 24.58275]]]}}, {"id": "8", "type": "Feature", "properties": {"village_name": "Maibam Konjil", "vil_lgd": 269918, "district_name": "Thoubal", "dist_lgd": 259, "subdistrict_name": "Lilong", "sdcode": 1876, "block_name": "Thoubal", "block_lgd": 24.0, "gp_name": "MAIBAM UCHIWA", "state_name": "MANIPUR", "state_lgd": 14, "population": 5696, "households": 960}, "geometry": {"type": "Polygon", "coordinates": [[[93.92225, 24.609370000000002], [93.92746000000001, 24.60518], [93.92865, 24.60328], [93.92791000000001, 24.59814], [93.91914000000001, 24.592360000000003], [93.91804, 24.59823], [93.91691, 24.599320000000002], [93.91451, 24.599190000000004], [93.91130000000001, 24.596390000000003], [93.90858, 24.601670000000002], [93.91239, 24.60844], [93.91257, 24.610750000000003], [93.91130000000001, 24.61257], [93.89913000000001, 24.60762], [93.89550000000001, 24.607950000000002], [93.89296, 24.60976], [93.89187000000001, 24.61176], [93.89187000000001, 24.61455], [93.89711000000001, 24.611800000000002], [93.89996000000001, 24.612350000000003], [93.90416, 24.614530000000002], [93.90911000000001, 24.61473], [93.91414, 24.617050000000003], [93.91682, 24.617050000000003], [93.91779000000001, 24.615730000000003], [93.92225, 24.609370000000002]]]}}, {"id": "9", "type": "Feature", "properties": {"village_name": "Irong Chesaba", "vil_lgd": 269919, "district_name": "Thoubal", "dist_lgd": 259, "subdistrict_name": "Lilong", "sdcode": 1876, "block_name": "Thoubal", "block_lgd": 24.0, "gp_name": "IRONG CHESABA", "state_name": "MANIPUR", "state_lgd": 14, "population": 6749, "households": 1199}, "geometry": {"type": "Polygon", "coordinates": [[[93.92366000000001, 24.63089], [93.92264, 24.62648], [93.91466000000001, 24.62534], [93.91362000000001, 24.62236], [93.91682, 24.617050000000003], [93.91414, 24.617050000000003], [93.90911000000001, 24.61473], [93.90416, 24.614530000000002], [93.89996000000001, 24.612350000000003], [93.89711000000001, 24.611800000000002], [93.89187000000001, 24.61455], [93.89405000000001, 24.61587], [93.89695, 24.615710000000004], [93.89968, 24.618350000000003], [93.90277, 24.623630000000002], [93.90531000000001, 24.630570000000002], [93.90767000000001, 24.63172], [93.91130000000001, 24.63172], [93.91602, 24.636010000000002], [93.92020000000001, 24.638], [93.92449, 24.63764], [93.92805000000001, 24.6401], [93.92839000000001, 24.63785], [93.92366000000001, 24.63089]]]}}, {"id": "10", "type": "Feature", "properties": {"village_name": "Leisangthem", "vil_lgd": 269922, "district_name": "Thoubal", "dist_lgd": 259, "subdistrict_name": "Lilong", "sdcode": 1876, "block_name": "Thoubal", "block_lgd": 24.0, "gp_name": "LEISHANGTHEM", "state_name": "MANIPUR", "state_lgd": 14, "population": 6118, "households": 1203}, "geometry": {"type": "Polygon", "coordinates": [[[93.94811000000001, 24.62564], [93.95486000000001, 24.621010000000002], [93.95544000000001, 24.616830000000004], [93.95366000000001, 24.616680000000002], [93.95009, 24.61316], [93.94741, 24.611810000000002], [93.94592, 24.612620000000003], [93.94041000000001, 24.617630000000002], [93.92657000000001, 24.625500000000002], [93.92719000000001, 24.627350000000003], [93.92816, 24.629530000000003], [93.93146, 24.63219], [93.93476000000001, 24.629800000000003], [93.93806000000001, 24.62892], [93.93964000000001, 24.637300000000003], [93.94076000000001, 24.63962], [93.94154, 24.63914], [93.94384000000001, 24.637710000000002], [93.94804, 24.63294], [93.94871, 24.628100000000003], [93.94811000000001, 24.62564]]]}}, {"id": "11", "type": "Feature", "properties": {"village_name": "Khekman", "vil_lgd": 269925, "district_name": "Thoubal", "dist_lgd": 259, "subdistrict_name": "Lilong", "sdcode": 1876, "block_name": "Thoubal", "block_lgd": 24.0, "gp_name": "KHEKMAN", "state_name": "MANIPUR", "state_lgd": 14, "population": 7157, "households": 1369}, "geometry": {"type": "Polygon", "coordinates": [[[93.95876000000001, 24.616120000000002], [93.95544000000001, 24.616830000000004], [93.95486000000001, 24.621010000000002], [93.94811000000001, 24.62564], [93.94871, 24.628100000000003], [93.94804, 24.63294], [93.94384000000001, 24.637710000000002], [93.94154, 24.63914], [93.94406000000001, 24.64364], [93.95171, 24.653730000000003], [93.95674000000001, 24.66259], [93.95936, 24.66512], [93.96244, 24.661500000000004], [93.96251000000001, 24.658160000000002], [93.95786000000001, 24.653190000000002], [93.95719000000001, 24.651280000000003], [93.95944, 24.644050000000004], [93.95876000000001, 24.642960000000002], [93.95711000000001, 24.64262], [93.95846, 24.63942], [93.96041000000001, 24.63812], [93.96139000000001, 24.633350000000004], [93.96582000000001, 24.62946], [93.96702, 24.627280000000003], [93.96814, 24.62114], [93.96559, 24.61964], [93.95876000000001, 24.616120000000002]]]}}, {"id": "12", "type": "Feature", "properties": {"village_name": "Moijing", "vil_lgd": 269926, "district_name": "Thoubal", "dist_lgd": 259, "subdistrict_name": "Lilong", "sdcode": 1876, "block_name": "Thoubal", "block_lgd": 24.0, "gp_name": "MOIJING", "state_name": "MANIPUR", "state_lgd": 14, "population": 7428, "households": 1347}, "geometry": {"type": "Polygon", "coordinates": [[[93.95876000000001, 24.616120000000002], [93.96559, 24.61964], [93.96814, 24.62114], [93.96702, 24.627280000000003], [93.96582000000001, 24.62946], [93.96139000000001, 24.633350000000004], [93.96041000000001, 24.63812], [93.95846, 24.63942], [93.95711000000001, 24.64262], [93.95876000000001, 24.642960000000002], [93.95944, 24.644050000000004], [93.95719000000001, 24.651280000000003], [93.95786000000001, 24.653190000000002], [93.96251000000001, 24.658160000000002], [93.96244, 24.661500000000004], [93.95936, 24.66512], [93.96161000000001, 24.666890000000002], [93.96289, 24.669200000000004], [93.97099000000001, 24.66355], [93.98307000000001, 24.660190000000004], [93.98165, 24.65538], [93.98194000000001, 24.640220000000003], [93.98135, 24.63481], [93.97599000000001, 24.62561], [93.97465000000001, 24.621820000000003], [93.96884000000001, 24.617490000000004], [93.96334, 24.615730000000003], [93.95876000000001, 24.616120000000002]]]}}, {"id": "13", "type": "Feature", "properties": {"village_name": "Nungei", "vil_lgd": 269927, "district_name": "Thoubal", "dist_lgd": 259, "subdistrict_name": "Lilong", "sdcode": 1876, "block_name": "Thoubal", "block_lgd": 24.0, "gp_name": "ATOUKHONG", "state_name": "MANIPUR", "state_lgd": 14, "population": 2074, "households": 392}, "geometry": {"type": "Polygon", "coordinates": [[[93.96049000000001, 24.670430000000003], [93.96289, 24.669200000000004], [93.96161000000001, 24.666890000000002], [93.95936, 24.66512], [93.95674000000001, 24.66259], [93.95171, 24.653730000000003], [93.94406000000001, 24.64364], [93.94154, 24.63914], [93.94076000000001, 24.63962], [93.93956000000001, 24.641460000000002], [93.93979, 24.644050000000004], [93.93881, 24.645550000000004], [93.93468000000001, 24.64815], [93.93691000000001, 24.651200000000003], [93.93764, 24.655990000000003], [93.93713000000001, 24.656840000000003], [93.93836, 24.661160000000002], [93.94189, 24.660140000000002], [93.94669, 24.661230000000003], [93.94804, 24.662460000000003], [93.94901, 24.66675], [93.95531000000001, 24.671180000000003], [93.96049000000001, 24.670430000000003]]]}}, {"id": "14", "type": "Feature", "properties": {"village_name": "Laiphrakpam", "vil_lgd": 269930, "district_name": "Thoubal", "dist_lgd": 259, "subdistrict_name": "Lilong", "sdcode": 1876, "block_name": "Thoubal", "block_lgd": 24.0, "gp_name": "OINAM SAWOMBUNG", "state_name": "MANIPUR", "state_lgd": 14, "population": 1093, "households": 216}, "geometry": {"type": "Polygon", "coordinates": [[[93.92531000000001, 24.670360000000002], [93.92449, 24.66146], [93.92293000000001, 24.660780000000003], [93.92020000000001, 24.66193], [93.91948000000001, 24.664410000000004], [93.92038000000001, 24.668200000000002], [93.91784000000001, 24.671010000000003], [93.91479000000001, 24.672430000000002], [93.91796000000001, 24.674930000000003], [93.92044000000001, 24.673910000000003], [93.92366000000001, 24.67575], [93.92396000000001, 24.67432], [93.92531000000001, 24.670360000000002]]]}}, {"id": "15", "type": "Feature", "properties": {"village_name": "Oinam", "vil_lgd": 269929, "district_name": "Thoubal", "dist_lgd": 259, "subdistrict_name": "Lilong", "sdcode": 1876, "block_name": "Thoubal", "block_lgd": 24.0, "gp_name": "OINAM SAWOMBUNG", "state_name": "MANIPUR", "state_lgd": 14, "population": 2377, "households": 464}, "geometry": {"type": "Polygon", "coordinates": [[[93.93611000000001, 24.68372], [93.93754000000001, 24.681680000000004], [93.93634, 24.680310000000002], [93.92906, 24.678880000000003], [93.92366000000001, 24.67575], [93.92044000000001, 24.673910000000003], [93.91796000000001, 24.674930000000003], [93.91479000000001, 24.672430000000002], [93.91112000000001, 24.67415], [93.90949, 24.676620000000003], [93.90949, 24.681900000000002], [93.90821000000001, 24.68438], [93.91039, 24.68768], [93.91066000000001, 24.68944], [93.92044000000001, 24.68795], [93.93611000000001, 24.68372]]]}}, {"id": "16", "type": "Feature", "properties": {"village_name": "Atoukhong", "vil_lgd": 269928, "district_name": "Thoubal", "dist_lgd": 259, "subdistrict_name": "Lilong", "sdcode": 1876, "block_name": "Thoubal", "block_lgd": 24.0, "gp_name": "ATOUKHONG", "state_name": "MANIPUR", "state_lgd": 14, "population": 1611, "households": 275}, "geometry": {"type": "Polygon", "coordinates": [[[93.93836, 24.661160000000002], [93.93713000000001, 24.656840000000003], [93.93546, 24.65962], [93.93076, 24.662090000000003], [93.92710000000001, 24.66259], [93.92449, 24.66146], [93.92531000000001, 24.670360000000002], [93.92396000000001, 24.67432], [93.92366000000001, 24.67575], [93.92906, 24.678880000000003], [93.93634, 24.680310000000002], [93.93724, 24.677660000000003], [93.93664000000001, 24.66832], [93.93821000000001, 24.66253], [93.93836, 24.661160000000002]]]}}, {"id": "17", "type": "Feature", "properties": {"village_name": "Papal", "vil_lgd": 269945, "district_name": "Thoubal", "dist_lgd": 259, "subdistrict_name": "Thoubal", "sdcode": 1877, "block_name": "Thoubal", "block_lgd": 24.0, "gp_name": "TEKCHAM", "state_name": "MANIPUR", "state_lgd": 14, "population": 1133, "households": 237}, "geometry": {"type": "Polygon", "coordinates": [[[94.02908000000001, 24.523090000000003], [94.02686000000001, 24.51676], [94.02239, 24.50859], [94.01870000000001, 24.509380000000004], [94.01336, 24.516630000000003], [94.01350000000001, 24.523210000000002], [94.01489000000001, 24.528530000000003], [94.01656000000001, 24.530170000000002], [94.02171000000001, 24.52916], [94.02727, 24.53055], [94.02992, 24.530050000000003], [94.02908000000001, 24.523090000000003]]]}}, {"id": "18", "type": "Feature", "properties": {"village_name": "Yaithibi Khunou", "vil_lgd": 269953, "district_name": "Thoubal", "dist_lgd": 259, "subdistrict_name": "Thoubal", "sdcode": 1877, "block_name": "Thoubal", "block_lgd": 24.0, "gp_name": "TEKCHAM   GP", "state_name": "MANIPUR", "state_lgd": 14, "population": 548, "households": 115}, "geometry": {"type": "Polygon", "coordinates": [[[94.02585, 24.50785], [94.02239, 24.50859], [94.02686000000001, 24.51676], [94.02908000000001, 24.523090000000003], [94.02992, 24.530050000000003], [94.03472000000001, 24.529500000000002], [94.03393000000001, 24.52664], [94.03483000000001, 24.5237], [94.03680000000001, 24.52174], [94.03680000000001, 24.51716], [94.03231000000001, 24.51406], [94.02585, 24.50785]]]}}, {"id": "19", "type": "Feature", "properties": {"village_name": "Tekcham", "vil_lgd": 269951, "district_name": "Thoubal", "dist_lgd": 259, "subdistrict_name": "Thoubal", "sdcode": 1877, "block_name": "Thoubal", "block_lgd": 24.0, "gp_name": "TEKCHAM ( G P )", "state_name": "MANIPUR", "state_lgd": 14, "population": 3825, "households": 766}, "geometry": {"type": "Polygon", "coordinates": [[[94.00821, 24.550420000000003], [94.01392000000001, 24.54991], [94.01336, 24.53929], [94.016, 24.533720000000002], [94.01656000000001, 24.530170000000002], [94.01489000000001, 24.528530000000003], [94.01350000000001, 24.523210000000002], [94.01336, 24.516630000000003], [94.01870000000001, 24.509380000000004], [93.99885, 24.515600000000003], [93.99249, 24.519070000000003], [93.98612000000001, 24.52025], [93.995, 24.53131], [93.99903, 24.552190000000003], [94.00404, 24.55245], [94.00821, 24.550420000000003]]]}}, {"id": "20", "type": "Feature", "properties": {"village_name": "Sapam", "vil_lgd": 269950, "district_name": "Thoubal", "dist_lgd": 259, "subdistrict_name": "Thoubal", "sdcode": 1877, "block_name": "Thoubal", "block_lgd": 24.0, "gp_name": "SAPAM GP", "state_name": "MANIPUR", "state_lgd": 14, "population": 3442, "households": 738}, "geometry": {"type": "Polygon", "coordinates": [[[94.03472000000001, 24.529500000000002], [94.02992, 24.530050000000003], [94.02727, 24.53055], [94.02171000000001, 24.52916], [94.01656000000001, 24.530170000000002], [94.016, 24.533720000000002], [94.01336, 24.53929], [94.01392000000001, 24.54991], [94.02310000000001, 24.55308], [94.02616, 24.553960000000004], [94.03506, 24.550670000000004], [94.04299, 24.54916], [94.04578000000001, 24.547880000000003], [94.03968, 24.54183], [94.03573, 24.533170000000002], [94.03472000000001, 24.529500000000002]]]}}, {"id": "21", "type": "Feature", "properties": {"village_name": "Chingtham", "vil_lgd": 269959, "district_name": "Thoubal", "dist_lgd": 259, "subdistrict_name": "Thoubal", "sdcode": 1877, "block_name": "Thoubal", "block_lgd": 24.0, "gp_name": "SAPAM GP", "state_name": "MANIPUR", "state_lgd": 14, "population": 1391, "households": 270}, "geometry": {"type": "Polygon", "coordinates": [[[94.01392000000001, 24.54991], [94.00821, 24.550420000000003], [94.00404, 24.55245], [93.99903, 24.552190000000003], [93.9975, 24.5532], [93.9975, 24.556870000000004], [94.00376000000001, 24.56725], [94.02393000000001, 24.567380000000004], [94.02602, 24.56624], [94.02741, 24.564970000000002], [94.02797000000001, 24.56118], [94.02672000000001, 24.558390000000003], [94.02616, 24.553960000000004], [94.02310000000001, 24.55308], [94.01392000000001, 24.54991]]]}}, {"id": "22", "type": "Feature", "properties": {"village_name": "Khongjom", "vil_lgd": 269958, "district_name": "Thoubal", "dist_lgd": 259, "subdistrict_name": "Thoubal", "sdcode": 1877, "block_name": "Thoubal", "block_lgd": 24.0, "gp_name": "SAMANAM GP", "state_name": "MANIPUR", "state_lgd": 14, "population": 2334, "households": 491}, "geometry": {"type": "Polygon", "coordinates": [[[94.05301000000001, 24.56219], [94.05315, 24.556240000000003], [94.05009000000001, 24.55282], [94.04299, 24.54916], [94.03506, 24.550670000000004], [94.02616, 24.553960000000004], [94.02672000000001, 24.558390000000003], [94.02797000000001, 24.56118], [94.02741, 24.564970000000002], [94.02602, 24.56624], [94.04283000000001, 24.568640000000002], [94.06219, 24.56953], [94.05941000000001, 24.567120000000003], [94.05468, 24.56548], [94.05301000000001, 24.56219]]]}}, {"id": "23", "type": "Feature", "properties": {"village_name": "Cherapur", "vil_lgd": 269952, "district_name": "Thoubal", "dist_lgd": 259, "subdistrict_name": "Thoubal", "sdcode": 1877, "block_name": "Thoubal", "block_lgd": 24.0, "gp_name": "SANGAIYUMPHAM  GP", "state_name": "MANIPUR", "state_lgd": 14, "population": 3193, "households": 613}, "geometry": {"type": "Polygon", "coordinates": [[[94.02266, 24.600530000000003], [94.02121000000001, 24.604930000000003], [94.02862, 24.609620000000003], [94.03056000000001, 24.61475], [94.03684000000001, 24.60976], [94.03442000000001, 24.608010000000004], [94.03297, 24.604630000000004], [94.02524000000001, 24.60068], [94.02266, 24.600530000000003]]]}}, {"id": "24", "type": "Feature", "properties": {"village_name": "Lilong Pt", "vil_lgd": 269932, "district_name": "Thoubal", "dist_lgd": 259, "subdistrict_name": "Lilong", "sdcode": 1876, "block_name": "Thoubal", "block_lgd": 24.0, "gp_name": "TUREL AHANBI ATOUKHONG", "state_name": "MANIPUR", "state_lgd": 14, "population": 3352, "households": 598}, "geometry": {"type": "Polygon", "coordinates": [[[93.95136000000001, 24.699340000000003], [93.95345, 24.70088], [93.95853000000001, 24.684900000000003], [93.95423000000001, 24.680870000000002], [93.95531000000001, 24.671180000000003], [93.94901, 24.66675], [93.94804, 24.662460000000003], [93.94669, 24.661230000000003], [93.94189, 24.660140000000002], [93.93836, 24.661160000000002], [93.94002, 24.66666], [93.93911000000001, 24.669500000000003], [93.93911000000001, 24.67116], [93.94054000000001, 24.67282], [93.93976, 24.677200000000003], [93.94094000000001, 24.678030000000003], [93.94133000000001, 24.679920000000003], [93.94041000000001, 24.68111], [93.94081000000001, 24.68869], [93.94237000000001, 24.69046], [93.94146, 24.69425], [93.94367000000001, 24.701120000000003], [93.94354000000001, 24.707870000000003], [93.94445, 24.70408], [93.94784000000001, 24.69958], [93.95136000000001, 24.699340000000003]]]}}, {"id": "25", "type": "Feature", "properties": {"village_name": "Haoreibi", "vil_lgd": 269931, "district_name": "Thoubal", "dist_lgd": 259, "subdistrict_name": "Lilong", "sdcode": 1876, "block_name": "Thoubal", "block_lgd": 24.0, "gp_name": "NUNGEI ATOUKHONG", "state_name": "MANIPUR", "state_lgd": 14, "population": 3218, "households": 570}, "geometry": {"type": "Polygon", "coordinates": [[[93.94146, 24.69425], [93.94237000000001, 24.69046], [93.94081000000001, 24.68869], [93.94041000000001, 24.68111], [93.94133000000001, 24.679920000000003], [93.94094000000001, 24.678030000000003], [93.93976, 24.677200000000003], [93.94054000000001, 24.67282], [93.93911000000001, 24.67116], [93.93911000000001, 24.669500000000003], [93.94002, 24.66666], [93.93836, 24.661160000000002], [93.93821000000001, 24.66253], [93.93664000000001, 24.66832], [93.93724, 24.677660000000003], [93.93634, 24.680310000000002], [93.93754000000001, 24.681680000000004], [93.93611000000001, 24.68372], [93.92044000000001, 24.68795], [93.92314, 24.69367], [93.92501000000001, 24.701990000000002], [93.92601, 24.70137], [93.92819, 24.70269], [93.93074000000001, 24.707150000000002], [93.93901000000001, 24.712960000000002], [93.94419, 24.71233], [93.94354000000001, 24.707870000000003], [93.94367000000001, 24.701120000000003], [93.94146, 24.69425]]]}}, {"id": "26", "type": "Feature", "properties": {"village_name": "Kang Samaram", "vil_lgd": 269986, "district_name": "Thoubal", "dist_lgd": 259, "subdistrict_name": "Thoubal", "sdcode": 1877, "block_name": "Thoubal", "block_lgd": 24.0, "gp_name": "SAMARAM", "state_name": "MANIPUR", "state_lgd": 14, "population": 3369, "households": 704}, "geometry": {"type": "Polygon", "coordinates": [[[94.04283000000001, 24.568640000000002], [94.02602, 24.56624], [94.02393000000001, 24.567380000000004], [94.00376000000001, 24.56725], [94.00589000000001, 24.57327], [94.01153000000001, 24.57796], [94.01288000000001, 24.581640000000004], [94.01605, 24.583380000000002], [94.02234000000001, 24.583380000000002], [94.02685000000001, 24.584850000000003], [94.03072, 24.58236], [94.03426, 24.578400000000002], [94.04281, 24.57722], [94.04283000000001, 24.568640000000002]]]}}, {"id": "27", "type": "Feature", "properties": {"village_name": "Lamding", "vil_lgd": 269948, "district_name": "Thoubal", "dist_lgd": 259, "subdistrict_name": "Thoubal", "sdcode": 1877, "block_name": "Thoubal", "block_lgd": 24.0, "gp_name": "SANGAIYUMPHAM", "state_name": "MANIPUR", "state_lgd": 14, "population": 1587, "households": 333}, "geometry": {"type": "Polygon", "coordinates": [[[94.04281, 24.57722], [94.03426, 24.578400000000002], [94.03072, 24.58236], [94.02685000000001, 24.584850000000003], [94.02733, 24.593940000000003], [94.02524000000001, 24.60068], [94.03297, 24.604630000000004], [94.03442000000001, 24.608010000000004], [94.03684000000001, 24.60976], [94.03636, 24.605950000000004], [94.03878, 24.596870000000003], [94.042, 24.596130000000002], [94.04281, 24.57722]]]}}, {"id": "28", "type": "Feature", "properties": {"village_name": "Sangaiyumpham", "vil_lgd": 269946, "district_name": "Thoubal", "dist_lgd": 259, "subdistrict_name": "Thoubal", "sdcode": 1877, "block_name": "Thoubal", "block_lgd": 24.0, "gp_name": "SANGAIYUMPHAM", "state_name": "MANIPUR", "state_lgd": 14, "population": 11311, "households": 2014}, "geometry": {"type": "Polygon", "coordinates": [[[94.02733, 24.593940000000003], [94.02685000000001, 24.584850000000003], [94.02234000000001, 24.583380000000002], [94.01605, 24.583380000000002], [94.01288000000001, 24.581640000000004], [94.00912000000001, 24.583090000000002], [94.0073, 24.584940000000003], [94.00638000000001, 24.58705], [94.00654, 24.589240000000004], [94.00879, 24.59599], [94.01379000000001, 24.602140000000002], [94.01718000000001, 24.604490000000002], [94.02121000000001, 24.604930000000003], [94.02266, 24.600530000000003], [94.02524000000001, 24.60068], [94.02733, 24.593940000000003]]]}}, {"id": "29", "type": "Feature", "properties": {"village_name": "Tentha", "vil_lgd": 269947, "district_name": "Thoubal", "dist_lgd": 259, "subdistrict_name": "Thoubal", "sdcode": 1877, "block_name": "Thoubal", "block_lgd": 24.0, "gp_name": "TENTHA", "state_name": "MANIPUR", "state_lgd": 14, "population": 9087, "households": 1766}, "geometry": {"type": "Polygon", "coordinates": [[[94.01153000000001, 24.57796], [94.00589000000001, 24.57327], [94.00376000000001, 24.56725], [93.9975, 24.556870000000004], [93.9975, 24.5532], [93.99903, 24.552190000000003], [93.995, 24.53131], [93.98612000000001, 24.52025], [93.97124000000001, 24.52287], [93.95937, 24.53338], [93.96662, 24.542450000000002], [93.96899, 24.55093], [93.96899, 24.556620000000002], [93.9676, 24.559530000000002], [93.96426000000001, 24.56257], [93.96440000000001, 24.5713], [93.96523, 24.57307], [93.96996000000001, 24.577240000000003], [93.97566, 24.57851], [93.97539, 24.58256], [93.97881000000001, 24.581180000000003], [93.98058, 24.584550000000004], [93.9822, 24.584850000000003], [93.98236000000001, 24.583090000000002], [93.98429, 24.583090000000002], [93.98381, 24.5847], [93.98478, 24.58529], [93.98735, 24.583530000000003], [93.98881, 24.583820000000003], [93.98864, 24.58529], [93.99026, 24.585430000000002], [93.99719, 24.582790000000003], [94.0073, 24.584940000000003], [94.00912000000001, 24.583090000000002], [94.01288000000001, 24.581640000000004], [94.01153000000001, 24.57796]]]}}, {"id": "30", "type": "Feature", "properties": {"village_name": "Khangabok", "vil_lgd": 269944, "district_name": "Thoubal", "dist_lgd": 259, "subdistrict_name": "Thoubal", "sdcode": 1877, "block_name": "Thoubal", "block_lgd": 24.0, "gp_name": "KHANGABOK  GP", "state_name": "MANIPUR", "state_lgd": 14, "population": 16344, "households": 3522}, "geometry": {"type": "Polygon", "coordinates": [[[94.02669, 24.624270000000003], [94.02508, 24.619000000000003], [94.03056000000001, 24.61475], [94.02862, 24.609620000000003], [94.02121000000001, 24.604930000000003], [94.01718000000001, 24.604490000000002], [94.01379000000001, 24.602140000000002], [94.00879, 24.59599], [94.00654, 24.589240000000004], [94.00638000000001, 24.58705], [94.0073, 24.584940000000003], [93.99719, 24.582790000000003], [93.99026, 24.585430000000002], [93.98864, 24.58529], [93.98881, 24.583820000000003], [93.98735, 24.583530000000003], [93.98478, 24.58529], [93.98381, 24.5847], [93.98429, 24.583090000000002], [93.98236000000001, 24.583090000000002], [93.9822, 24.584850000000003], [93.98058, 24.584550000000004], [93.97881000000001, 24.581180000000003], [93.97539, 24.58256], [93.97761000000001, 24.58547], [93.97831000000001, 24.588120000000004], [93.96787, 24.58762], [93.96189000000001, 24.594700000000003], [93.96217000000001, 24.59786], [93.96898, 24.598190000000002], [93.98929000000001, 24.601260000000003], [93.99574000000001, 24.603170000000002], [93.99816000000001, 24.60478], [94.00718, 24.615920000000003], [94.01041000000001, 24.621630000000003], [94.02040000000001, 24.632620000000003], [94.02782, 24.628960000000003], [94.02669, 24.624270000000003]]]}}, {"id": "31", "type": "Feature", "properties": {"village_name": "Thoubal Khunou", "vil_lgd": 269938, "district_name": "Thoubal", "dist_lgd": 259, "subdistrict_name": "Thoubal", "sdcode": 1877, "block_name": "Thoubal", "block_lgd": 24.0, "gp_name": "wangkhem", "state_name": "MANIPUR", "state_lgd": 14, "population": 179, "households": 33}, "geometry": {"type": "Polygon", "coordinates": [[[94.00557, 24.666760000000004], [94.00444, 24.66823], [94.00444, 24.673060000000003], [93.99977000000001, 24.676280000000002], [93.99609000000001, 24.676750000000002], [94.00613000000001, 24.688090000000003], [94.01320000000001, 24.68784], [94.01320000000001, 24.686030000000002], [94.00793, 24.681900000000002], [94.00775, 24.678440000000002], [94.01419000000001, 24.67312], [94.01556000000001, 24.66787], [94.01073000000001, 24.66588], [94.00557, 24.666760000000004]]]}}, {"id": "32", "type": "Feature", "properties": {"village_name": "Wangkhem", "vil_lgd": 269969, "district_name": "Thoubal", "dist_lgd": 259, "subdistrict_name": "Thoubal", "sdcode": 1877, "block_name": "Thoubal", "block_lgd": 24.0, "gp_name": "WANGKHEM", "state_name": "MANIPUR", "state_lgd": 14, "population": 5235, "households": 1021}, "geometry": {"type": "Polygon", "coordinates": [[[94.03942, 24.662370000000003], [94.03813000000001, 24.664420000000003], [94.03039000000001, 24.668370000000003], [94.03297, 24.669400000000003], [94.03351, 24.673750000000002], [94.04668000000001, 24.68203], [94.04668000000001, 24.673350000000003], [94.04506, 24.670420000000004], [94.04136000000001, 24.666760000000004], [94.03942, 24.662370000000003]]]}}, {"id": "33", "type": "Feature", "properties": {"village_name": "Charangpat Maklang", "vil_lgd": 269941, "district_name": "Thoubal", "dist_lgd": 259, "subdistrict_name": "Thoubal", "sdcode": 1877, "block_name": "Thoubal", "block_lgd": 24.0, "gp_name": "CHARANGPAT", "state_name": "MANIPUR", "state_lgd": 14, "population": 3535, "households": 790}, "geometry": {"type": "Polygon", "coordinates": [[[94.05844, 24.640390000000004], [94.0549, 24.64376], [94.05038, 24.645670000000003], [94.04832, 24.644750000000002], [94.03862000000001, 24.639660000000003], [94.03185, 24.638050000000003], [94.03136, 24.640980000000003], [94.03007000000001, 24.642590000000002], [94.03475, 24.64889], [94.04394, 24.65123], [94.06006000000001, 24.653720000000003], [94.05925, 24.64757], [94.05844, 24.640390000000004]]]}}, {"id": "34", "type": "Feature", "properties": {"village_name": "Hayel Labuk", "vil_lgd": 269939, "district_name": "Thoubal", "dist_lgd": 259, "subdistrict_name": "Thoubal", "sdcode": 1877, "block_name": "Thoubal", "block_lgd": 24.0, "gp_name": "KHANGABOK", "state_name": "MANIPUR", "state_lgd": 14, "population": 1758, "households": 341}, "geometry": {"type": "Polygon", "coordinates": [[[94.02894, 24.623980000000003], [94.02669, 24.624270000000003], [94.02782, 24.628960000000003], [94.03056000000001, 24.637020000000003], [94.03185, 24.638050000000003], [94.03862000000001, 24.639660000000003], [94.04832, 24.644750000000002], [94.04893000000001, 24.637900000000002], [94.04587000000001, 24.634240000000002], [94.03555, 24.626320000000003], [94.03201000000001, 24.62544], [94.02894, 24.623980000000003]]]}}, {"id": "35", "type": "Feature", "properties": {"village_name": "Wangbal", "vil_lgd": 269975, "district_name": "Thoubal", "dist_lgd": 259, "subdistrict_name": "Thoubal", "sdcode": 1877, "block_name": "Thoubal", "block_lgd": 24.0, "gp_name": "WANGBAL", "state_name": "MANIPUR", "state_lgd": 14, "population": 2420, "households": 516}, "geometry": {"type": "Polygon", "coordinates": [[[94.05071000000001, 24.63306], [94.05780000000001, 24.632920000000002], [94.06808000000001, 24.628300000000003], [94.06392000000001, 24.62471], [94.05345000000001, 24.61914], [94.04748000000001, 24.61636], [94.04248000000001, 24.616650000000003], [94.04039, 24.61504], [94.03684000000001, 24.60976], [94.03056000000001, 24.61475], [94.02508, 24.619000000000003], [94.02669, 24.624270000000003], [94.02894, 24.623980000000003], [94.03201000000001, 24.62544], [94.03555, 24.626320000000003], [94.04587000000001, 24.634240000000002], [94.04893000000001, 24.637900000000002], [94.05071000000001, 24.63306]]]}}, {"id": "36", "type": "Feature", "properties": {"village_name": "Poirou Tangkhul", "vil_lgd": 269973, "district_name": "Thoubal", "dist_lgd": 259, "subdistrict_name": "Thoubal", "sdcode": 1877, "block_name": "Thoubal", "block_lgd": 24.0, "gp_name": "", "state_name": "MANIPUR", "state_lgd": 14, "population": 0, "households": 0}, "geometry": {"type": "Polygon", "coordinates": [[[94.0262, 24.6672], [94.01755000000001, 24.667540000000002], [94.02181, 24.67282], [94.03081, 24.67266], [94.03351, 24.673750000000002], [94.03297, 24.669400000000003], [94.03039000000001, 24.668370000000003], [94.0262, 24.6672]]]}}, {"id": "37", "type": "Feature", "properties": {"village_name": "Kairembikhok", "vil_lgd": 269977, "district_name": "Thoubal", "dist_lgd": 259, "subdistrict_name": "Thoubal", "sdcode": 1877, "block_name": "Thoubal", "block_lgd": 24.0, "gp_name": "WANGBAL", "state_name": "MANIPUR", "state_lgd": 14, "population": 1779, "households": 399}, "geometry": {"type": "Polygon", "coordinates": [[[94.06151000000001, 24.610200000000003], [94.05925, 24.611960000000003], [94.05345000000001, 24.61914], [94.06392000000001, 24.62471], [94.06808000000001, 24.628300000000003], [94.07344, 24.625880000000002], [94.07156, 24.622290000000003], [94.07050000000001, 24.615530000000003], [94.07124, 24.61081], [94.06521000000001, 24.61035], [94.06151000000001, 24.610200000000003]]]}}, {"id": "38", "type": "Feature", "properties": {"village_name": "Samurou Np", "vil_lgd": 801488, "district_name": "Thoubal", "dist_lgd": 259, "subdistrict_name": "Lilong", "sdcode": 1876, "block_name": "", "block_lgd": null, "gp_name": "", "state_name": "MANIPUR", "state_lgd": 14, "population": 5861, "households": 1044}, "geometry": {"type": "Polygon", "coordinates": [[[93.92044000000001, 24.68795], [93.91066000000001, 24.68944], [93.91094000000001, 24.69131], [93.90876, 24.69741], [93.9093, 24.70005], [93.91439000000001, 24.70005], [93.92038000000001, 24.70484], [93.92501000000001, 24.701990000000002], [93.92314, 24.69367], [93.92044000000001, 24.68795]]]}}, {"id": "39", "type": "Feature", "properties": {"village_name": "Thoubal Mci", "vil_lgd": 801479, "district_name": "Thoubal", "dist_lgd": 259, "subdistrict_name": "Thoubal", "sdcode": 1877, "block_name": "", "block_lgd": null, "gp_name": "", "state_name": "MANIPUR", "state_lgd": 14, "population": 45947, "households": 9454}, "geometry": {"type": "Polygon", "coordinates": [[[94.01073000000001, 24.66588], [94.01556000000001, 24.66787], [94.01755000000001, 24.667540000000002], [94.0262, 24.6672], [94.03039000000001, 24.668370000000003], [94.03813000000001, 24.664420000000003], [94.03942, 24.662370000000003], [94.042, 24.65827], [94.03926000000001, 24.657970000000002], [94.03749, 24.65651], [94.03475, 24.64889], [94.03007000000001, 24.642590000000002], [94.02717000000001, 24.644350000000003], [94.02362000000001, 24.639370000000003], [94.02040000000001, 24.632620000000003], [94.01041000000001, 24.621630000000003], [94.00718, 24.615920000000003], [93.99816000000001, 24.60478], [93.99574000000001, 24.603170000000002], [93.98929000000001, 24.601260000000003], [93.96898, 24.598190000000002], [93.96217000000001, 24.59786], [93.96384, 24.6033], [93.96634, 24.60697], [93.9662, 24.61051], [93.96334, 24.615730000000003], [93.96884000000001, 24.617490000000004], [93.97465000000001, 24.621820000000003], [93.97599000000001, 24.62561], [93.98135, 24.63481], [93.98194000000001, 24.640220000000003], [93.98165, 24.65538], [93.98307000000001, 24.660190000000004], [93.98626, 24.66512], [93.99311, 24.670530000000003], [93.99356, 24.672690000000003], [93.99609000000001, 24.676750000000002], [93.99977000000001, 24.676280000000002], [94.00444, 24.673060000000003], [94.00444, 24.66823], [94.00557, 24.666760000000004], [94.01073000000001, 24.66588]]]}}, {"id": "40", "type": "Feature", "properties": {"village_name": "Wangjing Np", "vil_lgd": 801478, "district_name": "Thoubal", "dist_lgd": 259, "subdistrict_name": "Thoubal", "sdcode": 1877, "block_name": "", "block_lgd": null, "gp_name": "", "state_name": "MANIPUR", "state_lgd": 14, "population": 8055, "households": 1779}, "geometry": {"type": "Polygon", "coordinates": [[[94.04555, 24.59437], [94.042, 24.596130000000002], [94.03878, 24.596870000000003], [94.03636, 24.605950000000004], [94.03684000000001, 24.60976], [94.04345, 24.612550000000002], [94.04603, 24.612550000000002], [94.05022000000001, 24.610940000000003], [94.05248, 24.608150000000002], [94.0528, 24.605950000000004], [94.05232000000001, 24.602], [94.04942000000001, 24.59467], [94.04555, 24.59437]]]}}, {"id": "41", "type": "Feature", "properties": {"village_name": "Ikop Pat", "vil_lgd": 999999, "district_name": "Thoubal", "dist_lgd": 259, "subdistrict_name": "Thoubal", "sdcode": 1877, "block_name": "", "block_lgd": null, "gp_name": "", "state_name": "MANIPUR", "state_lgd": 14, "population": 0, "households": 0}, "geometry": {"type": "Polygon", "coordinates": [[[93.94741, 24.611810000000002], [93.95009, 24.61316], [93.95366000000001, 24.616680000000002], [93.95544000000001, 24.616830000000004], [93.95876000000001, 24.616120000000002], [93.96334, 24.615730000000003], [93.9662, 24.61051], [93.96634, 24.60697], [93.96384, 24.6033], [93.96217000000001, 24.59786], [93.96189000000001, 24.594700000000003], [93.96787, 24.58762], [93.97831000000001, 24.588120000000004], [93.97761000000001, 24.58547], [93.97539, 24.58256], [93.97566, 24.57851], [93.96996000000001, 24.577240000000003], [93.96523, 24.57307], [93.96440000000001, 24.5713], [93.96426000000001, 24.56257], [93.9676, 24.559530000000002], [93.96899, 24.556620000000002], [93.96899, 24.55093], [93.96662, 24.542450000000002], [93.95937, 24.53338], [93.94708000000001, 24.54155], [93.94127, 24.54435], [93.92202, 24.54501], [93.91512, 24.54898], [93.91253, 24.558960000000003], [93.91348, 24.56058], [93.91942, 24.56633], [93.92181000000001, 24.56971], [93.9227, 24.573100000000004], [93.9227, 24.575400000000002], [93.91898, 24.577160000000003], [93.91585, 24.581760000000003], [93.91585, 24.584490000000002], [93.91585, 24.587580000000003], [93.91914000000001, 24.592360000000003], [93.92791000000001, 24.59814], [93.92865, 24.60328], [93.92746000000001, 24.60518], [93.92225, 24.609370000000002], [93.91779000000001, 24.615730000000003], [93.91682, 24.617050000000003], [93.91362000000001, 24.62236], [93.91466000000001, 24.62534], [93.92264, 24.62648], [93.92657000000001, 24.625500000000002], [93.94041000000001, 24.617630000000002], [93.94592, 24.612620000000003], [93.94741, 24.611810000000002]]]}}, {"id": "42", "type": "Feature", "properties": {"village_name": "Charangpat Mamang", "vil_lgd": 269968, "district_name": "Thoubal", "dist_lgd": 259, "subdistrict_name": "Thoubal", "sdcode": 1877, "block_name": "Thoubal", "block_lgd": 24.0, "gp_name": "CHARANGPAT", "state_name": "MANIPUR", "state_lgd": 14, "population": 2834, "households": 627}, "geometry": {"type": "Polygon", "coordinates": [[[94.03475, 24.64889], [94.03749, 24.65651], [94.03926000000001, 24.657970000000002], [94.042, 24.65827], [94.05683, 24.65827], [94.06376, 24.65885], [94.06763000000001, 24.65651], [94.06006000000001, 24.653720000000003], [94.04394, 24.65123], [94.03475, 24.64889]]]}}, {"id": "43", "type": "Feature", "properties": {"village_name": "Wangjing", "vil_lgd": 269949, "district_name": "Thoubal", "dist_lgd": 259, "subdistrict_name": "Thoubal", "sdcode": 1877, "block_name": "Thoubal", "block_lgd": 24.0, "gp_name": "WANGJING", "state_name": "MANIPUR", "state_lgd": 14, "population": 2960, "households": 672}, "geometry": {"type": "Polygon", "coordinates": [[[94.06151000000001, 24.610200000000003], [94.06505000000001, 24.59965], [94.06828, 24.597310000000004], [94.07086000000001, 24.592910000000003], [94.06973, 24.58968], [94.06699, 24.579420000000002], [94.06219, 24.56953], [94.04283000000001, 24.568640000000002], [94.04281, 24.57722], [94.042, 24.596130000000002], [94.04555, 24.59437], [94.04942000000001, 24.59467], [94.05232000000001, 24.602], [94.0528, 24.605950000000004], [94.05248, 24.608150000000002], [94.05022000000001, 24.610940000000003], [94.04603, 24.612550000000002], [94.04345, 24.612550000000002], [94.03684000000001, 24.60976], [94.04039, 24.61504], [94.04248000000001, 24.616650000000003], [94.04748000000001, 24.61636], [94.05345000000001, 24.61914], [94.05925, 24.611960000000003], [94.06151000000001, 24.610200000000003]]]}}, {"id": "44", "type": "Feature", "properties": {"village_name": "Langathel", "vil_lgd": 269954, "district_name": "Thoubal", "dist_lgd": 259, "subdistrict_name": "Thoubal", "sdcode": 1877, "block_name": "Thoubal", "block_lgd": 24.0, "gp_name": "LANGATHEL   GP", "state_name": "MANIPUR", "state_lgd": 14, "population": 4742, "households": 1041}, "geometry": {"type": "Polygon", "coordinates": [[[94.05857, 24.547890000000002], [94.06108, 24.548270000000002], [94.06372, 24.54688], [94.06706000000001, 24.541690000000003], [94.06414000000001, 24.53751], [94.06372, 24.53562], [94.06044000000001, 24.53218], [94.05746, 24.53301], [94.05512, 24.53497], [94.05063000000001, 24.540200000000002], [94.04794000000001, 24.54804], [94.04578000000001, 24.547880000000003], [94.04299, 24.54916], [94.05009000000001, 24.55282], [94.05315, 24.556240000000003], [94.05774000000001, 24.55029], [94.05857, 24.547890000000002]]]}}, {"id": "45", "type": "Feature", "properties": {"village_name": "Phundrei", "vil_lgd": 269955, "district_name": "Thoubal", "dist_lgd": 259, "subdistrict_name": "Thoubal", "sdcode": 1877, "block_name": "Thoubal", "block_lgd": 24.0, "gp_name": "LANGTHEL ( G P)", "state_name": "MANIPUR", "state_lgd": 14, "population": 3087, "households": 558}, "geometry": {"type": "Polygon", "coordinates": [[[94.0738, 24.55996], [94.07631, 24.552290000000003], [94.08102000000001, 24.548240000000003], [94.07304, 24.544220000000003], [94.06789, 24.543080000000003], [94.06706000000001, 24.541690000000003], [94.06372, 24.54688], [94.06108, 24.548270000000002], [94.05857, 24.547890000000002], [94.05774000000001, 24.55029], [94.05315, 24.556240000000003], [94.05301000000001, 24.56219], [94.05468, 24.56548], [94.07457000000001, 24.565730000000002], [94.07478, 24.562970000000004], [94.0738, 24.55996]]]}}, {"id": "46", "type": "Feature", "properties": {"village_name": "Chingdompok", "vil_lgd": 269983, "district_name": "Thoubal", "dist_lgd": 259, "subdistrict_name": "Thoubal", "sdcode": 1877, "block_name": "Thoubal", "block_lgd": 24.0, "gp_name": "HEIROK PT II", "state_name": "MANIPUR", "state_lgd": 14, "population": 1146, "households": 252}, "geometry": {"type": "Polygon", "coordinates": [[[94.09249000000001, 24.571890000000003], [94.09104, 24.5714], [94.0896, 24.568130000000004], [94.09212000000001, 24.560940000000002], [94.09266000000001, 24.55441], [94.08907, 24.552780000000002], [94.08619, 24.553590000000003], [94.08260000000001, 24.56258], [94.08080000000001, 24.564210000000003], [94.07811000000001, 24.565350000000002], [94.07478, 24.562970000000004], [94.07457000000001, 24.565730000000002], [94.07819, 24.57028], [94.08396, 24.57259], [94.08834, 24.57421], [94.09057000000001, 24.574080000000002], [94.09249000000001, 24.571890000000003]]]}}, {"id": "47", "type": "Feature", "properties": {"village_name": "Ingourok", "vil_lgd": 269972, "district_name": "Thoubal", "dist_lgd": 259, "subdistrict_name": "Thoubal", "sdcode": 1877, "block_name": "Thoubal", "block_lgd": 24.0, "gp_name": "LOUREMBAM", "state_name": "MANIPUR", "state_lgd": 14, "population": 593, "households": 129}, "geometry": {"type": "Polygon", "coordinates": [[[94.11942, 24.55196], [94.1169, 24.55441], [94.10713000000001, 24.569260000000003], [94.10961, 24.57159], [94.11212, 24.573960000000003], [94.11594000000001, 24.57588], [94.11762, 24.57205], [94.12175, 24.55572], [94.12157, 24.55261], [94.11942, 24.55196]]]}}, {"id": "48", "type": "Feature", "properties": {"village_name": "Pechi", "vil_lgd": 269970, "district_name": "Thoubal", "dist_lgd": 259, "subdistrict_name": "Thoubal", "sdcode": 1877, "block_name": "Thoubal", "block_lgd": 24.0, "gp_name": "LOUREMBAM", "state_name": "MANIPUR", "state_lgd": 14, "population": 830, "households": 176}, "geometry": {"type": "Polygon", "coordinates": [[[94.08472, 24.65651], [94.08472, 24.655330000000003], [94.08359, 24.654600000000002], [94.07634, 24.656070000000003], [94.07373000000001, 24.655820000000002], [94.06763000000001, 24.65651], [94.06376, 24.65885], [94.05683, 24.65827], [94.05860000000001, 24.659580000000002], [94.06328, 24.66588], [94.07666, 24.667050000000003], [94.07827, 24.66222], [94.08117000000001, 24.660320000000002], [94.08472, 24.65651]]]}}, {"id": "49", "type": "Feature", "properties": {"village_name": "Heirok Part Ii Pt", "vil_lgd": 269982, "district_name": "Thoubal", "dist_lgd": 259, "subdistrict_name": "Thoubal", "sdcode": 1877, "block_name": "Thoubal", "block_lgd": 24.0, "gp_name": "HEIROK PT II", "state_name": "MANIPUR", "state_lgd": 14, "population": 6205, "households": 1375}, "geometry": {"type": "Polygon", "coordinates": [[[94.07472000000001, 24.586750000000002], [94.07714000000001, 24.58397], [94.08085000000001, 24.582210000000003], [94.09004, 24.57869], [94.09342000000001, 24.57869], [94.09871000000001, 24.5773], [94.10245, 24.576340000000002], [94.10793000000001, 24.573410000000003], [94.10961, 24.57159], [94.10713000000001, 24.569260000000003], [94.10386000000001, 24.57243], [94.10038, 24.57336], [94.09607000000001, 24.571230000000003], [94.09249000000001, 24.571890000000003], [94.09057000000001, 24.574080000000002], [94.08834, 24.57421], [94.08396, 24.57259], [94.08262, 24.57561], [94.06699, 24.579420000000002], [94.06973, 24.58968], [94.07178, 24.588440000000002], [94.07472000000001, 24.586750000000002]]]}}, {"id": "50", "type": "Feature", "properties": {"village_name": "Heirok Part I Pt", "vil_lgd": 269981, "district_name": "Thoubal", "dist_lgd": 259, "subdistrict_name": "Thoubal", "sdcode": 1877, "block_name": "Thoubal", "block_lgd": 24.0, "gp_name": "HEIROK PT I", "state_name": "MANIPUR", "state_lgd": 14, "population": 9574, "households": 2097}, "geometry": {"type": "Polygon", "coordinates": [[[94.09391000000001, 24.60903], [94.10295, 24.608430000000002], [94.10379, 24.602590000000003], [94.09679000000001, 24.59606], [94.09697000000001, 24.590510000000002], [94.10056, 24.585440000000002], [94.11313000000001, 24.57891], [94.11594000000001, 24.57588], [94.11212, 24.573960000000003], [94.10961, 24.57159], [94.10793000000001, 24.573410000000003], [94.10245, 24.576340000000002], [94.09871000000001, 24.5773], [94.10084, 24.579130000000003], [94.10164, 24.58294], [94.10084, 24.58426], [94.0931, 24.58998], [94.08955, 24.591440000000002], [94.08375000000001, 24.591440000000002], [94.07408000000001, 24.589830000000003], [94.07178, 24.588440000000002], [94.06973, 24.58968], [94.07086000000001, 24.592910000000003], [94.07150000000001, 24.594520000000003], [94.07618000000001, 24.59936], [94.07682000000001, 24.603610000000003], [94.07650000000001, 24.610940000000003], [94.08859000000001, 24.61079], [94.09391000000001, 24.60903]]]}}, {"id": "51", "type": "Feature", "properties": {"village_name": "Kangthokchao", "vil_lgd": 269978, "district_name": "Thoubal", "dist_lgd": 259, "subdistrict_name": "Thoubal", "sdcode": 1877, "block_name": "Thoubal", "block_lgd": 24.0, "gp_name": "SALENGPHAM KANGYAMBAM", "state_name": "MANIPUR", "state_lgd": 14, "population": 2162, "households": 530}, "geometry": {"type": "Polygon", "coordinates": [[[94.09783, 24.617130000000003], [94.0982, 24.614060000000002], [94.10237000000001, 24.61026], [94.10295, 24.608430000000002], [94.09391000000001, 24.60903], [94.08859000000001, 24.61079], [94.07650000000001, 24.610940000000003], [94.07521000000001, 24.612550000000002], [94.07698, 24.614160000000002], [94.07698, 24.61738], [94.07908, 24.618260000000003], [94.08762, 24.618850000000002], [94.09783, 24.617130000000003]]]}}, {"id": "52", "type": "Feature", "properties": {"village_name": "Kangyambem", "vil_lgd": 269979, "district_name": "Thoubal", "dist_lgd": 259, "subdistrict_name": "Thoubal", "sdcode": 1877, "block_name": "Thoubal", "block_lgd": 24.0, "gp_name": "KANG YAMBEM", "state_name": "MANIPUR", "state_lgd": 14, "population": 3090, "households": 681}, "geometry": {"type": "Polygon", "coordinates": [[[94.10179000000001, 24.63081], [94.10147, 24.62825], [94.09783, 24.61934], [94.09783, 24.617130000000003], [94.08762, 24.618850000000002], [94.08665, 24.621340000000004], [94.08424000000001, 24.62383], [94.07956, 24.627060000000004], [94.08085000000001, 24.63043], [94.08269000000001, 24.632410000000004], [94.08343, 24.633210000000002], [94.09036, 24.634240000000002], [94.09149000000001, 24.63585], [94.09665000000001, 24.631600000000002], [94.10179000000001, 24.63081]]]}}, {"id": "53", "type": "Feature", "properties": {"village_name": "Ningel", "vil_lgd": 269963, "district_name": "Thoubal", "dist_lgd": 259, "subdistrict_name": "Thoubal", "sdcode": 1877, "block_name": "Thoubal", "block_lgd": 24.0, "gp_name": "LEIRONGTHEL NINGEL GP", "state_name": "MANIPUR", "state_lgd": 14, "population": 338, "households": 72}, "geometry": {"type": "Polygon", "coordinates": [[[94.12212000000001, 24.69562], [94.12800000000001, 24.693070000000002], [94.12453000000001, 24.691640000000003], [94.11963, 24.68438], [94.11618000000001, 24.674970000000002], [94.11581000000001, 24.671670000000002], [94.11818000000001, 24.66606], [94.11745, 24.663580000000003], [94.11589000000001, 24.662170000000003], [94.11208, 24.662170000000003], [94.10746, 24.6654], [94.10546000000001, 24.664410000000004], [94.10616, 24.672620000000002], [94.10745000000001, 24.680680000000002], [94.11148000000001, 24.68654], [94.11019, 24.697080000000003], [94.11519000000001, 24.6962], [94.12212000000001, 24.69562]]]}}, {"id": "54", "type": "Feature", "properties": {"village_name": "Khoirom", "vil_lgd": 269971, "district_name": "Thoubal", "dist_lgd": 259, "subdistrict_name": "Thoubal", "sdcode": 1877, "block_name": "Thoubal", "block_lgd": 24.0, "gp_name": "LEIRONGTHEL NINGEL", "state_name": "MANIPUR", "state_lgd": 14, "population": 4037, "households": 820}, "geometry": {"type": "Polygon", "coordinates": [[[94.09729, 24.69283], [94.09536000000001, 24.6899], [94.09358, 24.688000000000002], [94.08714, 24.685950000000002], [94.08456000000001, 24.68419], [94.07908, 24.689030000000002], [94.07826000000001, 24.69162], [94.08253, 24.69396], [94.08472, 24.69217], [94.08892, 24.695570000000004], [94.09133000000001, 24.70033], [94.09555, 24.705430000000003], [94.09826000000001, 24.701620000000002], [94.09729, 24.69283]]]}}, {"id": "55", "type": "Feature", "properties": {"village_name": "Kakmayai", "vil_lgd": 269965, "district_name": "Thoubal", "dist_lgd": 259, "subdistrict_name": "Thoubal", "sdcode": 1877, "block_name": "Thoubal", "block_lgd": 24.0, "gp_name": "LEIRONTHEL NINGEL GP", "state_name": "MANIPUR", "state_lgd": 14, "population": 657, "households": 99}, "geometry": {"type": "Polygon", "coordinates": [[[94.10546000000001, 24.664410000000004], [94.10084, 24.666030000000003], [94.09552000000001, 24.66325], [94.08810000000001, 24.66588], [94.08698000000001, 24.667050000000003], [94.09745000000001, 24.676430000000003], [94.09697000000001, 24.68053], [94.09858000000001, 24.682000000000002], [94.09907000000001, 24.6858], [94.10197000000001, 24.689030000000002], [94.10471000000001, 24.698690000000003], [94.10777, 24.698400000000003], [94.11019, 24.697080000000003], [94.11148000000001, 24.68654], [94.10745000000001, 24.680680000000002], [94.10616, 24.672620000000002], [94.10546000000001, 24.664410000000004]]]}}, {"id": "56", "type": "Feature", "properties": {"village_name": "Bengi", "vil_lgd": 269942, "district_name": "Thoubal", "dist_lgd": 259, "subdistrict_name": "Thoubal", "sdcode": 1877, "block_name": "Thoubal", "block_lgd": 24.0, "gp_name": "LOUREMBAM", "state_name": "MANIPUR", "state_lgd": 14, "population": 807, "households": 175}, "geometry": {"type": "Polygon", "coordinates": [[[94.08359, 24.654600000000002], [94.07892000000001, 24.65079], [94.07440000000001, 24.64083], [94.07198000000001, 24.637900000000002], [94.06941, 24.638340000000003], [94.06795000000001, 24.640980000000003], [94.06699, 24.64391], [94.06747000000001, 24.64684], [94.07001000000001, 24.64926], [94.07327000000001, 24.652990000000003], [94.07373000000001, 24.655820000000002], [94.07634, 24.656070000000003], [94.08359, 24.654600000000002]]]}}, {"id": "57", "type": "Feature", "properties": {"village_name": "Icham Kunou", "vil_lgd": 269943, "district_name": "Thoubal", "dist_lgd": 259, "subdistrict_name": "Thoubal", "sdcode": 1877, "block_name": "Thoubal", "block_lgd": 24.0, "gp_name": "LOUREMBAM GP", "state_name": "MANIPUR", "state_lgd": 14, "population": 664, "households": 145}, "geometry": {"type": "Polygon", "coordinates": [[[94.07373000000001, 24.655820000000002], [94.07327000000001, 24.652990000000003], [94.07001000000001, 24.64926], [94.06263000000001, 24.64889], [94.05925, 24.64757], [94.06006000000001, 24.653720000000003], [94.06763000000001, 24.65651], [94.07373000000001, 24.655820000000002]]]}}, {"id": "58", "type": "Feature", "properties": {"village_name": "Thokchom", "vil_lgd": 269974, "district_name": "Thoubal", "dist_lgd": 259, "subdistrict_name": "Thoubal", "sdcode": 1877, "block_name": "Thoubal", "block_lgd": 24.0, "gp_name": "LOURENBAM", "state_name": "MANIPUR", "state_lgd": 14, "population": 697, "households": 148}, "geometry": {"type": "Polygon", "coordinates": [[[94.05844, 24.640390000000004], [94.05925, 24.64757], [94.06263000000001, 24.64889], [94.07001000000001, 24.64926], [94.06747000000001, 24.64684], [94.06699, 24.64391], [94.06795000000001, 24.640980000000003], [94.05844, 24.640390000000004]]]}}, {"id": "59", "type": "Feature", "properties": {"village_name": "Lourembam", "vil_lgd": 269966, "district_name": "Thoubal", "dist_lgd": 259, "subdistrict_name": "Thoubal", "sdcode": 1877, "block_name": "Thoubal", "block_lgd": 24.0, "gp_name": "LOUREMBAM", "state_name": "MANIPUR", "state_lgd": 14, "population": 1050, "households": 242}, "geometry": {"type": "Polygon", "coordinates": [[[94.08649000000001, 24.642740000000003], [94.08391, 24.646250000000002], [94.08375000000001, 24.649910000000002], [94.08569000000001, 24.65123], [94.08923000000001, 24.651670000000003], [94.09084000000001, 24.652700000000003], [94.09342000000001, 24.651670000000003], [94.09391000000001, 24.649620000000002], [94.09358, 24.64742], [94.08972000000001, 24.643610000000002], [94.08649000000001, 24.642740000000003]]]}}, {"id": "60", "type": "Feature", "properties": {"village_name": "Langmeithel", "vil_lgd": 269967, "district_name": "Thoubal", "dist_lgd": 259, "subdistrict_name": "Thoubal", "sdcode": 1877, "block_name": "Thoubal", "block_lgd": 24.0, "gp_name": "LOUREMBAM", "state_name": "MANIPUR", "state_lgd": 14, "population": 931, "households": 200}, "geometry": {"type": "Polygon", "coordinates": [[[94.08269000000001, 24.632410000000004], [94.08037, 24.637610000000002], [94.08133000000001, 24.6398], [94.08649000000001, 24.642740000000003], [94.08972000000001, 24.643610000000002], [94.09149000000001, 24.640980000000003], [94.09149000000001, 24.63585], [94.09036, 24.634240000000002], [94.08343, 24.633210000000002], [94.08269000000001, 24.632410000000004]]]}}, {"id": "61", "type": "Feature", "properties": {"village_name": "Uyal", "vil_lgd": 269976, "district_name": "Thoubal", "dist_lgd": 259, "subdistrict_name": "Thoubal", "sdcode": 1877, "block_name": "Thoubal", "block_lgd": 24.0, "gp_name": "WANGBAL", "state_name": "MANIPUR", "state_lgd": 14, "population": 1267, "households": 271}, "geometry": {"type": "Polygon", "coordinates": [[[94.05844, 24.640390000000004], [94.06795000000001, 24.640980000000003], [94.06941, 24.638340000000003], [94.07198000000001, 24.637900000000002], [94.07376000000001, 24.6335], [94.07408000000001, 24.629250000000003], [94.07344, 24.625880000000002], [94.06808000000001, 24.628300000000003], [94.05780000000001, 24.632920000000002], [94.05071000000001, 24.63306], [94.04893000000001, 24.637900000000002], [94.04832, 24.644750000000002], [94.05038, 24.645670000000003], [94.0549, 24.64376], [94.05844, 24.640390000000004]]]}}, {"id": "62", "type": "Feature", "properties": {"village_name": "Saram Tangkhul", "vil_lgd": 269985, "district_name": "Thoubal", "dist_lgd": 259, "subdistrict_name": "Thoubal", "sdcode": 1877, "block_name": "Thoubal", "block_lgd": 24.0, "gp_name": "", "state_name": "MANIPUR", "state_lgd": 14, "population": 75, "households": 16}, "geometry": {"type": "Polygon", "coordinates": [[[94.07124, 24.61081], [94.07050000000001, 24.615530000000003], [94.07156, 24.622290000000003], [94.07344, 24.625880000000002], [94.07408000000001, 24.629250000000003], [94.07376000000001, 24.6335], [94.07198000000001, 24.637900000000002], [94.07440000000001, 24.64083], [94.07892000000001, 24.65079], [94.08359, 24.654600000000002], [94.08472, 24.655330000000003], [94.08472, 24.65651], [94.08117000000001, 24.660320000000002], [94.07827, 24.66222], [94.07666, 24.667050000000003], [94.07908, 24.66823], [94.07892000000001, 24.67218], [94.08472, 24.674090000000003], [94.08536000000001, 24.677020000000002], [94.08456000000001, 24.68419], [94.08714, 24.685950000000002], [94.09358, 24.688000000000002], [94.09536000000001, 24.6899], [94.09729, 24.69283], [94.09826000000001, 24.701620000000002], [94.10148000000001, 24.70221], [94.10293, 24.69986], [94.10471000000001, 24.698690000000003], [94.10197000000001, 24.689030000000002], [94.09907000000001, 24.6858], [94.09858000000001, 24.682000000000002], [94.09697000000001, 24.68053], [94.09745000000001, 24.676430000000003], [94.08698000000001, 24.667050000000003], [94.08810000000001, 24.66588], [94.09552000000001, 24.66325], [94.09504000000001, 24.66193], [94.09101000000001, 24.66119], [94.08794, 24.65827], [94.09084000000001, 24.652700000000003], [94.08923000000001, 24.651670000000003], [94.08569000000001, 24.65123], [94.08375000000001, 24.649910000000002], [94.08391, 24.646250000000002], [94.08649000000001, 24.642740000000003], [94.08133000000001, 24.6398], [94.08037, 24.637610000000002], [94.08269000000001, 24.632410000000004], [94.08085000000001, 24.63043], [94.07956, 24.627060000000004], [94.08424000000001, 24.62383], [94.08665, 24.621340000000004], [94.08762, 24.618850000000002], [94.07908, 24.618260000000003], [94.07698, 24.61738], [94.07698, 24.614160000000002], [94.07521000000001, 24.612550000000002], [94.07650000000001, 24.610940000000003], [94.07231, 24.61108], [94.07124, 24.61081]]]}}, {"id": "63", "type": "Feature", "properties": {"village_name": "Langol", "vil_lgd": 269957, "district_name": "Thoubal", "dist_lgd": 259, "subdistrict_name": "Thoubal", "sdcode": 1877, "block_name": "Thoubal", "block_lgd": 24.0, "gp_name": "", "state_name": "MANIPUR", "state_lgd": 14, "population": 0, "households": 0}, "geometry": {"type": "Polygon", "coordinates": [[[94.07721000000001, 24.52954], [94.08166000000001, 24.52954], [94.08319, 24.52802], [94.08361000000001, 24.52587], [94.08287000000001, 24.52372], [94.07901000000001, 24.524680000000004], [94.07075, 24.521900000000002], [94.06877, 24.522720000000003], [94.06213000000001, 24.5317], [94.06044000000001, 24.53218], [94.06372, 24.53562], [94.07443, 24.531820000000003], [94.07513, 24.5303], [94.07721000000001, 24.52954]]]}}, {"id": "64", "type": "Feature", "properties": {"village_name": "Lamlong", "vil_lgd": 269956, "district_name": "Thoubal", "dist_lgd": 259, "subdistrict_name": "Thoubal", "sdcode": 1877, "block_name": "Thoubal", "block_lgd": 24.0, "gp_name": "", "state_name": "MANIPUR", "state_lgd": 14, "population": 0, "households": 0}, "geometry": {"type": "Polygon", "coordinates": [[[94.10343, 24.5237], [94.09822000000001, 24.51847], [94.09481000000001, 24.520100000000003], [94.08727, 24.51977], [94.08408000000001, 24.52155], [94.08287000000001, 24.52372], [94.08361000000001, 24.52587], [94.08319, 24.52802], [94.08166000000001, 24.52954], [94.07721000000001, 24.52954], [94.07513, 24.5303], [94.07443, 24.531820000000003], [94.06372, 24.53562], [94.06414000000001, 24.53751], [94.06706000000001, 24.541690000000003], [94.06789, 24.543080000000003], [94.07304, 24.544220000000003], [94.08102000000001, 24.548240000000003], [94.08601, 24.545260000000003], [94.08781, 24.54134], [94.0896, 24.53187], [94.09230000000001, 24.530230000000003], [94.1011, 24.5286], [94.10343, 24.5237]]]}}, {"id": "65", "type": "Feature", "properties": {"village_name": "Kangdabi", "vil_lgd": 269984, "district_name": "Thoubal", "dist_lgd": 259, "subdistrict_name": "Thoubal", "sdcode": 1877, "block_name": "Thoubal", "block_lgd": 24.0, "gp_name": "", "state_name": "MANIPUR", "state_lgd": 14, "population": 0, "households": 0}, "geometry": {"type": "Polygon", "coordinates": [[[94.07819, 24.57028], [94.07457000000001, 24.565730000000002], [94.05468, 24.56548], [94.05941000000001, 24.567120000000003], [94.06219, 24.56953], [94.06699, 24.579420000000002], [94.08262, 24.57561], [94.08396, 24.57259], [94.07819, 24.57028]]]}}, {"id": "66", "type": "Feature", "properties": {"village_name": "Heirok Np", "vil_lgd": 801477, "district_name": "Thoubal", "dist_lgd": 259, "subdistrict_name": "Thoubal", "sdcode": 1877, "block_name": "", "block_lgd": null, "gp_name": "", "state_name": "MANIPUR", "state_lgd": 14, "population": 2974, "households": 668}, "geometry": {"type": "Polygon", "coordinates": [[[94.09871000000001, 24.5773], [94.09342000000001, 24.57869], [94.09004, 24.57869], [94.08085000000001, 24.582210000000003], [94.07714000000001, 24.58397], [94.07472000000001, 24.586750000000002], [94.07178, 24.588440000000002], [94.07408000000001, 24.589830000000003], [94.08375000000001, 24.591440000000002], [94.08955, 24.591440000000002], [94.0931, 24.58998], [94.10084, 24.58426], [94.10164, 24.58294], [94.10084, 24.579130000000003], [94.09871000000001, 24.5773]]]}}, {"id": "67", "type": "Feature", "properties": {"village_name": "Yairipok Np", "vil_lgd": 801481, "district_name": "Thoubal", "dist_lgd": 259, "subdistrict_name": "Thoubal", "sdcode": 1877, "block_name": "", "block_lgd": null, "gp_name": "", "state_name": "MANIPUR", "state_lgd": 14, "population": 9569, "households": 2027}, "geometry": {"type": "Polygon", "coordinates": [[[94.08536000000001, 24.677020000000002], [94.08472, 24.674090000000003], [94.07892000000001, 24.67218], [94.07908, 24.66823], [94.07666, 24.667050000000003], [94.06328, 24.66588], [94.05860000000001, 24.659580000000002], [94.05683, 24.65827], [94.042, 24.65827], [94.03942, 24.662370000000003], [94.04136000000001, 24.666760000000004], [94.04506, 24.670420000000004], [94.04668000000001, 24.673350000000003], [94.04668000000001, 24.68203], [94.0477, 24.682720000000003], [94.05860000000001, 24.682070000000003], [94.06623, 24.6857], [94.07150000000001, 24.686850000000003], [94.07826000000001, 24.69162], [94.07908, 24.689030000000002], [94.08456000000001, 24.68419], [94.08536000000001, 24.677020000000002]]]}}, {"id": "68", "type": "Feature", "properties": {"village_name": "Sikhong Sekmai Np", "vil_lgd": 801480, "district_name": "Thoubal", "dist_lgd": 259, "subdistrict_name": "Thoubal", "sdcode": 1877, "block_name": "", "block_lgd": null, "gp_name": "", "state_name": "MANIPUR", "state_lgd": 14, "population": 7390, "households": 1578}, "geometry": {"type": "Polygon", "coordinates": [[[94.12471000000001, 24.637500000000003], [94.13143000000001, 24.633210000000002], [94.13162000000001, 24.62974], [94.13016, 24.626600000000003], [94.12780000000001, 24.625280000000004], [94.12399, 24.625280000000004], [94.11926000000001, 24.629250000000003], [94.11636000000001, 24.63568], [94.11345000000001, 24.636010000000002], [94.10928000000001, 24.638330000000003], [94.10564000000001, 24.64476], [94.10328000000001, 24.64608], [94.1011, 24.64592], [94.10019000000001, 24.64262], [94.10179000000001, 24.63081], [94.09665000000001, 24.631600000000002], [94.09149000000001, 24.63585], [94.09149000000001, 24.640980000000003], [94.08972000000001, 24.643610000000002], [94.09358, 24.64742], [94.09391000000001, 24.649620000000002], [94.09342000000001, 24.651670000000003], [94.09084000000001, 24.652700000000003], [94.08794, 24.65827], [94.09101000000001, 24.66119], [94.09504000000001, 24.66193], [94.09552000000001, 24.66325], [94.10084, 24.666030000000003], [94.10546000000001, 24.664410000000004], [94.10528000000001, 24.66259], [94.10873000000001, 24.65434], [94.11781, 24.645750000000003], [94.12471000000001, 24.637500000000003]]]}}, {"id": "69", "type": "Feature", "properties": {"village_name": "Lilong Thoubal Np Plus Og", "vil_lgd": 801476, "district_name": "Thoubal", "dist_lgd": 259, "subdistrict_name": "Lilong", "sdcode": 1876, "block_name": "", "block_lgd": null, "gp_name": "", "state_name": "MANIPUR", "state_lgd": 14, "population": 22888, "households": 4011}, "geometry": {"type": "Polygon", "coordinates": [[[93.94784000000001, 24.69958], [93.94445, 24.70408], [93.94354000000001, 24.707870000000003], [93.94419, 24.71233], [93.94616, 24.712090000000003], [93.95595, 24.70305], [93.95345, 24.70088], [93.95136000000001, 24.699340000000003], [93.94784000000001, 24.69958]]]}}, {"id": "70", "type": "Feature", "properties": {"village_name": "Phanjangkhong", "vil_lgd": 269961, "district_name": "Thoubal", "dist_lgd": 259, "subdistrict_name": "Thoubal", "sdcode": 1877, "block_name": "Thoubal", "block_lgd": 24.0, "gp_name": "LEIRONGTHEL NINGEL", "state_name": "MANIPUR", "state_lgd": 14, "population": 235, "households": 46}, "geometry": {"type": "Polygon", "coordinates": [[[94.14066000000001, 24.701240000000002], [94.13953000000001, 24.70689], [94.13679, 24.709090000000003], [94.13679, 24.71742], [94.13870000000001, 24.71705], [94.16031000000001, 24.727110000000003], [94.16177, 24.725790000000003], [94.16177, 24.722820000000002], [94.15922, 24.71919], [94.14066000000001, 24.701240000000002]]]}}, {"id": "71", "type": "Feature", "properties": {"village_name": "Chandrakhong", "vil_lgd": 269962, "district_name": "Thoubal", "dist_lgd": 259, "subdistrict_name": "Thoubal", "sdcode": 1877, "block_name": "Thoubal", "block_lgd": 24.0, "gp_name": "LEIRONGTHEL", "state_name": "MANIPUR", "state_lgd": 14, "population": 1162, "households": 245}, "geometry": {"type": "Polygon", "coordinates": [[[94.12800000000001, 24.693070000000002], [94.12212000000001, 24.69562], [94.11519000000001, 24.6962], [94.11019, 24.697080000000003], [94.11357000000001, 24.700740000000003], [94.11438000000001, 24.70323], [94.11938, 24.713340000000002], [94.12292000000001, 24.716410000000003], [94.13084, 24.72586], [94.13107000000001, 24.722160000000002], [94.13271, 24.71936], [94.13679, 24.71742], [94.13679, 24.709090000000003], [94.13953000000001, 24.70689], [94.14066000000001, 24.701240000000002], [94.13688, 24.69725], [94.13252000000001, 24.694940000000003], [94.12800000000001, 24.693070000000002]]]}}, {"id": "72", "type": "Feature", "properties": {"village_name": "Leirongthel", "vil_lgd": 269964, "district_name": "Thoubal", "dist_lgd": 259, "subdistrict_name": "Thoubal", "sdcode": 1877, "block_name": "Thoubal", "block_lgd": 24.0, "gp_name": "LEIRONGTHEL NINGEL", "state_name": "MANIPUR", "state_lgd": 14, "population": 2038, "households": 428}, "geometry": {"type": "Polygon", "coordinates": [[[94.11357000000001, 24.700740000000003], [94.11019, 24.697080000000003], [94.10777, 24.698400000000003], [94.10471000000001, 24.698690000000003], [94.10293, 24.69986], [94.10148000000001, 24.70221], [94.09826000000001, 24.701620000000002], [94.09555, 24.705430000000003], [94.0973, 24.7086], [94.09740000000001, 24.710410000000003], [94.09939000000001, 24.712500000000002], [94.10651000000001, 24.713260000000002], [94.10903, 24.71459], [94.11217, 24.72172], [94.11470000000001, 24.720370000000003], [94.11760000000001, 24.715090000000004], [94.11938, 24.713340000000002], [94.11438000000001, 24.70323], [94.11357000000001, 24.700740000000003]]]}}, {"id": "73", "type": "Feature", "properties": {"village_name": "Bumpa Khullen", "vil_lgd": 269960, "district_name": "Thoubal", "dist_lgd": 259, "subdistrict_name": "Thoubal", "sdcode": 1877, "block_name": "Thoubal", "block_lgd": 24.0, "gp_name": "", "state_name": "MANIPUR", "state_lgd": 14, "population": 0, "households": 0}, "geometry": {"type": "Polygon", "coordinates": [[[94.11938, 24.713340000000002], [94.11760000000001, 24.715090000000004], [94.11470000000001, 24.720370000000003], [94.11217, 24.72172], [94.11527000000001, 24.725790000000003], [94.11436, 24.733050000000002], [94.11727, 24.74295], [94.11491000000001, 24.74592], [94.11836000000001, 24.748890000000003], [94.12199000000001, 24.748720000000002], [94.12707, 24.745260000000002], [94.13016, 24.73701], [94.13084, 24.72586], [94.12292000000001, 24.716410000000003], [94.11938, 24.713340000000002]]]}}]}