{"type": "FeatureCollection", "metadata": {"source": "Survey of India (per src_agency attribute in the source data)", "hosted_via": "National Water Data Portal (NWDP), NWIC, Ministry of Jal Shakti -- https://nwdp.nwic.gov.in/", "access": "public, no login required", "crs_original": "EPSG:7755 (WGS 84 / India NSF LCC)", "fetch_date": "2026-08-02", "quality": "verified-official -- Survey of India source", "state": "Manipur", "district": "Ukhrul", "processing": "reprojected to EPSG:4326, topology-preserving simplify (shared-arc, tolerance 0.0005 deg) so adjacent polygons never overlap/gap at shared borders, coords rounded 5dp, 0 feature(s) needed the per-feature fallback", "feature_count": 98}, "features": [{"id": "0", "type": "Feature", "properties": {"village_name": "Leiyaram", "vil_lgd": 270409, "district_name": "Ukhrul", "dist_lgd": 260, "subdistrict_name": "Ukhrul", "sdcode": 1888, "block_name": "Ukhrul", "block_lgd": 32.0, "gp_name": "", "state_name": "MANIPUR", "state_lgd": 14, "population": 205, "households": 44}, "geometry": {"type": "Polygon", "coordinates": [[[94.17994, 24.9433], [94.18109000000001, 24.943800000000003], [94.18162000000001, 24.94274], [94.18057, 24.94226], [94.17994, 24.9433]]]}}, {"id": "1", "type": "Feature", "properties": {"village_name": "Phadang", "vil_lgd": 270399, "district_name": "Ukhrul", "dist_lgd": 260, "subdistrict_name": "Ukhrul", "sdcode": 1888, "block_name": "Lungchong Meiphei", "block_lgd": 33.0, "gp_name": "", "state_name": "MANIPUR", "state_lgd": 14, "population": 3742, "households": 794}, "geometry": {"type": "Polygon", "coordinates": [[[94.25572000000001, 25.13209], [94.25613000000001, 25.133180000000003], [94.25736, 25.132710000000003], [94.25664, 25.131660000000004], [94.25572000000001, 25.13209]]]}}, {"id": "2", "type": "Feature", "properties": {"village_name": "Tuinem", "vil_lgd": 270401, "district_name": "Ukhrul", "dist_lgd": 260, "subdistrict_name": "Ukhrul", "sdcode": 1888, "block_name": "Lungchong Meiphei", "block_lgd": 33.0, "gp_name": "", "state_name": "MANIPUR", "state_lgd": 14, "population": 4058, "households": 802}, "geometry": {"type": "Polygon", "coordinates": [[[94.26457, 25.116490000000002], [94.26316000000001, 25.11617], [94.26289000000001, 25.117050000000003], [94.26404000000001, 25.11755], [94.26457, 25.116490000000002]]]}}, {"id": "3", "type": "Feature", "properties": {"village_name": "Sirarakhong", "vil_lgd": 270402, "district_name": "Ukhrul", "dist_lgd": 260, "subdistrict_name": "Ukhrul", "sdcode": 1888, "block_name": "Lungchong Meiphei", "block_lgd": 33.0, "gp_name": "", "state_name": "MANIPUR", "state_lgd": 14, "population": 1243, "households": 202}, "geometry": {"type": "Polygon", "coordinates": [[[94.25562000000001, 25.087290000000003], [94.25651, 25.088150000000002], [94.2574, 25.087290000000003], [94.25664, 25.086550000000003], [94.25562000000001, 25.087290000000003]]]}}, {"id": "4", "type": "Feature", "properties": {"village_name": "Tungou", "vil_lgd": 270406, "district_name": "Ukhrul", "dist_lgd": 260, "subdistrict_name": "Ukhrul", "sdcode": 1888, "block_name": "Lungchong Meiphei", "block_lgd": 33.0, "gp_name": "", "state_name": "MANIPUR", "state_lgd": 14, "population": 1971, "households": 352}, "geometry": {"type": "Polygon", "coordinates": [[[94.26823, 25.06952], [94.26765, 25.07055], [94.26849000000001, 25.0711], [94.26938000000001, 25.070240000000002], [94.26862000000001, 25.0695], [94.26823, 25.06952]]]}}, {"id": "5", "type": "Feature", "properties": {"village_name": "Sanakeithel", "vil_lgd": 270407, "district_name": "Ukhrul", "dist_lgd": 260, "subdistrict_name": "Ukhrul", "sdcode": 1888, "block_name": "Lungchong Meiphei", "block_lgd": 33.0, "gp_name": "", "state_name": "MANIPUR", "state_lgd": 14, "population": 2003, "households": 441}, "geometry": {"type": "Polygon", "coordinates": [[[94.16307, 25.03227], [94.16430000000001, 25.03274], [94.16471000000001, 25.031640000000003], [94.16378, 25.03122], [94.16307, 25.03227]]]}}, {"id": "6", "type": "Feature", "properties": {"village_name": "New Cannon", "vil_lgd": 270408, "district_name": "Ukhrul", "dist_lgd": 260, "subdistrict_name": "Ukhrul", "sdcode": 1888, "block_name": "Ukhrul", "block_lgd": 32.0, "gp_name": "", "state_name": "MANIPUR", "state_lgd": 14, "population": 1030, "households": 220}, "geometry": {"type": "Polygon", "coordinates": [[[94.17839000000001, 24.95606], [94.1778, 24.95709], [94.17865, 24.95764], [94.17954, 24.956770000000002], [94.17878, 24.95604], [94.17839000000001, 24.95606]]]}}, {"id": "7", "type": "Feature", "properties": {"village_name": "Muirei", "vil_lgd": 270410, "district_name": "Ukhrul", "dist_lgd": 260, "subdistrict_name": "Ukhrul", "sdcode": 1888, "block_name": "Ukhrul", "block_lgd": 32.0, "gp_name": "", "state_name": "MANIPUR", "state_lgd": 14, "population": 324, "households": 65}, "geometry": {"type": "Polygon", "coordinates": [[[94.19384000000001, 24.950670000000002], [94.19325, 24.951700000000002], [94.1941, 24.952250000000003], [94.19499, 24.95138], [94.19423, 24.950650000000003], [94.19384000000001, 24.950670000000002]]]}}, {"id": "8", "type": "Feature", "properties": {"village_name": "Wunghon", "vil_lgd": 270411, "district_name": "Ukhrul", "dist_lgd": 260, "subdistrict_name": "Ukhrul", "sdcode": 1888, "block_name": "Ukhrul", "block_lgd": 32.0, "gp_name": "", "state_name": "MANIPUR", "state_lgd": 14, "population": 504, "households": 104}, "geometry": {"type": "Polygon", "coordinates": [[[94.20994, 24.95194], [94.21035, 24.953030000000002], [94.21158000000001, 24.952560000000002], [94.21087000000001, 24.951510000000003], [94.20994, 24.95194]]]}}, {"id": "9", "type": "Feature", "properties": {"village_name": "Mayophung", "vil_lgd": 270412, "district_name": "Ukhrul", "dist_lgd": 260, "subdistrict_name": "Ukhrul", "sdcode": 1888, "block_name": "Ukhrul", "block_lgd": 32.0, "gp_name": "", "state_name": "MANIPUR", "state_lgd": 14, "population": 435, "households": 108}, "geometry": {"type": "Polygon", "coordinates": [[[94.17590000000001, 24.973460000000003], [94.17714000000001, 24.973940000000002], [94.17754000000001, 24.97284], [94.17662000000001, 24.972410000000004], [94.17590000000001, 24.973460000000003]]]}}, {"id": "10", "type": "Feature", "properties": {"village_name": "M Kamsei", "vil_lgd": 270415, "district_name": "Ukhrul", "dist_lgd": 260, "subdistrict_name": "Ukhrul", "sdcode": 1888, "block_name": "Lungchong Meiphei", "block_lgd": 33.0, "gp_name": "", "state_name": "MANIPUR", "state_lgd": 14, "population": 640, "households": 125}, "geometry": {"type": "Polygon", "coordinates": [[[94.15464000000001, 25.10481], [94.15324000000001, 25.104480000000002], [94.15314000000001, 25.10564], [94.15412, 25.105860000000003], [94.15464000000001, 25.10481]]]}}, {"id": "11", "type": "Feature", "properties": {"village_name": "Khamanom", "vil_lgd": 270416, "district_name": "Ukhrul", "dist_lgd": 260, "subdistrict_name": "Ukhrul", "sdcode": 1888, "block_name": "Lungchong Meiphei", "block_lgd": 33.0, "gp_name": "", "state_name": "MANIPUR", "state_lgd": 14, "population": 585, "households": 102}, "geometry": {"type": "Polygon", "coordinates": [[[94.18068000000001, 25.11981], [94.17970000000001, 25.12086], [94.18122000000001, 25.12113], [94.18068000000001, 25.11981]]]}}, {"id": "12", "type": "Feature", "properties": {"village_name": "Pashong", "vil_lgd": 270417, "district_name": "Ukhrul", "dist_lgd": 260, "subdistrict_name": "Ukhrul", "sdcode": 1888, "block_name": "Lungchong Meiphei", "block_lgd": 33.0, "gp_name": "", "state_name": "MANIPUR", "state_lgd": 14, "population": 392, "households": 94}, "geometry": {"type": "Polygon", "coordinates": [[[94.16818, 25.007070000000002], [94.16941000000001, 25.007540000000002], [94.16982, 25.00644], [94.16889, 25.006020000000003], [94.16818, 25.007070000000002]]]}}, {"id": "13", "type": "Feature", "properties": {"village_name": "Molnom", "vil_lgd": 270418, "district_name": "Ukhrul", "dist_lgd": 260, "subdistrict_name": "Ukhrul", "sdcode": 1888, "block_name": "Lungchong Meiphei", "block_lgd": 33.0, "gp_name": "", "state_name": "MANIPUR", "state_lgd": 14, "population": 444, "households": 74}, "geometry": {"type": "Polygon", "coordinates": [[[94.17193, 24.99003], [94.17287, 24.990820000000003], [94.17372, 24.98995], [94.17261, 24.989230000000003], [94.17193, 24.99003]]]}}, {"id": "14", "type": "Feature", "properties": {"village_name": "Moulsohoi", "vil_lgd": 270419, "district_name": "Ukhrul", "dist_lgd": 260, "subdistrict_name": "Ukhrul", "sdcode": 1888, "block_name": "Lungchong Meiphei", "block_lgd": 33.0, "gp_name": "", "state_name": "MANIPUR", "state_lgd": 14, "population": 227, "households": 51}, "geometry": {"type": "Polygon", "coordinates": [[[94.18695000000001, 25.00082], [94.18819, 25.0013], [94.18859, 25.000200000000003], [94.18767000000001, 24.99977], [94.18695000000001, 25.00082]]]}}, {"id": "15", "type": "Feature", "properties": {"village_name": "Shongphel", "vil_lgd": 270420, "district_name": "Ukhrul", "dist_lgd": 260, "subdistrict_name": "Ukhrul", "sdcode": 1888, "block_name": "Lungchong Meiphei", "block_lgd": 33.0, "gp_name": "", "state_name": "MANIPUR", "state_lgd": 14, "population": 511, "households": 92}, "geometry": {"type": "Polygon", "coordinates": [[[94.23378000000001, 25.03292], [94.23501, 25.03339], [94.23542, 25.032290000000003], [94.23449000000001, 25.03187], [94.23378000000001, 25.03292]]]}}, {"id": "16", "type": "Feature", "properties": {"village_name": "Mullam", "vil_lgd": 270421, "district_name": "Ukhrul", "dist_lgd": 260, "subdistrict_name": "Ukhrul", "sdcode": 1888, "block_name": "Lungchong Meiphei", "block_lgd": 33.0, "gp_name": "", "state_name": "MANIPUR", "state_lgd": 14, "population": 416, "households": 89}, "geometry": {"type": "Polygon", "coordinates": [[[94.24138, 25.051000000000002], [94.24253, 25.05151], [94.24306000000001, 25.05045], [94.24201000000001, 25.049970000000002], [94.24138, 25.051000000000002]]]}}, {"id": "17", "type": "Feature", "properties": {"village_name": "Lamlai Chingphei", "vil_lgd": 270422, "district_name": "Ukhrul", "dist_lgd": 260, "subdistrict_name": "Ukhrul", "sdcode": 1888, "block_name": "Lungchong Meiphei", "block_lgd": 33.0, "gp_name": "", "state_name": "MANIPUR", "state_lgd": 14, "population": 467, "households": 103}, "geometry": {"type": "Polygon", "coordinates": [[[94.22937, 24.986870000000003], [94.22879, 24.987900000000003], [94.22963000000001, 24.98845], [94.23052000000001, 24.98758], [94.22976000000001, 24.98685], [94.22937, 24.986870000000003]]]}}, {"id": "18", "type": "Feature", "properties": {"village_name": "Jalembung", "vil_lgd": 270423, "district_name": "Ukhrul", "dist_lgd": 260, "subdistrict_name": "Ukhrul", "sdcode": 1888, "block_name": "Lungchong Meiphei", "block_lgd": 33.0, "gp_name": "", "state_name": "MANIPUR", "state_lgd": 14, "population": 306, "households": 61}, "geometry": {"type": "Polygon", "coordinates": [[[94.21054000000001, 24.96939], [94.21066, 24.970290000000002], [94.21172000000001, 24.97049], [94.21222, 24.969700000000003], [94.21146, 24.968970000000002], [94.21054000000001, 24.96939]]]}}, {"id": "19", "type": "Feature", "properties": {"village_name": "Shangkai", "vil_lgd": 270424, "district_name": "Ukhrul", "dist_lgd": 260, "subdistrict_name": "Ukhrul", "sdcode": 1888, "block_name": "Ukhrul", "block_lgd": 32.0, "gp_name": "", "state_name": "MANIPUR", "state_lgd": 14, "population": 284, "households": 64}, "geometry": {"type": "Polygon", "coordinates": [[[94.22617000000001, 24.95558], [94.22732, 24.956080000000004], [94.22785, 24.95503], [94.22680000000001, 24.95454], [94.22617000000001, 24.95558]]]}}, {"id": "20", "type": "Feature", "properties": {"village_name": "Mangkot Chepu", "vil_lgd": 270425, "district_name": "Ukhrul", "dist_lgd": 260, "subdistrict_name": "Ukhrul", "sdcode": 1888, "block_name": "Ukhrul", "block_lgd": 32.0, "gp_name": "", "state_name": "MANIPUR", "state_lgd": 14, "population": 676, "households": 132}, "geometry": {"type": "Polygon", "coordinates": [[[94.24328000000001, 24.957390000000004], [94.24270000000001, 24.95842], [94.24355000000001, 24.95897], [94.24444000000001, 24.9581], [94.24368000000001, 24.95737], [94.24328000000001, 24.957390000000004]]]}}, {"id": "21", "type": "Feature", "properties": {"village_name": "Litan", "vil_lgd": 270426, "district_name": "Ukhrul", "dist_lgd": 260, "subdistrict_name": "Ukhrul", "sdcode": 1888, "block_name": "Ukhrul", "block_lgd": 32.0, "gp_name": "", "state_name": "MANIPUR", "state_lgd": 14, "population": 127, "households": 27}, "geometry": {"type": "Polygon", "coordinates": [[[94.24905000000001, 24.965390000000003], [94.25053000000001, 24.965180000000004], [94.24950000000001, 24.964070000000003], [94.24905000000001, 24.965390000000003]]]}}, {"id": "22", "type": "Feature", "properties": {"village_name": "Litan Sareikhong", "vil_lgd": 270427, "district_name": "Ukhrul", "dist_lgd": 260, "subdistrict_name": "Ukhrul", "sdcode": 1888, "block_name": "Ukhrul", "block_lgd": 32.0, "gp_name": "", "state_name": "MANIPUR", "state_lgd": 14, "population": 1000, "households": 158}, "geometry": {"type": "Polygon", "coordinates": [[[94.26395000000001, 24.96789], [94.26519, 24.96836], [94.26559, 24.967260000000003], [94.26467000000001, 24.96683], [94.26395000000001, 24.96789]]]}}, {"id": "23", "type": "Feature", "properties": {"village_name": "Yaolen", "vil_lgd": 270428, "district_name": "Ukhrul", "dist_lgd": 260, "subdistrict_name": "Ukhrul", "sdcode": 1888, "block_name": "Lungchong Meiphei", "block_lgd": 33.0, "gp_name": "", "state_name": "MANIPUR", "state_lgd": 14, "population": 325, "households": 69}, "geometry": {"type": "Polygon", "coordinates": [[[94.26395000000001, 24.987710000000003], [94.26519, 24.988180000000003], [94.26559, 24.987080000000002], [94.26467000000001, 24.98666], [94.26395000000001, 24.987710000000003]]]}}, {"id": "24", "type": "Feature", "properties": {"village_name": "Ngaimu", "vil_lgd": 270400, "district_name": "Ukhrul", "dist_lgd": 260, "subdistrict_name": "Ukhrul", "sdcode": 1888, "block_name": "Lungchong Meiphei", "block_lgd": 33.0, "gp_name": "", "state_name": "MANIPUR", "state_lgd": 14, "population": 1881, "households": 267}, "geometry": {"type": "Polygon", "coordinates": [[[94.30744000000001, 25.145170000000004], [94.30785, 25.14627], [94.30908000000001, 25.14579], [94.30836000000001, 25.144750000000002], [94.30744000000001, 25.145170000000004]]]}}, {"id": "25", "type": "Feature", "properties": {"village_name": "Seikhor", "vil_lgd": 270403, "district_name": "Ukhrul", "dist_lgd": 260, "subdistrict_name": "Ukhrul", "sdcode": 1888, "block_name": "Lungchong Meiphei", "block_lgd": 33.0, "gp_name": "", "state_name": "MANIPUR", "state_lgd": 14, "population": 935, "households": 177}, "geometry": {"type": "Polygon", "coordinates": [[[94.2724, 25.099310000000003], [94.27363000000001, 25.099780000000003], [94.27404000000001, 25.09869], [94.27311, 25.098260000000003], [94.2724, 25.099310000000003]]]}}, {"id": "26", "type": "Feature", "properties": {"village_name": "Pharung", "vil_lgd": 270404, "district_name": "Ukhrul", "dist_lgd": 260, "subdistrict_name": "Ukhrul", "sdcode": 1888, "block_name": "Lungchong Meiphei", "block_lgd": 33.0, "gp_name": "", "state_name": "MANIPUR", "state_lgd": 14, "population": 1109, "households": 175}, "geometry": {"type": "Polygon", "coordinates": [[[94.28656000000001, 25.10997], [94.28519000000001, 25.11022], [94.2856, 25.111320000000003], [94.28665000000001, 25.111130000000003], [94.28656000000001, 25.10997]]]}}, {"id": "27", "type": "Feature", "properties": {"village_name": "Lamlang", "vil_lgd": 270405, "district_name": "Ukhrul", "dist_lgd": 260, "subdistrict_name": "Ukhrul", "sdcode": 1888, "block_name": "Lungchong Meiphei", "block_lgd": 33.0, "gp_name": "", "state_name": "MANIPUR", "state_lgd": 14, "population": 964, "households": 191}, "geometry": {"type": "Polygon", "coordinates": [[[94.28874, 25.096890000000002], [94.28864, 25.09804], [94.28970000000001, 25.09823], [94.29020000000001, 25.097450000000002], [94.28944000000001, 25.09671], [94.28874, 25.096890000000002]]]}}, {"id": "28", "type": "Feature", "properties": {"village_name": "T M Kasom", "vil_lgd": 270413, "district_name": "Ukhrul", "dist_lgd": 260, "subdistrict_name": "Ukhrul", "sdcode": 1888, "block_name": "Ukhrul", "block_lgd": 32.0, "gp_name": "", "state_name": "MANIPUR", "state_lgd": 14, "population": 570, "households": 103}, "geometry": {"type": "Polygon", "coordinates": [[[94.28505000000001, 24.980590000000003], [94.28546000000001, 24.98169], [94.28669000000001, 24.98122], [94.28597, 24.98017], [94.28505000000001, 24.980590000000003]]]}}, {"id": "29", "type": "Feature", "properties": {"village_name": "Shokvao", "vil_lgd": 270414, "district_name": "Ukhrul", "dist_lgd": 260, "subdistrict_name": "Ukhrul", "sdcode": 1888, "block_name": "Ukhrul", "block_lgd": 32.0, "gp_name": "", "state_name": "MANIPUR", "state_lgd": 14, "population": 698, "households": 146}, "geometry": {"type": "Polygon", "coordinates": [[[94.29437, 24.99979], [94.29379, 25.00082], [94.29464, 25.00137], [94.29553000000001, 25.000510000000002], [94.29477000000001, 24.99977], [94.29437, 24.99979]]]}}, {"id": "30", "type": "Feature", "properties": {"village_name": "Lambui", "vil_lgd": 270429, "district_name": "Ukhrul", "dist_lgd": 260, "subdistrict_name": "Ukhrul", "sdcode": 1888, "block_name": "Ukhrul", "block_lgd": 32.0, "gp_name": "", "state_name": "MANIPUR", "state_lgd": 14, "population": 1940, "households": 322}, "geometry": {"type": "Polygon", "coordinates": [[[94.30294, 25.04005], [94.30236000000001, 25.04108], [94.30321, 25.04163], [94.3041, 25.040760000000002], [94.30334, 25.04003], [94.30294, 25.04005]]]}}, {"id": "31", "type": "Feature", "properties": {"village_name": "Tushen Tushar", "vil_lgd": 270430, "district_name": "Ukhrul", "dist_lgd": 260, "subdistrict_name": "Ukhrul", "sdcode": 1888, "block_name": "Ukhrul", "block_lgd": 32.0, "gp_name": "", "state_name": "MANIPUR", "state_lgd": 14, "population": 2098, "households": 345}, "geometry": {"type": "Polygon", "coordinates": [[[94.31016000000001, 25.06474], [94.31123000000001, 25.065510000000003], [94.31194, 25.06474], [94.31105000000001, 25.063910000000003], [94.31016000000001, 25.06474]]]}}, {"id": "32", "type": "Feature", "properties": {"village_name": "T Chanhong", "vil_lgd": 270431, "district_name": "Ukhrul", "dist_lgd": 260, "subdistrict_name": "Ukhrul", "sdcode": 1888, "block_name": "Ukhrul", "block_lgd": 32.0, "gp_name": "", "state_name": "MANIPUR", "state_lgd": 14, "population": 784, "households": 165}, "geometry": {"type": "Polygon", "coordinates": [[[94.30521, 25.083060000000003], [94.30645000000001, 25.083530000000003], [94.30685000000001, 25.082440000000002], [94.30593, 25.08201], [94.30521, 25.083060000000003]]]}}, {"id": "33", "type": "Feature", "properties": {"village_name": "Hatha", "vil_lgd": 270432, "district_name": "Ukhrul", "dist_lgd": 260, "subdistrict_name": "Ukhrul", "sdcode": 1888, "block_name": "Ukhrul", "block_lgd": 32.0, "gp_name": "", "state_name": "MANIPUR", "state_lgd": 14, "population": 154, "households": 30}, "geometry": {"type": "Polygon", "coordinates": [[[94.30057000000001, 25.02411], [94.29998, 25.02514], [94.30083, 25.02569], [94.30172, 25.02483], [94.30096, 25.02409], [94.30057000000001, 25.02411]]]}}, {"id": "34", "type": "Feature", "properties": {"village_name": "Shangshak Khullen", "vil_lgd": 270433, "district_name": "Ukhrul", "dist_lgd": 260, "subdistrict_name": "Ukhrul", "sdcode": 1888, "block_name": "Ukhrul", "block_lgd": 32.0, "gp_name": "", "state_name": "MANIPUR", "state_lgd": 14, "population": 2441, "households": 281}, "geometry": {"type": "Polygon", "coordinates": [[[94.35642000000001, 25.024970000000003], [94.35584000000001, 25.026000000000003], [94.35669000000001, 25.02655], [94.35758000000001, 25.02569], [94.35682000000001, 25.02495], [94.35642000000001, 25.024970000000003]]]}}, {"id": "35", "type": "Feature", "properties": {"village_name": "Shangshak Khunou", "vil_lgd": 270434, "district_name": "Ukhrul", "dist_lgd": 260, "subdistrict_name": "Ukhrul", "sdcode": 1888, "block_name": "Ukhrul", "block_lgd": 32.0, "gp_name": "", "state_name": "MANIPUR", "state_lgd": 14, "population": 1025, "households": 174}, "geometry": {"type": "Polygon", "coordinates": [[[94.37085, 25.0054], [94.37205, 25.0058], [94.37245000000001, 25.004700000000003], [94.37144, 25.00429], [94.37085, 25.0054]]]}}, {"id": "36", "type": "Feature", "properties": {"village_name": "Shangzing", "vil_lgd": 270435, "district_name": "Ukhrul", "dist_lgd": 260, "subdistrict_name": "Ukhrul", "sdcode": 1888, "block_name": "Ukhrul", "block_lgd": 32.0, "gp_name": "", "state_name": "MANIPUR", "state_lgd": 14, "population": 562, "households": 111}, "geometry": {"type": "Polygon", "coordinates": [[[94.37108, 25.048910000000003], [94.37228, 25.049300000000002], [94.37269, 25.0482], [94.37168000000001, 25.047800000000002], [94.37108, 25.048910000000003]]]}}, {"id": "37", "type": "Feature", "properties": {"village_name": "Lungshang Chingkha", "vil_lgd": 270436, "district_name": "Ukhrul", "dist_lgd": 260, "subdistrict_name": "Ukhrul", "sdcode": 1888, "block_name": "Ukhrul", "block_lgd": 32.0, "gp_name": "", "state_name": "MANIPUR", "state_lgd": 14, "population": 324, "households": 55}, "geometry": {"type": "Polygon", "coordinates": [[[94.38579000000001, 25.05637], [94.38702, 25.05684], [94.38743000000001, 25.055740000000004], [94.38650000000001, 25.055320000000002], [94.38579000000001, 25.05637]]]}}, {"id": "38", "type": "Feature", "properties": {"village_name": "Lungshang Chingthak", "vil_lgd": 270437, "district_name": "Ukhrul", "dist_lgd": 260, "subdistrict_name": "Ukhrul", "sdcode": 1888, "block_name": "Ukhrul", "block_lgd": 32.0, "gp_name": "", "state_name": "MANIPUR", "state_lgd": 14, "population": 210, "households": 38}, "geometry": {"type": "Polygon", "coordinates": [[[94.40171000000001, 25.048830000000002], [94.40294, 25.049300000000002], [94.40335, 25.0482], [94.40243000000001, 25.047780000000003], [94.40171000000001, 25.048830000000002]]]}}, {"id": "39", "type": "Feature", "properties": {"village_name": "Nungshong Khullen", "vil_lgd": 270438, "district_name": "Ukhrul", "dist_lgd": 260, "subdistrict_name": "Ukhrul", "sdcode": 1888, "block_name": "Ukhrul", "block_lgd": 32.0, "gp_name": "", "state_name": "MANIPUR", "state_lgd": 14, "population": 488, "households": 93}, "geometry": {"type": "Polygon", "coordinates": [[[94.39160000000001, 25.095380000000002], [94.39102000000001, 25.096410000000002], [94.39186000000001, 25.096960000000003], [94.39275, 25.096090000000004], [94.39199, 25.095360000000003], [94.39160000000001, 25.095380000000002]]]}}, {"id": "40", "type": "Feature", "properties": {"village_name": "Nungshong Khunou", "vil_lgd": 270439, "district_name": "Ukhrul", "dist_lgd": 260, "subdistrict_name": "Ukhrul", "sdcode": 1888, "block_name": "Ukhrul", "block_lgd": 32.0, "gp_name": "", "state_name": "MANIPUR", "state_lgd": 14, "population": 260, "households": 57}, "geometry": {"type": "Polygon", "coordinates": [[[94.39255000000001, 25.0788], [94.39197000000001, 25.07983], [94.39281000000001, 25.08038], [94.39370000000001, 25.079520000000002], [94.39294000000001, 25.078780000000002], [94.39255000000001, 25.0788]]]}}, {"id": "41", "type": "Feature", "properties": {"village_name": "Changa", "vil_lgd": 270440, "district_name": "Ukhrul", "dist_lgd": 260, "subdistrict_name": "Ukhrul", "sdcode": 1888, "block_name": "Ukhrul", "block_lgd": 32.0, "gp_name": "", "state_name": "MANIPUR", "state_lgd": 14, "population": 293, "households": 61}, "geometry": {"type": "Polygon", "coordinates": [[[94.40955000000001, 25.0344], [94.41107000000001, 25.03468], [94.41053000000001, 25.033350000000002], [94.40955000000001, 25.0344]]]}}, {"id": "42", "type": "Feature", "properties": {"village_name": "Nungou", "vil_lgd": 270441, "district_name": "Ukhrul", "dist_lgd": 260, "subdistrict_name": "Ukhrul", "sdcode": 1888, "block_name": "Ukhrul", "block_lgd": 32.0, "gp_name": "", "state_name": "MANIPUR", "state_lgd": 14, "population": 648, "households": 138}, "geometry": {"type": "Polygon", "coordinates": [[[94.41251000000001, 25.022610000000004], [94.41193000000001, 25.02364], [94.41278000000001, 25.02418], [94.41367000000001, 25.023320000000002], [94.41291000000001, 25.02259], [94.41251000000001, 25.022610000000004]]]}}, {"id": "43", "type": "Feature", "properties": {"village_name": "Khangkhui Khullen", "vil_lgd": 270442, "district_name": "Ukhrul", "dist_lgd": 260, "subdistrict_name": "Ukhrul", "sdcode": 1888, "block_name": "Ukhrul", "block_lgd": 32.0, "gp_name": "", "state_name": "MANIPUR", "state_lgd": 14, "population": 642, "households": 133}, "geometry": {"type": "Polygon", "coordinates": [[[94.41814000000001, 25.108320000000003], [94.41934, 25.10872], [94.41975000000001, 25.10762], [94.41874000000001, 25.107210000000002], [94.41814000000001, 25.108320000000003]]]}}, {"id": "44", "type": "Feature", "properties": {"village_name": "Khangkhui Khunou", "vil_lgd": 270443, "district_name": "Ukhrul", "dist_lgd": 260, "subdistrict_name": "Ukhrul", "sdcode": 1888, "block_name": "Ukhrul", "block_lgd": 32.0, "gp_name": "", "state_name": "MANIPUR", "state_lgd": 14, "population": 841, "households": 159}, "geometry": {"type": "Polygon", "coordinates": [[[94.42273, 25.121640000000003], [94.42215, 25.122670000000003], [94.423, 25.123210000000004], [94.42389000000001, 25.12235], [94.42313000000001, 25.121620000000004], [94.42273, 25.121640000000003]]]}}, {"id": "45", "type": "Feature", "properties": {"village_name": "Choithar", "vil_lgd": 270444, "district_name": "Ukhrul", "dist_lgd": 260, "subdistrict_name": "Ukhrul", "sdcode": 1888, "block_name": "Ukhrul", "block_lgd": 32.0, "gp_name": "", "state_name": "MANIPUR", "state_lgd": 14, "population": 1392, "households": 258}, "geometry": {"type": "Polygon", "coordinates": [[[94.40277, 25.11475], [94.40219, 25.11578], [94.40303, 25.11633], [94.40392000000001, 25.115460000000002], [94.40316000000001, 25.11473], [94.40277, 25.11475]]]}}, {"id": "46", "type": "Feature", "properties": {"village_name": "Hundung", "vil_lgd": 270445, "district_name": "Ukhrul", "dist_lgd": 260, "subdistrict_name": "Ukhrul", "sdcode": 1888, "block_name": "Ukhrul", "block_lgd": 32.0, "gp_name": "", "state_name": "MANIPUR", "state_lgd": 14, "population": 10785, "households": 2036}, "geometry": {"type": "Polygon", "coordinates": [[[94.35366, 25.087480000000003], [94.35416000000001, 25.08827], [94.35522, 25.08808], [94.35468, 25.086750000000002], [94.35366, 25.087480000000003]]]}}, {"id": "47", "type": "Feature", "properties": {"village_name": "Langdang", "vil_lgd": 270446, "district_name": "Ukhrul", "dist_lgd": 260, "subdistrict_name": "Ukhrul", "sdcode": 1888, "block_name": "Ukhrul", "block_lgd": 32.0, "gp_name": "", "state_name": "MANIPUR", "state_lgd": 14, "population": 1135, "households": 207}, "geometry": {"type": "Polygon", "coordinates": [[[94.42477000000001, 25.138800000000003], [94.426, 25.139270000000003], [94.42641, 25.138180000000002], [94.42548000000001, 25.13775], [94.42477000000001, 25.138800000000003]]]}}, {"id": "48", "type": "Feature", "properties": {"village_name": "Shiroy Chingkha", "vil_lgd": 270447, "district_name": "Ukhrul", "dist_lgd": 260, "subdistrict_name": "Ukhrul", "sdcode": 1888, "block_name": "Ukhrul", "block_lgd": 32.0, "gp_name": "", "state_name": "MANIPUR", "state_lgd": 14, "population": 793, "households": 184}, "geometry": {"type": "Polygon", "coordinates": [[[94.44235, 25.13493], [94.44351, 25.135430000000003], [94.44403000000001, 25.134380000000004], [94.44298, 25.13389], [94.44235, 25.13493]]]}}, {"id": "49", "type": "Feature", "properties": {"village_name": "Shiroy Chingthak", "vil_lgd": 270448, "district_name": "Ukhrul", "dist_lgd": 260, "subdistrict_name": "Ukhrul", "sdcode": 1888, "block_name": "Ukhrul", "block_lgd": 32.0, "gp_name": "", "state_name": "MANIPUR", "state_lgd": 14, "population": 472, "households": 100}, "geometry": {"type": "Polygon", "coordinates": [[[94.4397, 25.146230000000003], [94.44059000000001, 25.147100000000002], [94.44148000000001, 25.146230000000003], [94.44072000000001, 25.145500000000002], [94.4397, 25.146230000000003]]]}}, {"id": "50", "type": "Feature", "properties": {"village_name": "Huime", "vil_lgd": 270389, "district_name": "Ukhrul", "dist_lgd": 260, "subdistrict_name": "Ukhrul", "sdcode": 1888, "block_name": "Lungchong Meiphei", "block_lgd": 33.0, "gp_name": "", "state_name": "MANIPUR", "state_lgd": 14, "population": 1267, "households": 277}, "geometry": {"type": "Polygon", "coordinates": [[[94.32423000000001, 25.24904], [94.32365, 25.25007], [94.32450000000001, 25.25062], [94.32539000000001, 25.249750000000002], [94.32463000000001, 25.24902], [94.32423000000001, 25.24904]]]}}, {"id": "51", "type": "Feature", "properties": {"village_name": "Maremphung", "vil_lgd": 270371, "district_name": "Ukhrul", "dist_lgd": 260, "subdistrict_name": "Chingai", "sdcode": 1887, "block_name": "Chingai", "block_lgd": 31.0, "gp_name": "", "state_name": "MANIPUR", "state_lgd": 14, "population": 298, "households": 77}, "geometry": {"type": "Polygon", "coordinates": [[[94.43873, 25.34496], [94.43973000000001, 25.345720000000004], [94.44049000000001, 25.34496], [94.43960000000001, 25.344130000000003], [94.43873, 25.34496]]]}}, {"id": "52", "type": "Feature", "properties": {"village_name": "Marem", "vil_lgd": 270372, "district_name": "Ukhrul", "dist_lgd": 260, "subdistrict_name": "Chingai", "sdcode": 1887, "block_name": "Chingai", "block_lgd": 31.0, "gp_name": "", "state_name": "MANIPUR", "state_lgd": 14, "population": 327, "households": 89}, "geometry": {"type": "Polygon", "coordinates": [[[94.46440000000001, 25.313000000000002], [94.46516000000001, 25.313750000000002], [94.46616, 25.313000000000002], [94.46526, 25.312160000000002], [94.46440000000001, 25.313000000000002]]]}}, {"id": "53", "type": "Feature", "properties": {"village_name": "Paoyei", "vil_lgd": 270373, "district_name": "Ukhrul", "dist_lgd": 260, "subdistrict_name": "Chingai", "sdcode": 1887, "block_name": "Chingai", "block_lgd": 31.0, "gp_name": "", "state_name": "MANIPUR", "state_lgd": 14, "population": 2617, "households": 499}, "geometry": {"type": "Polygon", "coordinates": [[[94.38453000000001, 25.31454], [94.38554, 25.3153], [94.3863, 25.31454], [94.3854, 25.31371], [94.38453000000001, 25.31454]]]}}, {"id": "54", "type": "Feature", "properties": {"village_name": "Phungcham", "vil_lgd": 270374, "district_name": "Ukhrul", "dist_lgd": 260, "subdistrict_name": "Chingai", "sdcode": 1887, "block_name": "Chingai", "block_lgd": 31.0, "gp_name": "", "state_name": "MANIPUR", "state_lgd": 14, "population": 4041, "households": 762}, "geometry": {"type": "Polygon", "coordinates": [[[94.39114000000001, 25.2493], [94.39071000000001, 25.250380000000003], [94.39177000000001, 25.250790000000002], [94.39239, 25.25007], [94.39152000000001, 25.24923], [94.39114000000001, 25.2493]]]}}, {"id": "55", "type": "Feature", "properties": {"village_name": "Nungbi Khunou", "vil_lgd": 270375, "district_name": "Ukhrul", "dist_lgd": 260, "subdistrict_name": "Chingai", "sdcode": 1887, "block_name": "Chingai", "block_lgd": 31.0, "gp_name": "", "state_name": "MANIPUR", "state_lgd": 14, "population": 1417, "households": 305}, "geometry": {"type": "Polygon", "coordinates": [[[94.45275000000001, 25.23692], [94.45231000000001, 25.238000000000003], [94.45323, 25.23844], [94.45399, 25.23769], [94.45312000000001, 25.23685], [94.45275000000001, 25.23692]]]}}, {"id": "56", "type": "Feature", "properties": {"village_name": "Nungbi Khullen", "vil_lgd": 270376, "district_name": "Ukhrul", "dist_lgd": 260, "subdistrict_name": "Chingai", "sdcode": 1887, "block_name": "Chingai", "block_lgd": 31.0, "gp_name": "", "state_name": "MANIPUR", "state_lgd": 14, "population": 1602, "households": 352}, "geometry": {"type": "Polygon", "coordinates": [[[94.47561, 25.239240000000002], [94.47662000000001, 25.239990000000002], [94.47738000000001, 25.239240000000002], [94.47648000000001, 25.238400000000002], [94.47561, 25.239240000000002]]]}}, {"id": "57", "type": "Feature", "properties": {"village_name": "Kalhang", "vil_lgd": 270377, "district_name": "Ukhrul", "dist_lgd": 260, "subdistrict_name": "Chingai", "sdcode": 1887, "block_name": "Chingai", "block_lgd": 31.0, "gp_name": "", "state_name": "MANIPUR", "state_lgd": 14, "population": 1181, "households": 215}, "geometry": {"type": "Polygon", "coordinates": [[[94.47200000000001, 25.253390000000003], [94.47282000000001, 25.25427], [94.47377, 25.253510000000002], [94.47283, 25.252670000000002], [94.47200000000001, 25.253390000000003]]]}}, {"id": "58", "type": "Feature", "properties": {"village_name": "Kuirei", "vil_lgd": 270378, "district_name": "Ukhrul", "dist_lgd": 260, "subdistrict_name": "Chingai", "sdcode": 1887, "block_name": "Chingai", "block_lgd": 31.0, "gp_name": "", "state_name": "MANIPUR", "state_lgd": 14, "population": 767, "households": 141}, "geometry": {"type": "Polygon", "coordinates": [[[94.47956, 25.26753], [94.47912000000001, 25.268610000000002], [94.48019000000001, 25.26902], [94.4808, 25.268300000000004], [94.47994000000001, 25.267460000000003], [94.47956, 25.26753]]]}}, {"id": "59", "type": "Feature", "properties": {"village_name": "Awang Kasom", "vil_lgd": 270379, "district_name": "Ukhrul", "dist_lgd": 260, "subdistrict_name": "Chingai", "sdcode": 1887, "block_name": "Chingai", "block_lgd": 31.0, "gp_name": "", "state_name": "MANIPUR", "state_lgd": 14, "population": 687, "households": 122}, "geometry": {"type": "Polygon", "coordinates": [[[94.49058000000001, 25.290570000000002], [94.49015000000001, 25.29165], [94.49122000000001, 25.292060000000003], [94.49183000000001, 25.29134], [94.49096, 25.2905], [94.49058000000001, 25.290570000000002]]]}}, {"id": "60", "type": "Feature", "properties": {"village_name": "Kachai", "vil_lgd": 270390, "district_name": "Ukhrul", "dist_lgd": 260, "subdistrict_name": "Ukhrul", "sdcode": 1888, "block_name": "Lungchong Meiphei", "block_lgd": 33.0, "gp_name": "", "state_name": "MANIPUR", "state_lgd": 14, "population": 2107, "households": 501}, "geometry": {"type": "Polygon", "coordinates": [[[94.29599, 25.22822], [94.29541, 25.22925], [94.29625000000001, 25.22979], [94.29714000000001, 25.228930000000002], [94.29638000000001, 25.2282], [94.29599, 25.22822]]]}}, {"id": "61", "type": "Feature", "properties": {"village_name": "Phungthar", "vil_lgd": 270391, "district_name": "Ukhrul", "dist_lgd": 260, "subdistrict_name": "Ukhrul", "sdcode": 1888, "block_name": "Lungchong Meiphei", "block_lgd": 33.0, "gp_name": "", "state_name": "MANIPUR", "state_lgd": 14, "population": 807, "households": 157}, "geometry": {"type": "Polygon", "coordinates": [[[94.24141, 25.19536], [94.24264000000001, 25.19583], [94.24305000000001, 25.194730000000003], [94.24212000000001, 25.19431], [94.24141, 25.19536]]]}}, {"id": "62", "type": "Feature", "properties": {"village_name": "Maichon", "vil_lgd": 270392, "district_name": "Ukhrul", "dist_lgd": 260, "subdistrict_name": "Ukhrul", "sdcode": 1888, "block_name": "Lungchong Meiphei", "block_lgd": 33.0, "gp_name": "", "state_name": "MANIPUR", "state_lgd": 14, "population": 529, "households": 94}, "geometry": {"type": "Polygon", "coordinates": [[[94.22201000000001, 25.172990000000002], [94.22325000000001, 25.173460000000002], [94.22365, 25.17236], [94.22273000000001, 25.171940000000003], [94.22201000000001, 25.172990000000002]]]}}, {"id": "63", "type": "Feature", "properties": {"village_name": "Tolloi", "vil_lgd": 270393, "district_name": "Ukhrul", "dist_lgd": 260, "subdistrict_name": "Ukhrul", "sdcode": 1888, "block_name": "Lungchong Meiphei", "block_lgd": 33.0, "gp_name": "", "state_name": "MANIPUR", "state_lgd": 14, "population": 4296, "households": 820}, "geometry": {"type": "Polygon", "coordinates": [[[94.27121000000001, 25.181530000000002], [94.27215000000001, 25.18231], [94.27300000000001, 25.18145], [94.27189000000001, 25.18073], [94.27121000000001, 25.181530000000002]]]}}, {"id": "64", "type": "Feature", "properties": {"village_name": "Huining Halang", "vil_lgd": 270394, "district_name": "Ukhrul", "dist_lgd": 260, "subdistrict_name": "Ukhrul", "sdcode": 1888, "block_name": "Ukhrul", "block_lgd": 32.0, "gp_name": "", "state_name": "MANIPUR", "state_lgd": 14, "population": 2878, "households": 688}, "geometry": {"type": "Polygon", "coordinates": [[[94.33757000000001, 25.175420000000003], [94.33808, 25.17621], [94.33931000000001, 25.17574], [94.33833000000001, 25.174690000000002], [94.33757000000001, 25.175420000000003]]]}}, {"id": "65", "type": "Feature", "properties": {"village_name": "Somdal", "vil_lgd": 270395, "district_name": "Ukhrul", "dist_lgd": 260, "subdistrict_name": "Ukhrul", "sdcode": 1888, "block_name": "Lungchong Meiphei", "block_lgd": 33.0, "gp_name": "", "state_name": "MANIPUR", "state_lgd": 14, "population": 2375, "households": 468}, "geometry": {"type": "Polygon", "coordinates": [[[94.26171000000001, 25.147540000000003], [94.2626, 25.148410000000002], [94.26349, 25.147540000000003], [94.26247000000001, 25.146810000000002], [94.26171000000001, 25.147540000000003]]]}}, {"id": "66", "type": "Feature", "properties": {"village_name": "Tora", "vil_lgd": 270396, "district_name": "Ukhrul", "dist_lgd": 260, "subdistrict_name": "Ukhrul", "sdcode": 1888, "block_name": "Lungchong Meiphei", "block_lgd": 33.0, "gp_name": "", "state_name": "MANIPUR", "state_lgd": 14, "population": 758, "households": 141}, "geometry": {"type": "Polygon", "coordinates": [[[94.22391, 25.16111], [94.22515000000001, 25.16158], [94.22555000000001, 25.160490000000003], [94.22463, 25.16006], [94.22391, 25.16111]]]}}, {"id": "67", "type": "Feature", "properties": {"village_name": "Champhung", "vil_lgd": 270397, "district_name": "Ukhrul", "dist_lgd": 260, "subdistrict_name": "Ukhrul", "sdcode": 1888, "block_name": "Lungchong Meiphei", "block_lgd": 33.0, "gp_name": "", "state_name": "MANIPUR", "state_lgd": 14, "population": 782, "households": 152}, "geometry": {"type": "Polygon", "coordinates": [[[94.23091000000001, 25.147650000000002], [94.22951, 25.147330000000004], [94.22941, 25.148480000000003], [94.23039000000001, 25.14871], [94.23091000000001, 25.147650000000002]]]}}, {"id": "68", "type": "Feature", "properties": {"village_name": "Tanrui Leisan", "vil_lgd": 270398, "district_name": "Ukhrul", "dist_lgd": 260, "subdistrict_name": "Ukhrul", "sdcode": 1888, "block_name": "Lungchong Meiphei", "block_lgd": 33.0, "gp_name": "", "state_name": "MANIPUR", "state_lgd": 14, "population": 1007, "households": 202}, "geometry": {"type": "Polygon", "coordinates": [[[94.18603, 25.14797], [94.18697, 25.148750000000003], [94.18781000000001, 25.14789], [94.1867, 25.147170000000003], [94.18603, 25.14797]]]}}, {"id": "69", "type": "Feature", "properties": {"village_name": "Lunghar", "vil_lgd": 270449, "district_name": "Ukhrul", "dist_lgd": 260, "subdistrict_name": "Ukhrul", "sdcode": 1888, "block_name": "Ukhrul", "block_lgd": 32.0, "gp_name": "", "state_name": "MANIPUR", "state_lgd": 14, "population": 1917, "households": 435}, "geometry": {"type": "Polygon", "coordinates": [[[94.42226000000001, 25.170050000000003], [94.42168000000001, 25.171080000000003], [94.42252, 25.17162], [94.42341, 25.17076], [94.42265, 25.17003], [94.42226000000001, 25.170050000000003]]]}}, {"id": "70", "type": "Feature", "properties": {"village_name": "Sihai", "vil_lgd": 270451, "district_name": "Ukhrul", "dist_lgd": 260, "subdistrict_name": "Ukhrul", "sdcode": 1888, "block_name": "Ukhrul", "block_lgd": 32.0, "gp_name": "", "state_name": "MANIPUR", "state_lgd": 14, "population": 867, "households": 188}, "geometry": {"type": "Polygon", "coordinates": [[[94.48818000000001, 25.1884], [94.48907000000001, 25.18926], [94.48996000000001, 25.1884], [94.48894000000001, 25.18766], [94.48818000000001, 25.1884]]]}}, {"id": "71", "type": "Feature", "properties": {"village_name": "Kharasom", "vil_lgd": 270364, "district_name": "Ukhrul", "dist_lgd": 260, "subdistrict_name": "Chingai", "sdcode": 1887, "block_name": "Chingai", "block_lgd": 31.0, "gp_name": "", "state_name": "MANIPUR", "state_lgd": 14, "population": 1604, "households": 348}, "geometry": {"type": "Polygon", "coordinates": [[[94.47302, 25.48814], [94.47422, 25.48854], [94.47463, 25.487450000000003], [94.47362000000001, 25.48704], [94.47302, 25.48814]]]}}, {"id": "72", "type": "Feature", "properties": {"village_name": "Chingjaroi Khullen", "vil_lgd": 270365, "district_name": "Ukhrul", "dist_lgd": 260, "subdistrict_name": "Chingai", "sdcode": 1887, "block_name": "Chingai", "block_lgd": 31.0, "gp_name": "", "state_name": "MANIPUR", "state_lgd": 14, "population": 1825, "households": 330}, "geometry": {"type": "Polygon", "coordinates": [[[94.42013000000001, 25.44996], [94.42128000000001, 25.450460000000003], [94.42181000000001, 25.44941], [94.42076, 25.44892], [94.42013000000001, 25.44996]]]}}, {"id": "73", "type": "Feature", "properties": {"village_name": "Razai Khullen", "vil_lgd": 270366, "district_name": "Ukhrul", "dist_lgd": 260, "subdistrict_name": "Chingai", "sdcode": 1887, "block_name": "Chingai", "block_lgd": 31.0, "gp_name": "", "state_name": "MANIPUR", "state_lgd": 14, "population": 421, "households": 84}, "geometry": {"type": "Polygon", "coordinates": [[[94.49314000000001, 25.445500000000003], [94.49438, 25.445970000000003], [94.49479000000001, 25.44487], [94.49386000000001, 25.444450000000003], [94.49314000000001, 25.445500000000003]]]}}, {"id": "74", "type": "Feature", "properties": {"village_name": "Razai Khunou", "vil_lgd": 270367, "district_name": "Ukhrul", "dist_lgd": 260, "subdistrict_name": "Chingai", "sdcode": 1887, "block_name": "Chingai", "block_lgd": 31.0, "gp_name": "", "state_name": "MANIPUR", "state_lgd": 14, "population": 470, "households": 89}, "geometry": {"type": "Polygon", "coordinates": [[[94.47527000000001, 25.429180000000002], [94.4765, 25.429650000000002], [94.47691, 25.42856], [94.47599000000001, 25.428140000000003], [94.47527000000001, 25.429180000000002]]]}}, {"id": "75", "type": "Feature", "properties": {"village_name": "Chinjaroi Khunou", "vil_lgd": 270368, "district_name": "Ukhrul", "dist_lgd": 260, "subdistrict_name": "Chingai", "sdcode": 1887, "block_name": "Chingai", "block_lgd": 31.0, "gp_name": "", "state_name": "MANIPUR", "state_lgd": 14, "population": 548, "households": 99}, "geometry": {"type": "Polygon", "coordinates": [[[94.41424, 25.433130000000002], [94.41539, 25.43363], [94.41591000000001, 25.43258], [94.41486, 25.432100000000002], [94.41424, 25.433130000000002]]]}}, {"id": "76", "type": "Feature", "properties": {"village_name": "Chingjaroi Christian", "vil_lgd": 270369, "district_name": "Ukhrul", "dist_lgd": 260, "subdistrict_name": "Chingai", "sdcode": 1887, "block_name": "Chingai", "block_lgd": 31.0, "gp_name": "", "state_name": "MANIPUR", "state_lgd": 14, "population": 1280, "households": 214}, "geometry": {"type": "Polygon", "coordinates": [[[94.40683000000001, 25.40686], [94.40625000000001, 25.407890000000002], [94.40710000000001, 25.408430000000003], [94.40799000000001, 25.407570000000003], [94.40723000000001, 25.406840000000003], [94.40683000000001, 25.40686]]]}}, {"id": "77", "type": "Feature", "properties": {"village_name": "Namrei", "vil_lgd": 270370, "district_name": "Ukhrul", "dist_lgd": 260, "subdistrict_name": "Chingai", "sdcode": 1887, "block_name": "Chingai", "block_lgd": 31.0, "gp_name": "", "state_name": "MANIPUR", "state_lgd": 14, "population": 549, "households": 102}, "geometry": {"type": "Polygon", "coordinates": [[[94.46711, 25.37921], [94.46652, 25.38023], [94.46737, 25.38078], [94.46826, 25.379920000000002], [94.4675, 25.37919], [94.46711, 25.37921]]]}}, {"id": "78", "type": "Feature", "properties": {"village_name": "Soraphung", "vil_lgd": 270363, "district_name": "Ukhrul", "dist_lgd": 260, "subdistrict_name": "Chingai", "sdcode": 1887, "block_name": "Chingai", "block_lgd": 31.0, "gp_name": "", "state_name": "MANIPUR", "state_lgd": 14, "population": 875, "households": 164}, "geometry": {"type": "Polygon", "coordinates": [[[94.53385, 25.5483], [94.53327, 25.54933], [94.53411000000001, 25.549870000000002], [94.53500000000001, 25.549010000000003], [94.53424000000001, 25.548280000000002], [94.53385, 25.5483]]]}}, {"id": "79", "type": "Feature", "properties": {"village_name": "Chingai", "vil_lgd": 270380, "district_name": "Ukhrul", "dist_lgd": 260, "subdistrict_name": "Chingai", "sdcode": 1887, "block_name": "Chingai", "block_lgd": 31.0, "gp_name": "", "state_name": "MANIPUR", "state_lgd": 14, "population": 1118, "households": 239}, "geometry": {"type": "Polygon", "coordinates": [[[94.49995000000001, 25.31867], [94.50072, 25.31942], [94.50172, 25.31867], [94.50082, 25.31783], [94.49995000000001, 25.31867]]]}}, {"id": "80", "type": "Feature", "properties": {"village_name": "Kongai", "vil_lgd": 270381, "district_name": "Ukhrul", "dist_lgd": 260, "subdistrict_name": "Chingai", "sdcode": 1887, "block_name": "Chingai", "block_lgd": 31.0, "gp_name": "", "state_name": "MANIPUR", "state_lgd": 14, "population": 383, "households": 95}, "geometry": {"type": "Polygon", "coordinates": [[[94.53879, 25.34484], [94.53821, 25.34587], [94.53906, 25.346420000000002], [94.53995, 25.345550000000003], [94.53919, 25.344820000000002], [94.53879, 25.34484]]]}}, {"id": "81", "type": "Feature", "properties": {"village_name": "Wahong", "vil_lgd": 270382, "district_name": "Ukhrul", "dist_lgd": 260, "subdistrict_name": "Chingai", "sdcode": 1887, "block_name": "Chingai", "block_lgd": 31.0, "gp_name": "", "state_name": "MANIPUR", "state_lgd": 14, "population": 537, "households": 118}, "geometry": {"type": "Polygon", "coordinates": [[[94.57140000000001, 25.470150000000004], [94.57082000000001, 25.47117], [94.57166000000001, 25.47172], [94.57255, 25.470860000000002], [94.57180000000001, 25.47013], [94.57140000000001, 25.470150000000004]]]}}, {"id": "82", "type": "Feature", "properties": {"village_name": "New Tusom", "vil_lgd": 270383, "district_name": "Ukhrul", "dist_lgd": 260, "subdistrict_name": "Chingai", "sdcode": 1887, "block_name": "Chingai", "block_lgd": 31.0, "gp_name": "", "state_name": "MANIPUR", "state_lgd": 14, "population": 1608, "households": 341}, "geometry": {"type": "Polygon", "coordinates": [[[94.59398, 25.43795], [94.5934, 25.43898], [94.59424000000001, 25.43953], [94.59513000000001, 25.438660000000002], [94.59438, 25.43793], [94.59398, 25.43795]]]}}, {"id": "83", "type": "Feature", "properties": {"village_name": "Tusom Christian", "vil_lgd": 270384, "district_name": "Ukhrul", "dist_lgd": 260, "subdistrict_name": "Chingai", "sdcode": 1887, "block_name": "Chingai", "block_lgd": 31.0, "gp_name": "", "state_name": "MANIPUR", "state_lgd": 14, "population": 642, "households": 134}, "geometry": {"type": "Polygon", "coordinates": [[[94.60736000000001, 25.425300000000004], [94.60860000000001, 25.425770000000004], [94.60900000000001, 25.424670000000003], [94.60808, 25.42425], [94.60736000000001, 25.425300000000004]]]}}, {"id": "84", "type": "Feature", "properties": {"village_name": "Challow", "vil_lgd": 270385, "district_name": "Ukhrul", "dist_lgd": 260, "subdistrict_name": "Chingai", "sdcode": 1887, "block_name": "Chingai", "block_lgd": 31.0, "gp_name": "", "state_name": "MANIPUR", "state_lgd": 14, "population": 351, "households": 75}, "geometry": {"type": "Polygon", "coordinates": [[[94.57527, 25.346380000000003], [94.57643, 25.346890000000002], [94.57695000000001, 25.345830000000003], [94.5759, 25.345350000000003], [94.57527, 25.346380000000003]]]}}, {"id": "85", "type": "Feature", "properties": {"village_name": "Poi", "vil_lgd": 270386, "district_name": "Ukhrul", "dist_lgd": 260, "subdistrict_name": "Chingai", "sdcode": 1887, "block_name": "Chingai", "block_lgd": 31.0, "gp_name": "", "state_name": "MANIPUR", "state_lgd": 14, "population": 1595, "households": 253}, "geometry": {"type": "Polygon", "coordinates": [[[94.56751000000001, 25.271500000000003], [94.56828, 25.272260000000003], [94.56928, 25.271500000000003], [94.56838, 25.270660000000003], [94.56751000000001, 25.271500000000003]]]}}, {"id": "86", "type": "Feature", "properties": {"village_name": "Ukhrul CT", "vil_lgd": 270457, "district_name": "Ukhrul", "dist_lgd": 260, "subdistrict_name": "Ukhrul", "sdcode": 1888, "block_name": "", "block_lgd": null, "gp_name": "", "state_name": "MANIPUR", "state_lgd": 14, "population": 27187, "households": 5226}, "geometry": {"type": "Polygon", "coordinates": [[[94.38959000000001, 25.10358], [94.35805, 25.10659], [94.34242, 25.105960000000003], [94.33135000000001, 25.10997], [94.32347000000001, 25.117240000000002], [94.32416, 25.126630000000002], [94.32831, 25.133020000000002], [94.33384000000001, 25.13728], [94.34159000000001, 25.139660000000003], [94.34865, 25.14066], [94.35653, 25.143410000000003], [94.36746000000001, 25.14391], [94.37009, 25.14542], [94.38157000000001, 25.146790000000003], [94.38987, 25.144420000000004], [94.39720000000001, 25.1384], [94.39928, 25.132270000000002], [94.3943, 25.108340000000002], [94.38959000000001, 25.10358]]]}}, {"id": "87", "type": "Feature", "properties": {"village_name": "Data Partially Available", "vil_lgd": 999999, "district_name": "Ukhrul", "dist_lgd": 260, "subdistrict_name": "Ukhrul", "sdcode": 1888, "block_name": "", "block_lgd": null, "gp_name": "", "state_name": "MANIPUR", "state_lgd": 14, "population": 0, "households": 0}, "geometry": {"type": "Polygon", "coordinates": [[[94.35773, 25.244180000000004], [94.36724000000001, 25.22612], [94.3739, 25.211070000000003], [94.3815, 25.200750000000003], [94.39053000000001, 25.19731], [94.41430000000001, 25.190430000000003], [94.43807000000001, 25.1887], [94.45328, 25.190430000000003], [94.46279000000001, 25.19602], [94.47515000000001, 25.20763], [94.48608, 25.219240000000003], [94.50082, 25.224400000000003], [94.55833000000001, 25.22397], [94.57069000000001, 25.225690000000004], [94.58268000000001, 25.22407], [94.57853, 25.216230000000003], [94.57564, 25.21412], [94.58175000000001, 25.211080000000003], [94.58899000000001, 25.20294], [94.58945000000001, 25.200280000000003], [94.59133000000001, 25.198420000000002], [94.59194000000001, 25.19283], [94.59638000000001, 25.190900000000003], [94.60028000000001, 25.18746], [94.60358000000001, 25.186420000000002], [94.60557000000001, 25.18146], [94.61129000000001, 25.182010000000002], [94.61476, 25.184540000000002], [94.62004, 25.186660000000003], [94.62198000000001, 25.185070000000003], [94.62363, 25.181420000000003], [94.62643000000001, 25.179840000000002], [94.62855, 25.175690000000003], [94.63476000000001, 25.172], [94.63939, 25.166570000000004], [94.64080000000001, 25.166120000000003], [94.64861, 25.16824], [94.65328000000001, 25.165660000000003], [94.66460000000001, 25.162720000000004], [94.66903, 25.157590000000003], [94.67377, 25.15659], [94.67734, 25.154570000000003], [94.67756000000001, 25.15135], [94.68007000000001, 25.14929], [94.68574000000001, 25.152500000000003], [94.68923000000001, 25.15781], [94.69180000000001, 25.15594], [94.69691, 25.154840000000004], [94.70063, 25.151000000000003], [94.70291, 25.14542], [94.70777000000001, 25.144170000000003], [94.70988000000001, 25.1413], [94.71514, 25.138080000000002], [94.71894, 25.138430000000003], [94.72886000000001, 25.134480000000003], [94.73643000000001, 25.134870000000003], [94.73723000000001, 25.131980000000002], [94.73838, 25.130940000000002], [94.73808000000001, 25.128490000000003], [94.74023000000001, 25.12703], [94.74069, 25.12553], [94.74019000000001, 25.123230000000003], [94.74072000000001, 25.12038], [94.73888000000001, 25.11576], [94.73676, 25.11326], [94.65404000000001, 25.11567], [94.61121000000001, 25.10234], [94.57028000000001, 25.071890000000003], [94.54649, 25.04333], [94.53026000000001, 25.03386], [94.45388000000001, 25.017450000000004], [94.43746, 25.002450000000003], [94.39535000000001, 24.986040000000003], [94.33253, 24.986040000000003], [94.28399, 24.961050000000004], [94.22200000000001, 24.94178], [94.19226, 24.942970000000003], [94.16911, 24.928330000000003], [94.17008000000001, 24.93295], [94.1687, 24.93702], [94.16902, 24.93899], [94.17271000000001, 24.939100000000003], [94.17295000000001, 24.941270000000003], [94.16671000000001, 24.945020000000003], [94.16316, 24.95398], [94.16106, 24.965320000000002], [94.15085, 24.991590000000002], [94.14568000000001, 25.000970000000002], [94.14940000000001, 25.02379], [94.14775, 25.02736], [94.14640000000001, 25.03546], [94.13792000000001, 25.04885], [94.12605, 25.053300000000004], [94.12408, 25.06049], [94.12116, 25.064570000000003], [94.1187, 25.06634], [94.11754, 25.069630000000004], [94.11885000000001, 25.07654], [94.12137000000001, 25.07944], [94.12053, 25.08623], [94.12177000000001, 25.09136], [94.12442, 25.093960000000003], [94.12754000000001, 25.100830000000002], [94.12846, 25.11258], [94.13167000000001, 25.11381], [94.13267, 25.115830000000003], [94.13266, 25.11814], [94.13676000000001, 25.11971], [94.14557, 25.12637], [94.14827000000001, 25.13352], [94.15319000000001, 25.132970000000004], [94.15489000000001, 25.1366], [94.15868, 25.13408], [94.16208, 25.136290000000002], [94.15942000000001, 25.14007], [94.16011, 25.143770000000004], [94.16421000000001, 25.141710000000003], [94.16735000000001, 25.148110000000003], [94.17112, 25.15246], [94.17402000000001, 25.15304], [94.17306, 25.159080000000003], [94.17747000000001, 25.16129], [94.18139000000001, 25.16102], [94.17993000000001, 25.16384], [94.17948000000001, 25.167170000000002], [94.18862000000001, 25.172050000000002], [94.19252, 25.176610000000004], [94.20476000000001, 25.17649], [94.21252000000001, 25.17864], [94.21876, 25.182530000000003], [94.22108, 25.189790000000002], [94.22542000000001, 25.19592], [94.23288000000001, 25.19825], [94.24283000000001, 25.20369], [94.248, 25.209470000000003], [94.25209000000001, 25.21733], [94.25366000000001, 25.224130000000002], [94.25548, 25.22828], [94.26102, 25.23147], [94.28141000000001, 25.23937], [94.29560000000001, 25.2495], [94.30802000000001, 25.26301], [94.31181000000001, 25.26544], [94.31981, 25.27504], [94.32874000000001, 25.271700000000003], [94.33634, 25.26697], [94.34918, 25.25665], [94.35773, 25.244180000000004]], [[94.32463000000001, 25.24902], [94.32539000000001, 25.249750000000002], [94.32450000000001, 25.25062], [94.32365, 25.25007], [94.32423000000001, 25.24904], [94.32463000000001, 25.24902]], [[94.29638000000001, 25.2282], [94.29714000000001, 25.228930000000002], [94.29625000000001, 25.22979], [94.29541, 25.22925], [94.29599, 25.22822], [94.29638000000001, 25.2282]], [[94.24305000000001, 25.194730000000003], [94.24264000000001, 25.19583], [94.24141, 25.19536], [94.24212000000001, 25.19431], [94.24305000000001, 25.194730000000003]], [[94.42265, 25.17003], [94.42341, 25.17076], [94.42252, 25.17162], [94.42168000000001, 25.171080000000003], [94.42226000000001, 25.170050000000003], [94.42265, 25.17003]], [[94.33757000000001, 25.175420000000003], [94.33833000000001, 25.174690000000002], [94.33931000000001, 25.17574], [94.33808, 25.17621], [94.33757000000001, 25.175420000000003]], [[94.27121000000001, 25.181530000000002], [94.27189000000001, 25.18073], [94.27300000000001, 25.18145], [94.27215000000001, 25.18231], [94.27121000000001, 25.181530000000002]], [[94.56812000000001, 25.15257], [94.56688000000001, 25.15304], [94.56648000000001, 25.151950000000003], [94.5674, 25.15152], [94.56812000000001, 25.15257]], [[94.22365, 25.17236], [94.22325000000001, 25.173460000000002], [94.22201000000001, 25.172990000000002], [94.22273000000001, 25.171940000000003], [94.22365, 25.17236]], [[94.53933, 25.136460000000003], [94.54031, 25.137510000000002], [94.53879, 25.137790000000003], [94.53933, 25.136460000000003]], [[94.4397, 25.146230000000003], [94.44072000000001, 25.145500000000002], [94.44148000000001, 25.146230000000003], [94.44059000000001, 25.147100000000002], [94.4397, 25.146230000000003]], [[94.22555000000001, 25.160490000000003], [94.22515000000001, 25.16158], [94.22391, 25.16111], [94.22463, 25.16006], [94.22555000000001, 25.160490000000003]], [[94.39928, 25.132270000000002], [94.39720000000001, 25.1384], [94.38987, 25.144420000000004], [94.38157000000001, 25.146790000000003], [94.37009, 25.14542], [94.36746000000001, 25.14391], [94.35653, 25.143410000000003], [94.34865, 25.14066], [94.34159000000001, 25.139660000000003], [94.33384000000001, 25.13728], [94.32831, 25.133020000000002], [94.32416, 25.126630000000002], [94.32347000000001, 25.117240000000002], [94.33135000000001, 25.10997], [94.34242, 25.105960000000003], [94.35805, 25.10659], [94.38959000000001, 25.10358], [94.3943, 25.108340000000002], [94.39928, 25.132270000000002]], [[94.51738, 25.088700000000003], [94.51841, 25.089810000000003], [94.51755000000001, 25.090290000000003], [94.51675, 25.089740000000003], [94.51738, 25.088700000000003]], [[94.2856, 25.111320000000003], [94.28519000000001, 25.11022], [94.28656000000001, 25.10997], [94.28665000000001, 25.111130000000003], [94.2856, 25.111320000000003]], [[94.18122000000001, 25.12113], [94.17970000000001, 25.12086], [94.18068000000001, 25.11981], [94.18122000000001, 25.12113]], [[94.26289000000001, 25.117050000000003], [94.26316000000001, 25.11617], [94.26457, 25.116490000000002], [94.26404000000001, 25.11755], [94.26289000000001, 25.117050000000003]], [[94.25736, 25.132710000000003], [94.25613000000001, 25.133180000000003], [94.25572000000001, 25.13209], [94.25664, 25.131660000000004], [94.25736, 25.132710000000003]], [[94.18603, 25.14797], [94.1867, 25.147170000000003], [94.18781000000001, 25.14789], [94.18697, 25.148750000000003], [94.18603, 25.14797]], [[94.22941, 25.148480000000003], [94.22951, 25.147330000000004], [94.23091000000001, 25.147650000000002], [94.23039000000001, 25.14871], [94.22941, 25.148480000000003]], [[94.26171000000001, 25.147540000000003], [94.26247000000001, 25.146810000000002], [94.26349, 25.147540000000003], [94.2626, 25.148410000000002], [94.26171000000001, 25.147540000000003]], [[94.30908000000001, 25.14579], [94.30785, 25.14627], [94.30744000000001, 25.145170000000004], [94.30836000000001, 25.144750000000002], [94.30908000000001, 25.14579]], [[94.42641, 25.138180000000002], [94.426, 25.139270000000003], [94.42477000000001, 25.138800000000003], [94.42548000000001, 25.13775], [94.42641, 25.138180000000002]], [[94.44403000000001, 25.134380000000004], [94.44351, 25.135430000000003], [94.44235, 25.13493], [94.44298, 25.13389], [94.44403000000001, 25.134380000000004]], [[94.58333, 25.11043], [94.58408000000001, 25.11116], [94.58319, 25.11202], [94.58235, 25.11147], [94.58293, 25.110450000000004], [94.58333, 25.11043]], [[94.42313000000001, 25.121620000000004], [94.42389000000001, 25.12235], [94.423, 25.123210000000004], [94.42215, 25.122670000000003], [94.42273, 25.121640000000003], [94.42313000000001, 25.121620000000004]], [[94.40316000000001, 25.11473], [94.40392000000001, 25.115460000000002], [94.40303, 25.11633], [94.40219, 25.11578], [94.40277, 25.11475], [94.40316000000001, 25.11473]], [[94.41975000000001, 25.10762], [94.41934, 25.10872], [94.41814000000001, 25.108320000000003], [94.41874000000001, 25.107210000000002], [94.41975000000001, 25.10762]], [[94.39199, 25.095360000000003], [94.39275, 25.096090000000004], [94.39186000000001, 25.096960000000003], [94.39102000000001, 25.096410000000002], [94.39160000000001, 25.095380000000002], [94.39199, 25.095360000000003]], [[94.27404000000001, 25.09869], [94.27363000000001, 25.099780000000003], [94.2724, 25.099310000000003], [94.27311, 25.098260000000003], [94.27404000000001, 25.09869]], [[94.28944000000001, 25.09671], [94.29020000000001, 25.097450000000002], [94.28970000000001, 25.09823], [94.28864, 25.09804], [94.28874, 25.096890000000002], [94.28944000000001, 25.09671]], [[94.35468, 25.086750000000002], [94.35522, 25.08808], [94.35416000000001, 25.08827], [94.35366, 25.087480000000003], [94.35468, 25.086750000000002]], [[94.15314000000001, 25.10564], [94.15324000000001, 25.104480000000002], [94.15464000000001, 25.10481], [94.15412, 25.105860000000003], [94.15314000000001, 25.10564]], [[94.39294000000001, 25.078780000000002], [94.39370000000001, 25.079520000000002], [94.39281000000001, 25.08038], [94.39197000000001, 25.07983], [94.39255000000001, 25.0788], [94.39294000000001, 25.078780000000002]], [[94.30685000000001, 25.082440000000002], [94.30645000000001, 25.083530000000003], [94.30521, 25.083060000000003], [94.30593, 25.08201], [94.30685000000001, 25.082440000000002]], [[94.25562000000001, 25.087290000000003], [94.25664, 25.086550000000003], [94.2574, 25.087290000000003], [94.25651, 25.088150000000002], [94.25562000000001, 25.087290000000003]], [[94.26862000000001, 25.0695], [94.26938000000001, 25.070240000000002], [94.26849000000001, 25.0711], [94.26765, 25.07055], [94.26823, 25.06952], [94.26862000000001, 25.0695]], [[94.31194, 25.06474], [94.31123000000001, 25.065510000000003], [94.31016000000001, 25.06474], [94.31105000000001, 25.063910000000003], [94.31194, 25.06474]], [[94.38743000000001, 25.055740000000004], [94.38702, 25.05684], [94.38579000000001, 25.05637], [94.38650000000001, 25.055320000000002], [94.38743000000001, 25.055740000000004]], [[94.40335, 25.0482], [94.40294, 25.049300000000002], [94.40171000000001, 25.048830000000002], [94.40243000000001, 25.047780000000003], [94.40335, 25.0482]], [[94.37269, 25.0482], [94.37228, 25.049300000000002], [94.37108, 25.048910000000003], [94.37168000000001, 25.047800000000002], [94.37269, 25.0482]], [[94.24306000000001, 25.05045], [94.24253, 25.05151], [94.24138, 25.051000000000002], [94.24201000000001, 25.049970000000002], [94.24306000000001, 25.05045]], [[94.41053000000001, 25.033350000000002], [94.41107000000001, 25.03468], [94.40955000000001, 25.0344], [94.41053000000001, 25.033350000000002]], [[94.30334, 25.04003], [94.3041, 25.040760000000002], [94.30321, 25.04163], [94.30236000000001, 25.04108], [94.30294, 25.04005], [94.30334, 25.04003]], [[94.41291000000001, 25.02259], [94.41367000000001, 25.023320000000002], [94.41278000000001, 25.02418], [94.41193000000001, 25.02364], [94.41251000000001, 25.022610000000004], [94.41291000000001, 25.02259]], [[94.35682000000001, 25.02495], [94.35758000000001, 25.02569], [94.35669000000001, 25.02655], [94.35584000000001, 25.026000000000003], [94.35642000000001, 25.024970000000003], [94.35682000000001, 25.02495]], [[94.23542, 25.032290000000003], [94.23501, 25.03339], [94.23378000000001, 25.03292], [94.23449000000001, 25.03187], [94.23542, 25.032290000000003]], [[94.30096, 25.02409], [94.30172, 25.02483], [94.30083, 25.02569], [94.29998, 25.02514], [94.30057000000001, 25.02411], [94.30096, 25.02409]], [[94.16471000000001, 25.031640000000003], [94.16430000000001, 25.03274], [94.16307, 25.03227], [94.16378, 25.03122], [94.16471000000001, 25.031640000000003]], [[94.37245000000001, 25.004700000000003], [94.37205, 25.0058], [94.37085, 25.0054], [94.37144, 25.00429], [94.37245000000001, 25.004700000000003]], [[94.29477000000001, 24.99977], [94.29553000000001, 25.000510000000002], [94.29464, 25.00137], [94.29379, 25.00082], [94.29437, 24.99979], [94.29477000000001, 24.99977]], [[94.16982, 25.00644], [94.16941000000001, 25.007540000000002], [94.16818, 25.007070000000002], [94.16889, 25.006020000000003], [94.16982, 25.00644]], [[94.18859, 25.000200000000003], [94.18819, 25.0013], [94.18695000000001, 25.00082], [94.18767000000001, 24.99977], [94.18859, 25.000200000000003]], [[94.26559, 24.987080000000002], [94.26519, 24.988180000000003], [94.26395000000001, 24.987710000000003], [94.26467000000001, 24.98666], [94.26559, 24.987080000000002]], [[94.22976000000001, 24.98685], [94.23052000000001, 24.98758], [94.22963000000001, 24.98845], [94.22879, 24.987900000000003], [94.22937, 24.986870000000003], [94.22976000000001, 24.98685]], [[94.28505000000001, 24.980590000000003], [94.28597, 24.98017], [94.28669000000001, 24.98122], [94.28546000000001, 24.98169], [94.28505000000001, 24.980590000000003]], [[94.17193, 24.99003], [94.17261, 24.989230000000003], [94.17372, 24.98995], [94.17287, 24.990820000000003], [94.17193, 24.99003]], [[94.26559, 24.967260000000003], [94.26519, 24.96836], [94.26395000000001, 24.96789], [94.26467000000001, 24.96683], [94.26559, 24.967260000000003]], [[94.17754000000001, 24.97284], [94.17714000000001, 24.973940000000002], [94.17590000000001, 24.973460000000003], [94.17662000000001, 24.972410000000004], [94.17754000000001, 24.97284]], [[94.21146, 24.968970000000002], [94.21222, 24.969700000000003], [94.21172000000001, 24.97049], [94.21066, 24.970290000000002], [94.21054000000001, 24.96939], [94.21146, 24.968970000000002]], [[94.24950000000001, 24.964070000000003], [94.25053000000001, 24.965180000000004], [94.24905000000001, 24.965390000000003], [94.24950000000001, 24.964070000000003]], [[94.24368000000001, 24.95737], [94.24444000000001, 24.9581], [94.24355000000001, 24.95897], [94.24270000000001, 24.95842], [94.24328000000001, 24.957390000000004], [94.24368000000001, 24.95737]], [[94.22785, 24.95503], [94.22732, 24.956080000000004], [94.22617000000001, 24.95558], [94.22680000000001, 24.95454], [94.22785, 24.95503]], [[94.17878, 24.95604], [94.17954, 24.956770000000002], [94.17865, 24.95764], [94.1778, 24.95709], [94.17839000000001, 24.95606], [94.17878, 24.95604]], [[94.20994, 24.95194], [94.21087000000001, 24.951510000000003], [94.21158000000001, 24.952560000000002], [94.21035, 24.953030000000002], [94.20994, 24.95194]], [[94.19423, 24.950650000000003], [94.19499, 24.95138], [94.1941, 24.952250000000003], [94.19325, 24.951700000000002], [94.19384000000001, 24.950670000000002], [94.19423, 24.950650000000003]], [[94.18162000000001, 24.94274], [94.18109000000001, 24.943800000000003], [94.17994, 24.9433], [94.18057, 24.94226], [94.18162000000001, 24.94274]], [[94.48818000000001, 25.1884], [94.48894000000001, 25.18766], [94.48996000000001, 25.1884], [94.48907000000001, 25.18926], [94.48818000000001, 25.1884]], [[94.51647000000001, 25.19506], [94.51723000000001, 25.19433], [94.51825000000001, 25.19506], [94.51736000000001, 25.19593], [94.51647000000001, 25.19506]], [[94.50965000000001, 25.208930000000002], [94.50841000000001, 25.209400000000002], [94.50801000000001, 25.2083], [94.50893, 25.207880000000003], [94.50965000000001, 25.208930000000002]]]}}, {"id": "88", "type": "Feature", "properties": {"village_name": "Huishu", "vil_lgd": 270387, "district_name": "Ukhrul", "dist_lgd": 260, "subdistrict_name": "Chingai", "sdcode": 1887, "block_name": "Chingai", "block_lgd": 31.0, "gp_name": "", "state_name": "MANIPUR", "state_lgd": 14, "population": 1018, "households": 201}, "geometry": {"type": "Polygon", "coordinates": [[[94.56506, 25.246550000000003], [94.56463000000001, 25.24763], [94.56554000000001, 25.248070000000002], [94.56631, 25.247320000000002], [94.56544000000001, 25.246480000000002], [94.56506, 25.246550000000003]]]}}, {"id": "89", "type": "Feature", "properties": {"village_name": "K Phungrei", "vil_lgd": 270388, "district_name": "Ukhrul", "dist_lgd": 260, "subdistrict_name": "Chingai", "sdcode": 1887, "block_name": "Chingai", "block_lgd": 31.0, "gp_name": "", "state_name": "MANIPUR", "state_lgd": 14, "population": 478, "households": 96}, "geometry": {"type": "Polygon", "coordinates": [[[94.52775000000001, 25.23572], [94.52810000000001, 25.23666], [94.52938, 25.236340000000002], [94.52860000000001, 25.235190000000003], [94.52775000000001, 25.23572]]]}}, {"id": "90", "type": "Feature", "properties": {"village_name": "Khamasom", "vil_lgd": 270450, "district_name": "Ukhrul", "dist_lgd": 260, "subdistrict_name": "Ukhrul", "sdcode": 1888, "block_name": "Ukhrul", "block_lgd": 32.0, "gp_name": "", "state_name": "MANIPUR", "state_lgd": 14, "population": 1996, "households": 388}, "geometry": {"type": "Polygon", "coordinates": [[[94.50801000000001, 25.2083], [94.50841000000001, 25.209400000000002], [94.50965000000001, 25.208930000000002], [94.50893, 25.207880000000003], [94.50801000000001, 25.2083]]]}}, {"id": "91", "type": "Feature", "properties": {"village_name": "Sihai Khunou", "vil_lgd": 270452, "district_name": "Ukhrul", "dist_lgd": 260, "subdistrict_name": "Ukhrul", "sdcode": 1888, "block_name": "Ukhrul", "block_lgd": 32.0, "gp_name": "", "state_name": "MANIPUR", "state_lgd": 14, "population": 372, "households": 80}, "geometry": {"type": "Polygon", "coordinates": [[[94.51647000000001, 25.19506], [94.51736000000001, 25.19593], [94.51825000000001, 25.19506], [94.51723000000001, 25.19433], [94.51647000000001, 25.19506]]]}}, {"id": "92", "type": "Feature", "properties": {"village_name": "Mapum", "vil_lgd": 270453, "district_name": "Ukhrul", "dist_lgd": 260, "subdistrict_name": "Ukhrul", "sdcode": 1888, "block_name": "Ukhrul", "block_lgd": 32.0, "gp_name": "", "state_name": "MANIPUR", "state_lgd": 14, "population": 1117, "households": 251}, "geometry": {"type": "Polygon", "coordinates": [[[94.53879, 25.137790000000003], [94.54031, 25.137510000000002], [94.53933, 25.136460000000003], [94.53879, 25.137790000000003]]]}}, {"id": "93", "type": "Feature", "properties": {"village_name": "Pushing", "vil_lgd": 270454, "district_name": "Ukhrul", "dist_lgd": 260, "subdistrict_name": "Ukhrul", "sdcode": 1888, "block_name": "Ukhrul", "block_lgd": 32.0, "gp_name": "", "state_name": "MANIPUR", "state_lgd": 14, "population": 904, "households": 151}, "geometry": {"type": "Polygon", "coordinates": [[[94.51675, 25.089740000000003], [94.51755000000001, 25.090290000000003], [94.51841, 25.089810000000003], [94.51738, 25.088700000000003], [94.51675, 25.089740000000003]]]}}, {"id": "94", "type": "Feature", "properties": {"village_name": "Chingshou Zingsui", "vil_lgd": 270455, "district_name": "Ukhrul", "dist_lgd": 260, "subdistrict_name": "Ukhrul", "sdcode": 1888, "block_name": "Ukhrul", "block_lgd": 32.0, "gp_name": "", "state_name": "MANIPUR", "state_lgd": 14, "population": 602, "households": 94}, "geometry": {"type": "Polygon", "coordinates": [[[94.56648000000001, 25.151950000000003], [94.56688000000001, 25.15304], [94.56812000000001, 25.15257], [94.5674, 25.15152], [94.56648000000001, 25.151950000000003]]]}}, {"id": "95", "type": "Feature", "properties": {"village_name": "Lonshak", "vil_lgd": 270456, "district_name": "Ukhrul", "dist_lgd": 260, "subdistrict_name": "Ukhrul", "sdcode": 1888, "block_name": "Ukhrul", "block_lgd": 32.0, "gp_name": "", "state_name": "MANIPUR", "state_lgd": 14, "population": 251, "households": 49}, "geometry": {"type": "Polygon", "coordinates": [[[94.58293, 25.110450000000004], [94.58235, 25.11147], [94.58319, 25.11202], [94.58408000000001, 25.11116], [94.58333, 25.11043], [94.58293, 25.110450000000004]]]}}, {"id": "96", "type": "Feature", "properties": {"village_name": "Data Partially Available", "vil_lgd": 999999, "district_name": "Ukhrul", "dist_lgd": 260, "subdistrict_name": "Chingai", "sdcode": 1887, "block_name": "", "block_lgd": null, "gp_name": "", "state_name": "MANIPUR", "state_lgd": 14, "population": 0, "households": 0}, "geometry": {"type": "Polygon", "coordinates": [[[94.57069000000001, 25.225690000000004], [94.55833000000001, 25.22397], [94.50082, 25.224400000000003], [94.48608, 25.219240000000003], [94.47515000000001, 25.20763], [94.46279000000001, 25.19602], [94.45328, 25.190430000000003], [94.43807000000001, 25.1887], [94.41430000000001, 25.190430000000003], [94.39053000000001, 25.19731], [94.3815, 25.200750000000003], [94.3739, 25.211070000000003], [94.36724000000001, 25.22612], [94.35773, 25.244180000000004], [94.34918, 25.25665], [94.33634, 25.26697], [94.32874000000001, 25.271700000000003], [94.31981, 25.27504], [94.32303, 25.278840000000002], [94.32606000000001, 25.285130000000002], [94.32769, 25.29342], [94.33595000000001, 25.307910000000003], [94.33961000000001, 25.311320000000002], [94.34466, 25.314500000000002], [94.34869, 25.323850000000004], [94.35432, 25.33227], [94.35564000000001, 25.33602], [94.35898, 25.340120000000002], [94.36680000000001, 25.34849], [94.37408, 25.353640000000002], [94.37729, 25.357730000000004], [94.37603000000001, 25.36044], [94.37804000000001, 25.365800000000004], [94.37514, 25.369190000000003], [94.37411, 25.377190000000002], [94.37468000000001, 25.388370000000002], [94.37562000000001, 25.392010000000003], [94.37833, 25.397080000000003], [94.38301000000001, 25.40349], [94.37908, 25.40866], [94.38559000000001, 25.41767], [94.38268000000001, 25.421580000000002], [94.38451, 25.423430000000003], [94.38748000000001, 25.42377], [94.39039000000001, 25.422810000000002], [94.39368, 25.42967], [94.40070000000001, 25.440910000000002], [94.40220000000001, 25.448700000000002], [94.40802000000001, 25.45586], [94.41883000000001, 25.466880000000003], [94.41598, 25.47171], [94.41983, 25.48175], [94.42439, 25.49011], [94.42975000000001, 25.509940000000004], [94.43197, 25.513800000000003], [94.43507000000001, 25.516350000000003], [94.43533000000001, 25.519280000000002], [94.43785000000001, 25.522000000000002], [94.43969000000001, 25.527240000000003], [94.44589, 25.53687], [94.4607, 25.55505], [94.46348, 25.571130000000004], [94.46690000000001, 25.583000000000002], [94.47272000000001, 25.588600000000003], [94.48325000000001, 25.596570000000003], [94.48970000000001, 25.60753], [94.48897000000001, 25.608890000000002], [94.49483000000001, 25.611050000000002], [94.49547000000001, 25.613360000000004], [94.49737, 25.61457], [94.50091, 25.611520000000002], [94.50332, 25.613480000000003], [94.50421000000001, 25.621440000000003], [94.50643000000001, 25.624430000000004], [94.51004, 25.625010000000003], [94.51974000000001, 25.63793], [94.52373000000001, 25.638800000000003], [94.5262, 25.63708], [94.52709, 25.644630000000003], [94.53507, 25.645560000000003], [94.54028000000001, 25.652020000000004], [94.54731000000001, 25.656920000000003], [94.54776000000001, 25.66187], [94.56063, 25.67526], [94.56355, 25.686670000000003], [94.56857000000001, 25.692090000000004], [94.57415, 25.690430000000003], [94.57852000000001, 25.687610000000003], [94.58257, 25.686290000000003], [94.59113, 25.685660000000002], [94.59245000000001, 25.68128], [94.58548, 25.67563], [94.58364, 25.671650000000003], [94.58084000000001, 25.669240000000002], [94.58287000000001, 25.66618], [94.5811, 25.66439], [94.57893000000001, 25.65961], [94.58071000000001, 25.656160000000003], [94.57754000000001, 25.655], [94.57684, 25.651780000000002], [94.57228, 25.64722], [94.57272, 25.64272], [94.57156, 25.639090000000003], [94.58241000000001, 25.640950000000004], [94.59064000000001, 25.63819], [94.59001, 25.63699], [94.58595000000001, 25.63462], [94.57923000000001, 25.628850000000003], [94.57396000000001, 25.620600000000003], [94.57237, 25.61473], [94.56825, 25.605680000000003], [94.56407, 25.60216], [94.56235000000001, 25.598470000000002], [94.56059, 25.596980000000002], [94.555, 25.588490000000004], [94.55114, 25.5802], [94.55695000000001, 25.57271], [94.55581000000001, 25.562350000000002], [94.56005, 25.56229], [94.55676000000001, 25.55486], [94.55826, 25.543850000000003], [94.55523000000001, 25.54005], [94.55883000000001, 25.534000000000002], [94.55364, 25.529220000000002], [94.55661, 25.52502], [94.55433000000001, 25.518670000000004], [94.55274000000001, 25.50709], [94.56349, 25.500880000000002], [94.56989, 25.49951], [94.58026000000001, 25.491110000000003], [94.58247, 25.486680000000003], [94.58607, 25.483980000000003], [94.59013, 25.482360000000003], [94.59259, 25.48046], [94.60271, 25.47662], [94.62053, 25.463210000000004], [94.62813000000001, 25.459760000000003], [94.64337, 25.45568], [94.65159000000001, 25.452640000000002], [94.65386000000001, 25.45108], [94.66108000000001, 25.44941], [94.66487000000001, 25.449360000000002], [94.68028000000001, 25.454010000000004], [94.67524, 25.44562], [94.67118, 25.442860000000003], [94.67087000000001, 25.437260000000002], [94.67219000000001, 25.433740000000004], [94.67304000000001, 25.42508], [94.66981000000001, 25.4215], [94.67004000000001, 25.418830000000003], [94.6671, 25.414640000000002], [94.66441, 25.41205], [94.66274000000001, 25.41186], [94.66293, 25.41006], [94.65957, 25.405820000000002], [94.65607000000001, 25.404670000000003], [94.64897, 25.40642], [94.64595000000001, 25.402620000000002], [94.64257, 25.40077], [94.64000000000001, 25.397990000000004], [94.6346, 25.395010000000003], [94.63227, 25.389020000000002], [94.63269000000001, 25.38464], [94.63195, 25.38162], [94.63364000000001, 25.372300000000003], [94.63294, 25.371100000000002], [94.63366, 25.36494], [94.6324, 25.360680000000002], [94.63455, 25.357920000000004], [94.63286000000001, 25.355220000000003], [94.63125000000001, 25.354390000000002], [94.6312, 25.35215], [94.63002, 25.351450000000003], [94.62959000000001, 25.34934], [94.62245000000001, 25.345950000000002], [94.62361000000001, 25.343580000000003], [94.6205, 25.33858], [94.61827000000001, 25.330450000000003], [94.61462, 25.32486], [94.61208, 25.32412], [94.61187000000001, 25.32119], [94.60622000000001, 25.314560000000004], [94.60591000000001, 25.31227], [94.60412000000001, 25.309450000000002], [94.60459, 25.30769], [94.60602, 25.30636], [94.60349000000001, 25.305570000000003], [94.60322000000001, 25.30301], [94.59968, 25.296580000000002], [94.59856, 25.29268], [94.59334000000001, 25.285870000000003], [94.59194000000001, 25.27814], [94.59058, 25.2773], [94.58728, 25.26967], [94.58465000000001, 25.266180000000002], [94.58938, 25.2574], [94.58939000000001, 25.25459], [94.58724000000001, 25.2498], [94.58575, 25.248820000000002], [94.58616, 25.246710000000004], [94.58738000000001, 25.24566], [94.58734000000001, 25.243990000000004], [94.58636000000001, 25.24322], [94.58513, 25.239130000000003], [94.58564000000001, 25.23487], [94.58492000000001, 25.229860000000002], [94.58552, 25.229480000000002], [94.58265, 25.227420000000002], [94.58216, 25.224980000000002], [94.58268000000001, 25.22407], [94.57069000000001, 25.225690000000004]], [[94.54755, 25.633020000000002], [94.54715, 25.634110000000003], [94.54591, 25.633640000000003], [94.54663000000001, 25.63259], [94.54755, 25.633020000000002]], [[94.53424000000001, 25.548280000000002], [94.53500000000001, 25.549010000000003], [94.53411000000001, 25.549870000000002], [94.53327, 25.54933], [94.53385, 25.5483], [94.53424000000001, 25.548280000000002]], [[94.47463, 25.487450000000003], [94.47422, 25.48854], [94.47302, 25.48814], [94.47362000000001, 25.48704], [94.47463, 25.487450000000003]], [[94.57180000000001, 25.47013], [94.57255, 25.470860000000002], [94.57166000000001, 25.47172], [94.57082000000001, 25.47117], [94.57140000000001, 25.470150000000004], [94.57180000000001, 25.47013]], [[94.59438, 25.43793], [94.59513000000001, 25.438660000000002], [94.59424000000001, 25.43953], [94.5934, 25.43898], [94.59398, 25.43795], [94.59438, 25.43793]], [[94.49479000000001, 25.44487], [94.49438, 25.445970000000003], [94.49314000000001, 25.445500000000003], [94.49386000000001, 25.444450000000003], [94.49479000000001, 25.44487]], [[94.42181000000001, 25.44941], [94.42128000000001, 25.450460000000003], [94.42013000000001, 25.44996], [94.42076, 25.44892], [94.42181000000001, 25.44941]], [[94.60900000000001, 25.424670000000003], [94.60860000000001, 25.425770000000004], [94.60736000000001, 25.425300000000004], [94.60808, 25.42425], [94.60900000000001, 25.424670000000003]], [[94.47691, 25.42856], [94.4765, 25.429650000000002], [94.47527000000001, 25.429180000000002], [94.47599000000001, 25.428140000000003], [94.47691, 25.42856]], [[94.41591000000001, 25.43258], [94.41539, 25.43363], [94.41424, 25.433130000000002], [94.41486, 25.432100000000002], [94.41591000000001, 25.43258]], [[94.40723000000001, 25.406840000000003], [94.40799000000001, 25.407570000000003], [94.40710000000001, 25.408430000000003], [94.40625000000001, 25.407890000000002], [94.40683000000001, 25.40686], [94.40723000000001, 25.406840000000003]], [[94.4675, 25.37919], [94.46826, 25.379920000000002], [94.46737, 25.38078], [94.46652, 25.38023], [94.46711, 25.37921], [94.4675, 25.37919]], [[94.57695000000001, 25.345830000000003], [94.57643, 25.346890000000002], [94.57527, 25.346380000000003], [94.5759, 25.345350000000003], [94.57695000000001, 25.345830000000003]], [[94.53919, 25.344820000000002], [94.53995, 25.345550000000003], [94.53906, 25.346420000000002], [94.53821, 25.34587], [94.53879, 25.34484], [94.53919, 25.344820000000002]], [[94.44049000000001, 25.34496], [94.43973000000001, 25.345720000000004], [94.43873, 25.34496], [94.43960000000001, 25.344130000000003], [94.44049000000001, 25.34496]], [[94.50172, 25.31867], [94.50072, 25.31942], [94.49995000000001, 25.31867], [94.50082, 25.31783], [94.50172, 25.31867]], [[94.46616, 25.313000000000002], [94.46516000000001, 25.313750000000002], [94.46440000000001, 25.313000000000002], [94.46526, 25.312160000000002], [94.46616, 25.313000000000002]], [[94.3863, 25.31454], [94.38554, 25.3153], [94.38453000000001, 25.31454], [94.3854, 25.31371], [94.3863, 25.31454]], [[94.49096, 25.2905], [94.49183000000001, 25.29134], [94.49122000000001, 25.292060000000003], [94.49015000000001, 25.29165], [94.49058000000001, 25.290570000000002], [94.49096, 25.2905]], [[94.56928, 25.271500000000003], [94.56828, 25.272260000000003], [94.56751000000001, 25.271500000000003], [94.56838, 25.270660000000003], [94.56928, 25.271500000000003]], [[94.47994000000001, 25.267460000000003], [94.4808, 25.268300000000004], [94.48019000000001, 25.26902], [94.47912000000001, 25.268610000000002], [94.47956, 25.26753], [94.47994000000001, 25.267460000000003]], [[94.56544000000001, 25.246480000000002], [94.56631, 25.247320000000002], [94.56554000000001, 25.248070000000002], [94.56463000000001, 25.24763], [94.56506, 25.246550000000003], [94.56544000000001, 25.246480000000002]], [[94.47377, 25.253510000000002], [94.47282000000001, 25.25427], [94.47200000000001, 25.253390000000003], [94.47283, 25.252670000000002], [94.47377, 25.253510000000002]], [[94.39152000000001, 25.24923], [94.39239, 25.25007], [94.39177000000001, 25.250790000000002], [94.39071000000001, 25.250380000000003], [94.39114000000001, 25.2493], [94.39152000000001, 25.24923]], [[94.52775000000001, 25.23572], [94.52860000000001, 25.235190000000003], [94.52938, 25.236340000000002], [94.52810000000001, 25.23666], [94.52775000000001, 25.23572]], [[94.47738000000001, 25.239240000000002], [94.47662000000001, 25.239990000000002], [94.47561, 25.239240000000002], [94.47648000000001, 25.238400000000002], [94.47738000000001, 25.239240000000002]], [[94.45312000000001, 25.23685], [94.45399, 25.23769], [94.45323, 25.23844], [94.45231000000001, 25.238000000000003], [94.45275000000001, 25.23692], [94.45312000000001, 25.23685]]]}}, {"id": "97", "type": "Feature", "properties": {"village_name": "Jessami", "vil_lgd": 270362, "district_name": "Ukhrul", "dist_lgd": 260, "subdistrict_name": "Chingai", "sdcode": 1887, "block_name": "Chingai", "block_lgd": 31.0, "gp_name": "", "state_name": "MANIPUR", "state_lgd": 14, "population": 2765, "households": 558}, "geometry": {"type": "Polygon", "coordinates": [[[94.54591, 25.633640000000003], [94.54715, 25.634110000000003], [94.54755, 25.633020000000002], [94.54663000000001, 25.63259], [94.54591, 25.633640000000003]]]}}]}