{"type": "FeatureCollection", "metadata": {"source": "Survey of India (per src_agency attribute in the source data)", "hosted_via": "National Water Data Portal (NWDP), NWIC, Ministry of Jal Shakti -- https://nwdp.nwic.gov.in/", "access": "public, no login required", "crs_original": "EPSG:7755 (WGS 84 / India NSF LCC)", "fetch_date": "2026-08-02", "quality": "verified-official -- Survey of India source", "state": "Telangana", "district": "Hyderabad", "processing": "reprojected to EPSG:4326, topology-preserving simplify (shared-arc, tolerance 0.0005 deg) so adjacent polygons never overlap/gap at shared borders, coords rounded 5dp, 0 feature(s) needed the per-feature fallback", "feature_count": 17}, "features": [{"id": "0", "type": "Feature", "properties": {"village_name": "Hyderabad", "vil_lgd": 251664, "district_name": "Hyderabad", "dist_lgd": 507, "subdistrict_name": "Bandlaguda", "sdcode": 4509, "block_name": "", "block_lgd": 0.0, "gp_name": "", "state_name": "TELANGANA", "state_lgd": 36, "population": 330193, "households": 66727}, "geometry": {"type": "Polygon", "coordinates": [[[78.47087, 17.32655], [78.47306, 17.32955], [78.47458, 17.33744], [78.47772, 17.34026], [78.47962000000001, 17.34026], [78.48021, 17.338910000000002], [78.48314, 17.33154], [78.48418000000001, 17.33109], [78.48817000000001, 17.333720000000003], [78.49426000000001, 17.336080000000003], [78.49626, 17.33781], [78.49778, 17.339350000000003], [78.50101000000001, 17.34797], [78.50367, 17.34861], [78.51071, 17.34842], [78.50896, 17.34338], [78.509, 17.33537], [78.50842, 17.33484], [78.50915, 17.33258], [78.50917000000001, 17.325770000000002], [78.51153000000001, 17.31875], [78.50294000000001, 17.32231], [78.49488000000001, 17.318240000000003], [78.49329, 17.31802], [78.48954, 17.320220000000003], [78.47729000000001, 17.317690000000002], [78.47359, 17.314770000000003], [78.47261, 17.310370000000002], [78.4689, 17.305570000000003], [78.46905000000001, 17.2988], [78.46754, 17.297520000000002], [78.46014000000001, 17.298720000000003], [78.4544, 17.30815], [78.45339000000001, 17.31912], [78.45166, 17.32367], [78.44337, 17.32714], [78.44211, 17.3291], [78.44215000000001, 17.3334], [78.45024000000001, 17.3398], [78.45100000000001, 17.34225], [78.45595, 17.3438], [78.45937, 17.351960000000002], [78.46412000000001, 17.35142], [78.46716, 17.34897], [78.46764, 17.344520000000003], [78.46526, 17.33944], [78.46003, 17.33681], [78.45937, 17.328370000000003], [78.46022, 17.32646], [78.46336000000001, 17.324650000000002], [78.47087, 17.32655]]]}}, {"id": "1", "type": "Feature", "properties": {"village_name": "Hyderabad", "vil_lgd": 251664, "district_name": "Hyderabad", "dist_lgd": 507, "subdistrict_name": "Shaikpet", "sdcode": 4496, "block_name": "", "block_lgd": 0.0, "gp_name": "", "state_name": "TELANGANA", "state_lgd": 36, "population": 250932, "households": 57917}, "geometry": {"type": "Polygon", "coordinates": [[[78.4482, 17.423650000000002], [78.45091000000001, 17.419500000000003], [78.45127000000001, 17.416230000000002], [78.44826, 17.405520000000003], [78.44633, 17.39797], [78.44341, 17.39096], [78.42836000000001, 17.38973], [78.42294000000001, 17.388370000000002], [78.41474000000001, 17.3883], [78.40761, 17.38483], [78.40647000000001, 17.385650000000002], [78.40555, 17.38932], [78.40398, 17.39055], [78.39606, 17.38483], [78.39399, 17.38539], [78.39537, 17.386570000000003], [78.39546, 17.390050000000002], [78.39224, 17.390710000000002], [78.3919, 17.391920000000002], [78.39546, 17.396500000000003], [78.39484, 17.398300000000003], [78.39266, 17.3993], [78.39274, 17.40182], [78.39460000000001, 17.40378], [78.39787000000001, 17.40391], [78.39922, 17.405160000000002], [78.40293000000001, 17.406100000000002], [78.40400000000001, 17.40772], [78.40015000000001, 17.419410000000003], [78.39571000000001, 17.42179], [78.39497, 17.423070000000003], [78.39568000000001, 17.424030000000002], [78.4013, 17.42424], [78.40134, 17.42612], [78.40499000000001, 17.43242], [78.40973000000001, 17.4346], [78.40878000000001, 17.43906], [78.41662000000001, 17.437730000000002], [78.43437, 17.430590000000002], [78.44742000000001, 17.42678], [78.4482, 17.423650000000002]]]}}, {"id": "2", "type": "Feature", "properties": {"village_name": "Secundarabad", "vil_lgd": 277300, "district_name": "Hyderabad", "dist_lgd": 507, "subdistrict_name": "Tirumalgiri", "sdcode": 4499, "block_name": "", "block_lgd": 0.0, "gp_name": "", "state_name": "TELANGANA", "state_lgd": 36, "population": 217910, "households": 50333}, "geometry": {"type": "Polygon", "coordinates": [[[78.5254, 17.468770000000003], [78.52253, 17.469430000000003], [78.52217, 17.46289], [78.52052, 17.46046], [78.52541000000001, 17.45495], [78.52502000000001, 17.451680000000003], [78.52283000000001, 17.446620000000003], [78.51883000000001, 17.448880000000003], [78.51734, 17.45092], [78.51869, 17.45473], [78.51841, 17.45813], [78.51591, 17.463430000000002], [78.51327, 17.46514], [78.51156, 17.465200000000003], [78.51006000000001, 17.46704], [78.50864, 17.46697], [78.50643000000001, 17.465410000000002], [78.50094, 17.45806], [78.49673, 17.448400000000003], [78.49573000000001, 17.449080000000002], [78.49188000000001, 17.447180000000003], [78.4834, 17.44697], [78.48240000000001, 17.44534], [78.48012, 17.44405], [78.47691, 17.44534], [78.47455000000001, 17.448610000000002], [78.46764, 17.44956], [78.46243000000001, 17.45174], [78.45224, 17.46198], [78.45734, 17.46247], [78.45808000000001, 17.4634], [78.45455000000001, 17.488760000000003], [78.46039, 17.492340000000002], [78.46935, 17.49255], [78.47189, 17.49313], [78.47464000000001, 17.495510000000003], [78.47356, 17.4924], [78.47153, 17.490000000000002], [78.47076000000001, 17.48696], [78.47324, 17.479270000000003], [78.47403000000001, 17.479490000000002], [78.47458, 17.482770000000002], [78.48361000000001, 17.48321], [78.49364000000001, 17.47342], [78.50187000000001, 17.47368], [78.516, 17.47579], [78.51505, 17.488390000000003], [78.51785000000001, 17.494380000000003], [78.52621, 17.500780000000002], [78.53092000000001, 17.50131], [78.53314, 17.50025], [78.53438000000001, 17.49829], [78.53391, 17.494110000000003], [78.53091, 17.491390000000003], [78.52651, 17.48532], [78.52412000000001, 17.4737], [78.5254, 17.468770000000003]]]}}, {"id": "3", "type": "Feature", "properties": {"village_name": "Hyderabad", "vil_lgd": 251664, "district_name": "Hyderabad", "dist_lgd": 507, "subdistrict_name": "Ameerpet", "sdcode": 4497, "block_name": "", "block_lgd": 0.0, "gp_name": "", "state_name": "TELANGANA", "state_lgd": 36, "population": 59070, "households": 14822}, "geometry": {"type": "MultiPolygon", "coordinates": [[[[78.45063, 17.43118], [78.45084, 17.432470000000002], [78.43950000000001, 17.433010000000003], [78.43644, 17.4354], [78.43658, 17.43757], [78.44136, 17.443150000000003], [78.44086, 17.44424], [78.43615000000001, 17.44574], [78.43351000000001, 17.44778], [78.42920000000001, 17.45653], [78.43111, 17.45937], [78.43642000000001, 17.463060000000002], [78.4415, 17.46328], [78.44455, 17.461380000000002], [78.44271, 17.457230000000003], [78.44937, 17.451520000000002], [78.45659, 17.446800000000003], [78.4604, 17.44236], [78.45626, 17.438730000000003], [78.45555, 17.434440000000002], [78.45419000000001, 17.43308], [78.45063, 17.43118]]], [[[78.46066, 17.418110000000002], [78.45518000000001, 17.418490000000002], [78.45410000000001, 17.418930000000003], [78.45393, 17.423720000000003], [78.45490000000001, 17.42518], [78.45821000000001, 17.42671], [78.46231, 17.42611], [78.46328000000001, 17.42464], [78.46403000000001, 17.42192], [78.46140000000001, 17.41958], [78.46066, 17.418110000000002]]]]}}, {"id": "4", "type": "Feature", "properties": {"village_name": "Hyderabad", "vil_lgd": 251664, "district_name": "Hyderabad", "dist_lgd": 507, "subdistrict_name": "Marredpally", "sdcode": 4500, "block_name": "", "block_lgd": 0.0, "gp_name": "", "state_name": "TELANGANA", "state_lgd": 36, "population": 172542, "households": 41890}, "geometry": {"type": "Polygon", "coordinates": [[[78.51327, 17.46514], [78.51591, 17.463430000000002], [78.51841, 17.45813], [78.51869, 17.45473], [78.51734, 17.45092], [78.51883000000001, 17.448880000000003], [78.52283000000001, 17.446620000000003], [78.52495, 17.43691], [78.52835, 17.433510000000002], [78.53131, 17.43213], [78.5343, 17.432180000000002], [78.53693000000001, 17.435000000000002], [78.53960000000001, 17.440170000000002], [78.54899, 17.43634], [78.5489, 17.433970000000002], [78.54673000000001, 17.431890000000003], [78.54749000000001, 17.427850000000003], [78.54105000000001, 17.421110000000002], [78.53986, 17.420620000000003], [78.53224, 17.42362], [78.5301, 17.426160000000003], [78.52896000000001, 17.429560000000002], [78.52639, 17.43051], [78.51448, 17.430580000000003], [78.50564, 17.432550000000003], [78.50105, 17.43176], [78.5035, 17.442960000000003], [78.50279, 17.444180000000003], [78.49673, 17.448400000000003], [78.50094, 17.45806], [78.50643000000001, 17.465410000000002], [78.50864, 17.46697], [78.51006000000001, 17.46704], [78.51156, 17.465200000000003], [78.51327, 17.46514]]]}}, {"id": "5", "type": "Feature", "properties": {"village_name": "Hyderabad", "vil_lgd": 251664, "district_name": "Hyderabad", "dist_lgd": 507, "subdistrict_name": "Secunderabad", "sdcode": 4498, "block_name": "", "block_lgd": 0.0, "gp_name": "", "state_name": "TELANGANA", "state_lgd": 36, "population": 135370, "households": 31561}, "geometry": {"type": "Polygon", "coordinates": [[[78.46243000000001, 17.45174], [78.46764, 17.44956], [78.47455000000001, 17.448610000000002], [78.47691, 17.44534], [78.48012, 17.44405], [78.48240000000001, 17.44534], [78.4834, 17.44697], [78.49188000000001, 17.447180000000003], [78.49573000000001, 17.449080000000002], [78.49673, 17.448400000000003], [78.50279, 17.444180000000003], [78.5035, 17.442960000000003], [78.50105, 17.43176], [78.49316, 17.4299], [78.48119000000001, 17.430850000000003], [78.47874, 17.429840000000002], [78.47808, 17.432470000000002], [78.47589, 17.4341], [78.47247, 17.429750000000002], [78.47095, 17.429570000000002], [78.46990000000001, 17.43619], [78.4604, 17.44236], [78.45659, 17.446800000000003], [78.44937, 17.451520000000002], [78.44271, 17.457230000000003], [78.44455, 17.461380000000002], [78.44541000000001, 17.46198], [78.44881000000001, 17.46141], [78.45051000000001, 17.4635], [78.45224, 17.46198], [78.46243000000001, 17.45174]]]}}, {"id": "6", "type": "Feature", "properties": {"village_name": "Hyderabad", "vil_lgd": 251664, "district_name": "Hyderabad", "dist_lgd": 507, "subdistrict_name": "Amberpet", "sdcode": 4502, "block_name": "", "block_lgd": 0.0, "gp_name": "", "state_name": "TELANGANA", "state_lgd": 36, "population": 153558, "households": 36168}, "geometry": {"type": "Polygon", "coordinates": [[[78.52824000000001, 17.40136], [78.52892, 17.39386], [78.52757000000001, 17.389840000000003], [78.52900000000001, 17.37942], [78.53168000000001, 17.375410000000002], [78.5244, 17.37592], [78.51953, 17.378], [78.51667, 17.38061], [78.51536, 17.38115], [78.51394, 17.380390000000002], [78.51530000000001, 17.37037], [78.51479, 17.36776], [78.51342000000001, 17.365640000000003], [78.50795000000001, 17.36243], [78.50315, 17.36324], [78.50224, 17.367050000000003], [78.50121, 17.36722], [78.50104, 17.36999], [78.49985000000001, 17.3713], [78.49338, 17.3701], [78.49566, 17.37684], [78.49538000000001, 17.37922], [78.49295000000001, 17.38044], [78.49979, 17.382620000000003], [78.50293, 17.385240000000003], [78.50395, 17.387140000000002], [78.50338, 17.3903], [78.50783000000001, 17.398850000000003], [78.50897, 17.405810000000002], [78.51610000000001, 17.40641], [78.51861000000001, 17.40494], [78.52352, 17.404400000000003], [78.53163, 17.4019], [78.52824000000001, 17.40136]]]}}, {"id": "7", "type": "Feature", "properties": {"village_name": "Hyderabad", "vil_lgd": 251664, "district_name": "Hyderabad", "dist_lgd": 507, "subdistrict_name": "Nampally", "sdcode": 4504, "block_name": "", "block_lgd": 0.0, "gp_name": "", "state_name": "TELANGANA", "state_lgd": 36, "population": 189378, "households": 38324}, "geometry": {"type": "Polygon", "coordinates": [[[78.46564000000001, 17.36881], [78.46672000000001, 17.37435], [78.46651, 17.38184], [78.4638, 17.391160000000003], [78.46237, 17.39967], [78.47045, 17.40453], [78.47088000000001, 17.406100000000002], [78.47601, 17.40269], [78.48107, 17.396910000000002], [78.48628000000001, 17.393440000000002], [78.49295000000001, 17.38044], [78.46971, 17.370510000000003], [78.46564000000001, 17.36881]]]}}, {"id": "8", "type": "Feature", "properties": {"village_name": "Hyderabad", "vil_lgd": 251664, "district_name": "Hyderabad", "dist_lgd": 507, "subdistrict_name": "Himayatnagar", "sdcode": 4503, "block_name": "", "block_lgd": 0.0, "gp_name": "", "state_name": "TELANGANA", "state_lgd": 36, "population": 108062, "households": 24045}, "geometry": {"type": "Polygon", "coordinates": [[[78.50389000000001, 17.40521], [78.50897, 17.405810000000002], [78.50783000000001, 17.398850000000003], [78.50338, 17.3903], [78.50395, 17.387140000000002], [78.50293, 17.385240000000003], [78.49979, 17.382620000000003], [78.49295000000001, 17.38044], [78.48628000000001, 17.393440000000002], [78.48107, 17.396910000000002], [78.47601, 17.40269], [78.47088000000001, 17.406100000000002], [78.47123, 17.40793], [78.47915, 17.4161], [78.48008, 17.41861], [78.47979000000001, 17.422900000000002], [78.49683, 17.4193], [78.49940000000001, 17.41664], [78.50132, 17.40916], [78.50389000000001, 17.40521]]]}}, {"id": "9", "type": "Feature", "properties": {"village_name": "Hyderabad", "vil_lgd": 251664, "district_name": "Hyderabad", "dist_lgd": 507, "subdistrict_name": "Khairatabad", "sdcode": 4505, "block_name": "", "block_lgd": 0.0, "gp_name": "", "state_name": "TELANGANA", "state_lgd": 36, "population": 271385, "households": 64693}, "geometry": {"type": "Polygon", "coordinates": [[[78.43351000000001, 17.44778], [78.43615000000001, 17.44574], [78.44086, 17.44424], [78.44136, 17.443150000000003], [78.43658, 17.43757], [78.43644, 17.4354], [78.43950000000001, 17.433010000000003], [78.45084, 17.432470000000002], [78.45063, 17.43118], [78.45419000000001, 17.43308], [78.45555, 17.434440000000002], [78.45626, 17.438730000000003], [78.4604, 17.44236], [78.46990000000001, 17.43619], [78.47095, 17.429570000000002], [78.47247, 17.429750000000002], [78.47589, 17.4341], [78.47808, 17.432470000000002], [78.47874, 17.429840000000002], [78.47979000000001, 17.422900000000002], [78.48008, 17.41861], [78.47915, 17.4161], [78.47123, 17.40793], [78.47088000000001, 17.406100000000002], [78.47045, 17.40453], [78.46237, 17.39967], [78.46073000000001, 17.40293], [78.45838, 17.403950000000002], [78.44826, 17.405520000000003], [78.45127000000001, 17.416230000000002], [78.45091000000001, 17.419500000000003], [78.4482, 17.423650000000002], [78.44742000000001, 17.42678], [78.43437, 17.430590000000002], [78.41662000000001, 17.437730000000002], [78.40878000000001, 17.43906], [78.4089, 17.44151], [78.40488, 17.44468], [78.40402, 17.447840000000003], [78.39484, 17.448240000000002], [78.39418, 17.45456], [78.39574, 17.4507], [78.39827000000001, 17.450190000000003], [78.40784000000001, 17.45238], [78.41077, 17.45144], [78.42530000000001, 17.45738], [78.42920000000001, 17.45653], [78.43351000000001, 17.44778]], [[78.46066, 17.418110000000002], [78.46140000000001, 17.41958], [78.46403000000001, 17.42192], [78.46328000000001, 17.42464], [78.46231, 17.42611], [78.45821000000001, 17.42671], [78.45490000000001, 17.42518], [78.45393, 17.423720000000003], [78.45410000000001, 17.418930000000003], [78.45518000000001, 17.418490000000002], [78.46066, 17.418110000000002]]]}}, {"id": "10", "type": "Feature", "properties": {"village_name": "Hyderabad", "vil_lgd": 251664, "district_name": "Hyderabad", "dist_lgd": 507, "subdistrict_name": "Bahadurpura", "sdcode": 4508, "block_name": "", "block_lgd": 0.0, "gp_name": "", "state_name": "TELANGANA", "state_lgd": 36, "population": 468158, "households": 83740}, "geometry": {"type": "Polygon", "coordinates": [[[78.48803000000001, 17.35819], [78.48404000000001, 17.356830000000002], [78.48325000000001, 17.35547], [78.48361000000001, 17.35098], [78.48832, 17.34934], [78.48832, 17.34737], [78.48021, 17.338910000000002], [78.47962000000001, 17.34026], [78.47772, 17.34026], [78.47458, 17.33744], [78.47306, 17.32955], [78.47087, 17.32655], [78.46336000000001, 17.324650000000002], [78.46022, 17.32646], [78.45937, 17.328370000000003], [78.46003, 17.33681], [78.46526, 17.33944], [78.46764, 17.344520000000003], [78.46716, 17.34897], [78.46412000000001, 17.35142], [78.45937, 17.351960000000002], [78.45595, 17.3438], [78.45100000000001, 17.34225], [78.45024000000001, 17.3398], [78.44215000000001, 17.3334], [78.4385, 17.337200000000003], [78.43564, 17.337590000000002], [78.43188, 17.33943], [78.4252, 17.339380000000002], [78.42295, 17.341790000000003], [78.42321000000001, 17.34337], [78.42684000000001, 17.3442], [78.42912000000001, 17.345650000000003], [78.42591, 17.34859], [78.42720000000001, 17.35113], [78.42969000000001, 17.351570000000002], [78.43881, 17.346210000000003], [78.44208, 17.34794], [78.4419, 17.35142], [78.43658, 17.354770000000002], [78.43383, 17.358060000000002], [78.4384, 17.361320000000003], [78.44254000000001, 17.367240000000002], [78.44668, 17.36098], [78.4496, 17.35948], [78.45110000000001, 17.35976], [78.45887, 17.36561], [78.46564000000001, 17.36881], [78.46971, 17.370510000000003], [78.49295000000001, 17.38044], [78.49538000000001, 17.37922], [78.49566, 17.37684], [78.49338, 17.3701], [78.48803000000001, 17.35819]]]}}, {"id": "11", "type": "Feature", "properties": {"village_name": "Hyderabad", "vil_lgd": 251664, "district_name": "Hyderabad", "dist_lgd": 507, "subdistrict_name": "Charminar", "sdcode": 4510, "block_name": "", "block_lgd": 0.0, "gp_name": "", "state_name": "TELANGANA", "state_lgd": 36, "population": 237594, "households": 46053}, "geometry": {"type": "Polygon", "coordinates": [[[78.50104, 17.36999], [78.50121, 17.36722], [78.50224, 17.367050000000003], [78.50315, 17.36324], [78.50795000000001, 17.36243], [78.50926000000001, 17.35736], [78.50829, 17.35736], [78.50709, 17.35508], [78.51071, 17.34842], [78.50367, 17.34861], [78.50101000000001, 17.34797], [78.49778, 17.339350000000003], [78.49626, 17.33781], [78.49426000000001, 17.336080000000003], [78.48817000000001, 17.333720000000003], [78.48418000000001, 17.33109], [78.48314, 17.33154], [78.48021, 17.338910000000002], [78.48832, 17.34737], [78.48832, 17.34934], [78.48361000000001, 17.35098], [78.48325000000001, 17.35547], [78.48404000000001, 17.356830000000002], [78.48803000000001, 17.35819], [78.49338, 17.3701], [78.49985000000001, 17.3713], [78.50104, 17.36999]]]}}, {"id": "12", "type": "Feature", "properties": {"village_name": "Hyderabad", "vil_lgd": 251664, "district_name": "Hyderabad", "dist_lgd": 507, "subdistrict_name": "Golconda", "sdcode": 4507, "block_name": "", "block_lgd": 0.0, "gp_name": "", "state_name": "TELANGANA", "state_lgd": 36, "population": 213359, "households": 44155}, "geometry": {"type": "Polygon", "coordinates": [[[78.40761, 17.38483], [78.41474000000001, 17.3883], [78.42294000000001, 17.388370000000002], [78.42836000000001, 17.38973], [78.42772000000001, 17.38109], [78.42893000000001, 17.37844], [78.43471000000001, 17.379800000000003], [78.44163, 17.37932], [78.44419, 17.377760000000002], [78.44612000000001, 17.375310000000002], [78.44619, 17.374080000000003], [78.44105, 17.37115], [78.44091, 17.369590000000002], [78.44254000000001, 17.367240000000002], [78.4384, 17.361320000000003], [78.43383, 17.358060000000002], [78.43183, 17.35932], [78.42823000000001, 17.359080000000002], [78.4269, 17.36013], [78.42857000000001, 17.37271], [78.41468, 17.370710000000003], [78.41064, 17.37199], [78.40618, 17.3712], [78.40223, 17.37246], [78.39747000000001, 17.37036], [78.38804, 17.37088], [78.37943000000001, 17.37346], [78.3768, 17.37208], [78.37392000000001, 17.37273], [78.36789, 17.376140000000003], [78.36754, 17.377000000000002], [78.36788, 17.37874], [78.36916000000001, 17.37921], [78.37939, 17.3792], [78.38516000000001, 17.38305], [78.38944000000001, 17.38294], [78.39399, 17.38539], [78.39606, 17.38483], [78.40398, 17.39055], [78.40555, 17.38932], [78.40647000000001, 17.385650000000002], [78.40761, 17.38483]]]}}, {"id": "13", "type": "Feature", "properties": {"village_name": "Hyderabad", "vil_lgd": 251664, "district_name": "Hyderabad", "dist_lgd": 507, "subdistrict_name": "Asif Nagar", "sdcode": 4506, "block_name": "", "block_lgd": 0.0, "gp_name": "", "state_name": "TELANGANA", "state_lgd": 36, "population": 442229, "households": 92515}, "geometry": {"type": "Polygon", "coordinates": [[[78.46651, 17.38184], [78.46672000000001, 17.37435], [78.46564000000001, 17.36881], [78.45887, 17.36561], [78.45110000000001, 17.35976], [78.4496, 17.35948], [78.44668, 17.36098], [78.44254000000001, 17.367240000000002], [78.44091, 17.369590000000002], [78.44105, 17.37115], [78.44619, 17.374080000000003], [78.44612000000001, 17.375310000000002], [78.44419, 17.377760000000002], [78.44163, 17.37932], [78.43471000000001, 17.379800000000003], [78.42893000000001, 17.37844], [78.42772000000001, 17.38109], [78.42836000000001, 17.38973], [78.44341, 17.39096], [78.44633, 17.39797], [78.44826, 17.405520000000003], [78.45838, 17.403950000000002], [78.46073000000001, 17.40293], [78.46237, 17.39967], [78.4638, 17.391160000000003], [78.46651, 17.38184]]]}}, {"id": "14", "type": "Feature", "properties": {"village_name": "Hyderabad", "vil_lgd": 251664, "district_name": "Hyderabad", "dist_lgd": 507, "subdistrict_name": "Saidabad", "sdcode": 4511, "block_name": "", "block_lgd": 0.0, "gp_name": "", "state_name": "TELANGANA", "state_lgd": 36, "population": 345722, "households": 74462}, "geometry": {"type": "Polygon", "coordinates": [[[78.52223000000001, 17.37571], [78.51898000000001, 17.37378], [78.52052, 17.372590000000002], [78.52007, 17.368270000000003], [78.52539, 17.357960000000002], [78.53268000000001, 17.35451], [78.53263000000001, 17.35227], [78.53119000000001, 17.35142], [78.52847000000001, 17.352510000000002], [78.52613000000001, 17.35239], [78.52635000000001, 17.343300000000003], [78.52377000000001, 17.343120000000003], [78.52074, 17.343760000000003], [78.52033, 17.34476], [78.51852000000001, 17.344800000000003], [78.51736000000001, 17.347640000000002], [78.51786000000001, 17.35037], [78.51605, 17.350820000000002], [78.51274000000001, 17.35021], [78.51071, 17.34842], [78.50709, 17.35508], [78.50829, 17.35736], [78.50926000000001, 17.35736], [78.50795000000001, 17.36243], [78.51342000000001, 17.365640000000003], [78.51479, 17.36776], [78.51530000000001, 17.37037], [78.51394, 17.380390000000002], [78.51536, 17.38115], [78.51667, 17.38061], [78.51953, 17.378], [78.5244, 17.37592], [78.52223000000001, 17.37571]]]}}, {"id": "15", "type": "Feature", "properties": {"village_name": "Hyderabad", "vil_lgd": 251664, "district_name": "Hyderabad", "dist_lgd": 507, "subdistrict_name": "Musheerabad", "sdcode": 4501, "block_name": "", "block_lgd": 0.0, "gp_name": "", "state_name": "TELANGANA", "state_lgd": 36, "population": 341099, "households": 81019}, "geometry": {"type": "Polygon", "coordinates": [[[78.5083, 17.421560000000003], [78.50897, 17.405810000000002], [78.50389000000001, 17.40521], [78.50132, 17.40916], [78.49940000000001, 17.41664], [78.49683, 17.4193], [78.47979000000001, 17.422900000000002], [78.47874, 17.429840000000002], [78.48119000000001, 17.430850000000003], [78.49316, 17.4299], [78.50105, 17.43176], [78.5083, 17.421560000000003]]]}}, {"id": "16", "type": "Feature", "properties": {"village_name": "Osmania University CT", "vil_lgd": 573968, "district_name": "Hyderabad", "dist_lgd": 507, "subdistrict_name": "Musheerabad", "sdcode": 4501, "block_name": "", "block_lgd": null, "gp_name": "", "state_name": "TELANGANA", "state_lgd": 36, "population": 6762, "households": 627}, "geometry": {"type": "Polygon", "coordinates": [[[78.52639, 17.43051], [78.52896000000001, 17.429560000000002], [78.5301, 17.426160000000003], [78.53224, 17.42362], [78.52797000000001, 17.41878], [78.52806000000001, 17.41796], [78.53216, 17.416050000000002], [78.5361, 17.403840000000002], [78.53163, 17.4019], [78.52352, 17.404400000000003], [78.51861000000001, 17.40494], [78.51610000000001, 17.40641], [78.50897, 17.405810000000002], [78.5083, 17.421560000000003], [78.50105, 17.43176], [78.50564, 17.432550000000003], [78.51448, 17.430580000000003], [78.52639, 17.43051]]]}}]}